{"type":"FeatureCollection","features":[{"type":"Feature","properties":{"partida":"357000960","cca":"357000100000000000000023900A0000000000100E","tipo":"Urbano","sup_m2":3635.4},"geometry":{"type":"Polygon","coordinates":[[[-58.666408,-34.312733],[-58.666499,-34.31299],[-58.667707,-34.312567],[-58.66759,-34.312303],[-58.666408,-34.312733]]]}},{"type":"Feature","properties":{"partida":"357000961","cca":"357000100000000000000023900A0000000000100F","tipo":"Urbano","sup_m2":2787.4},"geometry":{"type":"Polygon","coordinates":[[[-58.666499,-34.31299],[-58.66657,-34.313191],[-58.667775,-34.31277],[-58.667707,-34.312567],[-58.666499,-34.31299]]]}},{"type":"Feature","properties":{"partida":"357000962","cca":"357000100000000000000023900A0000000000100G","tipo":"Urbano","sup_m2":2701.0},"geometry":{"type":"Polygon","coordinates":[[[-58.667831,-34.312986],[-58.667816,-34.312856],[-58.667775,-34.31277],[-58.66657,-34.313191],[-58.666634,-34.313371],[-58.667831,-34.312986]]]}},{"type":"Feature","properties":{"partida":"357000963","cca":"357000100000000000000023900A0000000000100H","tipo":"Urbano","sup_m2":2559.0},"geometry":{"type":"Polygon","coordinates":[[[-58.666634,-34.313371],[-58.666709,-34.313581],[-58.667874,-34.31316],[-58.667831,-34.312986],[-58.666634,-34.313371]]]}},{"type":"Feature","properties":{"partida":"357000964","cca":"357000100000000000000023900A0000000000100J","tipo":"Urbano","sup_m2":2537.0},"geometry":{"type":"Polygon","coordinates":[[[-58.666777,-34.313775],[-58.667884,-34.313375],[-58.667874,-34.31316],[-58.666709,-34.313581],[-58.666777,-34.313775]]]}},{"type":"Feature","properties":{"partida":"357000965","cca":"357000100000000000000023900A0000000000100K","tipo":"Urbano","sup_m2":2328.3},"geometry":{"type":"Polygon","coordinates":[[[-58.667954,-34.313571],[-58.667907,-34.313501],[-58.667884,-34.313375],[-58.666777,-34.313775],[-58.666839,-34.313948],[-58.667954,-34.313571]]]}},{"type":"Feature","properties":{"partida":"357000967","cca":"357000100000000000000023900A0000000000100N","tipo":"Urbano","sup_m2":2140.9},"geometry":{"type":"Polygon","coordinates":[[[-58.66805,-34.313944],[-58.668027,-34.31388],[-58.668019,-34.313751],[-58.666899,-34.314118],[-58.666956,-34.314278],[-58.66805,-34.313944]]]}},{"type":"Feature","properties":{"partida":"357000968","cca":"357000100000000000000023900A0000000000100P","tipo":"Urbano","sup_m2":2453.8},"geometry":{"type":"Polygon","coordinates":[[[-58.66805,-34.313944],[-58.666956,-34.314278],[-58.667015,-34.314444],[-58.668179,-34.314135],[-58.668144,-34.313952],[-58.66805,-34.313944]]]}},{"type":"Feature","properties":{"partida":"357000969","cca":"357000100000000000000023900A0000000000100Q","tipo":"Urbano","sup_m2":2470.2},"geometry":{"type":"Polygon","coordinates":[[[-58.667076,-34.314616],[-58.668242,-34.314347],[-58.668179,-34.314135],[-58.667015,-34.314444],[-58.667076,-34.314616]]]}},{"type":"Feature","properties":{"partida":"357000970","cca":"357000100000000000000023900A0000000000100R","tipo":"Urbano","sup_m2":2587.3},"geometry":{"type":"Polygon","coordinates":[[[-58.668242,-34.314347],[-58.667076,-34.314616],[-58.66714,-34.314796],[-58.668334,-34.314545],[-58.668376,-34.314419],[-58.668242,-34.314347]]]}},{"type":"Feature","properties":{"partida":"357000971","cca":"357000100000000000000023900A0000000000100S","tipo":"Rural","sup_m2":2343.7},"geometry":{"type":"Polygon","coordinates":[[[-58.668381,-34.314746],[-58.668407,-34.314633],[-58.668334,-34.314545],[-58.66714,-34.314796],[-58.667195,-34.314952],[-58.668381,-34.314746]]]}},{"type":"Feature","properties":{"partida":"357000966","cca":"357000100000000000000023900A0000000000100T","tipo":"Urbano","sup_m2":2237.0},"geometry":{"type":"Polygon","coordinates":[[[-58.666839,-34.313948],[-58.666899,-34.314118],[-58.668019,-34.313751],[-58.667954,-34.313571],[-58.666839,-34.313948]]]}},{"type":"Feature","properties":{"partida":"357000976","cca":"357000100000000000000024000A0000000000400B","tipo":"Rural","sup_m2":24057.5},"geometry":{"type":"Polygon","coordinates":[[[-58.669218,-34.316715],[-58.666675,-34.317169],[-58.666744,-34.317516],[-58.667298,-34.318166],[-58.66796,-34.317864],[-58.66831,-34.317791],[-58.66875,-34.317719],[-58.668879,-34.317703],[-58.669013,-34.317698],[-58.669123,-34.317711],[-58.669188,-34.317734],[-58.669243,-34.317702],[-58.669299,-34.31766],[-58.669353,-34.317511],[-58.669374,-34.317413],[-58.669314,-34.31705],[-58.669218,-34.316715]]]}},{"type":"Feature","properties":{"partida":"357000979","cca":"357000100000000000000024600A00000000001000","tipo":"Rural","sup_m2":48751.7},"geometry":{"type":"Polygon","coordinates":[[[-58.669028,-34.317726],[-58.668924,-34.317743],[-58.66874,-34.317741],[-58.668547,-34.317775],[-58.668128,-34.317881],[-58.667924,-34.317919],[-58.667857,-34.317951],[-58.667785,-34.318013],[-58.667573,-34.318087],[-58.6672,-34.318309],[-58.667069,-34.318437],[-58.666725,-34.31875],[-58.666505,-34.319262],[-58.666475,-34.319338],[-58.666445,-34.319392],[-58.666411,-34.319645],[-58.666424,-34.319713],[-58.666446,-34.319779],[-58.666501,-34.319864],[-58.666551,-34.319909],[-58.666689,-34.319895],[-58.669919,-34.319169],[-58.669856,-34.319118],[-58.669696,-34.318934],[-58.669738,-34.318797],[-58.669657,-34.318629],[-58.669706,-34.318562],[-58.669747,-34.318475],[-58.669697,-34.318415],[-58.669595,-34.318389],[-58.669536,-34.318346],[-58.669546,-34.318264],[-58.669604,-34.318223],[-58.669617,-34.318115],[-58.669423,-34.318104],[-58.669415,-34.317936],[-58.669227,-34.31782],[-58.669171,-34.317757],[-58.669028,-34.317726]]]}},{"type":"Feature","properties":{"partida":"357000980","cca":"357000100000000000000024600A0000000000200A","tipo":"Urbano","sup_m2":476.2},"geometry":{"type":"Polygon","coordinates":[[[-58.669932,-34.319371],[-58.669899,-34.319234],[-58.669567,-34.319312],[-58.669611,-34.319442],[-58.669932,-34.319371]]]}},{"type":"Feature","properties":{"partida":"357000982","cca":"357000100000000000000024600A0000000000200B","tipo":"Rural","sup_m2":47834.2},"geometry":{"type":"Polygon","coordinates":[[[-58.670103,-34.319825],[-58.669767,-34.3199],[-58.669567,-34.319312],[-58.668677,-34.319504],[-58.668265,-34.3196],[-58.668102,-34.319628],[-58.667878,-34.319672],[-58.667583,-34.319744],[-58.667115,-34.319844],[-58.666886,-34.319897],[-58.666712,-34.319941],[-58.66664,-34.319995],[-58.666629,-34.320076],[-58.666743,-34.32017],[-58.666781,-34.320206],[-58.666807,-34.320243],[-58.666845,-34.320308],[-58.6669,-34.320375],[-58.666991,-34.320469],[-58.667038,-34.320564],[-58.667079,-34.320617],[-58.667114,-34.320674],[-58.667253,-34.320978],[-58.667313,-34.321039],[-58.667348,-34.321102],[-58.667414,-34.321256],[-58.667452,-34.321317],[-58.667488,-34.321364],[-58.670402,-34.32072],[-58.670392,-34.32055],[-58.670333,-34.32052],[-58.670237,-34.320485],[-58.670119,-34.32029],[-58.670181,-34.320252],[-58.670212,-34.320198],[-58.670234,-34.320147],[-58.670213,-34.320084],[-58.670082,-34.319984],[-58.670087,-34.319897],[-58.670103,-34.319825]]]}},{"type":"Feature","properties":{"partida":"357000978","cca":"357000100000000000000024600A0000000000200C","tipo":"Urbano","sup_m2":558.3},"geometry":{"type":"Polygon","coordinates":[[[-58.669664,-34.319597],[-58.670001,-34.319522],[-58.669932,-34.319371],[-58.669611,-34.319442],[-58.669664,-34.319597]]]}},{"type":"Feature","properties":{"partida":"357000981","cca":"357000100000000000000024600A0000000000200D","tipo":"Urbano","sup_m2":572.6},"geometry":{"type":"Polygon","coordinates":[[[-58.669664,-34.319597],[-58.669715,-34.319748],[-58.670075,-34.319665],[-58.670001,-34.319522],[-58.669664,-34.319597]]]}},{"type":"Feature","properties":{"partida":null,"cca":"357000100000000000000024600A0000000000200H","tipo":null,"sup_m2":611.2},"geometry":{"type":"Polygon","coordinates":[[[-58.670103,-34.319825],[-58.670118,-34.319743],[-58.670075,-34.319665],[-58.669715,-34.319748],[-58.669767,-34.3199],[-58.670103,-34.319825]]]}},{"type":"Feature","properties":{"partida":"357000984","cca":"357000100000000000000024600A00000000003000","tipo":"Urbano","sup_m2":618.5},"geometry":{"type":"Polygon","coordinates":[[[-58.670963,-34.323277],[-58.671017,-34.323452],[-58.671417,-34.323384],[-58.671199,-34.323228],[-58.670963,-34.323277]]]}},{"type":"Feature","properties":{"partida":"357000985","cca":"357000100000000000000024600A00000000004000","tipo":"Urbano","sup_m2":473.0},"geometry":{"type":"Polygon","coordinates":[[[-58.670909,-34.323104],[-58.670963,-34.323277],[-58.671199,-34.323228],[-58.671182,-34.323051],[-58.670909,-34.323104]]]}},{"type":"Feature","properties":{"partida":"357000986","cca":"357000100000000000000024600A00000000005000","tipo":"Urbano","sup_m2":498.0},"geometry":{"type":"Polygon","coordinates":[[[-58.670909,-34.323104],[-58.671182,-34.323051],[-58.671107,-34.322878],[-58.670856,-34.32293],[-58.670909,-34.323104]]]}},{"type":"Feature","properties":{"partida":"357000987","cca":"357000100000000000000024600A00000000006000","tipo":"Urbano","sup_m2":515.6},"geometry":{"type":"Polygon","coordinates":[[[-58.670856,-34.32293],[-58.671107,-34.322878],[-58.671095,-34.322695],[-58.670802,-34.322756],[-58.670856,-34.32293]]]}},{"type":"Feature","properties":{"partida":"357000988","cca":"357000100000000000000024600A00000000007000","tipo":"Urbano","sup_m2":490.0},"geometry":{"type":"Polygon","coordinates":[[[-58.670747,-34.32258],[-58.670802,-34.322756],[-58.671095,-34.322695],[-58.670965,-34.322534],[-58.670747,-34.32258]]]}},{"type":"Feature","properties":{"partida":"357000989","cca":"357000100000000000000024600A00000000008000","tipo":"Urbano","sup_m2":447.2},"geometry":{"type":"Polygon","coordinates":[[[-58.670965,-34.322534],[-58.670957,-34.322353],[-58.670694,-34.322409],[-58.670747,-34.32258],[-58.670965,-34.322534]]]}},{"type":"Feature","properties":{"partida":"357000990","cca":"357000100000000000000024600A00000000009000","tipo":"Urbano","sup_m2":449.0},"geometry":{"type":"Polygon","coordinates":[[[-58.670777,-34.322253],[-58.670837,-34.322242],[-58.670881,-34.322153],[-58.670926,-34.322136],[-58.670942,-34.322103],[-58.670935,-34.322032],[-58.670862,-34.322006],[-58.670646,-34.32205],[-58.670777,-34.322253]]]}},{"type":"Feature","properties":{"partida":"357000991","cca":"357000100000000000000024600A00000000010000","tipo":"Urbano","sup_m2":452.4},"geometry":{"type":"Polygon","coordinates":[[[-58.670646,-34.32205],[-58.670862,-34.322006],[-58.670777,-34.321829],[-58.670536,-34.321879],[-58.670646,-34.32205]]]}},{"type":"Feature","properties":{"partida":"357000992","cca":"357000100000000000000024600A00000000011000","tipo":"Urbano","sup_m2":458.7},"geometry":{"type":"Polygon","coordinates":[[[-58.670734,-34.321671],[-58.670442,-34.321733],[-58.670536,-34.321879],[-58.670777,-34.321829],[-58.670776,-34.321794],[-58.670734,-34.321671]]]}},{"type":"Feature","properties":{"partida":"357000993","cca":"357000100000000000000024600A00000000012000","tipo":"Urbano","sup_m2":611.5},"geometry":{"type":"Polygon","coordinates":[[[-58.670343,-34.321578],[-58.670442,-34.321733],[-58.670734,-34.321671],[-58.670728,-34.321495],[-58.670343,-34.321578]]]}},{"type":"Feature","properties":{"partida":"357000994","cca":"357000100000000000000024600A00000000013000","tipo":"Urbano","sup_m2":573.3},"geometry":{"type":"Polygon","coordinates":[[[-58.670591,-34.321344],[-58.670238,-34.321415],[-58.670343,-34.321578],[-58.670728,-34.321495],[-58.670687,-34.321469],[-58.670604,-34.321476],[-58.670547,-34.321455],[-58.670536,-34.321408],[-58.67058,-34.321388],[-58.670591,-34.321344]]]}},{"type":"Feature","properties":{"partida":"357000995","cca":"357000100000000000000024600A00000000014000","tipo":"Urbano","sup_m2":725.1},"geometry":{"type":"Polygon","coordinates":[[[-58.670591,-34.321344],[-58.670652,-34.321242],[-58.670634,-34.321175],[-58.670145,-34.321271],[-58.670238,-34.321415],[-58.670591,-34.321344]]]}},{"type":"Feature","properties":{"partida":"357000996","cca":"357000100000000000000024600A00000000015000","tipo":"Urbano","sup_m2":816.4},"geometry":{"type":"Polygon","coordinates":[[[-58.670052,-34.321126],[-58.670145,-34.321271],[-58.670634,-34.321175],[-58.670515,-34.321028],[-58.670052,-34.321126]]]}},{"type":"Feature","properties":{"partida":"357000997","cca":"357000100000000000000024600A0000000001600A","tipo":"Urbano","sup_m2":1694.9},"geometry":{"type":"Polygon","coordinates":[[[-58.669867,-34.320839],[-58.670052,-34.321126],[-58.670515,-34.321028],[-58.670503,-34.320936],[-58.670464,-34.320875],[-58.670418,-34.320782],[-58.670402,-34.32072],[-58.669867,-34.320839]]]}},{"type":"Feature","properties":{"partida":"357001007","cca":"357000100000000000000024600A00000000018000","tipo":"Urbano","sup_m2":1802.5},"geometry":{"type":"Polygon","coordinates":[[[-58.668854,-34.321213],[-58.669959,-34.320981],[-58.669867,-34.320839],[-58.668708,-34.321095],[-58.668854,-34.321213]]]}},{"type":"Feature","properties":{"partida":"357001006","cca":"357000100000000000000024600A00000000019000","tipo":"Urbano","sup_m2":1794.2},"geometry":{"type":"Polygon","coordinates":[[[-58.670052,-34.321126],[-58.669959,-34.320981],[-58.668854,-34.321213],[-58.669014,-34.321344],[-58.670052,-34.321126]]]}},{"type":"Feature","properties":{"partida":"357001005","cca":"357000100000000000000024600A00000000020000","tipo":"Urbano","sup_m2":1683.2},"geometry":{"type":"Polygon","coordinates":[[[-58.670145,-34.321271],[-58.670052,-34.321126],[-58.669014,-34.321344],[-58.669173,-34.321473],[-58.670145,-34.321271]]]}},{"type":"Feature","properties":{"partida":"357001004","cca":"357000100000000000000024600A00000000021000","tipo":"Urbano","sup_m2":1568.1},"geometry":{"type":"Polygon","coordinates":[[[-58.670238,-34.321415],[-58.670145,-34.321271],[-58.669173,-34.321473],[-58.669333,-34.321604],[-58.670238,-34.321415]]]}},{"type":"Feature","properties":{"partida":"357001003","cca":"357000100000000000000024600A00000000022000","tipo":"Urbano","sup_m2":1631.1},"geometry":{"type":"Polygon","coordinates":[[[-58.670238,-34.321415],[-58.669333,-34.321604],[-58.669513,-34.32175],[-58.670343,-34.321578],[-58.670238,-34.321415]]]}},{"type":"Feature","properties":{"partida":"357001002","cca":"357000100000000000000024600A00000000023000","tipo":"Urbano","sup_m2":1410.7},"geometry":{"type":"Polygon","coordinates":[[[-58.669681,-34.321888],[-58.670442,-34.321733],[-58.670343,-34.321578],[-58.669513,-34.32175],[-58.669681,-34.321888]]]}},{"type":"Feature","properties":{"partida":"357001001","cca":"357000100000000000000024600A00000000024000","tipo":"Urbano","sup_m2":1232.3},"geometry":{"type":"Polygon","coordinates":[[[-58.670536,-34.321879],[-58.670442,-34.321733],[-58.669681,-34.321888],[-58.669845,-34.322021],[-58.670536,-34.321879]]]}},{"type":"Feature","properties":{"partida":"357001000","cca":"357000100000000000000024600A00000000025000","tipo":"Urbano","sup_m2":1289.7},"geometry":{"type":"Polygon","coordinates":[[[-58.670035,-34.322176],[-58.670646,-34.32205],[-58.670536,-34.321879],[-58.669845,-34.322021],[-58.670035,-34.322176]]]}},{"type":"Feature","properties":{"partida":"357000999","cca":"357000100000000000000024600A00000000026000","tipo":"Urbano","sup_m2":1317.3},"geometry":{"type":"Polygon","coordinates":[[[-58.670777,-34.322253],[-58.670646,-34.32205],[-58.670035,-34.322176],[-58.670258,-34.322357],[-58.670777,-34.322253]]]}},{"type":"Feature","properties":{"partida":"357001008","cca":"357000100000000000000024600A00000000027000","tipo":"Urbano","sup_m2":1772.2},"geometry":{"type":"Polygon","coordinates":[[[-58.667488,-34.321364],[-58.667557,-34.321439],[-58.667627,-34.3215],[-58.667678,-34.32148],[-58.668689,-34.321273],[-58.668521,-34.321136],[-58.667488,-34.321364]]]}},{"type":"Feature","properties":{"partida":"357001009","cca":"357000100000000000000024600A00000000028000","tipo":"Urbano","sup_m2":1795.4},"geometry":{"type":"Polygon","coordinates":[[[-58.668689,-34.321273],[-58.667678,-34.32148],[-58.667627,-34.3215],[-58.66773,-34.321636],[-58.667789,-34.321618],[-58.668847,-34.321401],[-58.668689,-34.321273]]]}},{"type":"Feature","properties":{"partida":"357001010","cca":"357000100000000000000024600A00000000029000","tipo":"Urbano","sup_m2":1976.6},"geometry":{"type":"Polygon","coordinates":[[[-58.66773,-34.321636],[-58.667787,-34.32172],[-58.667862,-34.321783],[-58.667907,-34.321765],[-58.66901,-34.321533],[-58.668847,-34.321401],[-58.667789,-34.321618],[-58.66773,-34.321636]]]}},{"type":"Feature","properties":{"partida":"357001011","cca":"357000100000000000000024600A00000000030000","tipo":"Urbano","sup_m2":1912.4},"geometry":{"type":"Polygon","coordinates":[[[-58.66901,-34.321533],[-58.667907,-34.321765],[-58.667862,-34.321783],[-58.66801,-34.32191],[-58.66808,-34.321888],[-58.669169,-34.321663],[-58.66901,-34.321533]]]}},{"type":"Feature","properties":{"partida":"357001012","cca":"357000100000000000000024600A00000000031000","tipo":"Urbano","sup_m2":1988.1},"geometry":{"type":"Polygon","coordinates":[[[-58.66801,-34.32191],[-58.668104,-34.321981],[-58.668205,-34.322037],[-58.668265,-34.32202],[-58.669333,-34.321796],[-58.669169,-34.321663],[-58.66808,-34.321888],[-58.66801,-34.32191]]]}},{"type":"Feature","properties":{"partida":"357001013","cca":"357000100000000000000024600A00000000032000","tipo":"Urbano","sup_m2":1934.6},"geometry":{"type":"Polygon","coordinates":[[[-58.669333,-34.321796],[-58.668265,-34.32202],[-58.668205,-34.322037],[-58.668383,-34.32217],[-58.668448,-34.32215],[-58.669496,-34.32193],[-58.669333,-34.321796]]]}},{"type":"Feature","properties":{"partida":"357001014","cca":"357000100000000000000024600A00000000033000","tipo":"Urbano","sup_m2":1809.7},"geometry":{"type":"Polygon","coordinates":[[[-58.669496,-34.32193],[-58.668448,-34.32215],[-58.668383,-34.32217],[-58.668586,-34.322295],[-58.668629,-34.322279],[-58.669646,-34.322052],[-58.669496,-34.32193]]]}},{"type":"Feature","properties":{"partida":"357001015","cca":"357000100000000000000024600A00000000034000","tipo":"Urbano","sup_m2":1754.2},"geometry":{"type":"Polygon","coordinates":[[[-58.669646,-34.322052],[-58.668629,-34.322279],[-58.668586,-34.322295],[-58.668764,-34.322412],[-58.668868,-34.322382],[-58.669811,-34.322186],[-58.669646,-34.322052]]]}},{"type":"Feature","properties":{"partida":"357001016","cca":"357000100000000000000024600A00000000035000","tipo":"Urbano","sup_m2":1684.4},"geometry":{"type":"Polygon","coordinates":[[[-58.669811,-34.322186],[-58.668868,-34.322382],[-58.668764,-34.322412],[-58.669051,-34.322518],[-58.669131,-34.322496],[-58.669969,-34.322314],[-58.669811,-34.322186]]]}},{"type":"Feature","properties":{"partida":"357001017","cca":"357000100000000000000024600A00000000036000","tipo":"Urbano","sup_m2":1538.4},"geometry":{"type":"Polygon","coordinates":[[[-58.669051,-34.322518],[-58.669276,-34.322595],[-58.669339,-34.32263],[-58.669395,-34.32261],[-58.670144,-34.322457],[-58.669969,-34.322314],[-58.669131,-34.322496],[-58.669051,-34.322518]]]}},{"type":"Feature","properties":{"partida":"357001018","cca":"357000100000000000000024600A00000000037000","tipo":"Urbano","sup_m2":2983.7},"geometry":{"type":"Polygon","coordinates":[[[-58.669339,-34.32263],[-58.669391,-34.322666],[-58.669443,-34.322759],[-58.669527,-34.322841],[-58.669564,-34.322904],[-58.669617,-34.322977],[-58.669667,-34.323024],[-58.669705,-34.323043],[-58.669809,-34.323078],[-58.669963,-34.323115],[-58.670121,-34.323169],[-58.669942,-34.322566],[-58.670212,-34.322509],[-58.670144,-34.322457],[-58.669395,-34.32261],[-58.669339,-34.32263]]]}},{"type":"Feature","properties":{"partida":"357001019","cca":"357000100000000000000024600A00000000038000","tipo":"Urbano","sup_m2":1396.4},"geometry":{"type":"Polygon","coordinates":[[[-58.670121,-34.323169],[-58.670234,-34.32322],[-58.670346,-34.323241],[-58.670333,-34.323184],[-58.670134,-34.322525],[-58.669942,-34.322566],[-58.670121,-34.323169]]]}},{"type":"Feature","properties":{"partida":"357001020","cca":"357000100000000000000024600A00000000039000","tipo":"Urbano","sup_m2":1515.7},"geometry":{"type":"Polygon","coordinates":[[[-58.670564,-34.323284],[-58.670318,-34.322487],[-58.670134,-34.322525],[-58.670333,-34.323184],[-58.670346,-34.323241],[-58.670472,-34.323255],[-58.670564,-34.323284]]]}},{"type":"Feature","properties":{"partida":"357001021","cca":"357000100000000000000024600A00000000040000","tipo":"Urbano","sup_m2":1812.7},"geometry":{"type":"Polygon","coordinates":[[[-58.670564,-34.323284],[-58.670656,-34.323314],[-58.670783,-34.32336],[-58.670778,-34.323316],[-58.670515,-34.322446],[-58.670318,-34.322487],[-58.670564,-34.323284]]]}},{"type":"Feature","properties":{"partida":"357001022","cca":"357000100000000000000024600A00000000041000","tipo":"Urbano","sup_m2":1937.6},"geometry":{"type":"Polygon","coordinates":[[[-58.670515,-34.322446],[-58.670778,-34.323316],[-58.670783,-34.32336],[-58.670823,-34.323362],[-58.670878,-34.32338],[-58.670939,-34.323421],[-58.670974,-34.323459],[-58.671017,-34.323452],[-58.670694,-34.322409],[-58.670515,-34.322446]]]}},{"type":"Feature","properties":{"partida":"357001023","cca":"357000100000000000000024600A00000000042000","tipo":"Urbano","sup_m2":1257.5},"geometry":{"type":"Polygon","coordinates":[[[-58.670606,-34.323882],[-58.671065,-34.323768],[-58.67117,-34.323734],[-58.67112,-34.323678],[-58.670952,-34.323633],[-58.670747,-34.323469],[-58.670655,-34.323463],[-58.670606,-34.323882]]]}},{"type":"Feature","properties":{"partida":"357001024","cca":"357000100000000000000024600A00000000043000","tipo":"Urbano","sup_m2":994.7},"geometry":{"type":"Polygon","coordinates":[[[-58.670451,-34.323417],[-58.670387,-34.323936],[-58.670606,-34.323882],[-58.670655,-34.323463],[-58.670553,-34.323457],[-58.670451,-34.323417]]]}},{"type":"Feature","properties":{"partida":"357001025","cca":"357000100000000000000024600A00000000044000","tipo":"Urbano","sup_m2":1292.1},"geometry":{"type":"Polygon","coordinates":[[[-58.670387,-34.323936],[-58.670451,-34.323417],[-58.670245,-34.323337],[-58.670164,-34.323991],[-58.670387,-34.323936]]]}},{"type":"Feature","properties":{"partida":"357001026","cca":"357000100000000000000024600A00000000045000","tipo":"Urbano","sup_m2":1446.6},"geometry":{"type":"Polygon","coordinates":[[[-58.670057,-34.323264],[-58.66996,-34.324042],[-58.670164,-34.323991],[-58.670245,-34.323337],[-58.670057,-34.323264]]]}},{"type":"Feature","properties":{"partida":"357001027","cca":"357000100000000000000024600A00000000046000","tipo":"Urbano","sup_m2":1304.6},"geometry":{"type":"Polygon","coordinates":[[[-58.669746,-34.323748],[-58.670003,-34.323697],[-58.670057,-34.323264],[-58.669813,-34.323169],[-58.669746,-34.323748]]]}},{"type":"Feature","properties":{"partida":"357001028","cca":"357000100000000000000024600A00000000047000","tipo":"Urbano","sup_m2":1389.4},"geometry":{"type":"Polygon","coordinates":[[[-58.669525,-34.323791],[-58.669746,-34.323748],[-58.669813,-34.323169],[-58.669612,-34.323091],[-58.669525,-34.323791]]]}},{"type":"Feature","properties":{"partida":"357001029","cca":"357000100000000000000024600A00000000048000","tipo":"Urbano","sup_m2":2055.5},"geometry":{"type":"Polygon","coordinates":[[[-58.669612,-34.323091],[-58.669327,-34.323088],[-58.669286,-34.323556],[-58.669239,-34.323845],[-58.669525,-34.323791],[-58.669612,-34.323091]]]}},{"type":"Feature","properties":{"partida":"357001030","cca":"357000100000000000000024600A00000000049000","tipo":"Urbano","sup_m2":1322.7},"geometry":{"type":"Polygon","coordinates":[[[-58.670003,-34.323697],[-58.669239,-34.323845],[-58.669208,-34.324039],[-58.669984,-34.323853],[-58.670003,-34.323697]]]}},{"type":"Feature","properties":{"partida":null,"cca":"357000100000000000000024600A00000000050000","tipo":null,"sup_m2":1484.9},"geometry":{"type":"Polygon","coordinates":[[[-58.66996,-34.324042],[-58.669984,-34.323853],[-58.669208,-34.324039],[-58.669177,-34.324231],[-58.66933,-34.324199],[-58.66996,-34.324042]]]}},{"type":"Feature","properties":{"partida":"357001032","cca":"357000100000000000000024600A00000000051000","tipo":"Urbano","sup_m2":464.1},"geometry":{"type":"Polygon","coordinates":[[[-58.671302,-34.323582],[-58.671136,-34.323613],[-58.671156,-34.32364],[-58.671244,-34.323689],[-58.671257,-34.323713],[-58.671318,-34.323751],[-58.671382,-34.323796],[-58.671458,-34.323808],[-58.671499,-34.323845],[-58.67153,-34.32379],[-58.671542,-34.323742],[-58.671302,-34.323582]]]}},{"type":"Feature","properties":{"partida":"357001033","cca":"357000100000000000000024600A00000000052000","tipo":"Urbano","sup_m2":564.7},"geometry":{"type":"Polygon","coordinates":[[[-58.671417,-34.323384],[-58.671001,-34.323455],[-58.670974,-34.323459],[-58.671041,-34.32352],[-58.671091,-34.323579],[-58.671136,-34.323613],[-58.671194,-34.323604],[-58.671302,-34.323582],[-58.671417,-34.323384]]]}},{"type":"Feature","properties":{"partida":"357001034","cca":"357000100000000000000024900A00000000004000","tipo":"Urbano","sup_m2":10563.9},"geometry":{"type":"Polygon","coordinates":[[[-58.671065,-34.323768],[-58.66933,-34.324199],[-58.669177,-34.324231],[-58.669211,-34.324633],[-58.670756,-34.324326],[-58.67162,-34.324161],[-58.671558,-34.323906],[-58.671459,-34.32392],[-58.671409,-34.323922],[-58.671314,-34.323899],[-58.67117,-34.323734],[-58.671065,-34.323768]]]}},{"type":"Feature","properties":{"partida":"357001035","cca":"357000100000000000000024900A00000000005000","tipo":"Urbano","sup_m2":2843.7},"geometry":{"type":"Polygon","coordinates":[[[-58.670756,-34.324326],[-58.670906,-34.32467],[-58.671708,-34.324428],[-58.67162,-34.324161],[-58.670756,-34.324326]]]}},{"type":"Feature","properties":{"partida":"357001036","cca":"357000100000000000000024900A00000000006000","tipo":"Urbano","sup_m2":5089.9},"geometry":{"type":"Polygon","coordinates":[[[-58.671172,-34.32459],[-58.670906,-34.32467],[-58.670756,-34.324326],[-58.669211,-34.324633],[-58.669225,-34.324799],[-58.671225,-34.324707],[-58.671172,-34.32459]]]}},{"type":"Feature","properties":{"partida":"357001037","cca":"357000100000000000000024900A0000000000700A","tipo":"Urbano","sup_m2":968.4},"geometry":{"type":"Polygon","coordinates":[[[-58.671728,-34.324612],[-58.671689,-34.324523],[-58.671708,-34.324428],[-58.671172,-34.32459],[-58.67125,-34.324761],[-58.671728,-34.324612]]]}},{"type":"Feature","properties":{"partida":"357001038","cca":"357000100000000000000024900A0000000000700B","tipo":"Urbano","sup_m2":983.3},"geometry":{"type":"Polygon","coordinates":[[[-58.671327,-34.324932],[-58.671838,-34.324772],[-58.671728,-34.324612],[-58.67125,-34.324761],[-58.671327,-34.324932]]]}},{"type":"Feature","properties":{"partida":"357001039","cca":"357000100000000000000024900A0000000000800A","tipo":"Urbano","sup_m2":4953.9},"geometry":{"type":"Polygon","coordinates":[[[-58.671225,-34.324707],[-58.669225,-34.324799],[-58.669238,-34.324956],[-58.671021,-34.325023],[-58.671327,-34.324932],[-58.671225,-34.324707]]]}},{"type":"Feature","properties":{"partida":"357001040","cca":"357000100000000000000024900A0000000000900A","tipo":"Urbano","sup_m2":1585.9},"geometry":{"type":"Polygon","coordinates":[[[-58.671097,-34.325196],[-58.671853,-34.324969],[-58.671838,-34.324772],[-58.671327,-34.324932],[-58.671021,-34.325023],[-58.671097,-34.325196]]]}},{"type":"Feature","properties":{"partida":"357001041","cca":"357000100000000000000024900A0000000001000A","tipo":"Urbano","sup_m2":1538.5},"geometry":{"type":"Polygon","coordinates":[[[-58.671171,-34.325364],[-58.671984,-34.325123],[-58.671853,-34.324969],[-58.671097,-34.325196],[-58.671171,-34.325364]]]}},{"type":"Feature","properties":{"partida":"357002724","cca":"357000100000000000000030200000000000020000","tipo":"Rural","sup_m2":55426.7},"geometry":{"type":"Polygon","coordinates":[[[-58.668324,-34.32225],[-58.666067,-34.323107],[-58.666982,-34.324888],[-58.669088,-34.324169],[-58.669198,-34.323494],[-58.669255,-34.323004],[-58.669355,-34.322981],[-58.669409,-34.322777],[-58.669035,-34.322698],[-58.668324,-34.32225]]]}},{"type":"Feature","properties":{"partida":"357002725","cca":"357000100000000000000030200000000000021000","tipo":"Rural","sup_m2":30088.5},"geometry":{"type":"Polygon","coordinates":[[[-58.666982,-34.324888],[-58.667558,-34.32601],[-58.668541,-34.326044],[-58.668862,-34.326076],[-58.669022,-34.32601],[-58.669214,-34.325734],[-58.669172,-34.325164],[-58.669088,-34.324169],[-58.666982,-34.324888]]]}}]}