{"type":"FeatureCollection","features":[{"type":"Feature","properties":{"partida":"357001042","cca":"357000100000000000000024900A0000000001100A","tipo":"Urbano","sup_m2":1555.0},"geometry":{"type":"Polygon","coordinates":[[[-58.671248,-34.325541],[-58.671973,-34.325322],[-58.671984,-34.325123],[-58.671171,-34.325364],[-58.671248,-34.325541]]]}},{"type":"Feature","properties":{"partida":"357002131","cca":"357000100000000000000024900A0000000001100B","tipo":"Urbano","sup_m2":1406.8},"geometry":{"type":"Polygon","coordinates":[[[-58.671321,-34.325706],[-58.672052,-34.325491],[-58.671973,-34.325322],[-58.671248,-34.325541],[-58.671321,-34.325706]]]}},{"type":"Feature","properties":{"partida":"357001043","cca":"357000100000000000000024900A0000000001100C","tipo":"Urbano","sup_m2":1554.4},"geometry":{"type":"Polygon","coordinates":[[[-58.671321,-34.325706],[-58.671404,-34.325908],[-58.672037,-34.325715],[-58.672052,-34.325491],[-58.671321,-34.325706]]]}},{"type":"Feature","properties":{"partida":"357001044","cca":"357000100000000000000024900A0000000001100D","tipo":"Urbano","sup_m2":10812.0},"geometry":{"type":"Polygon","coordinates":[[[-58.671321,-34.325706],[-58.671021,-34.325023],[-58.669238,-34.324956],[-58.669261,-34.325225],[-58.671404,-34.325908],[-58.671321,-34.325706]]]}},{"type":"Feature","properties":{"partida":"357001045","cca":"357000100000000000000024900A0000000001200A","tipo":"Rural","sup_m2":11173.8},"geometry":{"type":"Polygon","coordinates":[[[-58.668951,-34.326138],[-58.669904,-34.326548],[-58.670547,-34.325635],[-58.669261,-34.325225],[-58.669303,-34.325796],[-58.66911,-34.326072],[-58.668951,-34.326138]]]}},{"type":"Feature","properties":{"partida":"357019870","cca":"357000100000000000000024900A0000000001200B","tipo":"Rural","sup_m2":9115.5},"geometry":{"type":"Polygon","coordinates":[[[-58.672037,-34.325715],[-58.671404,-34.325908],[-58.670547,-34.325635],[-58.669904,-34.326548],[-58.67124,-34.326148],[-58.671554,-34.326246],[-58.672187,-34.326053],[-58.672054,-34.325801],[-58.672037,-34.325715]]]}},{"type":"Feature","properties":{"partida":"357019871","cca":"357000100000000000000024900A0000000001200C","tipo":"Rural","sup_m2":7968.2},"geometry":{"type":"Polygon","coordinates":[[[-58.672368,-34.326382],[-58.672299,-34.326264],[-58.672187,-34.326053],[-58.671554,-34.326246],[-58.67124,-34.326148],[-58.669904,-34.326548],[-58.670429,-34.326774],[-58.67139,-34.326487],[-58.671704,-34.326584],[-58.672368,-34.326382]]]}},{"type":"Feature","properties":{"partida":"357019872","cca":"357000100000000000000024900A0000000001200D","tipo":"Rural","sup_m2":7716.0},"geometry":{"type":"Polygon","coordinates":[[[-58.672549,-34.326689],[-58.672368,-34.326382],[-58.671704,-34.326584],[-58.67139,-34.326487],[-58.670429,-34.326774],[-58.671222,-34.327116],[-58.672549,-34.326689]]]}},{"type":"Feature","properties":{"partida":"357019873","cca":"357000100000000000000024900A0000000001200E","tipo":"Rural","sup_m2":5813.0},"geometry":{"type":"Polygon","coordinates":[[[-58.672296,-34.327417],[-58.672516,-34.327348],[-58.672549,-34.326689],[-58.671222,-34.327116],[-58.672071,-34.327482],[-58.672296,-34.327417]]]}},{"type":"Feature","properties":{"partida":"357001046","cca":"357000100000000000000024900A0000000001300A","tipo":"Urbano","sup_m2":592.9},"geometry":{"type":"Polygon","coordinates":[[[-58.672358,-34.327589],[-58.672722,-34.327503],[-58.672516,-34.327348],[-58.672296,-34.327417],[-58.672358,-34.327589]]]}},{"type":"Feature","properties":{"partida":"357001047","cca":"357000100000000000000024900A0000000001300B","tipo":"Rural","sup_m2":33379.2},"geometry":{"type":"Polygon","coordinates":[[[-58.668951,-34.326138],[-58.668629,-34.326106],[-58.668115,-34.326088],[-58.668924,-34.327031],[-58.672654,-34.328424],[-58.672556,-34.32814],[-58.672296,-34.327417],[-58.672071,-34.327482],[-58.668951,-34.326138]]]}},{"type":"Feature","properties":{"partida":"357001048","cca":"357000100000000000000024900A0000000001300C","tipo":"Urbano","sup_m2":2526.2},"geometry":{"type":"Polygon","coordinates":[[[-58.672951,-34.328032],[-58.672875,-34.327664],[-58.672722,-34.327503],[-58.672358,-34.327589],[-58.672556,-34.32814],[-58.672951,-34.328032]]]}},{"type":"Feature","properties":{"partida":"357001049","cca":"357000100000000000000024900A0000000001300D","tipo":"Urbano","sup_m2":1677.6},"geometry":{"type":"Polygon","coordinates":[[[-58.672556,-34.32814],[-58.672654,-34.328424],[-58.672798,-34.328478],[-58.673113,-34.328433],[-58.672951,-34.328032],[-58.672556,-34.32814]]]}},{"type":"Feature","properties":{"partida":"357001050","cca":"357000100000000000000024900A00000000014000","tipo":"Rural","sup_m2":40478.1},"geometry":{"type":"Polygon","coordinates":[[[-58.668115,-34.326088],[-58.667589,-34.32607],[-58.668093,-34.327051],[-58.672967,-34.329538],[-58.673313,-34.328626],[-58.673113,-34.328433],[-58.672798,-34.328478],[-58.668924,-34.327031],[-58.668115,-34.326088]]]}},{"type":"Feature","properties":{"partida":"357001051","cca":"357000100000000000000025000A0000000000100A","tipo":"Urbano","sup_m2":1502.3},"geometry":{"type":"Polygon","coordinates":[[[-58.673118,-34.329615],[-58.673392,-34.328893],[-58.673313,-34.328626],[-58.672967,-34.329538],[-58.673118,-34.329615]]]}},{"type":"Feature","properties":{"partida":"357001052","cca":"357000100000000000000025000A0000000000100B","tipo":"Urbano","sup_m2":2521.7},"geometry":{"type":"Polygon","coordinates":[[[-58.673118,-34.329615],[-58.673691,-34.329908],[-58.673392,-34.328893],[-58.673118,-34.329615]]]}},{"type":"Feature","properties":{"partida":"357018837","cca":"357000100000000000000025800A00000000001000","tipo":"Urbano","sup_m2":94635.0},"geometry":{"type":"Polygon","coordinates":[[[-58.669982,-34.330727],[-58.672925,-34.330865],[-58.672862,-34.330647],[-58.673721,-34.33061],[-58.673777,-34.330173],[-58.673691,-34.329908],[-58.668093,-34.327051],[-58.669982,-34.330727]]]}},{"type":"Feature","properties":{"partida":"357018838","cca":"357000100000000000000025800A00000000002000","tipo":"Urbano","sup_m2":2875.5},"geometry":{"type":"Polygon","coordinates":[[[-58.669982,-34.330727],[-58.670546,-34.331825],[-58.670712,-34.331833],[-58.670341,-34.330744],[-58.669982,-34.330727]]]}},{"type":"Feature","properties":{"partida":"357018839","cca":"357000100000000000000025800A00000000003000","tipo":"Urbano","sup_m2":2826.3},"geometry":{"type":"Polygon","coordinates":[[[-58.670712,-34.331833],[-58.670944,-34.331844],[-58.670626,-34.330757],[-58.670341,-34.330744],[-58.670712,-34.331833]]]}},{"type":"Feature","properties":{"partida":"357018840","cca":"357000100000000000000025800A00000000004000","tipo":"Urbano","sup_m2":2796.4},"geometry":{"type":"Polygon","coordinates":[[[-58.670944,-34.331844],[-58.671199,-34.331856],[-58.670881,-34.330769],[-58.670626,-34.330757],[-58.670944,-34.331844]]]}},{"type":"Feature","properties":{"partida":"357018841","cca":"357000100000000000000025800A00000000005000","tipo":"Urbano","sup_m2":2796.6},"geometry":{"type":"Polygon","coordinates":[[[-58.671199,-34.331856],[-58.671455,-34.331868],[-58.671137,-34.330781],[-58.670881,-34.330769],[-58.671199,-34.331856]]]}},{"type":"Feature","properties":{"partida":"357018842","cca":"357000100000000000000025800A00000000006000","tipo":"Urbano","sup_m2":2796.6},"geometry":{"type":"Polygon","coordinates":[[[-58.671455,-34.331868],[-58.67171,-34.33188],[-58.671392,-34.330793],[-58.671137,-34.330781],[-58.671455,-34.331868]]]}},{"type":"Feature","properties":{"partida":"357018843","cca":"357000100000000000000025800A00000000007000","tipo":"Urbano","sup_m2":2796.4},"geometry":{"type":"Polygon","coordinates":[[[-58.67171,-34.33188],[-58.671966,-34.331892],[-58.671648,-34.330805],[-58.671392,-34.330793],[-58.67171,-34.33188]]]}},{"type":"Feature","properties":{"partida":"357018844","cca":"357000100000000000000025800A00000000008000","tipo":"Urbano","sup_m2":2797.8},"geometry":{"type":"Polygon","coordinates":[[[-58.671966,-34.331892],[-58.672221,-34.331904],[-58.671903,-34.330817],[-58.671648,-34.330805],[-58.671966,-34.331892]]]}},{"type":"Feature","properties":{"partida":"357018845","cca":"357000100000000000000025800A00000000009000","tipo":"Urbano","sup_m2":2796.6},"geometry":{"type":"Polygon","coordinates":[[[-58.672221,-34.331904],[-58.672477,-34.331916],[-58.672159,-34.330829],[-58.671903,-34.330817],[-58.672221,-34.331904]]]}},{"type":"Feature","properties":{"partida":"357018846","cca":"357000100000000000000025800A00000000010000","tipo":"Urbano","sup_m2":2796.4},"geometry":{"type":"Polygon","coordinates":[[[-58.672477,-34.331916],[-58.672732,-34.331927],[-58.672414,-34.330841],[-58.672159,-34.330829],[-58.672477,-34.331916]]]}},{"type":"Feature","properties":{"partida":"357018847","cca":"357000100000000000000025800A00000000011000","tipo":"Urbano","sup_m2":2796.6},"geometry":{"type":"Polygon","coordinates":[[[-58.672732,-34.331927],[-58.672988,-34.331939],[-58.67267,-34.330853],[-58.672414,-34.330841],[-58.672732,-34.331927]]]}},{"type":"Feature","properties":{"partida":"357018848","cca":"357000100000000000000025800A00000000012000","tipo":"Urbano","sup_m2":2796.6},"geometry":{"type":"Polygon","coordinates":[[[-58.673243,-34.331951],[-58.672925,-34.330865],[-58.67267,-34.330853],[-58.672988,-34.331939],[-58.673243,-34.331951]]]}},{"type":"Feature","properties":{"partida":"357018849","cca":"357000100000000000000025800A00000000013000","tipo":"Urbano","sup_m2":2100.5},"geometry":{"type":"Polygon","coordinates":[[[-58.674084,-34.33169],[-58.67318,-34.331734],[-58.673243,-34.331951],[-58.674191,-34.331909],[-58.674084,-34.33169]]]}},{"type":"Feature","properties":{"partida":"357018850","cca":"357000100000000000000025800A00000000014000","tipo":"Urbano","sup_m2":2057.0},"geometry":{"type":"Polygon","coordinates":[[[-58.674013,-34.331476],[-58.673116,-34.331517],[-58.67318,-34.331734],[-58.674084,-34.33169],[-58.674083,-34.331566],[-58.674013,-34.331476]]]}},{"type":"Feature","properties":{"partida":"357018851","cca":"357000100000000000000025800A00000000015000","tipo":"Urbano","sup_m2":1900.2},"geometry":{"type":"Polygon","coordinates":[[[-58.67384,-34.331262],[-58.673052,-34.331299],[-58.673116,-34.331517],[-58.674013,-34.331476],[-58.67384,-34.331262]]]}},{"type":"Feature","properties":{"partida":"357018852","cca":"357000100000000000000025800A00000000016000","tipo":"Urbano","sup_m2":2097.2},"geometry":{"type":"Polygon","coordinates":[[[-58.674071,-34.331033],[-58.672989,-34.331082],[-58.673052,-34.331299],[-58.67384,-34.331262],[-58.674071,-34.331033]]]}},{"type":"Feature","properties":{"partida":"357018853","cca":"357000100000000000000025800A00000000017000","tipo":"Urbano","sup_m2":2077.7},"geometry":{"type":"Polygon","coordinates":[[[-58.673803,-34.330825],[-58.672925,-34.330865],[-58.672989,-34.331082],[-58.674071,-34.331033],[-58.673879,-34.330976],[-58.673803,-34.330825]]]}},{"type":"Feature","properties":{"partida":"357018854","cca":"357000100000000000000025800A00000000018000","tipo":"Urbano","sup_m2":1946.7},"geometry":{"type":"Polygon","coordinates":[[[-58.673721,-34.33061],[-58.672862,-34.330647],[-58.672925,-34.330865],[-58.673803,-34.330825],[-58.673721,-34.33061]]]}},{"type":"Feature","properties":{"partida":"357018855","cca":"357000100000000000000025800B00000000001000","tipo":"Urbano","sup_m2":1924.0},"geometry":{"type":"Polygon","coordinates":[[[-58.673295,-34.332137],[-58.673342,-34.332303],[-58.674412,-34.332249],[-58.674477,-34.332079],[-58.673295,-34.332137]]]}},{"type":"Feature","properties":{"partida":"357018856","cca":"357000100000000000000025800B00000000002000","tipo":"Urbano","sup_m2":1029.0},"geometry":{"type":"Polygon","coordinates":[[[-58.673295,-34.332137],[-58.673042,-34.332125],[-58.673164,-34.332542],[-58.673407,-34.332535],[-58.673295,-34.332137]]]}},{"type":"Feature","properties":{"partida":"357018857","cca":"357000100000000000000025800B00000000003000","tipo":"Urbano","sup_m2":1098.5},"geometry":{"type":"Polygon","coordinates":[[[-58.672914,-34.33255],[-58.673164,-34.332542],[-58.673042,-34.332125],[-58.672787,-34.332113],[-58.672914,-34.33255]]]}},{"type":"Feature","properties":{"partida":"357018858","cca":"357000100000000000000025800B00000000004000","tipo":"Urbano","sup_m2":1148.7},"geometry":{"type":"Polygon","coordinates":[[[-58.672665,-34.332557],[-58.672914,-34.33255],[-58.672787,-34.332113],[-58.672531,-34.332101],[-58.672665,-34.332557]]]}},{"type":"Feature","properties":{"partida":"357018859","cca":"357000100000000000000025800B00000000005000","tipo":"Urbano","sup_m2":1198.2},"geometry":{"type":"Polygon","coordinates":[[[-58.672415,-34.332564],[-58.672665,-34.332557],[-58.672531,-34.332101],[-58.672276,-34.332089],[-58.672415,-34.332564]]]}},{"type":"Feature","properties":{"partida":"357018860","cca":"357000100000000000000025800B00000000006000","tipo":"Urbano","sup_m2":1247.8},"geometry":{"type":"Polygon","coordinates":[[[-58.672165,-34.332572],[-58.672415,-34.332564],[-58.672276,-34.332089],[-58.67202,-34.332077],[-58.672165,-34.332572]]]}},{"type":"Feature","properties":{"partida":"357018861","cca":"357000100000000000000025800B00000000007000","tipo":"Urbano","sup_m2":1297.7},"geometry":{"type":"Polygon","coordinates":[[[-58.671915,-34.332579],[-58.672165,-34.332572],[-58.67202,-34.332077],[-58.671765,-34.332065],[-58.671915,-34.332579]]]}},{"type":"Feature","properties":{"partida":"357018862","cca":"357000100000000000000025800B00000000008000","tipo":"Urbano","sup_m2":1348.2},"geometry":{"type":"Polygon","coordinates":[[[-58.671665,-34.332587],[-58.671915,-34.332579],[-58.671765,-34.332065],[-58.671509,-34.332053],[-58.671665,-34.332587]]]}},{"type":"Feature","properties":{"partida":"357018863","cca":"357000100000000000000025800B00000000009000","tipo":"Urbano","sup_m2":1258.6},"geometry":{"type":"Polygon","coordinates":[[[-58.671254,-34.332041],[-58.67138,-34.332472],[-58.671636,-34.332587],[-58.671665,-34.332587],[-58.671509,-34.332053],[-58.671254,-34.332041]]]}},{"type":"Feature","properties":{"partida":"357018864","cca":"357000100000000000000025800B00000000010000","tipo":"Urbano","sup_m2":955.0},"geometry":{"type":"Polygon","coordinates":[[[-58.671089,-34.332341],[-58.67138,-34.332472],[-58.671254,-34.332041],[-58.670998,-34.332029],[-58.671089,-34.332341]]]}},{"type":"Feature","properties":{"partida":"357018865","cca":"357000100000000000000025800B00000000011000","tipo":"Urbano","sup_m2":571.7},"geometry":{"type":"Polygon","coordinates":[[[-58.670848,-34.332232],[-58.671089,-34.332341],[-58.670998,-34.332029],[-58.670775,-34.332019],[-58.670848,-34.332232]]]}},{"type":"Feature","properties":{"partida":"357018866","cca":"357000100000000000000025800B00000000012000","tipo":"Urbano","sup_m2":220.2},"geometry":{"type":"Polygon","coordinates":[[[-58.670727,-34.332177],[-58.670848,-34.332232],[-58.670775,-34.332019],[-58.670642,-34.332013],[-58.670727,-34.332177]]]}},{"type":"Feature","properties":{"partida":"357018867","cca":"357000100000000000000025800B00000000013000","tipo":"Urbano","sup_m2":1070.3},"geometry":{"type":"Polygon","coordinates":[[[-58.67513,-34.334165],[-58.675011,-34.333815],[-58.674421,-34.333845],[-58.67513,-34.334165]]]}},{"type":"Feature","properties":{"partida":"357018868","cca":"357000100000000000000025800B00000000014000","tipo":"Urbano","sup_m2":1009.9},"geometry":{"type":"Polygon","coordinates":[[[-58.674909,-34.333674],[-58.674135,-34.333716],[-58.674421,-34.333845],[-58.675011,-34.333815],[-58.674909,-34.333674]]]}},{"type":"Feature","properties":{"partida":"357018869","cca":"357000100000000000000025800B00000000015000","tipo":"Urbano","sup_m2":2004.6},"geometry":{"type":"Polygon","coordinates":[[[-58.674894,-34.333474],[-58.67373,-34.333533],[-58.674135,-34.333716],[-58.674909,-34.333674],[-58.674894,-34.333474]]]}},{"type":"Feature","properties":{"partida":"357018870","cca":"357000100000000000000025800B00000000016000","tipo":"Urbano","sup_m2":2238.9},"geometry":{"type":"Polygon","coordinates":[[[-58.67368,-34.33351],[-58.67373,-34.333533],[-58.674894,-34.333474],[-58.674763,-34.33329],[-58.673635,-34.333352],[-58.67368,-34.33351]]]}},{"type":"Feature","properties":{"partida":"357018871","cca":"357000100000000000000025800B00000000017000","tipo":"Urbano","sup_m2":1696.3},"geometry":{"type":"Polygon","coordinates":[[[-58.673593,-34.333202],[-58.673635,-34.333352],[-58.674763,-34.33329],[-58.674675,-34.333146],[-58.673593,-34.333202]]]}},{"type":"Feature","properties":{"partida":"357001053","cca":"357000100000000000000025800B00000000018000","tipo":"Urbano","sup_m2":10565.7},"geometry":{"type":"Polygon","coordinates":[[[-58.674662,-34.332841],[-58.673509,-34.332899],[-58.673407,-34.332535],[-58.671636,-34.332587],[-58.67368,-34.33351],[-58.673548,-34.333039],[-58.67472,-34.332979],[-58.674662,-34.332841]]]}},{"type":"Feature","properties":{"partida":"357018872","cca":"357000100000000000000025800B00000000019000","tipo":"Urbano","sup_m2":1296.0},"geometry":{"type":"Polygon","coordinates":[[[-58.674662,-34.332841],[-58.674617,-34.332733],[-58.673478,-34.33279],[-58.673509,-34.332899],[-58.674662,-34.332841]]]}},{"type":"Feature","properties":{"partida":"357018873","cca":"357000100000000000000025800B00000000020000","tipo":"Urbano","sup_m2":1207.2},"geometry":{"type":"Polygon","coordinates":[[[-58.674617,-34.332733],[-58.674573,-34.332629],[-58.67345,-34.332688],[-58.673478,-34.33279],[-58.674617,-34.332733]]]}},{"type":"Feature","properties":{"partida":"357018874","cca":"357000100000000000000025800B00000000021000","tipo":"Urbano","sup_m2":1085.3},"geometry":{"type":"Polygon","coordinates":[[[-58.673423,-34.332593],[-58.67345,-34.332688],[-58.674573,-34.332629],[-58.674534,-34.332537],[-58.673423,-34.332593]]]}},{"type":"Feature","properties":{"partida":"357018875","cca":"357000100000000000000025800B00000000022000","tipo":"Urbano","sup_m2":1377.8},"geometry":{"type":"Polygon","coordinates":[[[-58.673389,-34.332473],[-58.673423,-34.332593],[-58.674534,-34.332537],[-58.674483,-34.332418],[-58.673389,-34.332473]]]}},{"type":"Feature","properties":{"partida":"357018876","cca":"357000100000000000000025800B00000000023000","tipo":"Urbano","sup_m2":1907.4},"geometry":{"type":"Polygon","coordinates":[[[-58.674483,-34.332418],[-58.674412,-34.332249],[-58.673342,-34.332303],[-58.673389,-34.332473],[-58.674483,-34.332418]]]}},{"type":"Feature","properties":{"partida":"357001054","cca":"357000100000000000000025900A0000000000100A","tipo":"Rural","sup_m2":28785.8},"geometry":{"type":"Polygon","coordinates":[[[-58.67513,-34.334165],[-58.670727,-34.332177],[-58.67078,-34.332768],[-58.674052,-34.334531],[-58.674919,-34.334238],[-58.675195,-34.334343],[-58.67513,-34.334165]]]}},{"type":"Feature","properties":{"partida":"357001055","cca":"357000100000000000000025900A0000000000200A","tipo":"Rural","sup_m2":7367.8},"geometry":{"type":"Polygon","coordinates":[[[-58.675195,-34.334343],[-58.674919,-34.334238],[-58.674052,-34.334531],[-58.675579,-34.335392],[-58.675195,-34.334343]]]}},{"type":"Feature","properties":{"partida":"357001056","cca":"357000100000000000000025900A00000000003000","tipo":"Urbano","sup_m2":15933.1},"geometry":{"type":"Polygon","coordinates":[[[-58.670802,-34.333016],[-58.675755,-34.335869],[-58.675579,-34.335392],[-58.674052,-34.334531],[-58.67078,-34.332768],[-58.670802,-34.333016]]]}},{"type":"Feature","properties":{"partida":"357001057","cca":"357000100000000000000025900A00000000004000","tipo":"Rural","sup_m2":19381.0},"geometry":{"type":"Polygon","coordinates":[[[-58.670802,-34.333016],[-58.670823,-34.333257],[-58.676,-34.33654],[-58.675755,-34.335869],[-58.670802,-34.333016]]]}},{"type":"Feature","properties":{"partida":"357001058","cca":"357000100000000000000025900A00000000005000","tipo":"Rural","sup_m2":58395.7},"geometry":{"type":"Polygon","coordinates":[[[-58.670823,-34.333257],[-58.670938,-34.334538],[-58.676439,-34.337737],[-58.676,-34.33654],[-58.670823,-34.333257]]]}},{"type":"Feature","properties":{"partida":"357001059","cca":"357000100000000000000026000A00000000001000","tipo":"Rural","sup_m2":46336.9},"geometry":{"type":"Polygon","coordinates":[[[-58.676943,-34.339109],[-58.676439,-34.337737],[-58.670938,-34.334538],[-58.670645,-34.334837],[-58.676943,-34.339109]]]}},{"type":"Feature","properties":{"partida":"357001060","cca":"357000100000000000000026000A00000000002000","tipo":"Rural","sup_m2":54241.9},"geometry":{"type":"Polygon","coordinates":[[[-58.676921,-34.339658],[-58.676834,-34.339322],[-58.676943,-34.339109],[-58.670645,-34.334837],[-58.670242,-34.33525],[-58.676108,-34.339565],[-58.676587,-34.339163],[-58.676921,-34.339658]]]}},{"type":"Feature","properties":{"partida":"357001061","cca":"357000100000000000000026000A0000000000300A","tipo":"Urbano","sup_m2":3537.2},"geometry":{"type":"Polygon","coordinates":[[[-58.676921,-34.339658],[-58.676108,-34.339565],[-58.67748,-34.340574],[-58.676921,-34.339658]]]}},{"type":"Feature","properties":{"partida":"357001062","cca":"357000100000000000000026000A0000000000300B","tipo":"Urbano","sup_m2":1895.0},"geometry":{"type":"Polygon","coordinates":[[[-58.676108,-34.339565],[-58.676921,-34.339658],[-58.676587,-34.339163],[-58.676108,-34.339565]]]}},{"type":"Feature","properties":{"partida":"357020207","cca":"357000100000000000000026000A00000000004000","tipo":"Rural","sup_m2":77050.7},"geometry":{"type":"Polygon","coordinates":[[[-58.670242,-34.33525],[-58.669895,-34.335606],[-58.678059,-34.342346],[-58.67801,-34.342021],[-58.67748,-34.340574],[-58.670242,-34.33525]]]}},{"type":"Feature","properties":{"partida":"357001064","cca":"357000100000000000000026000A00000000005000","tipo":"Rural","sup_m2":67689.9},"geometry":{"type":"Polygon","coordinates":[[[-58.677778,-34.342954],[-58.677792,-34.342933],[-58.678006,-34.342669],[-58.678059,-34.342346],[-58.669895,-34.335606],[-58.669483,-34.336028],[-58.677778,-34.342954]]]}},{"type":"Feature","properties":{"partida":null,"cca":"357000100000000000000030300000000000000000","tipo":null,"sup_m2":71233.6},"geometry":{"type":"Polygon","coordinates":[[[-58.668643,-34.328121],[-58.667976,-34.328053],[-58.667564,-34.329777],[-58.668442,-34.332025],[-58.670264,-34.332193],[-58.670546,-34.331825],[-58.668643,-34.328121]]]}},{"type":"Feature","properties":{"partida":null,"cca":"35700010000000000000003030000000000001100A","tipo":null,"sup_m2":9122.2},"geometry":{"type":"Polygon","coordinates":[[[-58.668643,-34.328121],[-58.668093,-34.327051],[-58.667288,-34.327125],[-58.667611,-34.328016],[-58.668643,-34.328121]]]}},{"type":"Feature","properties":{"partida":"357002810","cca":"357000100000000000000030300A00000000009000","tipo":"Urbano","sup_m2":271.3},"geometry":{"type":"Polygon","coordinates":[[[-58.667184,-34.326771],[-58.667049,-34.326756],[-58.667024,-34.326945],[-58.667167,-34.326959],[-58.667184,-34.326771]]]}},{"type":"Feature","properties":{"partida":"357002811","cca":"357000100000000000000030300A00000000010000","tipo":"Urbano","sup_m2":194.1},"geometry":{"type":"Polygon","coordinates":[[[-58.667184,-34.326771],[-58.667197,-34.326631],[-58.667066,-34.326614],[-58.667049,-34.326756],[-58.667184,-34.326771]]]}},{"type":"Feature","properties":{"partida":null,"cca":"357000100000000000000030300D0000000000900C","tipo":null,"sup_m2":18073.4},"geometry":{"type":"Polygon","coordinates":[[[-58.667342,-34.325589],[-58.664694,-34.325222],[-58.664621,-34.325659],[-58.666645,-34.325939],[-58.666911,-34.326107],[-58.667512,-34.326074],[-58.667288,-34.327125],[-58.668093,-34.327051],[-58.667342,-34.325589]]]}},{"type":"Feature","properties":{"partida":null,"cca":"357000100000000000000030300F00000000000000","tipo":null,"sup_m2":59074.5},"geometry":{"type":"Polygon","coordinates":[[[-58.669483,-34.336028],[-58.670938,-34.334538],[-58.670727,-34.332177],[-58.670546,-34.331825],[-58.668169,-34.33493],[-58.669483,-34.336028]]]}},{"type":"Feature","properties":{"partida":"357002912","cca":"357000100000000000000030400000000000001000","tipo":"Rural","sup_m2":27072.7},"geometry":{"type":"Polygon","coordinates":[[[-58.668042,-34.335065],[-58.672378,-34.338702],[-58.674016,-34.340106],[-58.676049,-34.341813],[-58.677665,-34.343192],[-58.677778,-34.342954],[-58.668169,-34.33493],[-58.668042,-34.335065]]]}},{"type":"Feature","properties":{"partida":"357002913","cca":"357000100000000000000030400000000000002000","tipo":"Rural","sup_m2":99706.5},"geometry":{"type":"Polygon","coordinates":[[[-58.677665,-34.343192],[-58.676049,-34.341813],[-58.674016,-34.340106],[-58.672378,-34.338702],[-58.668042,-34.335065],[-58.66762,-34.335513],[-58.677136,-34.343932],[-58.677362,-34.343767],[-58.677665,-34.343192]]]}},{"type":"Feature","properties":{"partida":"357002914","cca":"357000100000000000000030400000000000003000","tipo":"Rural","sup_m2":85494.0},"geometry":{"type":"Polygon","coordinates":[[[-58.677136,-34.343932],[-58.66762,-34.335513],[-58.667166,-34.335995],[-58.676001,-34.343862],[-58.67657,-34.343907],[-58.676891,-34.343939],[-58.677136,-34.343932]]]}},{"type":"Feature","properties":{"partida":"357002915","cca":"357000100000000000000030400000000000004000","tipo":"Rural","sup_m2":53284.2},"geometry":{"type":"Polygon","coordinates":[[[-58.667166,-34.335995],[-58.66699,-34.336184],[-58.674973,-34.343802],[-58.675254,-34.343849],[-58.676001,-34.343862],[-58.667166,-34.335995]]]}},{"type":"Feature","properties":{"partida":"357002917","cca":"35700010000000000000003040000000000000600E","tipo":"Urbano","sup_m2":46964.0},"geometry":{"type":"Polygon","coordinates":[[[-58.674096,-34.343806],[-58.674281,-34.343801],[-58.674649,-34.343801],[-58.674774,-34.343807],[-58.674973,-34.343802],[-58.667665,-34.336827],[-58.667442,-34.33706],[-58.674096,-34.343806]]]}},{"type":"Feature","properties":{"partida":"357002918","cca":"35700010000000000000003040000000000000600F","tipo":"Urbano","sup_m2":25795.7},"geometry":{"type":"Polygon","coordinates":[[[-58.667296,-34.337212],[-58.673662,-34.343833],[-58.673781,-34.343843],[-58.673955,-34.343831],[-58.674096,-34.343806],[-58.667442,-34.33706],[-58.667296,-34.337212]]]}},{"type":"Feature","properties":{"partida":"357002919","cca":"35700010000000000000003040000000000000600G","tipo":"Urbano","sup_m2":32584.7},"geometry":{"type":"Polygon","coordinates":[[[-58.667296,-34.337212],[-58.667142,-34.337372],[-58.673075,-34.343919],[-58.67319,-34.343885],[-58.673241,-34.3439],[-58.673283,-34.343881],[-58.673322,-34.343893],[-58.673364,-34.343916],[-58.673372,-34.343863],[-58.673443,-34.343865],[-58.673475,-34.343855],[-58.673505,-34.343875],[-58.673506,-34.343848],[-58.673662,-34.343833],[-58.667296,-34.337212]]]}},{"type":"Feature","properties":{"partida":null,"cca":"35700010000000000000003040000000000000600H","tipo":null,"sup_m2":2924.8},"geometry":{"type":"Polygon","coordinates":[[[-58.667665,-34.336827],[-58.66699,-34.336184],[-58.666791,-34.336401],[-58.667442,-34.33706],[-58.667665,-34.336827]]]}},{"type":"Feature","properties":{"partida":null,"cca":"35700010000000000000003040000000000000600J","tipo":null,"sup_m2":1932.8},"geometry":{"type":"Polygon","coordinates":[[[-58.666791,-34.336401],[-58.666656,-34.336547],[-58.667296,-34.337212],[-58.667442,-34.33706],[-58.666791,-34.336401]]]}},{"type":"Feature","properties":{"partida":null,"cca":"357000100000000000000030400000000000007000","tipo":null,"sup_m2":21334.6},"geometry":{"type":"Polygon","coordinates":[[[-58.673075,-34.343919],[-58.666525,-34.33669],[-58.666405,-34.336821],[-58.672819,-34.344013],[-58.672839,-34.34403],[-58.672869,-34.344034],[-58.672916,-34.344019],[-58.672951,-34.344002],[-58.672982,-34.343976],[-58.672978,-34.343937],[-58.673075,-34.343919]]]}},{"type":"Feature","properties":{"partida":"357002924","cca":"35700010000000000000003050000000000000800A","tipo":"Rural","sup_m2":34672.7},"geometry":{"type":"Polygon","coordinates":[[[-58.672343,-34.344264],[-58.67258,-34.344151],[-58.672819,-34.344013],[-58.666405,-34.336821],[-58.666278,-34.336958],[-58.672343,-34.344264]]]}},{"type":"Feature","properties":{"partida":"357002925","cca":"35700010000000000000003050000000000000800B","tipo":"Rural","sup_m2":25149.4},"geometry":{"type":"Polygon","coordinates":[[[-58.666156,-34.337092],[-58.672056,-34.344454],[-58.672134,-34.344357],[-58.672343,-34.344264],[-58.666278,-34.336958],[-58.666156,-34.337092]]]}},{"type":"Feature","properties":{"partida":"357002927","cca":"357000100000000000000030500000000000009000","tipo":"Rural","sup_m2":28580.5},"geometry":{"type":"Polygon","coordinates":[[[-58.665993,-34.33727],[-58.671789,-34.344691],[-58.671801,-34.344676],[-58.671975,-34.344508],[-58.672056,-34.344454],[-58.666156,-34.337092],[-58.665993,-34.33727]]]}},{"type":"Feature","properties":{"partida":"357002928","cca":"357000100000000000000030500000000000010000","tipo":"Rural","sup_m2":25904.4},"geometry":{"type":"Polygon","coordinates":[[[-58.671553,-34.34492],[-58.671567,-34.344899],[-58.671736,-34.344803],[-58.671789,-34.344691],[-58.665993,-34.33727],[-58.665848,-34.337427],[-58.671553,-34.34492]]]}},{"type":"Feature","properties":{"partida":"357002932","cca":"357000100000000000000030700000000000001000","tipo":"Rural","sup_m2":75762.0},"geometry":{"type":"Polygon","coordinates":[[[-58.671553,-34.34492],[-58.666384,-34.338131],[-58.665848,-34.337427],[-58.665334,-34.337986],[-58.671013,-34.345572],[-58.671153,-34.34538],[-58.671261,-34.345193],[-58.671493,-34.34509],[-58.671553,-34.34492]]]}},{"type":"Feature","properties":{"partida":"357002933","cca":"357000100000000000000030700000000000002000","tipo":"Rural","sup_m2":104734.9},"geometry":{"type":"Polygon","coordinates":[[[-58.664715,-34.33866],[-58.670122,-34.346502],[-58.670384,-34.346236],[-58.670816,-34.345743],[-58.671013,-34.345572],[-58.665334,-34.337986],[-58.664715,-34.33866]]]}},{"type":"Feature","properties":{"partida":"357002934","cca":"357000100000000000000030700000000000003000","tipo":"Rural","sup_m2":92737.4},"geometry":{"type":"Polygon","coordinates":[[[-58.669427,-34.347244],[-58.669791,-34.34675],[-58.670122,-34.346502],[-58.664715,-34.33866],[-58.664075,-34.339356],[-58.669427,-34.347244]]]}}]}