{"type":"FeatureCollection","features":[{"type":"Feature","properties":{"partida":"057064990","cca":"05703000000000000000000000000000000005600N","tipo":"Urbano","sup_m2":679176.4},"geometry":{"type":"Polygon","coordinates":[[[-58.668136,-34.378291],[-58.668034,-34.378413],[-58.666988,-34.377895],[-58.662825,-34.38065],[-58.666753,-34.382802],[-58.666869,-34.382665],[-58.675724,-34.387459],[-58.680413,-34.384871],[-58.668136,-34.378291]]]}},{"type":"Feature","properties":{"partida":"057065000","cca":"0570300000000000000000000000000000000560HH","tipo":"Rural","sup_m2":18539.0},"geometry":{"type":"Polygon","coordinates":[[[-58.679091,-34.391524],[-58.679868,-34.390541],[-58.678531,-34.389823],[-58.677742,-34.390572],[-58.679091,-34.391524]]]}},{"type":"Feature","properties":{"partida":"057065001","cca":"0570300000000000000000000000000000000560JJ","tipo":"Rural","sup_m2":15528.1},"geometry":{"type":"Polygon","coordinates":[[[-58.679091,-34.391524],[-58.677742,-34.390572],[-58.677112,-34.391232],[-58.678531,-34.392225],[-58.679091,-34.391524]]]}},{"type":"Feature","properties":{"partida":"057065002","cca":"0570300000000000000000000000000000000560KK","tipo":"Rural","sup_m2":17966.8},"geometry":{"type":"Polygon","coordinates":[[[-58.676377,-34.391941],[-58.677683,-34.392892],[-58.677744,-34.392839],[-58.677898,-34.392759],[-58.678106,-34.392662],[-58.678171,-34.392636],[-58.678209,-34.392632],[-58.678531,-34.392225],[-58.677112,-34.391232],[-58.676377,-34.391941]]]}},{"type":"Feature","properties":{"partida":"057065003","cca":"0570300000000000000000000000000000000560MM","tipo":"Rural","sup_m2":10106.8},"geometry":{"type":"Polygon","coordinates":[[[-58.676377,-34.391941],[-58.675985,-34.39232],[-58.676917,-34.39324],[-58.67702,-34.393228],[-58.677129,-34.393211],[-58.677271,-34.393176],[-58.677359,-34.393132],[-58.677469,-34.393052],[-58.677579,-34.392963],[-58.677683,-34.392892],[-58.676377,-34.391941]]]}},{"type":"Feature","properties":{"partida":"057065004","cca":"0570300000000000000000000000000000000560NN","tipo":"Rural","sup_m2":14209.0},"geometry":{"type":"Polygon","coordinates":[[[-58.675014,-34.393256],[-58.675992,-34.393942],[-58.676011,-34.393785],[-58.676045,-34.393713],[-58.676089,-34.39365],[-58.676145,-34.393588],[-58.676211,-34.393534],[-58.676365,-34.393437],[-58.676518,-34.393357],[-58.676704,-34.393287],[-58.676917,-34.39324],[-58.675985,-34.39232],[-58.675014,-34.393256]]]}},{"type":"Feature","properties":{"partida":"057065005","cca":"0570300000000000000000000000000000000560PP","tipo":"Rural","sup_m2":12085.1},"geometry":{"type":"Polygon","coordinates":[[[-58.675014,-34.393256],[-58.674451,-34.393804],[-58.676176,-34.395057],[-58.675984,-34.39483],[-58.675952,-34.394775],[-58.675931,-34.394721],[-58.675943,-34.394631],[-58.675946,-34.394478],[-58.675938,-34.394307],[-58.67594,-34.394162],[-58.675954,-34.393982],[-58.675992,-34.393942],[-58.675014,-34.393256]]]}},{"type":"Feature","properties":{"partida":"057065006","cca":"0570300000000000000000000000000000000560RR","tipo":"Urbano","sup_m2":18267.9},"geometry":{"type":"Polygon","coordinates":[[[-58.673876,-34.394356],[-58.67528,-34.395345],[-58.675423,-34.395238],[-58.675554,-34.395222],[-58.675651,-34.395232],[-58.675705,-34.395251],[-58.67578,-34.395314],[-58.675941,-34.395478],[-58.676123,-34.395643],[-58.676306,-34.395798],[-58.676392,-34.395817],[-58.67648,-34.3958],[-58.676535,-34.395755],[-58.676546,-34.395701],[-58.676494,-34.395584],[-58.676452,-34.395475],[-58.676325,-34.395275],[-58.676176,-34.395057],[-58.674451,-34.393804],[-58.673876,-34.394356]]]}},{"type":"Feature","properties":{"partida":"057065007","cca":"0570300000000000000000000000000000000560SS","tipo":"Rural","sup_m2":12829.8},"geometry":{"type":"Polygon","coordinates":[[[-58.673302,-34.394914],[-58.674416,-34.395683],[-58.674612,-34.395644],[-58.674906,-34.395611],[-58.674982,-34.395594],[-58.675147,-34.395506],[-58.675247,-34.395354],[-58.67528,-34.395345],[-58.673876,-34.394356],[-58.673302,-34.394914]]]}},{"type":"Feature","properties":{"partida":"057065008","cca":"0570300000000000000000000000000000000560TT","tipo":"Urbano","sup_m2":15441.8},"geometry":{"type":"Polygon","coordinates":[[[-58.672507,-34.39568],[-58.673857,-34.396628],[-58.673912,-34.396574],[-58.673935,-34.396475],[-58.673937,-34.396403],[-58.67396,-34.396277],[-58.673985,-34.396079],[-58.674009,-34.39598],[-58.674031,-34.395926],[-58.674076,-34.395855],[-58.674142,-34.395783],[-58.674241,-34.395721],[-58.674317,-34.395695],[-58.674416,-34.395683],[-58.673302,-34.394914],[-58.672507,-34.39568]]]}},{"type":"Feature","properties":{"partida":"057065009","cca":"0570300000000000000000000000000000000560UU","tipo":"Rural","sup_m2":12229.8},"geometry":{"type":"Polygon","coordinates":[[[-58.672507,-34.39568],[-58.671823,-34.39634],[-58.67277,-34.396972],[-58.673717,-34.396532],[-58.672507,-34.39568]]]}},{"type":"Feature","properties":{"partida":"057065010","cca":"0570300000000000000000000000000000000560VV","tipo":"Rural","sup_m2":9875.2},"geometry":{"type":"Polygon","coordinates":[[[-58.671823,-34.39634],[-58.671762,-34.396398],[-58.670841,-34.396901],[-58.671757,-34.397394],[-58.671968,-34.397103],[-58.672249,-34.397214],[-58.67277,-34.396972],[-58.671823,-34.39634]]]}},{"type":"Feature","properties":{"partida":"057065011","cca":"0570300000000000000000000000000000000560WW","tipo":"Rural","sup_m2":15564.0},"geometry":{"type":"MultiPolygon","coordinates":[[[[-58.6731,-34.398111],[-58.674115,-34.396806],[-58.673911,-34.396664],[-58.673811,-34.396762],[-58.673647,-34.396842],[-58.673253,-34.397018],[-58.672815,-34.397193],[-58.672629,-34.397272],[-58.672443,-34.397342],[-58.67229,-34.397377],[-58.672192,-34.397394],[-58.672138,-34.397393],[-58.672073,-34.397374],[-58.672018,-34.397374],[-58.671886,-34.397463],[-58.6731,-34.398111]]],[[[-58.673717,-34.396532],[-58.672249,-34.397214],[-58.671968,-34.397103],[-58.671757,-34.397394],[-58.671806,-34.397421],[-58.671965,-34.397292],[-58.672009,-34.397275],[-58.672042,-34.397266],[-58.672129,-34.397267],[-58.67227,-34.397287],[-58.672346,-34.397278],[-58.672455,-34.397252],[-58.672685,-34.397183],[-58.673364,-34.396884],[-58.673572,-34.396787],[-58.673681,-34.396743],[-58.67379,-34.396717],[-58.673834,-34.3967],[-58.673857,-34.396628],[-58.673717,-34.396532]]]]}},{"type":"Feature","properties":{"partida":"057065012","cca":"0570300000000000000000000000000000000560XX","tipo":"Rural","sup_m2":63569.2},"geometry":{"type":"Polygon","coordinates":[[[-58.679091,-34.391524],[-58.678209,-34.392632],[-58.678313,-34.392629],[-58.678628,-34.392668],[-58.678779,-34.392697],[-58.678963,-34.392753],[-58.679309,-34.392892],[-58.679482,-34.392984],[-58.679675,-34.393103],[-58.679794,-34.393167],[-58.679881,-34.393195],[-58.680021,-34.393251],[-58.680346,-34.393309],[-58.680553,-34.393338],[-58.680813,-34.393359],[-58.681193,-34.393381],[-58.681335,-34.393382],[-58.681563,-34.393367],[-58.681629,-34.393359],[-58.681694,-34.393323],[-58.68175,-34.393261],[-58.681772,-34.393216],[-58.681784,-34.393135],[-58.681765,-34.392954],[-58.681723,-34.392873],[-58.68167,-34.392782],[-58.68166,-34.392737],[-58.681661,-34.39271],[-58.681672,-34.392683],[-58.681718,-34.392494],[-58.681743,-34.392278],[-58.681757,-34.392125],[-58.681737,-34.392008],[-58.681706,-34.391926],[-58.681642,-34.391844],[-58.681556,-34.391744],[-58.681333,-34.391408],[-58.681301,-34.391354],[-58.681291,-34.3913],[-58.679868,-34.390541],[-58.679091,-34.391524]]]}},{"type":"Feature","properties":{"partida":"057065013","cca":"0570300000000000000000000000000000000560YY","tipo":"Rural","sup_m2":42329.7},"geometry":{"type":"Polygon","coordinates":[[[-58.684796,-34.394515],[-58.686305,-34.393995],[-58.681555,-34.391447],[-58.681614,-34.391547],[-58.681656,-34.39161],[-58.681688,-34.391674],[-58.681762,-34.391783],[-58.681836,-34.391919],[-58.681899,-34.392063],[-58.681908,-34.392163],[-58.681895,-34.392298],[-58.681872,-34.392406],[-58.684796,-34.394515]]]}},{"type":"Feature","properties":{"partida":"057065014","cca":"0570300000000000000000000000000000000560ZZ","tipo":"Rural","sup_m2":29265.2},"geometry":{"type":"Polygon","coordinates":[[[-58.684796,-34.394515],[-58.681872,-34.392406],[-58.681804,-34.392576],[-58.68177,-34.392684],[-58.68178,-34.392711],[-58.681811,-34.392829],[-58.681906,-34.393019],[-58.681925,-34.393154],[-58.681903,-34.393199],[-58.681847,-34.39328],[-58.68166,-34.393435],[-58.683676,-34.394899],[-58.684796,-34.394515]]]}},{"type":"Feature","properties":{"partida":"057065015","cca":"057030000000000000000000000000000000056AAA","tipo":"Rural","sup_m2":23119.9},"geometry":{"type":"Polygon","coordinates":[[[-58.683676,-34.394899],[-58.68166,-34.393435],[-58.681551,-34.393457],[-58.681452,-34.393501],[-58.681333,-34.393518],[-58.68105,-34.393497],[-58.680898,-34.393495],[-58.680572,-34.393473],[-58.680464,-34.393463],[-58.680366,-34.393444],[-58.680258,-34.393416],[-58.680139,-34.39336],[-58.680096,-34.393351],[-58.682719,-34.395227],[-58.683676,-34.394899]]]}},{"type":"Feature","properties":{"partida":"057065016","cca":"057030000000000000000000000000000000056BBB","tipo":"Rural","sup_m2":47428.8},"geometry":{"type":"Polygon","coordinates":[[[-58.681479,-34.395651],[-58.682719,-34.395227],[-58.680069,-34.393333],[-58.679977,-34.393296],[-58.679825,-34.393249],[-58.679609,-34.393165],[-58.67948,-34.393101],[-58.679404,-34.393046],[-58.67934,-34.393009],[-58.679102,-34.392908],[-58.678962,-34.392852],[-58.67881,-34.392796],[-58.678442,-34.392711],[-58.678268,-34.392691],[-58.678159,-34.392699],[-58.678094,-34.392707],[-58.678018,-34.392734],[-58.67793,-34.392778],[-58.677743,-34.392933],[-58.680651,-34.395052],[-58.681479,-34.395651]]]}},{"type":"Feature","properties":{"partida":"057065017","cca":"057030000000000000000000000000000000056CCC","tipo":"Rural","sup_m2":38662.4},"geometry":{"type":"Polygon","coordinates":[[[-58.676997,-34.393318],[-58.677763,-34.394033],[-58.680511,-34.395983],[-58.681479,-34.395651],[-58.680651,-34.395052],[-58.677743,-34.392933],[-58.677666,-34.392991],[-58.677346,-34.393249],[-58.677291,-34.393285],[-58.677247,-34.393302],[-58.67716,-34.39331],[-58.677041,-34.393309],[-58.676997,-34.393318]]]}},{"type":"Feature","properties":{"partida":"057065018","cca":"057030000000000000000000000000000000056DDD","tipo":"Rural","sup_m2":42989.1},"geometry":{"type":"Polygon","coordinates":[[[-58.679445,-34.39635],[-58.680511,-34.395983],[-58.677763,-34.394033],[-58.676997,-34.393318],[-58.676801,-34.393369],[-58.676626,-34.393431],[-58.67644,-34.393501],[-58.676276,-34.393571],[-58.676209,-34.393625],[-58.676143,-34.393687],[-58.676109,-34.393759],[-58.676098,-34.393822],[-58.676095,-34.394011],[-58.679445,-34.39635]]]}},{"type":"Feature","properties":{"partida":"057065019","cca":"057030000000000000000000000000000000056EEE","tipo":"Rural","sup_m2":33680.6},"geometry":{"type":"Polygon","coordinates":[[[-58.679445,-34.39635],[-58.676095,-34.394011],[-58.676093,-34.394119],[-58.67608,-34.394236],[-58.676078,-34.39438],[-58.676053,-34.394596],[-58.676063,-34.394669],[-58.676094,-34.394759],[-58.676136,-34.39485],[-58.676199,-34.394949],[-58.676349,-34.395095],[-58.676562,-34.395422],[-58.676625,-34.395531],[-58.676668,-34.395585],[-58.676678,-34.395622],[-58.67665,-34.395657],[-58.678231,-34.396765],[-58.679445,-34.39635]]]}},{"type":"Feature","properties":{"partida":"057065020","cca":"057030000000000000000000000000000000056FFF","tipo":"Rural","sup_m2":18075.9},"geometry":{"type":"Polygon","coordinates":[[[-58.677319,-34.39708],[-58.678231,-34.396765],[-58.67665,-34.395657],[-58.676655,-34.39573],[-58.67661,-34.395792],[-58.676544,-34.395846],[-58.676478,-34.395881],[-58.676413,-34.395907],[-58.676293,-34.395924],[-58.676239,-34.395914],[-58.67613,-34.395886],[-58.676066,-34.39584],[-58.676002,-34.395768],[-58.67596,-34.395677],[-58.675938,-34.395641],[-58.675906,-34.395604],[-58.675853,-34.395559],[-58.675735,-34.395449],[-58.675638,-34.395376],[-58.675584,-34.395339],[-58.67553,-34.395312],[-58.675476,-34.395293],[-58.675411,-34.395292],[-58.675356,-34.395319],[-58.67529,-34.395381],[-58.67519,-34.395524],[-58.675146,-34.395564],[-58.677319,-34.39708]]]}},{"type":"Feature","properties":{"partida":"057065021","cca":"057030000000000000000000000000000000056GGG","tipo":"Rural","sup_m2":21532.6},"geometry":{"type":"Polygon","coordinates":[[[-58.677319,-34.39708],[-58.675146,-34.395564],[-58.675058,-34.39564],[-58.674992,-34.395675],[-58.674796,-34.395718],[-58.674436,-34.39576],[-58.674327,-34.395776],[-58.674261,-34.395803],[-58.674228,-34.395829],[-58.674206,-34.395892],[-58.676395,-34.397394],[-58.677319,-34.39708]]]}},{"type":"Feature","properties":{"partida":"057065022","cca":"057030000000000000000000000000000000056HHH","tipo":"Rural","sup_m2":18564.7},"geometry":{"type":"Polygon","coordinates":[[[-58.676395,-34.397394],[-58.674206,-34.395892],[-58.674126,-34.396126],[-58.674058,-34.396305],[-58.674012,-34.396458],[-58.674,-34.396521],[-58.673977,-34.396584],[-58.673966,-34.396629],[-58.673911,-34.396664],[-58.675427,-34.397726],[-58.676395,-34.397394]]]}},{"type":"Feature","properties":{"partida":"057065023","cca":"057030000000000000000000000000000000056JJJ","tipo":"Rural","sup_m2":9520.5},"geometry":{"type":"Polygon","coordinates":[[[-58.674777,-34.397949],[-58.675427,-34.397726],[-58.674115,-34.396806],[-58.673627,-34.397436],[-58.674777,-34.397949]]]}},{"type":"Feature","properties":{"partida":"057065024","cca":"057030000000000000000000000000000000056KKK","tipo":"Rural","sup_m2":7891.0},"geometry":{"type":"Polygon","coordinates":[[[-58.673627,-34.397436],[-58.6731,-34.398111],[-58.673569,-34.398364],[-58.674777,-34.397949],[-58.673627,-34.397436]]]}},{"type":"Feature","properties":{"partida":"057136105","cca":"057030D000000000550000000000005500N0002000","tipo":"Urbano","sup_m2":584.2},"geometry":{"type":"Polygon","coordinates":[[[-58.670979,-34.397518],[-58.670809,-34.397428],[-58.670663,-34.397627],[-58.670657,-34.397645],[-58.670656,-34.397665],[-58.670662,-34.397683],[-58.670673,-34.3977],[-58.67069,-34.397713],[-58.670782,-34.397772],[-58.670979,-34.397518]]]}},{"type":"Feature","properties":{"partida":"057136106","cca":"057030D000000000550000000000005500N0003000","tipo":"Urbano","sup_m2":579.9},"geometry":{"type":"Polygon","coordinates":[[[-58.670979,-34.397518],[-58.670782,-34.397772],[-58.670931,-34.397864],[-58.671134,-34.3976],[-58.670979,-34.397518]]]}},{"type":"Feature","properties":{"partida":"057136107","cca":"057030D000000000550000000000005500N0004000","tipo":"Urbano","sup_m2":646.6},"geometry":{"type":"Polygon","coordinates":[[[-58.671134,-34.3976],[-58.670931,-34.397864],[-58.671093,-34.397961],[-58.671302,-34.397689],[-58.671134,-34.3976]]]}},{"type":"Feature","properties":{"partida":"057036540","cca":"057030D00110000000000000000000060000001000","tipo":"Urbano","sup_m2":672.0},"geometry":{"type":"Polygon","coordinates":[[[-58.667005,-34.395459],[-58.667183,-34.395222],[-58.667009,-34.395132],[-58.66697,-34.395138],[-58.666802,-34.395356],[-58.667005,-34.395459]]]}},{"type":"Feature","properties":{"partida":"057036545","cca":"057030D00110000000000000000000060000015000","tipo":"Urbano","sup_m2":629.1},"geometry":{"type":"Polygon","coordinates":[[[-58.666868,-34.395809],[-58.667168,-34.395965],[-58.667279,-34.395818],[-58.666983,-34.395661],[-58.666868,-34.395809]]]}},{"type":"Feature","properties":{"partida":"057036546","cca":"057030D00110000000000000000000060000016000","tipo":"Urbano","sup_m2":655.8},"geometry":{"type":"Polygon","coordinates":[[[-58.6674,-34.395664],[-58.667099,-34.395508],[-58.666983,-34.395661],[-58.667279,-34.395818],[-58.6674,-34.395664]]]}},{"type":"Feature","properties":{"partida":"057036547","cca":"057030D00110000000000000000000060000017000","tipo":"Urbano","sup_m2":649.6},"geometry":{"type":"Polygon","coordinates":[[[-58.667203,-34.395562],[-58.6674,-34.395664],[-58.667563,-34.395448],[-58.66756,-34.395424],[-58.667378,-34.395329],[-58.667203,-34.395562]]]}},{"type":"Feature","properties":{"partida":"057036548","cca":"057030D00110000000000000000000060000018000","tipo":"Urbano","sup_m2":658.5},"geometry":{"type":"Polygon","coordinates":[[[-58.667203,-34.395562],[-58.667378,-34.395329],[-58.667183,-34.395222],[-58.667005,-34.395459],[-58.667203,-34.395562]]]}},{"type":"Feature","properties":{"partida":"057036549","cca":"057030D00110000000000000000000110000001000","tipo":"Urbano","sup_m2":626.6},"geometry":{"type":"Polygon","coordinates":[[[-58.667706,-34.395842],[-58.667879,-34.395616],[-58.667707,-34.395526],[-58.667669,-34.395536],[-58.66751,-34.395743],[-58.667706,-34.395842]]]}},{"type":"Feature","properties":{"partida":"057036550","cca":"057030D00110000000000000000000110000002000","tipo":"Urbano","sup_m2":640.0},"geometry":{"type":"Polygon","coordinates":[[[-58.667704,-34.396046],[-58.667815,-34.3959],[-58.66751,-34.395743],[-58.667397,-34.39589],[-58.667704,-34.396046]]]}},{"type":"Feature","properties":{"partida":"057036551","cca":"057030D00110000000000000000000110000003000","tipo":"Urbano","sup_m2":632.1},"geometry":{"type":"Polygon","coordinates":[[[-58.667704,-34.396046],[-58.667397,-34.39589],[-58.667283,-34.396032],[-58.667595,-34.396191],[-58.667704,-34.396046]]]}},{"type":"Feature","properties":{"partida":"057036552","cca":"057030D00110000000000000000000110000004000","tipo":"Urbano","sup_m2":728.4},"geometry":{"type":"Polygon","coordinates":[[[-58.667468,-34.396357],[-58.667595,-34.396191],[-58.667283,-34.396032],[-58.66716,-34.396198],[-58.667468,-34.396357]]]}},{"type":"Feature","properties":{"partida":"057036553","cca":"057030D00110000000000000000000110000014000","tipo":"Urbano","sup_m2":698.4},"geometry":{"type":"Polygon","coordinates":[[[-58.667595,-34.396191],[-58.667468,-34.396357],[-58.667766,-34.39651],[-58.667892,-34.396347],[-58.667595,-34.396191]]]}},{"type":"Feature","properties":{"partida":"057036554","cca":"057030D00110000000000000000000110000015000","tipo":"Urbano","sup_m2":616.2},"geometry":{"type":"Polygon","coordinates":[[[-58.667595,-34.396191],[-58.667892,-34.396347],[-58.668004,-34.396203],[-58.667704,-34.396046],[-58.667595,-34.396191]]]}},{"type":"Feature","properties":{"partida":"057036555","cca":"057030D00110000000000000000000110000016000","tipo":"Urbano","sup_m2":636.3},"geometry":{"type":"Polygon","coordinates":[[[-58.668117,-34.396055],[-58.667905,-34.395943],[-58.667815,-34.3959],[-58.667704,-34.396046],[-58.668004,-34.396203],[-58.668117,-34.396055]]]}},{"type":"Feature","properties":{"partida":"057036556","cca":"057030D00110000000000000000000110000017000","tipo":"Urbano","sup_m2":681.4},"geometry":{"type":"Polygon","coordinates":[[[-58.667905,-34.395943],[-58.668117,-34.396055],[-58.668271,-34.395854],[-58.668268,-34.39582],[-58.668075,-34.395718],[-58.667905,-34.395943]]]}},{"type":"Feature","properties":{"partida":"057036557","cca":"057030D00110000000000000000000110000018000","tipo":"Urbano","sup_m2":633.8},"geometry":{"type":"Polygon","coordinates":[[[-58.668075,-34.395718],[-58.667879,-34.395616],[-58.667706,-34.395842],[-58.667815,-34.3959],[-58.667905,-34.395943],[-58.668075,-34.395718]]]}},{"type":"Feature","properties":{"partida":"057012029","cca":"057030S00000000000000000100000000000001000","tipo":"Rural","sup_m2":11786.7},"geometry":{"type":"Polygon","coordinates":[[[-58.674915,-34.389291],[-58.676074,-34.388461],[-58.675265,-34.388027],[-58.674205,-34.388616],[-58.674915,-34.389291]]]}},{"type":"Feature","properties":{"partida":"057063052","cca":"057030S00000000000000000100000000000002000","tipo":"Rural","sup_m2":14349.5},"geometry":{"type":"Polygon","coordinates":[[[-58.674901,-34.390317],[-58.675514,-34.389861],[-58.674205,-34.388616],[-58.673509,-34.389003],[-58.674901,-34.390317]]]}},{"type":"Feature","properties":{"partida":"057063053","cca":"057030S00000000000000000100000000000003000","tipo":"Rural","sup_m2":12917.2},"geometry":{"type":"Polygon","coordinates":[[[-58.672924,-34.389328],[-58.674371,-34.390713],[-58.674901,-34.390317],[-58.673509,-34.389003],[-58.672924,-34.389328]]]}},{"type":"Feature","properties":{"partida":"057063054","cca":"057030S00000000000000000100000000000004000","tipo":"Urbano","sup_m2":16809.0},"geometry":{"type":"Polygon","coordinates":[[[-58.673718,-34.3912],[-58.674371,-34.390713],[-58.672924,-34.389328],[-58.672195,-34.389733],[-58.673718,-34.3912]]]}},{"type":"Feature","properties":{"partida":"057063055","cca":"057030S00000000000000000100000000000005000","tipo":"Rural","sup_m2":16945.1},"geometry":{"type":"Polygon","coordinates":[[[-58.673098,-34.391662],[-58.673718,-34.3912],[-58.672195,-34.389733],[-58.671492,-34.390123],[-58.673098,-34.391662]]]}},{"type":"Feature","properties":{"partida":"057063056","cca":"057030S00000000000000000100000000000006000","tipo":"Urbano","sup_m2":17710.5},"geometry":{"type":"Polygon","coordinates":[[[-58.670803,-34.390507],[-58.672472,-34.392129],[-58.673098,-34.391662],[-58.671492,-34.390123],[-58.670803,-34.390507]]]}},{"type":"Feature","properties":{"partida":"057063044","cca":"057030S00000000000000000100000000000007000","tipo":"Rural","sup_m2":71612.0},"geometry":{"type":"Polygon","coordinates":[[[-58.670787,-34.393264],[-58.672731,-34.395168],[-58.67346,-34.394461],[-58.671273,-34.392351],[-58.672099,-34.391767],[-58.670803,-34.390507],[-58.668938,-34.391543],[-58.670787,-34.393264]]]}},{"type":"Feature","properties":{"partida":"057063057","cca":"057030S00000000000000000100000000000008000","tipo":"Rural","sup_m2":21680.0},"geometry":{"type":"Polygon","coordinates":[[[-58.670188,-34.3937],[-58.670787,-34.393264],[-58.668938,-34.391543],[-58.668092,-34.392013],[-58.670188,-34.3937]]]}},{"type":"Feature","properties":{"partida":"057063058","cca":"057030S00000000000000000100000000000009000","tipo":"Rural","sup_m2":23247.0},"geometry":{"type":"Polygon","coordinates":[[[-58.669628,-34.394107],[-58.670188,-34.3937],[-58.668092,-34.392013],[-58.667157,-34.392533],[-58.669628,-34.394107]]]}},{"type":"Feature","properties":{"partida":"057063059","cca":"057030S00000000000000000100000000000010000","tipo":"Rural","sup_m2":24758.7},"geometry":{"type":"Polygon","coordinates":[[[-58.666246,-34.393039],[-58.669013,-34.394554],[-58.669628,-34.394107],[-58.667157,-34.392533],[-58.666246,-34.393039]]]}},{"type":"Feature","properties":{"partida":"057063065","cca":"057030S00000000000000000100000000000016000","tipo":"Rural","sup_m2":4818.5},"geometry":{"type":"Polygon","coordinates":[[[-58.667323,-34.393629],[-58.666571,-34.394587],[-58.666909,-34.394772],[-58.667675,-34.393822],[-58.667323,-34.393629]]]}},{"type":"Feature","properties":{"partida":"057063066","cca":"057030S00000000000000000100000000000017000","tipo":"Rural","sup_m2":5243.0},"geometry":{"type":"Polygon","coordinates":[[[-58.668048,-34.394026],[-58.667675,-34.393822],[-58.666909,-34.394772],[-58.667287,-34.394978],[-58.668048,-34.394026]]]}},{"type":"Feature","properties":{"partida":"057063067","cca":"057030S00000000000000000100000000000018000","tipo":"Rural","sup_m2":5246.2},"geometry":{"type":"Polygon","coordinates":[[[-58.668048,-34.394026],[-58.667287,-34.394978],[-58.667658,-34.39518],[-58.668429,-34.394234],[-58.668048,-34.394026]]]}},{"type":"Feature","properties":{"partida":"057063068","cca":"057030S00000000000000000100000000000019000","tipo":"Rural","sup_m2":5133.1},"geometry":{"type":"Polygon","coordinates":[[[-58.667658,-34.39518],[-58.668029,-34.395382],[-58.668794,-34.394434],[-58.668429,-34.394234],[-58.667658,-34.39518]]]}},{"type":"Feature","properties":{"partida":"057063069","cca":"057030S00000000000000000100000000000020000","tipo":"Rural","sup_m2":4769.1},"geometry":{"type":"Polygon","coordinates":[[[-58.668372,-34.39557],[-58.669135,-34.394621],[-58.668794,-34.394434],[-58.668029,-34.395382],[-58.668372,-34.39557]]]}},{"type":"Feature","properties":{"partida":"057063070","cca":"057030S00000000000000000100000000000021000","tipo":"Rural","sup_m2":5257.9},"geometry":{"type":"Polygon","coordinates":[[[-58.669135,-34.394621],[-58.668372,-34.39557],[-58.668744,-34.395772],[-58.669518,-34.394831],[-58.669135,-34.394621]]]}},{"type":"Feature","properties":{"partida":"057063071","cca":"057030S00000000000000000100000000000022000","tipo":"Rural","sup_m2":5238.9},"geometry":{"type":"Polygon","coordinates":[[[-58.669893,-34.395036],[-58.669518,-34.394831],[-58.668744,-34.395772],[-58.669121,-34.395978],[-58.669893,-34.395036]]]}},{"type":"Feature","properties":{"partida":"057063072","cca":"057030S00000000000000000100000000000023000","tipo":"Rural","sup_m2":4814.9},"geometry":{"type":"Polygon","coordinates":[[[-58.669893,-34.395036],[-58.669121,-34.395978],[-58.669467,-34.396167],[-58.670239,-34.395226],[-58.669893,-34.395036]]]}},{"type":"Feature","properties":{"partida":"057063073","cca":"057030S00000000000000000100000000000024000","tipo":"Rural","sup_m2":5043.0},"geometry":{"type":"Polygon","coordinates":[[[-58.669828,-34.396364],[-58.670604,-34.395425],[-58.670239,-34.395226],[-58.669467,-34.396167],[-58.669828,-34.396364]]]}},{"type":"Feature","properties":{"partida":"057063074","cca":"057030S00000000000000000100000000000025000","tipo":"Rural","sup_m2":4853.3},"geometry":{"type":"Polygon","coordinates":[[[-58.67095,-34.395615],[-58.670604,-34.395425],[-58.669828,-34.396364],[-58.670181,-34.396556],[-58.67095,-34.395615]]]}},{"type":"Feature","properties":{"partida":"057063075","cca":"057030S0000000000000000010000000000002600A","tipo":"Urbano","sup_m2":8696.5},"geometry":{"type":"Polygon","coordinates":[[[-58.670181,-34.396556],[-58.670439,-34.396697],[-58.670725,-34.396685],[-58.671692,-34.396174],[-58.671793,-34.396077],[-58.67095,-34.395615],[-58.670181,-34.396556]]]}},{"type":"Feature","properties":{"partida":"057063078","cca":"057030S00000000000000000100000000000029000","tipo":"Rural","sup_m2":25281.0},"geometry":{"type":"Polygon","coordinates":[[[-58.672255,-34.39563],[-58.66989,-34.393917],[-58.669013,-34.394554],[-58.671793,-34.396077],[-58.672255,-34.39563]]]}},{"type":"Feature","properties":{"partida":"057063079","cca":"057030S00000000000000000100000000000030000","tipo":"Rural","sup_m2":24920.4},"geometry":{"type":"Polygon","coordinates":[[[-58.672731,-34.395168],[-58.670787,-34.393264],[-58.66989,-34.393917],[-58.672255,-34.39563],[-58.672731,-34.395168]]]}},{"type":"Feature","properties":{"partida":"057063045","cca":"057030S00000000000000000100000000000031000","tipo":"Rural","sup_m2":29893.8},"geometry":{"type":"Polygon","coordinates":[[[-58.674167,-34.393776],[-58.672099,-34.391767],[-58.671273,-34.392351],[-58.67346,-34.394461],[-58.674167,-34.393776]]]}},{"type":"Feature","properties":{"partida":"057063080","cca":"057030S00000000000000000100000000000032000","tipo":"Rural","sup_m2":18373.5},"geometry":{"type":"Polygon","coordinates":[[[-58.674732,-34.393228],[-58.673098,-34.391662],[-58.672472,-34.392129],[-58.674167,-34.393776],[-58.674732,-34.393228]]]}},{"type":"Feature","properties":{"partida":"057063046","cca":"057030S00000000000000000100000000000033000","tipo":"Rural","sup_m2":17151.2},"geometry":{"type":"Polygon","coordinates":[[[-58.674732,-34.393228],[-58.675275,-34.392701],[-58.673718,-34.3912],[-58.673098,-34.391662],[-58.674732,-34.393228]]]}},{"type":"Feature","properties":{"partida":"057063047","cca":"057030S00000000000000000100000000000034000","tipo":"Urbano","sup_m2":17384.1},"geometry":{"type":"Polygon","coordinates":[[[-58.674371,-34.390713],[-58.673718,-34.3912],[-58.675275,-34.392701],[-58.675858,-34.392137],[-58.674371,-34.390713]]]}},{"type":"Feature","properties":{"partida":"057063048","cca":"057030S00000000000000000100000000000035000","tipo":"Rural","sup_m2":13571.8},"geometry":{"type":"Polygon","coordinates":[[[-58.675858,-34.392137],[-58.676337,-34.391673],[-58.674901,-34.390317],[-58.674371,-34.390713],[-58.675858,-34.392137]]]}},{"type":"Feature","properties":{"partida":"057063081","cca":"057030S00000000000000000100000000000036000","tipo":"Rural","sup_m2":14728.3},"geometry":{"type":"Polygon","coordinates":[[[-58.676873,-34.391152],[-58.675514,-34.389861],[-58.674901,-34.390317],[-58.676337,-34.391673],[-58.676873,-34.391152]]]}},{"type":"Feature","properties":{"partida":"057063049","cca":"057030S00000000000000000100000000000037000","tipo":"Rural","sup_m2":14047.7},"geometry":{"type":"Polygon","coordinates":[[[-58.676121,-34.389408],[-58.675514,-34.389861],[-58.676873,-34.391152],[-58.67742,-34.390622],[-58.676121,-34.389408]]]}},{"type":"Feature","properties":{"partida":"057063050","cca":"057030S00000000000000000100000000000038000","tipo":"Rural","sup_m2":10696.3},"geometry":{"type":"Polygon","coordinates":[[[-58.676788,-34.390032],[-58.67742,-34.390622],[-58.678376,-34.389695],[-58.677579,-34.389268],[-58.676788,-34.390032]]]}},{"type":"Feature","properties":{"partida":"057063051","cca":"057030S00000000000000000100000000000039000","tipo":"Rural","sup_m2":8594.9},"geometry":{"type":"Polygon","coordinates":[[[-58.676788,-34.390032],[-58.677579,-34.389268],[-58.67684,-34.388872],[-58.676121,-34.389408],[-58.676788,-34.390032]]]}},{"type":"Feature","properties":{"partida":"057063082","cca":"057030S00000000000000000100000000000040000","tipo":"Rural","sup_m2":12542.5},"geometry":{"type":"Polygon","coordinates":[[[-58.675514,-34.389861],[-58.67684,-34.388872],[-58.676074,-34.388461],[-58.674915,-34.389291],[-58.675514,-34.389861]]]}},{"type":"Feature","properties":{"partida":"057071381","cca":"057030S00590000000000000000000000000001000","tipo":"Rural","sup_m2":54369.1},"geometry":{"type":"Polygon","coordinates":[[[-58.670668,-34.387008],[-58.67146,-34.385976],[-58.667807,-34.384014],[-58.66702,-34.385055],[-58.670668,-34.387008]]]}},{"type":"Feature","properties":{"partida":"057071382","cca":"057030S00590000000000000000000000000002000","tipo":"Rural","sup_m2":50466.3},"geometry":{"type":"Polygon","coordinates":[[[-58.670668,-34.387008],[-58.66702,-34.385055],[-58.666296,-34.386013],[-58.669923,-34.387979],[-58.670668,-34.387008]]]}},{"type":"Feature","properties":{"partida":"057071383","cca":"057030S00590000000000000000000000000003000","tipo":"Rural","sup_m2":52299.0},"geometry":{"type":"Polygon","coordinates":[[[-58.66917,-34.38896],[-58.669923,-34.387979],[-58.666296,-34.386013],[-58.665524,-34.387034],[-58.66917,-34.38896]]]}},{"type":"Feature","properties":{"partida":"057076293","cca":"057030S0059000000000000000000000000000400A","tipo":"Rural","sup_m2":20291.9},"geometry":{"type":"Polygon","coordinates":[[[-58.66949,-34.388543],[-58.66917,-34.38896],[-58.67057,-34.390411],[-58.67175,-34.389741],[-58.66949,-34.388543]]]}},{"type":"Feature","properties":{"partida":"057071384","cca":"057030S0059000000000000000000000000000400B","tipo":"Rural","sup_m2":19345.7},"geometry":{"type":"Polygon","coordinates":[[[-58.67175,-34.389741],[-58.672463,-34.389336],[-58.669923,-34.387979],[-58.66949,-34.388543],[-58.67175,-34.389741]]]}},{"type":"Feature","properties":{"partida":"057076294","cca":"057030S0059000000000000000000000000000500A","tipo":"Rural","sup_m2":38863.8},"geometry":{"type":"Polygon","coordinates":[[[-58.670668,-34.387008],[-58.669923,-34.387979],[-58.672463,-34.389336],[-58.6737,-34.388632],[-58.670668,-34.387008]]]}},{"type":"Feature","properties":{"partida":"057076295","cca":"057030S0059000000000000000000000000000500B","tipo":"Rural","sup_m2":25596.5},"geometry":{"type":"Polygon","coordinates":[[[-58.6737,-34.388632],[-58.674421,-34.388222],[-58.671094,-34.386453],[-58.670668,-34.387008],[-58.6737,-34.388632]]]}},{"type":"Feature","properties":{"partida":"057064995","cca":"057030S0059000000000000000000000000000500C","tipo":"Rural","sup_m2":23280.4},"geometry":{"type":"Polygon","coordinates":[[[-58.67146,-34.385976],[-58.671094,-34.386453],[-58.674421,-34.388222],[-58.675014,-34.387885],[-58.67146,-34.385976]]]}},{"type":"Feature","properties":{"partida":"057071394","cca":"057030S00600000000000000000000000000010000","tipo":"Rural","sup_m2":22489.2},"geometry":{"type":"Polygon","coordinates":[[[-58.667787,-34.391964],[-58.668771,-34.391413],[-58.666723,-34.390316],[-58.665742,-34.390865],[-58.667787,-34.391964]]]}},{"type":"Feature","properties":{"partida":"057071395","cca":"057030S00600000000000000000000000000011000","tipo":"Rural","sup_m2":22666.6},"geometry":{"type":"Polygon","coordinates":[[[-58.669771,-34.390853],[-58.667704,-34.389768],[-58.666723,-34.390316],[-58.668771,-34.391413],[-58.669771,-34.390853]]]}},{"type":"Feature","properties":{"partida":"057080586","cca":"057030S00610000000000000000000000000004000","tipo":"Rural","sup_m2":7153.2},"geometry":{"type":"Polygon","coordinates":[[[-58.68056,-34.386062],[-58.681122,-34.385337],[-58.680637,-34.385078],[-58.67975,-34.385548],[-58.679769,-34.385645],[-58.68056,-34.386062]]]}},{"type":"Feature","properties":{"partida":"057080587","cca":"057030S00610000000000000000000000000005000","tipo":"Rural","sup_m2":7025.6},"geometry":{"type":"Polygon","coordinates":[[[-58.681122,-34.385337],[-58.68056,-34.386062],[-58.681238,-34.386418],[-58.681795,-34.385696],[-58.681122,-34.385337]]]}},{"type":"Feature","properties":{"partida":"057080588","cca":"057030S00610000000000000000000000000006000","tipo":"Rural","sup_m2":7203.4},"geometry":{"type":"Polygon","coordinates":[[[-58.681938,-34.386786],[-58.682486,-34.386065],[-58.681795,-34.385696],[-58.681238,-34.386418],[-58.681938,-34.386786]]]}},{"type":"Feature","properties":{"partida":null,"cca":"057030S00610000000000000000000000000007000","tipo":null,"sup_m2":7332.3},"geometry":{"type":"Polygon","coordinates":[[[-58.683192,-34.386442],[-58.682486,-34.386065],[-58.681938,-34.386786],[-58.682656,-34.387164],[-58.683192,-34.386442]]]}},{"type":"Feature","properties":{"partida":null,"cca":"057030S00610000000000000000000000000008000","tipo":null,"sup_m2":6845.9},"geometry":{"type":"Polygon","coordinates":[[[-58.683192,-34.386442],[-58.682656,-34.387164],[-58.683215,-34.387458],[-58.6834,-34.387428],[-58.683868,-34.386802],[-58.683192,-34.386442]]]}},{"type":"Feature","properties":{"partida":"057081535","cca":"057030S00620000000000000000000000000001000","tipo":"Rural","sup_m2":9948.6},"geometry":{"type":"Polygon","coordinates":[[[-58.678815,-34.387022],[-58.679769,-34.385791],[-58.679607,-34.385705],[-58.679424,-34.385715],[-58.677934,-34.386557],[-58.678815,-34.387022]]]}},{"type":"Feature","properties":{"partida":"057080591","cca":"057030S00620000000000000000000000000002000","tipo":"Rural","sup_m2":8887.9},"geometry":{"type":"Polygon","coordinates":[[[-58.678815,-34.387022],[-58.677934,-34.386557],[-58.677168,-34.386989],[-58.678357,-34.387622],[-58.678815,-34.387022]]]}},{"type":"Feature","properties":{"partida":"057080592","cca":"057030S00620000000000000000000000000003000","tipo":"Rural","sup_m2":19229.8},"geometry":{"type":"Polygon","coordinates":[[[-58.678357,-34.387622],[-58.677168,-34.386989],[-58.676063,-34.387613],[-58.676077,-34.387733],[-58.677642,-34.388558],[-58.678357,-34.387622]]]}},{"type":"Feature","properties":{"partida":"057080593","cca":"057030S00620000000000000000000000000004000","tipo":"Urbano","sup_m2":15027.9},"geometry":{"type":"Polygon","coordinates":[[[-58.678324,-34.388918],[-58.679499,-34.387383],[-58.678815,-34.387022],[-58.677642,-34.388558],[-58.678324,-34.388918]]]}},{"type":"Feature","properties":{"partida":"057080594","cca":"057030S00620000000000000000000000000005000","tipo":"Urbano","sup_m2":14440.6},"geometry":{"type":"Polygon","coordinates":[[[-58.680159,-34.387732],[-58.679499,-34.387383],[-58.678324,-34.388918],[-58.678978,-34.389263],[-58.680159,-34.387732]]]}},{"type":"Feature","properties":{"partida":"057080595","cca":"057030S00620000000000000000000000000006000","tipo":"Urbano","sup_m2":15210.8},"geometry":{"type":"Polygon","coordinates":[[[-58.680852,-34.388098],[-58.680159,-34.387732],[-58.678978,-34.389263],[-58.679669,-34.389628],[-58.680852,-34.388098]]]}},{"type":"Feature","properties":{"partida":"057080596","cca":"057030S00620000000000000000000000000007000","tipo":"Rural","sup_m2":9874.3},"geometry":{"type":"Polygon","coordinates":[[[-58.681119,-34.389049],[-58.680411,-34.388667],[-58.679669,-34.389628],[-58.680393,-34.39001],[-58.681119,-34.389049]]]}},{"type":"Feature","properties":{"partida":"057080597","cca":"057030S00620000000000000000000000000008000","tipo":"Rural","sup_m2":9275.3},"geometry":{"type":"Polygon","coordinates":[[[-58.681119,-34.389049],[-58.680393,-34.39001],[-58.680978,-34.390318],[-58.681132,-34.390293],[-58.681799,-34.389415],[-58.681119,-34.389049]]]}},{"type":"Feature","properties":{"partida":"057080598","cca":"057030S00620000000000000000000000000009000","tipo":"Rural","sup_m2":11515.9},"geometry":{"type":"Polygon","coordinates":[[[-58.680852,-34.388098],[-58.680411,-34.388667],[-58.681799,-34.389415],[-58.682243,-34.388832],[-58.680852,-34.388098]]]}},{"type":"Feature","properties":{"partida":"057081536","cca":"057030S00620000000000000000000000000010000","tipo":"Rural","sup_m2":12023.4},"geometry":{"type":"Polygon","coordinates":[[[-58.681562,-34.388473],[-58.682243,-34.388832],[-58.683124,-34.387674],[-58.683095,-34.38755],[-58.682499,-34.387234],[-58.681562,-34.388473]]]}},{"type":"Feature","properties":{"partida":"057081537","cca":"057030S00620000000000000000000000000011000","tipo":"Rural","sup_m2":12424.0},"geometry":{"type":"Polygon","coordinates":[[[-58.681804,-34.386867],[-58.680852,-34.388098],[-58.681562,-34.388473],[-58.682499,-34.387234],[-58.681804,-34.386867]]]}},{"type":"Feature","properties":{"partida":"057081538","cca":"057030S00620000000000000000000000000012000","tipo":"Rural","sup_m2":12271.0},"geometry":{"type":"Polygon","coordinates":[[[-58.681804,-34.386867],[-58.68111,-34.3865],[-58.680159,-34.387732],[-58.680852,-34.388098],[-58.681804,-34.386867]]]}},{"type":"Feature","properties":{"partida":"057081539","cca":"057030S00620000000000000000000000000013000","tipo":"Rural","sup_m2":11732.2},"geometry":{"type":"Polygon","coordinates":[[[-58.680445,-34.386148],[-58.679499,-34.387383],[-58.680159,-34.387732],[-58.68111,-34.3865],[-58.680445,-34.386148]]]}},{"type":"Feature","properties":{"partida":"057081540","cca":"057030S00620000000000000000000000000014000","tipo":"Rural","sup_m2":12042.1},"geometry":{"type":"Polygon","coordinates":[[[-58.679499,-34.387383],[-58.680445,-34.386148],[-58.679769,-34.385791],[-58.678815,-34.387022],[-58.679499,-34.387383]]]}},{"type":"Feature","properties":{"partida":"057080599","cca":"057030S00680000000000000000000000000004000","tipo":"Rural","sup_m2":6932.2},"geometry":{"type":"Polygon","coordinates":[[[-58.6841,-34.387918],[-58.684653,-34.387205],[-58.683978,-34.386844],[-58.683476,-34.387481],[-58.683499,-34.387594],[-58.6841,-34.387918]]]}},{"type":"Feature","properties":{"partida":"057080600","cca":"057030S00680000000000000000000000000005000","tipo":"Rural","sup_m2":7302.3},"geometry":{"type":"Polygon","coordinates":[[[-58.6841,-34.387918],[-58.684804,-34.388297],[-58.685363,-34.387584],[-58.684653,-34.387205],[-58.6841,-34.387918]]]}},{"type":"Feature","properties":{"partida":"057080601","cca":"057030S00680000000000000000000000000006000","tipo":"Rural","sup_m2":7004.6},"geometry":{"type":"Polygon","coordinates":[[[-58.685485,-34.388664],[-58.686036,-34.387944],[-58.685363,-34.387584],[-58.684804,-34.388297],[-58.685485,-34.388664]]]}},{"type":"Feature","properties":{"partida":"057080602","cca":"057030S00680000000000000000000000000007000","tipo":"Rural","sup_m2":6812.8},"geometry":{"type":"Polygon","coordinates":[[[-58.686695,-34.388296],[-58.686036,-34.387944],[-58.685485,-34.388664],[-58.68614,-34.389017],[-58.686695,-34.388296]]]}},{"type":"Feature","properties":{"partida":"057080603","cca":"057030S00680000000000000000000000000008000","tipo":"Rural","sup_m2":7024.5},"geometry":{"type":"Polygon","coordinates":[[[-58.686816,-34.389381],[-58.687369,-34.388657],[-58.686695,-34.388296],[-58.68614,-34.389017],[-58.686816,-34.389381]]]}},{"type":"Feature","properties":{"partida":"057080604","cca":"057030S00680000000000000000000000000009000","tipo":"Rural","sup_m2":7037.0},"geometry":{"type":"Polygon","coordinates":[[[-58.687369,-34.388657],[-58.686816,-34.389381],[-58.68749,-34.389743],[-58.688045,-34.389018],[-58.687369,-34.388657]]]}},{"type":"Feature","properties":{"partida":"057080605","cca":"057030S00680000000000000000000000000010000","tipo":"Rural","sup_m2":9222.5},"geometry":{"type":"Polygon","coordinates":[[[-58.688045,-34.389018],[-58.68749,-34.389743],[-58.688097,-34.39007],[-58.688252,-34.390076],[-58.689124,-34.389595],[-58.688045,-34.389018]]]}},{"type":"Feature","properties":{"partida":"057126014","cca":"057030S00680000000000000000000000000011000","tipo":"Rural","sup_m2":1482.5},"geometry":{"type":"Polygon","coordinates":[[[-58.686822,-34.389373],[-58.686759,-34.38946],[-58.688021,-34.390122],[-58.688051,-34.390232],[-58.688252,-34.390076],[-58.688097,-34.39007],[-58.686826,-34.389386],[-58.686822,-34.389373]]]}},{"type":"Feature","properties":{"partida":"057080606","cca":"057030S00690000000000000000000000000001000","tipo":"Rural","sup_m2":12456.4},"geometry":{"type":"Polygon","coordinates":[[[-58.682368,-34.38891],[-58.683066,-34.389278],[-58.684027,-34.388026],[-58.683415,-34.387705],[-58.683269,-34.38774],[-58.682368,-34.38891]]]}},{"type":"Feature","properties":{"partida":"057080607","cca":"057030S00690000000000000000000000000002000","tipo":"Rural","sup_m2":11882.9},"geometry":{"type":"Polygon","coordinates":[[[-58.683787,-34.389659],[-58.682368,-34.38891],[-58.681921,-34.38949],[-58.683336,-34.390245],[-58.683787,-34.389659]]]}},{"type":"Feature","properties":{"partida":"057080608","cca":"057030S00690000000000000000000000000003000","tipo":"Rural","sup_m2":9843.4},"geometry":{"type":"Polygon","coordinates":[[[-58.681861,-34.390847],[-58.682617,-34.389862],[-58.681921,-34.38949],[-58.68122,-34.390399],[-58.681264,-34.390531],[-58.681861,-34.390847]]]}},{"type":"Feature","properties":{"partida":"057080609","cca":"057030S00690000000000000000000000000004000","tipo":"Rural","sup_m2":10174.4},"geometry":{"type":"Polygon","coordinates":[[[-58.683336,-34.390245],[-58.682617,-34.389862],[-58.681861,-34.390847],[-58.68258,-34.391228],[-58.683336,-34.390245]]]}},{"type":"Feature","properties":{"partida":"057064989","cca":"057030S00690000000000000000000000000005000","tipo":"Rural","sup_m2":15534.1},"geometry":{"type":"Polygon","coordinates":[[[-58.684476,-34.390022],[-58.683787,-34.389659],[-58.68258,-34.391228],[-58.683271,-34.391594],[-58.684476,-34.390022]]]}},{"type":"Feature","properties":{"partida":"057080610","cca":"057030S00690000000000000000000000000006000","tipo":"Rural","sup_m2":15477.5},"geometry":{"type":"Polygon","coordinates":[[[-58.684476,-34.390022],[-58.683271,-34.391594],[-58.683963,-34.391959],[-58.685158,-34.390383],[-58.684476,-34.390022]]]}},{"type":"Feature","properties":{"partida":"057080611","cca":"057030S00690000000000000000000000000007000","tipo":"Rural","sup_m2":11285.4},"geometry":{"type":"Polygon","coordinates":[[[-58.684708,-34.390976],[-58.683963,-34.391959],[-58.684404,-34.392193],[-58.684611,-34.392201],[-58.685765,-34.39154],[-58.684708,-34.390976]]]}},{"type":"Feature","properties":{"partida":"057080612","cca":"057030S00690000000000000000000000000008000","tipo":"Rural","sup_m2":10330.9},"geometry":{"type":"Polygon","coordinates":[[[-58.685765,-34.39154],[-58.686524,-34.391106],[-58.685158,-34.390383],[-58.684708,-34.390976],[-58.685765,-34.39154]]]}},{"type":"Feature","properties":{"partida":"057080613","cca":"057030S00690000000000000000000000000009000","tipo":"Rural","sup_m2":8256.0},"geometry":{"type":"Polygon","coordinates":[[[-58.686367,-34.390075],[-58.685864,-34.390755],[-58.686524,-34.391106],[-58.68741,-34.390599],[-58.686367,-34.390075]]]}},{"type":"Feature","properties":{"partida":"057080614","cca":"057030S00690000000000000000000000000010000","tipo":"Rural","sup_m2":9689.0},"geometry":{"type":"Polygon","coordinates":[[[-58.686804,-34.389483],[-58.686367,-34.390075],[-58.68741,-34.390599],[-58.688051,-34.390232],[-58.688021,-34.390122],[-58.686804,-34.389483]]]}},{"type":"Feature","properties":{"partida":"057080615","cca":"057030S00690000000000000000000000000011000","tipo":"Rural","sup_m2":12570.6},"geometry":{"type":"Polygon","coordinates":[[[-58.685864,-34.390755],[-58.686804,-34.389483],[-58.686115,-34.389121],[-58.685158,-34.390383],[-58.685864,-34.390755]]]}},{"type":"Feature","properties":{"partida":"057080616","cca":"057030S00690000000000000000000000000012000","tipo":"Rural","sup_m2":12226.1},"geometry":{"type":"Polygon","coordinates":[[[-58.684476,-34.390022],[-58.685158,-34.390383],[-58.686115,-34.389121],[-58.685438,-34.388767],[-58.684476,-34.390022]]]}},{"type":"Feature","properties":{"partida":"057080617","cca":"057030S00690000000000000000000000000013000","tipo":"Rural","sup_m2":12365.2},"geometry":{"type":"Polygon","coordinates":[[[-58.683787,-34.389659],[-58.684476,-34.390022],[-58.685438,-34.388767],[-58.684751,-34.388406],[-58.683787,-34.389659]]]}},{"type":"Feature","properties":{"partida":null,"cca":"057030S00690000000000000000000000000014000","tipo":null,"sup_m2":12973.1},"geometry":{"type":"Polygon","coordinates":[[[-58.683787,-34.389659],[-58.684751,-34.388406],[-58.684027,-34.388026],[-58.683066,-34.389278],[-58.683787,-34.389659]]]}},{"type":"Feature","properties":{"partida":"057126015","cca":"057030S00690000000000000000000000000015000","tipo":"Rural","sup_m2":4495.1},"geometry":{"type":"Polygon","coordinates":[[[-58.686816,-34.389381],[-58.683501,-34.387596],[-58.683415,-34.387705],[-58.686759,-34.38946],[-58.686816,-34.389381]]]}},{"type":"Feature","properties":{"partida":"057064994","cca":"057030S00980000000000000000000000000001000","tipo":"Rural","sup_m2":9789.4},"geometry":{"type":"Polygon","coordinates":[[[-58.679872,-34.397227],[-58.681145,-34.396551],[-58.680854,-34.396187],[-58.680699,-34.396149],[-58.679376,-34.396592],[-58.679872,-34.397227]]]}},{"type":"Feature","properties":{"partida":"057090456","cca":"057030S00980000000000000000000000000002000","tipo":"Rural","sup_m2":11521.0},"geometry":{"type":"Polygon","coordinates":[[[-58.679649,-34.398118],[-58.680298,-34.397773],[-58.679376,-34.396592],[-58.678651,-34.396835],[-58.679649,-34.398118]]]}},{"type":"Feature","properties":{"partida":"057090457","cca":"057030S00980000000000000000000000000003000","tipo":"Rural","sup_m2":12168.1},"geometry":{"type":"Polygon","coordinates":[[[-58.679649,-34.398118],[-58.678651,-34.396835],[-58.677939,-34.397074],[-58.679018,-34.398454],[-58.679649,-34.398118]]]}},{"type":"Feature","properties":{"partida":"057090472","cca":"057030S00980000000000000000000000000018000","tipo":"Rural","sup_m2":9989.6},"geometry":{"type":"Polygon","coordinates":[[[-58.680298,-34.397773],[-58.680721,-34.398315],[-58.682001,-34.397625],[-58.681575,-34.397092],[-58.680298,-34.397773]]]}},{"type":"Feature","properties":{"partida":"057090473","cca":"057030S00980000000000000000000000000019000","tipo":"Rural","sup_m2":10026.7},"geometry":{"type":"Polygon","coordinates":[[[-58.681145,-34.396551],[-58.679872,-34.397227],[-58.680298,-34.397773],[-58.681575,-34.397092],[-58.681145,-34.396551]]]}},{"type":"Feature","properties":{"partida":"057090474","cca":"057030S00990000000000000000000000000001000","tipo":"Urbano","sup_m2":9768.9},"geometry":{"type":"Polygon","coordinates":[[[-58.686053,-34.395109],[-58.687279,-34.394451],[-58.686593,-34.394093],[-58.686403,-34.394074],[-58.685504,-34.394388],[-58.686053,-34.395109]]]}},{"type":"Feature","properties":{"partida":"057090475","cca":"057030S00990000000000000000000000000002000","tipo":"Urbano","sup_m2":11246.8},"geometry":{"type":"Polygon","coordinates":[[[-58.684404,-34.394773],[-58.685069,-34.395636],[-58.686053,-34.395109],[-58.685504,-34.394388],[-58.684404,-34.394773]]]}},{"type":"Feature","properties":{"partida":"057090476","cca":"057030S00990000000000000000000000000003000","tipo":"Urbano","sup_m2":12676.5},"geometry":{"type":"Polygon","coordinates":[[[-58.684127,-34.396141],[-58.685069,-34.395636],[-58.684404,-34.394773],[-58.683353,-34.395141],[-58.684127,-34.396141]]]}},{"type":"Feature","properties":{"partida":"057090477","cca":"057030S00990000000000000000000000000004000","tipo":"Urbano","sup_m2":14933.8},"geometry":{"type":"Polygon","coordinates":[[[-58.68228,-34.395526],[-58.683144,-34.396656],[-58.684127,-34.396141],[-58.683353,-34.395141],[-58.68228,-34.395526]]]}},{"type":"Feature","properties":{"partida":"057090478","cca":"057030S00990000000000000000000000000005000","tipo":"Urbano","sup_m2":10441.0},"geometry":{"type":"Polygon","coordinates":[[[-58.68268,-34.396049],[-58.68228,-34.395526],[-58.681472,-34.39581],[-58.68104,-34.395929],[-58.680985,-34.396038],[-58.681474,-34.396677],[-58.68268,-34.396049]]]}},{"type":"Feature","properties":{"partida":"057090479","cca":"057030S00990000000000000000000000000006000","tipo":"Urbano","sup_m2":10450.8},"geometry":{"type":"Polygon","coordinates":[[[-58.68194,-34.397285],[-58.683144,-34.396656],[-58.68268,-34.396049],[-58.681474,-34.396677],[-58.68194,-34.397285]]]}},{"type":"Feature","properties":{"partida":"057090480","cca":"057030S00990000000000000000000000000007000","tipo":"Urbano","sup_m2":12609.3},"geometry":{"type":"Polygon","coordinates":[[[-58.683705,-34.39739],[-58.683144,-34.396656],[-58.68194,-34.397285],[-58.682444,-34.397945],[-58.682606,-34.39797],[-58.683705,-34.39739]]]}},{"type":"Feature","properties":{"partida":"057090481","cca":"057030S00990000000000000000000000000008000","tipo":"Urbano","sup_m2":10317.7},"geometry":{"type":"Polygon","coordinates":[[[-58.683705,-34.39739],[-58.68469,-34.396872],[-58.684127,-34.396141],[-58.683144,-34.396656],[-58.683705,-34.39739]]]}},{"type":"Feature","properties":{"partida":"057090482","cca":"057030S00990000000000000000000000000009000","tipo":"Urbano","sup_m2":9972.5},"geometry":{"type":"Polygon","coordinates":[[[-58.685069,-34.395636],[-58.684127,-34.396141],[-58.68469,-34.396872],[-58.685637,-34.396373],[-58.685069,-34.395636]]]}},{"type":"Feature","properties":{"partida":"057090483","cca":"057030S00990000000000000000000000000010000","tipo":"Urbano","sup_m2":10444.2},"geometry":{"type":"Polygon","coordinates":[[[-58.686618,-34.395849],[-58.686053,-34.395109],[-58.685069,-34.395636],[-58.685637,-34.396373],[-58.686618,-34.395849]]]}},{"type":"Feature","properties":{"partida":"057090484","cca":"057030S00990000000000000000000000000011000","tipo":"Urbano","sup_m2":15266.1},"geometry":{"type":"Polygon","coordinates":[[[-58.686618,-34.395849],[-58.688168,-34.395022],[-58.688158,-34.39491],[-58.687279,-34.394451],[-58.686053,-34.395109],[-58.686618,-34.395849]]]}},{"type":"Feature","properties":{"partida":"057064993","cca":"057030S0101000000000000000000000000000100A","tipo":"Rural","sup_m2":122171.4},"geometry":{"type":"Polygon","coordinates":[[[-58.68357,-34.399329],[-58.685042,-34.398557],[-58.685812,-34.399529],[-58.68759,-34.399231],[-58.688807,-34.398485],[-58.688819,-34.398371],[-58.686942,-34.395995],[-58.686809,-34.395972],[-58.682744,-34.398156],[-58.682721,-34.39827],[-58.68357,-34.399329]]]}},{"type":"Feature","properties":{"partida":"057090699","cca":"05704000000000000000000000000000000025200M","tipo":"Rural","sup_m2":74263.8},"geometry":{"type":"Polygon","coordinates":[[[-58.686048,-34.382051],[-58.690832,-34.384616],[-58.691745,-34.383447],[-58.691496,-34.383312],[-58.687477,-34.381244],[-58.686048,-34.382051]]]}},{"type":"Feature","properties":{"partida":"057103722","cca":"05704000000000000000000000000000000025200N","tipo":"Urbano","sup_m2":164191.5},"geometry":{"type":"Polygon","coordinates":[[[-58.68424,-34.383042],[-58.690743,-34.386528],[-58.693708,-34.38489],[-58.694073,-34.384691],[-58.691745,-34.383447],[-58.690832,-34.384616],[-58.686048,-34.382051],[-58.68424,-34.383042]]]}},{"type":"Feature","properties":{"partida":"057107151","cca":"05704000000000000000000000000000000025200T","tipo":"Rural","sup_m2":2452.2},"geometry":{"type":"Polygon","coordinates":[[[-58.688531,-34.381102],[-58.688058,-34.380847],[-58.68766,-34.381067],[-58.688292,-34.381408],[-58.688531,-34.381102]]]}},{"type":"Feature","properties":{"partida":"057090700","cca":"05704000000000000000000000000000000025200X","tipo":"Urbano","sup_m2":245119.8},"geometry":{"type":"Polygon","coordinates":[[[-58.684242,-34.383043],[-58.681515,-34.384557],[-58.682498,-34.385084],[-58.682055,-34.385632],[-58.684156,-34.386885],[-58.687202,-34.388482],[-58.690743,-34.386528],[-58.684242,-34.383043]]]}},{"type":"Feature","properties":{"partida":"057123026","cca":"05704000000000000000000000000000000025200Y","tipo":"Rural","sup_m2":9063.8},"geometry":{"type":"Polygon","coordinates":[[[-58.681515,-34.384557],[-58.680782,-34.384959],[-58.682055,-34.385632],[-58.682498,-34.385084],[-58.681515,-34.384557]]]}},{"type":"Feature","properties":{"partida":"057145504","cca":"057040N00000000000000001600000000000032000","tipo":"Urbano","sup_m2":322.0},"geometry":{"type":"Polygon","coordinates":[[[-58.688581,-34.38136],[-58.688553,-34.381376],[-58.688458,-34.381497],[-58.688618,-34.381583],[-58.688673,-34.381583],[-58.688733,-34.38155],[-58.688581,-34.38136]]]}},{"type":"Feature","properties":{"partida":"057145505","cca":"057040N00000000000000001600000000000033000","tipo":"Urbano","sup_m2":306.4},"geometry":{"type":"Polygon","coordinates":[[[-58.68869,-34.3813],[-58.688581,-34.38136],[-58.688733,-34.38155],[-58.688843,-34.38149],[-58.68869,-34.3813]]]}},{"type":"Feature","properties":{"partida":"057145506","cca":"057040N00000000000000001600000000000034000","tipo":"Urbano","sup_m2":306.1},"geometry":{"type":"Polygon","coordinates":[[[-58.6888,-34.381239],[-58.68869,-34.3813],[-58.688843,-34.38149],[-58.688952,-34.381429],[-58.6888,-34.381239]]]}},{"type":"Feature","properties":{"partida":"057145507","cca":"057040N00000000000000001600000000000035000","tipo":"Urbano","sup_m2":307.3},"geometry":{"type":"Polygon","coordinates":[[[-58.68891,-34.381179],[-58.6888,-34.381239],[-58.688952,-34.381429],[-58.689062,-34.381368],[-58.68891,-34.381179]]]}}]}