{"type":"FeatureCollection","features":[{"type":"Feature","properties":{"partida":"057008083","cca":"057040000000000000000000000000000000271000","tipo":"Rural","sup_m2":93376.1},"geometry":{"type":"Polygon","coordinates":[[[-58.711577,-34.3619],[-58.713814,-34.359703],[-58.71305,-34.359075],[-58.71124,-34.35813],[-58.709116,-34.360194],[-58.711577,-34.3619]]]}},{"type":"Feature","properties":{"partida":"057120574","cca":"05704000000000000000000000000000000027900A","tipo":"Rural","sup_m2":10619.1},"geometry":{"type":"Polygon","coordinates":[[[-58.716406,-34.360622],[-58.714347,-34.359562],[-58.715861,-34.361351],[-58.716406,-34.360622]]]}},{"type":"Feature","properties":{"partida":"057008067","cca":"057040J00000000000000000000000960000008000","tipo":"Urbano","sup_m2":477.6},"geometry":{"type":"Polygon","coordinates":[[[-58.716245,-34.361113],[-58.716122,-34.360981],[-58.715806,-34.361403],[-58.716245,-34.361113]]]}},{"type":"Feature","properties":{"partida":"057068836","cca":"057040J00000000000000000000000960000009000","tipo":"Urbano","sup_m2":443.3},"geometry":{"type":"Polygon","coordinates":[[[-58.716122,-34.360981],[-58.716245,-34.361113],[-58.716418,-34.360999],[-58.716244,-34.360819],[-58.716122,-34.360981]]]}},{"type":"Feature","properties":{"partida":"057068837","cca":"057040J00000000000000000000000960000010000","tipo":"Urbano","sup_m2":646.1},"geometry":{"type":"Polygon","coordinates":[[[-58.716418,-34.360999],[-58.716619,-34.360866],[-58.71662,-34.360826],[-58.716346,-34.360683],[-58.716244,-34.360819],[-58.716418,-34.360999]]]}},{"type":"Feature","properties":{"partida":"057068838","cca":"057040J00000000000000000000001070000001000","tipo":"Urbano","sup_m2":558.9},"geometry":{"type":"Polygon","coordinates":[[[-58.716684,-34.361033],[-58.716869,-34.361231],[-58.71704,-34.361018],[-58.716883,-34.360933],[-58.716832,-34.360939],[-58.716684,-34.361033]]]}},{"type":"Feature","properties":{"partida":"057068839","cca":"057040J00000000000000000000001070000002000","tipo":"Urbano","sup_m2":572.5},"geometry":{"type":"Polygon","coordinates":[[[-58.716708,-34.361348],[-58.716877,-34.361241],[-58.716684,-34.361033],[-58.716514,-34.361137],[-58.716708,-34.361348]]]}},{"type":"Feature","properties":{"partida":"057068840","cca":"057040J00000000000000000000001070000003000","tipo":"Urbano","sup_m2":603.8},"geometry":{"type":"Polygon","coordinates":[[[-58.716531,-34.36146],[-58.716708,-34.361348],[-58.716514,-34.361137],[-58.716336,-34.361248],[-58.716531,-34.36146]]]}},{"type":"Feature","properties":{"partida":"057068841","cca":"057040J00000000000000000000001070000004000","tipo":"Urbano","sup_m2":605.2},"geometry":{"type":"Polygon","coordinates":[[[-58.716336,-34.361248],[-58.716159,-34.361359],[-58.716355,-34.361572],[-58.716531,-34.36146],[-58.716336,-34.361248]]]}},{"type":"Feature","properties":{"partida":"057068842","cca":"057040J00000000000000000000001070000005000","tipo":"Urbano","sup_m2":517.9},"geometry":{"type":"Polygon","coordinates":[[[-58.716048,-34.361647],[-58.716287,-34.361498],[-58.716159,-34.361359],[-58.715962,-34.36148],[-58.715949,-34.361526],[-58.716048,-34.361647]]]}},{"type":"Feature","properties":{"partida":"057068846","cca":"057040J00000000000000000000001070000009000","tipo":"Urbano","sup_m2":621.6},"geometry":{"type":"Polygon","coordinates":[[[-58.716732,-34.361677],[-58.716908,-34.361566],[-58.716708,-34.361348],[-58.716531,-34.36146],[-58.716732,-34.361677]]]}},{"type":"Feature","properties":{"partida":"057068847","cca":"057040J00000000000000000000001070000010000","tipo":"Urbano","sup_m2":597.8},"geometry":{"type":"Polygon","coordinates":[[[-58.716877,-34.361241],[-58.716708,-34.361348],[-58.716908,-34.361566],[-58.71708,-34.361459],[-58.716877,-34.361241]]]}},{"type":"Feature","properties":{"partida":"057068848","cca":"057040J00000000000000000000001070000011000","tipo":"Urbano","sup_m2":629.2},"geometry":{"type":"Polygon","coordinates":[[[-58.71701,-34.361385],[-58.71708,-34.361459],[-58.717409,-34.361251],[-58.717408,-34.361218],[-58.717223,-34.361116],[-58.71701,-34.361385]]]}},{"type":"Feature","properties":{"partida":"057068849","cca":"057040J00000000000000000000001070000012000","tipo":"Urbano","sup_m2":647.1},"geometry":{"type":"Polygon","coordinates":[[[-58.71701,-34.361385],[-58.717223,-34.361116],[-58.71704,-34.361018],[-58.716869,-34.361231],[-58.71701,-34.361385]]]}},{"type":"Feature","properties":{"partida":"057068859","cca":"057040J00000000000000000000001180000001000","tipo":"Urbano","sup_m2":576.6},"geometry":{"type":"Polygon","coordinates":[[[-58.71747,-34.361426],[-58.717655,-34.361634],[-58.71783,-34.361421],[-58.717675,-34.361333],[-58.717624,-34.361334],[-58.71747,-34.361426]]]}}]}