{"type":"FeatureCollection","features":[{"type":"Feature","properties":{"partida":"057008084","cca":"05704000000000000000000000000000000027900B","tipo":"Rural","sup_m2":139398.1},"geometry":{"type":"Polygon","coordinates":[[[-58.71397,-34.359831],[-58.713814,-34.359703],[-58.710698,-34.362764],[-58.712756,-34.365506],[-58.715578,-34.361728],[-58.71397,-34.359831]]]}},{"type":"Feature","properties":{"partida":"057012251","cca":"05704000000000000000000000000000000028100C","tipo":"Urbano","sup_m2":30464.5},"geometry":{"type":"Polygon","coordinates":[[[-58.719707,-34.362485],[-58.719305,-34.362073],[-58.718291,-34.361559],[-58.717007,-34.362639],[-58.717863,-34.363715],[-58.719707,-34.362485]]]}},{"type":"Feature","properties":{"partida":"057012248","cca":"05704000000000000000000000000000000028100F","tipo":"Urbano","sup_m2":32330.6},"geometry":{"type":"Polygon","coordinates":[[[-58.717863,-34.363715],[-58.718713,-34.364703],[-58.719319,-34.364392],[-58.719784,-34.364162],[-58.720603,-34.363746],[-58.720384,-34.363181],[-58.719707,-34.362485],[-58.717863,-34.363715]]]}},{"type":"Feature","properties":{"partida":"057065056","cca":"05704000000000000000000000000000000028100G","tipo":"Urbano","sup_m2":46613.6},"geometry":{"type":"Polygon","coordinates":[[[-58.713964,-34.367116],[-58.718213,-34.364959],[-58.717345,-34.36394],[-58.713583,-34.366608],[-58.713964,-34.367116]]]}},{"type":"Feature","properties":{"partida":null,"cca":"057040000000000000000000000000000000290000","tipo":null,"sup_m2":2706.3},"geometry":{"type":"Polygon","coordinates":[[[-58.720603,-34.363746],[-58.720237,-34.363932],[-58.720788,-34.364685],[-58.720936,-34.364608],[-58.720603,-34.363746]]]}},{"type":"Feature","properties":{"partida":null,"cca":"057040000000000000000000000000000000291000","tipo":null,"sup_m2":2444.1},"geometry":{"type":"Polygon","coordinates":[[[-58.720557,-34.364803],[-58.720788,-34.364685],[-58.720237,-34.363932],[-58.720006,-34.364049],[-58.720557,-34.364803]]]}},{"type":"Feature","properties":{"partida":"057019385","cca":"057040000000000000000000000000000000292000","tipo":"Urbano","sup_m2":2237.3},"geometry":{"type":"Polygon","coordinates":[[[-58.720006,-34.364049],[-58.719784,-34.364162],[-58.720358,-34.36491],[-58.720557,-34.364803],[-58.720006,-34.364049]]]}},{"type":"Feature","properties":{"partida":"057019386","cca":"057040000000000000000000000000000000293000","tipo":"Urbano","sup_m2":2534.7},"geometry":{"type":"Polygon","coordinates":[[[-58.719784,-34.364162],[-58.719546,-34.364282],[-58.720123,-34.365035],[-58.720358,-34.36491],[-58.719784,-34.364162]]]}},{"type":"Feature","properties":{"partida":"057013630","cca":"057040000000000000000000000000000000294000","tipo":"Urbano","sup_m2":2471.8},"geometry":{"type":"Polygon","coordinates":[[[-58.719546,-34.364282],[-58.719319,-34.364392],[-58.719891,-34.365159],[-58.720123,-34.365035],[-58.719546,-34.364282]]]}},{"type":"Feature","properties":{"partida":"057019389","cca":"05704000000000000000000000000000000029500A","tipo":"Urbano","sup_m2":6266.6},"geometry":{"type":"Polygon","coordinates":[[[-58.718713,-34.364703],[-58.719318,-34.365421],[-58.719365,-34.365429],[-58.719891,-34.365159],[-58.719319,-34.364392],[-58.718713,-34.364703]]]}},{"type":"Feature","properties":{"partida":"057019390","cca":"05704000000000000000000000000000000029800A","tipo":"Urbano","sup_m2":1220.9},"geometry":{"type":"Polygon","coordinates":[[[-58.718456,-34.364836],[-58.718368,-34.364881],[-58.718976,-34.365618],[-58.719085,-34.365562],[-58.719098,-34.365526],[-58.718456,-34.364836]]]}},{"type":"Feature","properties":{"partida":"057019391","cca":"057040000000000000000000000000000000299000","tipo":"Urbano","sup_m2":2477.3},"geometry":{"type":"Polygon","coordinates":[[[-58.718137,-34.364998],[-58.718745,-34.365737],[-58.718976,-34.365618],[-58.718368,-34.364881],[-58.718137,-34.364998]]]}},{"type":"Feature","properties":{"partida":"057012246","cca":"057040000000000000000000000000000000300000","tipo":"Urbano","sup_m2":2481.5},"geometry":{"type":"Polygon","coordinates":[[[-58.718137,-34.364998],[-58.717905,-34.365116],[-58.718514,-34.365856],[-58.718745,-34.365737],[-58.718137,-34.364998]]]}},{"type":"Feature","properties":{"partida":"057012247","cca":"057040000000000000000000000000000000301000","tipo":"Urbano","sup_m2":2485.2},"geometry":{"type":"Polygon","coordinates":[[[-58.717905,-34.365116],[-58.717673,-34.365233],[-58.718283,-34.365975],[-58.718514,-34.365856],[-58.717905,-34.365116]]]}},{"type":"Feature","properties":{"partida":"057007879","cca":"05704000000000000000000000000000000030200A","tipo":"Urbano","sup_m2":4977.0},"geometry":{"type":"Polygon","coordinates":[[[-58.717673,-34.365233],[-58.717209,-34.365469],[-58.717823,-34.366212],[-58.718283,-34.365975],[-58.717673,-34.365233]]]}},{"type":"Feature","properties":{"partida":"057012245","cca":"057040000000000000000000000000000000304000","tipo":"Urbano","sup_m2":2497.9},"geometry":{"type":"Polygon","coordinates":[[[-58.717209,-34.365469],[-58.716977,-34.365587],[-58.717592,-34.366331],[-58.717823,-34.366212],[-58.717209,-34.365469]]]}},{"type":"Feature","properties":{"partida":"057013631","cca":"057040000000000000000000000000000000305000","tipo":"Urbano","sup_m2":2501.7},"geometry":{"type":"Polygon","coordinates":[[[-58.716977,-34.365587],[-58.716746,-34.365704],[-58.717362,-34.36645],[-58.717592,-34.366331],[-58.716977,-34.365587]]]}},{"type":"Feature","properties":{"partida":"057016415","cca":"057040000000000000000000000000000000306000","tipo":"Urbano","sup_m2":2505.8},"geometry":{"type":"Polygon","coordinates":[[[-58.716746,-34.365704],[-58.716514,-34.365822],[-58.717131,-34.366569],[-58.717362,-34.36645],[-58.716746,-34.365704]]]}},{"type":"Feature","properties":{"partida":"057016416","cca":"057040000000000000000000000000000000307000","tipo":"Urbano","sup_m2":2510.0},"geometry":{"type":"Polygon","coordinates":[[[-58.716514,-34.365822],[-58.716282,-34.365939],[-58.7169,-34.366688],[-58.717131,-34.366569],[-58.716514,-34.365822]]]}},{"type":"Feature","properties":{"partida":"057019393","cca":"057040000000000000000000000000000000308000","tipo":"Urbano","sup_m2":2514.1},"geometry":{"type":"Polygon","coordinates":[[[-58.716282,-34.365939],[-58.71605,-34.366057],[-58.716669,-34.366806],[-58.7169,-34.366688],[-58.716282,-34.365939]]]}},{"type":"Feature","properties":{"partida":"057019394","cca":"057040000000000000000000000000000000309000","tipo":"Urbano","sup_m2":2518.0},"geometry":{"type":"Polygon","coordinates":[[[-58.71605,-34.366057],[-58.715818,-34.366175],[-58.716438,-34.366925],[-58.716669,-34.366806],[-58.71605,-34.366057]]]}},{"type":"Feature","properties":{"partida":"057019395","cca":"057040000000000000000000000000000000310000","tipo":"Urbano","sup_m2":2522.6},"geometry":{"type":"Polygon","coordinates":[[[-58.715818,-34.366175],[-58.715587,-34.366292],[-58.716207,-34.367044],[-58.716438,-34.366925],[-58.715818,-34.366175]]]}},{"type":"Feature","properties":{"partida":"057019396","cca":"057040000000000000000000000000000000311000","tipo":"Urbano","sup_m2":2525.6},"geometry":{"type":"Polygon","coordinates":[[[-58.715587,-34.366292],[-58.715355,-34.36641],[-58.715977,-34.367163],[-58.716207,-34.367044],[-58.715587,-34.366292]]]}},{"type":"Feature","properties":{"partida":"057019397","cca":"057040000000000000000000000000000000312000","tipo":"Urbano","sup_m2":2530.5},"geometry":{"type":"Polygon","coordinates":[[[-58.715355,-34.36641],[-58.715123,-34.366528],[-58.715746,-34.367282],[-58.715977,-34.367163],[-58.715355,-34.36641]]]}},{"type":"Feature","properties":{"partida":"057019398","cca":"057040000000000000000000000000000000313000","tipo":"Urbano","sup_m2":2534.6},"geometry":{"type":"Polygon","coordinates":[[[-58.715123,-34.366528],[-58.714892,-34.366645],[-58.715515,-34.367401],[-58.715746,-34.367282],[-58.715123,-34.366528]]]}},{"type":"Feature","properties":{"partida":"057016417","cca":"057040000000000000000000000000000000314000","tipo":"Urbano","sup_m2":2538.9},"geometry":{"type":"Polygon","coordinates":[[[-58.714892,-34.366645],[-58.71466,-34.366763],[-58.715284,-34.36752],[-58.715515,-34.367401],[-58.714892,-34.366645]]]}},{"type":"Feature","properties":{"partida":"057016418","cca":"057040000000000000000000000000000000315000","tipo":"Urbano","sup_m2":2543.3},"geometry":{"type":"Polygon","coordinates":[[[-58.71466,-34.366763],[-58.714428,-34.36688],[-58.715053,-34.367639],[-58.715284,-34.36752],[-58.71466,-34.366763]]]}},{"type":"Feature","properties":{"partida":"057019399","cca":"057040000000000000000000000000000000316000","tipo":"Urbano","sup_m2":2546.9},"geometry":{"type":"Polygon","coordinates":[[[-58.714428,-34.36688],[-58.714196,-34.366998],[-58.714822,-34.367757],[-58.715053,-34.367639],[-58.714428,-34.36688]]]}},{"type":"Feature","properties":{"partida":"057019400","cca":"057040000000000000000000000000000000317000","tipo":"Urbano","sup_m2":2775.9},"geometry":{"type":"Polygon","coordinates":[[[-58.714196,-34.366998],[-58.713964,-34.367116],[-58.714551,-34.367897],[-58.714822,-34.367757],[-58.714196,-34.366998]]]}},{"type":"Feature","properties":{"partida":"057068843","cca":"057040J00000000000000000000001070000006000","tipo":"Urbano","sup_m2":581.1},"geometry":{"type":"Polygon","coordinates":[[[-58.716422,-34.361645],[-58.716287,-34.361498],[-58.716048,-34.361647],[-58.716169,-34.361802],[-58.716422,-34.361645]]]}},{"type":"Feature","properties":{"partida":"057068844","cca":"057040J00000000000000000000001070000007000","tipo":"Urbano","sup_m2":595.6},"geometry":{"type":"Polygon","coordinates":[[[-58.716422,-34.361645],[-58.716169,-34.361802],[-58.716268,-34.361927],[-58.716323,-34.361934],[-58.716557,-34.361787],[-58.716422,-34.361645]]]}},{"type":"Feature","properties":{"partida":"057068845","cca":"057040J00000000000000000000001070000008000","tipo":"Urbano","sup_m2":616.1},"geometry":{"type":"Polygon","coordinates":[[[-58.716732,-34.361677],[-58.716531,-34.36146],[-58.716355,-34.361572],[-58.716557,-34.361787],[-58.716732,-34.361677]]]}},{"type":"Feature","properties":{"partida":"057068850","cca":"057040J00000000000000000000001080000001000","tipo":"Urbano","sup_m2":662.8},"geometry":{"type":"Polygon","coordinates":[[[-58.715233,-34.362064],[-58.715287,-34.362125],[-58.715449,-34.362015],[-58.715643,-34.361889],[-58.715537,-34.361761],[-58.715486,-34.361754],[-58.715436,-34.361786],[-58.715233,-34.362064]]]}},{"type":"Feature","properties":{"partida":"057068851","cca":"057040J00000000000000000000001080000006000","tipo":"Urbano","sup_m2":523.4},"geometry":{"type":"Polygon","coordinates":[[[-58.714859,-34.362566],[-58.714715,-34.362757],[-58.714816,-34.362875],[-58.714869,-34.362873],[-58.715028,-34.362765],[-58.714859,-34.362566]]]}},{"type":"Feature","properties":{"partida":"057068852","cca":"057040J00000000000000000000001080000007000","tipo":"Urbano","sup_m2":597.7},"geometry":{"type":"Polygon","coordinates":[[[-58.714978,-34.362402],[-58.714859,-34.362566],[-58.715028,-34.362765],[-58.715193,-34.362653],[-58.714978,-34.362402]]]}},{"type":"Feature","properties":{"partida":"057068853","cca":"057040J00000000000000000000001080000008000","tipo":"Urbano","sup_m2":756.0},"geometry":{"type":"Polygon","coordinates":[[[-58.715103,-34.362235],[-58.714978,-34.362402],[-58.715193,-34.362653],[-58.715363,-34.362541],[-58.715103,-34.362235]]]}},{"type":"Feature","properties":{"partida":"057068854","cca":"057040J00000000000000000000001080000009000","tipo":"Urbano","sup_m2":942.3},"geometry":{"type":"Polygon","coordinates":[[[-58.715539,-34.362422],[-58.715287,-34.362125],[-58.715233,-34.362064],[-58.715103,-34.362235],[-58.715363,-34.362541],[-58.715539,-34.362422]]]}},{"type":"Feature","properties":{"partida":"057068855","cca":"057040J00000000000000000000001080000010000","tipo":"Urbano","sup_m2":781.1},"geometry":{"type":"Polygon","coordinates":[[[-58.715702,-34.362312],[-58.715577,-34.362161],[-58.715449,-34.362015],[-58.715287,-34.362125],[-58.715539,-34.362422],[-58.715702,-34.362312]]]}},{"type":"Feature","properties":{"partida":"057068856","cca":"057040J00000000000000000000001080000011000","tipo":"Urbano","sup_m2":456.0},"geometry":{"type":"Polygon","coordinates":[[[-58.715577,-34.362161],[-58.715702,-34.362312],[-58.71587,-34.362198],[-58.715879,-34.362165],[-58.715767,-34.362033],[-58.715577,-34.362161]]]}},{"type":"Feature","properties":{"partida":"057068857","cca":"057040J00000000000000000000001080000012000","tipo":"Urbano","sup_m2":448.5},"geometry":{"type":"Polygon","coordinates":[[[-58.715449,-34.362015],[-58.715577,-34.362161],[-58.715767,-34.362033],[-58.715643,-34.361889],[-58.715449,-34.362015]]]}},{"type":"Feature","properties":{"partida":"057068858","cca":"057040J00000000000000000000001090000010000","tipo":"Urbano","sup_m2":226.6},"geometry":{"type":"Polygon","coordinates":[[[-58.714662,-34.362845],[-58.714425,-34.363131],[-58.714714,-34.362958],[-58.714719,-34.36292],[-58.714662,-34.362845]]]}},{"type":"Feature","properties":{"partida":"057068860","cca":"057040J00000000000000000000001180000002000","tipo":"Urbano","sup_m2":608.8},"geometry":{"type":"Polygon","coordinates":[[[-58.717294,-34.361532],[-58.717488,-34.361752],[-58.717666,-34.361646],[-58.71747,-34.361426],[-58.717294,-34.361532]]]}},{"type":"Feature","properties":{"partida":"057068861","cca":"057040J00000000000000000000001180000003000","tipo":"Urbano","sup_m2":605.7},"geometry":{"type":"Polygon","coordinates":[[[-58.717488,-34.361752],[-58.717294,-34.361532],[-58.717117,-34.361636],[-58.717309,-34.361857],[-58.717488,-34.361752]]]}},{"type":"Feature","properties":{"partida":"057068862","cca":"057040J00000000000000000000001180000004000","tipo":"Urbano","sup_m2":608.4},"geometry":{"type":"Polygon","coordinates":[[[-58.716939,-34.361742],[-58.717133,-34.361963],[-58.717309,-34.361857],[-58.717117,-34.361636],[-58.716939,-34.361742]]]}},{"type":"Feature","properties":{"partida":"057068863","cca":"057040J00000000000000000000001180000005000","tipo":"Urbano","sup_m2":621.1},"geometry":{"type":"Polygon","coordinates":[[[-58.716758,-34.361851],[-58.716948,-34.36207],[-58.717133,-34.361963],[-58.716939,-34.361742],[-58.716758,-34.361851]]]}},{"type":"Feature","properties":{"partida":"057068864","cca":"057040J00000000000000000000001180000006000","tipo":"Urbano","sup_m2":740.2},"geometry":{"type":"Polygon","coordinates":[[[-58.716758,-34.361851],[-58.716453,-34.36203],[-58.716443,-34.362066],[-58.716542,-34.362194],[-58.716884,-34.361994],[-58.716758,-34.361851]]]}},{"type":"Feature","properties":{"partida":"057068865","cca":"057040J00000000000000000000001180000007000","tipo":"Urbano","sup_m2":785.0},"geometry":{"type":"Polygon","coordinates":[[[-58.71701,-34.362138],[-58.716884,-34.361994],[-58.716542,-34.362194],[-58.716656,-34.36235],[-58.71701,-34.362138]]]}},{"type":"Feature","properties":{"partida":"057068866","cca":"057040J00000000000000000000001180000008000","tipo":"Urbano","sup_m2":419.7},"geometry":{"type":"Polygon","coordinates":[[[-58.71684,-34.36224],[-58.716656,-34.36235],[-58.716755,-34.362477],[-58.716808,-34.362483],[-58.716964,-34.362387],[-58.71684,-34.36224]]]}},{"type":"Feature","properties":{"partida":"057068867","cca":"057040J00000000000000000000001180000009000","tipo":"Urbano","sup_m2":386.9},"geometry":{"type":"Polygon","coordinates":[[[-58.71701,-34.362138],[-58.71684,-34.36224],[-58.716964,-34.362387],[-58.717137,-34.362283],[-58.71701,-34.362138]]]}},{"type":"Feature","properties":{"partida":"057068868","cca":"057040J00000000000000000000001180000010000","tipo":"Urbano","sup_m2":602.8},"geometry":{"type":"Polygon","coordinates":[[[-58.716948,-34.36207],[-58.717137,-34.362283],[-58.71732,-34.362176],[-58.717133,-34.361963],[-58.716948,-34.36207]]]}},{"type":"Feature","properties":{"partida":"057068869","cca":"057040J00000000000000000000001180000011000","tipo":"Urbano","sup_m2":587.7},"geometry":{"type":"Polygon","coordinates":[[[-58.717309,-34.361857],[-58.717133,-34.361963],[-58.71732,-34.362176],[-58.717498,-34.362068],[-58.717309,-34.361857]]]}},{"type":"Feature","properties":{"partida":"057068870","cca":"057040J00000000000000000000001180000012000","tipo":"Urbano","sup_m2":580.6},"geometry":{"type":"Polygon","coordinates":[[[-58.717498,-34.362068],[-58.717672,-34.361966],[-58.717488,-34.361752],[-58.717309,-34.361857],[-58.717498,-34.362068]]]}},{"type":"Feature","properties":{"partida":"057068871","cca":"057040J00000000000000000000001180000013000","tipo":"Urbano","sup_m2":589.2},"geometry":{"type":"Polygon","coordinates":[[[-58.717787,-34.361783],[-58.717666,-34.361646],[-58.717488,-34.361752],[-58.717672,-34.361966],[-58.717849,-34.361859],[-58.717787,-34.361783]]]}},{"type":"Feature","properties":{"partida":"057068872","cca":"057040J00000000000000000000001180000014000","tipo":"Urbano","sup_m2":610.5},"geometry":{"type":"Polygon","coordinates":[[[-58.717787,-34.361783],[-58.717849,-34.361859],[-58.718181,-34.361662],[-58.718181,-34.361623],[-58.718008,-34.361524],[-58.717787,-34.361783]]]}},{"type":"Feature","properties":{"partida":"057068873","cca":"057040J00000000000000000000001180000015000","tipo":"Urbano","sup_m2":629.0},"geometry":{"type":"Polygon","coordinates":[[[-58.717787,-34.361783],[-58.718008,-34.361524],[-58.71783,-34.361421],[-58.717655,-34.361634],[-58.717787,-34.361783]]]}},{"type":"Feature","properties":{"partida":"057068874","cca":"057040J00000000000000000000001190000001000","tipo":"Urbano","sup_m2":436.9},"geometry":{"type":"Polygon","coordinates":[[[-58.71614,-34.362424],[-58.716036,-34.362301],[-58.715984,-34.362297],[-58.715824,-34.362402],[-58.71595,-34.362546],[-58.71614,-34.362424]]]}},{"type":"Feature","properties":{"partida":"057068875","cca":"057040J00000000000000000000001190000002000","tipo":"Urbano","sup_m2":579.0},"geometry":{"type":"Polygon","coordinates":[[[-58.715661,-34.36251],[-58.715847,-34.36273],[-58.716013,-34.362624],[-58.71595,-34.362546],[-58.715824,-34.362402],[-58.715661,-34.36251]]]}},{"type":"Feature","properties":{"partida":"057068876","cca":"057040J00000000000000000000001190000003000","tipo":"Urbano","sup_m2":597.2},"geometry":{"type":"Polygon","coordinates":[[[-58.715677,-34.362844],[-58.715847,-34.36273],[-58.715661,-34.36251],[-58.715493,-34.362622],[-58.715677,-34.362844]]]}},{"type":"Feature","properties":{"partida":"057068877","cca":"057040J00000000000000000000001190000004000","tipo":"Urbano","sup_m2":596.4},"geometry":{"type":"Polygon","coordinates":[[[-58.715509,-34.362952],[-58.715677,-34.362844],[-58.715493,-34.362622],[-58.715317,-34.362734],[-58.715509,-34.362952]]]}},{"type":"Feature","properties":{"partida":"057068878","cca":"057040J00000000000000000000001190000005000","tipo":"Urbano","sup_m2":609.8},"geometry":{"type":"Polygon","coordinates":[[[-58.715509,-34.362952],[-58.715317,-34.362734],[-58.715146,-34.362849],[-58.715275,-34.362998],[-58.715332,-34.363069],[-58.715509,-34.362952]]]}},{"type":"Feature","properties":{"partida":"057068879","cca":"057040J00000000000000000000001190000006000","tipo":"Urbano","sup_m2":460.0},"geometry":{"type":"Polygon","coordinates":[[[-58.715077,-34.363125],[-58.715275,-34.362998],[-58.715146,-34.362849],[-58.714984,-34.362952],[-58.714971,-34.363003],[-58.715077,-34.363125]]]}},{"type":"Feature","properties":{"partida":"057068880","cca":"057040J00000000000000000000001190000007000","tipo":"Urbano","sup_m2":452.3},"geometry":{"type":"Polygon","coordinates":[[[-58.715199,-34.363272],[-58.715395,-34.363147],[-58.715275,-34.362998],[-58.715077,-34.363125],[-58.715199,-34.363272]]]}},{"type":"Feature","properties":{"partida":"057068881","cca":"057040J00000000000000000000001190000008000","tipo":"Urbano","sup_m2":453.3},"geometry":{"type":"Polygon","coordinates":[[[-58.715395,-34.363147],[-58.715199,-34.363272],[-58.715303,-34.363393],[-58.715355,-34.363402],[-58.715523,-34.36329],[-58.715395,-34.363147]]]}},{"type":"Feature","properties":{"partida":"057068882","cca":"057040J00000000000000000000001190000009000","tipo":"Urbano","sup_m2":622.8},"geometry":{"type":"Polygon","coordinates":[[[-58.715523,-34.36329],[-58.715695,-34.363178],[-58.715509,-34.362952],[-58.715332,-34.363069],[-58.715395,-34.363147],[-58.715523,-34.36329]]]}},{"type":"Feature","properties":{"partida":"057068883","cca":"057040J00000000000000000000001190000010000","tipo":"Urbano","sup_m2":593.0},"geometry":{"type":"Polygon","coordinates":[[[-58.715677,-34.362844],[-58.715509,-34.362952],[-58.715695,-34.363178],[-58.715863,-34.363065],[-58.715677,-34.362844]]]}},{"type":"Feature","properties":{"partida":"057068884","cca":"057040J00000000000000000000001190000011000","tipo":"Urbano","sup_m2":600.0},"geometry":{"type":"Polygon","coordinates":[[[-58.715847,-34.36273],[-58.715677,-34.362844],[-58.715863,-34.363065],[-58.716033,-34.362953],[-58.715847,-34.36273]]]}},{"type":"Feature","properties":{"partida":"057068885","cca":"057040J00000000000000000000001190000012000","tipo":"Urbano","sup_m2":583.1},"geometry":{"type":"Polygon","coordinates":[[[-58.716033,-34.362953],[-58.716201,-34.362842],[-58.716013,-34.362624],[-58.715847,-34.36273],[-58.716033,-34.362953]]]}},{"type":"Feature","properties":{"partida":"057068886","cca":"057040J00000000000000000000001190000013000","tipo":"Urbano","sup_m2":430.8},"geometry":{"type":"Polygon","coordinates":[[[-58.716077,-34.362696],[-58.716201,-34.362842],[-58.716362,-34.362733],[-58.71637,-34.362695],[-58.716265,-34.362571],[-58.716077,-34.362696]]]}},{"type":"Feature","properties":{"partida":"057068887","cca":"057040J00000000000000000000001190000014000","tipo":"Urbano","sup_m2":447.5},"geometry":{"type":"Polygon","coordinates":[[[-58.71614,-34.362424],[-58.71595,-34.362546],[-58.716013,-34.362624],[-58.716077,-34.362696],[-58.716265,-34.362571],[-58.71614,-34.362424]]]}},{"type":"Feature","properties":{"partida":"057068888","cca":"057040J00000000000000000000001200000001000","tipo":"Urbano","sup_m2":447.1},"geometry":{"type":"Polygon","coordinates":[[[-58.714976,-34.363176],[-58.714874,-34.363053],[-58.714817,-34.363053],[-58.714654,-34.363156],[-58.714773,-34.363301],[-58.714976,-34.363176]]]}},{"type":"Feature","properties":{"partida":"057068889","cca":"057040J00000000000000000000001200000002000","tipo":"Urbano","sup_m2":607.9},"geometry":{"type":"Polygon","coordinates":[[[-58.714481,-34.363265],[-58.714665,-34.363493],[-58.714839,-34.363381],[-58.714654,-34.363156],[-58.714481,-34.363265]]]}},{"type":"Feature","properties":{"partida":"057068890","cca":"057040J00000000000000000000001200000003000","tipo":"Urbano","sup_m2":600.4},"geometry":{"type":"Polygon","coordinates":[[[-58.714497,-34.363602],[-58.714665,-34.363493],[-58.714481,-34.363265],[-58.714309,-34.363375],[-58.714497,-34.363602]]]}},{"type":"Feature","properties":{"partida":"057068891","cca":"057040J00000000000000000000001200000004000","tipo":"Urbano","sup_m2":1721.7},"geometry":{"type":"Polygon","coordinates":[[[-58.714497,-34.363602],[-58.714309,-34.363375],[-58.71419,-34.363452],[-58.713883,-34.363843],[-58.714002,-34.363988],[-58.714183,-34.36387],[-58.714359,-34.363761],[-58.714321,-34.363715],[-58.714497,-34.363602]]]}},{"type":"Feature","properties":{"partida":"057068892","cca":"057040J00000000000000000000001200000006000","tipo":"Urbano","sup_m2":499.1},"geometry":{"type":"Polygon","coordinates":[[[-58.714183,-34.36387],[-58.714002,-34.363988],[-58.714124,-34.36414],[-58.714176,-34.364145],[-58.714329,-34.364047],[-58.714183,-34.36387]]]}},{"type":"Feature","properties":{"partida":"057068893","cca":"057040J00000000000000000000001200000007000","tipo":"Urbano","sup_m2":471.7},"geometry":{"type":"Polygon","coordinates":[[[-58.714329,-34.364047],[-58.714499,-34.363938],[-58.714359,-34.363761],[-58.714183,-34.36387],[-58.714329,-34.364047]]]}},{"type":"Feature","properties":{"partida":"057068894","cca":"057040J00000000000000000000001200000008000","tipo":"Urbano","sup_m2":606.0},"geometry":{"type":"Polygon","coordinates":[[[-58.714497,-34.363602],[-58.714321,-34.363715],[-58.714499,-34.363938],[-58.714675,-34.363822],[-58.714497,-34.363602]]]}},{"type":"Feature","properties":{"partida":"057068895","cca":"057040J00000000000000000000001200000009000","tipo":"Urbano","sup_m2":585.3},"geometry":{"type":"Polygon","coordinates":[[[-58.714665,-34.363493],[-58.714497,-34.363602],[-58.714675,-34.363822],[-58.714849,-34.363714],[-58.714665,-34.363493]]]}},{"type":"Feature","properties":{"partida":"057068896","cca":"057040J00000000000000000000001200000010000","tipo":"Urbano","sup_m2":602.1},"geometry":{"type":"Polygon","coordinates":[[[-58.715023,-34.363603],[-58.714839,-34.363381],[-58.714665,-34.363493],[-58.714849,-34.363714],[-58.715023,-34.363603]]]}},{"type":"Feature","properties":{"partida":"057068897","cca":"057040J00000000000000000000001200000011000","tipo":"Urbano","sup_m2":456.4},"geometry":{"type":"Polygon","coordinates":[[[-58.714899,-34.363454],[-58.715023,-34.363603],[-58.715189,-34.363495],[-58.715198,-34.36345],[-58.715099,-34.363325],[-58.714899,-34.363454]]]}},{"type":"Feature","properties":{"partida":"057068898","cca":"057040J00000000000000000000001200000012000","tipo":"Urbano","sup_m2":473.6},"geometry":{"type":"Polygon","coordinates":[[[-58.714773,-34.363301],[-58.714899,-34.363454],[-58.715099,-34.363325],[-58.714976,-34.363176],[-58.714773,-34.363301]]]}},{"type":"Feature","properties":{"partida":"057068899","cca":"057040J00000000000000000000001210000007000","tipo":"Urbano","sup_m2":268.5},"geometry":{"type":"Polygon","coordinates":[[[-58.71347,-34.364406],[-58.713275,-34.364662],[-58.713315,-34.364672],[-58.71356,-34.364513],[-58.71347,-34.364406]]]}},{"type":"Feature","properties":{"partida":"057068900","cca":"057040J00000000000000000000001210000008000","tipo":"Urbano","sup_m2":336.5},"geometry":{"type":"Polygon","coordinates":[[[-58.713588,-34.36425],[-58.71347,-34.364406],[-58.71356,-34.364513],[-58.713721,-34.364406],[-58.713588,-34.36425]]]}},{"type":"Feature","properties":{"partida":"057068901","cca":"057040J00000000000000000000001210000009000","tipo":"Urbano","sup_m2":445.5},"geometry":{"type":"Polygon","coordinates":[[[-58.713703,-34.3641],[-58.713588,-34.36425],[-58.713721,-34.364406],[-58.713876,-34.364302],[-58.713703,-34.3641]]]}},{"type":"Feature","properties":{"partida":"057068902","cca":"057040J00000000000000000000001210000010000","tipo":"Urbano","sup_m2":580.4},"geometry":{"type":"Polygon","coordinates":[[[-58.713703,-34.3641],[-58.713876,-34.364302],[-58.714004,-34.364217],[-58.714013,-34.364167],[-58.713821,-34.363942],[-58.713703,-34.3641]]]}},{"type":"Feature","properties":{"partida":"057068903","cca":"057040J00000000000000000000001280000003000","tipo":"Urbano","sup_m2":393.4},"geometry":{"type":"Polygon","coordinates":[[[-58.717538,-34.362219],[-58.716918,-34.362584],[-58.716899,-34.36262],[-58.716946,-34.362686],[-58.717538,-34.362219]]]}},{"type":"Feature","properties":{"partida":"057068904","cca":"057040J00000000000000000000001290000001000","tipo":"Urbano","sup_m2":437.8},"geometry":{"type":"Polygon","coordinates":[[[-58.716423,-34.363098],[-58.716499,-34.363033],[-58.716609,-34.362932],[-58.716529,-34.362835],[-58.716481,-34.362831],[-58.716301,-34.362953],[-58.716423,-34.363098]]]}},{"type":"Feature","properties":{"partida":"057068905","cca":"057040J00000000000000000000001290000002000","tipo":"Urbano","sup_m2":443.6},"geometry":{"type":"Polygon","coordinates":[[[-58.716265,-34.363238],[-58.716423,-34.363098],[-58.716301,-34.362953],[-58.716122,-34.36307],[-58.716265,-34.363238]]]}},{"type":"Feature","properties":{"partida":"057068906","cca":"057040J00000000000000000000001290000003000","tipo":"Urbano","sup_m2":482.2},"geometry":{"type":"Polygon","coordinates":[[[-58.716112,-34.363371],[-58.716265,-34.363238],[-58.716122,-34.36307],[-58.715955,-34.36318],[-58.716112,-34.363371]]]}},{"type":"Feature","properties":{"partida":"057068907","cca":"057040J00000000000000000000001290000004000","tipo":"Urbano","sup_m2":571.3},"geometry":{"type":"Polygon","coordinates":[[[-58.715951,-34.363513],[-58.716112,-34.363371],[-58.715955,-34.36318],[-58.715778,-34.363297],[-58.715951,-34.363513]]]}},{"type":"Feature","properties":{"partida":"057068908","cca":"057040J00000000000000000000001290000005000","tipo":"Urbano","sup_m2":612.9},"geometry":{"type":"Polygon","coordinates":[[[-58.715798,-34.363647],[-58.715951,-34.363513],[-58.715778,-34.363297],[-58.715603,-34.363412],[-58.715798,-34.363647]]]}},{"type":"Feature","properties":{"partida":"057068909","cca":"057040J00000000000000000000001290000006000","tipo":"Urbano","sup_m2":662.6},"geometry":{"type":"Polygon","coordinates":[[[-58.715645,-34.363784],[-58.715798,-34.363647],[-58.715603,-34.363412],[-58.715464,-34.363506],[-58.715454,-34.363553],[-58.715645,-34.363784]]]}},{"type":"Feature","properties":{"partida":"057022037","cca":"057040J00000000000000000000001290000013000","tipo":"Urbano","sup_m2":326.4},"geometry":{"type":"Polygon","coordinates":[[[-58.715645,-34.363784],[-58.715717,-34.36387],[-58.715929,-34.363744],[-58.715817,-34.363631],[-58.715645,-34.363784]]]}},{"type":"Feature","properties":{"partida":"057022038","cca":"057040J00000000000000000000001290000014000","tipo":"Urbano","sup_m2":303.2},"geometry":{"type":"Polygon","coordinates":[[[-58.716011,-34.363828],[-58.715929,-34.363744],[-58.715717,-34.36387],[-58.715777,-34.363942],[-58.715824,-34.363951],[-58.716011,-34.363828]]]}},{"type":"Feature","properties":{"partida":"057022036","cca":"057040J00000000000000000000001290000015000","tipo":"Urbano","sup_m2":310.1},"geometry":{"type":"Polygon","coordinates":[[[-58.715898,-34.363561],[-58.715817,-34.363631],[-58.716011,-34.363828],[-58.716103,-34.363769],[-58.715898,-34.363561]]]}},{"type":"Feature","properties":{"partida":"057022035","cca":"057040J00000000000000000000001290000016000","tipo":"Urbano","sup_m2":314.9},"geometry":{"type":"Polygon","coordinates":[[[-58.716189,-34.363712],[-58.715977,-34.363492],[-58.715898,-34.363561],[-58.716103,-34.363769],[-58.716189,-34.363712]]]}},{"type":"Feature","properties":{"partida":"057022034","cca":"057040J00000000000000000000001290000017000","tipo":"Urbano","sup_m2":324.8},"geometry":{"type":"Polygon","coordinates":[[[-58.715977,-34.363492],[-58.716189,-34.363712],[-58.716276,-34.363655],[-58.716053,-34.363425],[-58.715977,-34.363492]]]}},{"type":"Feature","properties":{"partida":"057022033","cca":"057040J00000000000000000000001290000018000","tipo":"Urbano","sup_m2":335.6},"geometry":{"type":"Polygon","coordinates":[[[-58.716276,-34.363655],[-58.716362,-34.363598],[-58.716128,-34.36336],[-58.716053,-34.363425],[-58.716276,-34.363655]]]}},{"type":"Feature","properties":{"partida":"057022032","cca":"057040J00000000000000000000001290000019000","tipo":"Urbano","sup_m2":348.4},"geometry":{"type":"Polygon","coordinates":[[[-58.716203,-34.363293],[-58.716128,-34.36336],[-58.716362,-34.363598],[-58.716446,-34.363543],[-58.716203,-34.363293]]]}},{"type":"Feature","properties":{"partida":"057022031","cca":"057040J00000000000000000000001290000020000","tipo":"Urbano","sup_m2":379.8},"geometry":{"type":"Polygon","coordinates":[[[-58.71628,-34.363226],[-58.716203,-34.363293],[-58.716446,-34.363543],[-58.716537,-34.363483],[-58.71628,-34.363226]]]}},{"type":"Feature","properties":{"partida":"057022030","cca":"057040J00000000000000000000001290000021000","tipo":"Urbano","sup_m2":368.2},"geometry":{"type":"Polygon","coordinates":[[[-58.716354,-34.363159],[-58.71628,-34.363226],[-58.716537,-34.363483],[-58.716618,-34.363429],[-58.716354,-34.363159]]]}},{"type":"Feature","properties":{"partida":"057022039","cca":"057040J00000000000000000000001290000022000","tipo":"Urbano","sup_m2":333.1},"geometry":{"type":"Polygon","coordinates":[[[-58.716539,-34.36335],[-58.716618,-34.363429],[-58.716851,-34.363277],[-58.716858,-34.363228],[-58.716824,-34.363181],[-58.716683,-34.363262],[-58.716539,-34.36335]]]}},{"type":"Feature","properties":{"partida":"057022040","cca":"057040J00000000000000000000001290000023000","tipo":"Urbano","sup_m2":330.2},"geometry":{"type":"Polygon","coordinates":[[[-58.716539,-34.36335],[-58.716683,-34.363262],[-58.716824,-34.363181],[-58.716758,-34.363105],[-58.716471,-34.363277],[-58.716539,-34.36335]]]}},{"type":"Feature","properties":{"partida":"057022041","cca":"057040J00000000000000000000001290000024000","tipo":"Urbano","sup_m2":311.9},"geometry":{"type":"Polygon","coordinates":[[[-58.7167,-34.363039],[-58.716567,-34.363113],[-58.716404,-34.363211],[-58.716471,-34.363277],[-58.716758,-34.363105],[-58.7167,-34.363039]]]}},{"type":"Feature","properties":{"partida":"057012249","cca":"057040J00000000000000000000001290000025000","tipo":"Urbano","sup_m2":358.6},"geometry":{"type":"Polygon","coordinates":[[[-58.716354,-34.363159],[-58.716404,-34.363211],[-58.716567,-34.363113],[-58.7167,-34.363039],[-58.716609,-34.362932],[-58.716499,-34.363033],[-58.716354,-34.363159]]]}},{"type":"Feature","properties":{"partida":"057068910","cca":"057040J00000000000000000000001300000001000","tipo":"Urbano","sup_m2":783.4},"geometry":{"type":"Polygon","coordinates":[[[-58.715378,-34.363996],[-58.715536,-34.363858],[-58.715334,-34.363614],[-58.715278,-34.363605],[-58.715133,-34.3637],[-58.715378,-34.363996]]]}},{"type":"Feature","properties":{"partida":"057068911","cca":"057040J00000000000000000000001300000002000","tipo":"Urbano","sup_m2":840.1},"geometry":{"type":"Polygon","coordinates":[[[-58.71496,-34.363815],[-58.715221,-34.364131],[-58.715378,-34.363996],[-58.715133,-34.3637],[-58.71496,-34.363815]]]}},{"type":"Feature","properties":{"partida":"057068912","cca":"057040J00000000000000000000001300000003000","tipo":"Urbano","sup_m2":872.9},"geometry":{"type":"Polygon","coordinates":[[[-58.715221,-34.364131],[-58.71496,-34.363815],[-58.714791,-34.363927],[-58.715069,-34.364264],[-58.715221,-34.364131]]]}},{"type":"Feature","properties":{"partida":"057068913","cca":"057040J00000000000000000000001300000004000","tipo":"Urbano","sup_m2":925.8},"geometry":{"type":"Polygon","coordinates":[[[-58.714823,-34.364284],[-58.714919,-34.364396],[-58.715069,-34.364264],[-58.714791,-34.363927],[-58.714623,-34.364036],[-58.714823,-34.364284]]]}},{"type":"Feature","properties":{"partida":"057068914","cca":"057040J00000000000000000000001300000005000","tipo":"Urbano","sup_m2":744.9},"geometry":{"type":"Polygon","coordinates":[[[-58.714631,-34.364408],[-58.714823,-34.364284],[-58.714623,-34.364036],[-58.714429,-34.364164],[-58.714631,-34.364408]]]}},{"type":"Feature","properties":{"partida":"057068915","cca":"057040J00000000000000000000001300000006000","tipo":"Urbano","sup_m2":716.1},"geometry":{"type":"Polygon","coordinates":[[[-58.714429,-34.364164],[-58.714268,-34.364269],[-58.71426,-34.364307],[-58.71444,-34.364531],[-58.714631,-34.364408],[-58.714429,-34.364164]]]}},{"type":"Feature","properties":{"partida":"057068916","cca":"057040J00000000000000000000001300000007000","tipo":"Urbano","sup_m2":831.9},"geometry":{"type":"Polygon","coordinates":[[[-58.714577,-34.364694],[-58.714919,-34.364396],[-58.714823,-34.364284],[-58.71444,-34.364531],[-58.714577,-34.364694]]]}},{"type":"Feature","properties":{"partida":"057022097","cca":"057040J00000000000000000000001300000014000","tipo":"Urbano","sup_m2":416.1},"geometry":{"type":"Polygon","coordinates":[[[-58.715015,-34.364473],[-58.714932,-34.364385],[-58.714577,-34.364694],[-58.714592,-34.364712],[-58.714639,-34.364717],[-58.715015,-34.364473]]]}},{"type":"Feature","properties":{"partida":"057022096","cca":"057040J00000000000000000000001300000015000","tipo":"Urbano","sup_m2":357.1},"geometry":{"type":"Polygon","coordinates":[[[-58.715015,-34.364473],[-58.715227,-34.364334],[-58.715122,-34.364218],[-58.714932,-34.364385],[-58.715015,-34.364473]]]}},{"type":"Feature","properties":{"partida":"057022095","cca":"057040J00000000000000000000001300000016000","tipo":"Urbano","sup_m2":342.9},"geometry":{"type":"Polygon","coordinates":[[[-58.715394,-34.364226],[-58.71527,-34.364089],[-58.715122,-34.364218],[-58.715227,-34.364334],[-58.715394,-34.364226]]]}},{"type":"Feature","properties":{"partida":"057022094","cca":"057040J00000000000000000000001300000017000","tipo":"Urbano","sup_m2":411.2},"geometry":{"type":"Polygon","coordinates":[[[-58.715566,-34.364112],[-58.715423,-34.363955],[-58.71527,-34.364089],[-58.715394,-34.364226],[-58.715566,-34.364112]]]}},{"type":"Feature","properties":{"partida":"057022093","cca":"057040J00000000000000000000001300000018000","tipo":"Urbano","sup_m2":319.9},"geometry":{"type":"Polygon","coordinates":[[[-58.715566,-34.364112],[-58.715651,-34.364059],[-58.715664,-34.364014],[-58.715536,-34.363858],[-58.715423,-34.363955],[-58.715566,-34.364112]]]}},{"type":"Feature","properties":{"partida":"057068917","cca":"057040J00000000000000000000001310000001000","tipo":"Urbano","sup_m2":509.4},"geometry":{"type":"Polygon","coordinates":[[[-58.714055,-34.364627],[-58.714274,-34.364485],[-58.714173,-34.364358],[-58.714126,-34.364353],[-58.713932,-34.364478],[-58.714055,-34.364627]]]}},{"type":"Feature","properties":{"partida":"057068918","cca":"057040J00000000000000000000001310000002000","tipo":"Urbano","sup_m2":613.8},"geometry":{"type":"Polygon","coordinates":[[[-58.713937,-34.364815],[-58.71411,-34.3647],[-58.714055,-34.364627],[-58.713932,-34.364478],[-58.713754,-34.364592],[-58.713937,-34.364815]]]}},{"type":"Feature","properties":{"partida":"057068919","cca":"057040J00000000000000000000001310000003000","tipo":"Urbano","sup_m2":614.9},"geometry":{"type":"Polygon","coordinates":[[[-58.713579,-34.364705],[-58.713758,-34.364929],[-58.713937,-34.364815],[-58.713754,-34.364592],[-58.713579,-34.364705]]]}},{"type":"Feature","properties":{"partida":"057068920","cca":"057040J00000000000000000000001310000004000","tipo":"Urbano","sup_m2":579.1},"geometry":{"type":"Polygon","coordinates":[[[-58.713579,-34.364705],[-58.713359,-34.364846],[-58.713349,-34.364889],[-58.713452,-34.365018],[-58.713699,-34.364857],[-58.713579,-34.364705]]]}},{"type":"Feature","properties":{"partida":"057068921","cca":"057040J00000000000000000000001310000005000","tipo":"Urbano","sup_m2":589.9},"geometry":{"type":"Polygon","coordinates":[[[-58.713827,-34.365008],[-58.713699,-34.364857],[-58.713452,-34.365018],[-58.713575,-34.365169],[-58.713827,-34.365008]]]}},{"type":"Feature","properties":{"partida":"057068922","cca":"057040J00000000000000000000001310000006000","tipo":"Urbano","sup_m2":551.7},"geometry":{"type":"Polygon","coordinates":[[[-58.713575,-34.365169],[-58.713668,-34.365284],[-58.713722,-34.365294],[-58.713941,-34.365154],[-58.713827,-34.365008],[-58.713575,-34.365169]]]}},{"type":"Feature","properties":{"partida":"057068923","cca":"057040J00000000000000000000001310000007000","tipo":"Urbano","sup_m2":615.4},"geometry":{"type":"Polygon","coordinates":[[[-58.713827,-34.365008],[-58.713941,-34.365154],[-58.714119,-34.36504],[-58.713937,-34.364815],[-58.713758,-34.364929],[-58.713827,-34.365008]]]}},{"type":"Feature","properties":{"partida":"057068924","cca":"057040J00000000000000000000001310000008000","tipo":"Urbano","sup_m2":621.2},"geometry":{"type":"Polygon","coordinates":[[[-58.714295,-34.364925],[-58.714176,-34.364776],[-58.71411,-34.3647],[-58.713937,-34.364815],[-58.714119,-34.36504],[-58.714295,-34.364925]]]}},{"type":"Feature","properties":{"partida":"057068925","cca":"057040J00000000000000000000001310000009000","tipo":"Urbano","sup_m2":483.8},"geometry":{"type":"Polygon","coordinates":[[[-58.714295,-34.364925],[-58.714359,-34.364884],[-58.7145,-34.36476],[-58.714397,-34.364634],[-58.714176,-34.364776],[-58.714295,-34.364925]]]}},{"type":"Feature","properties":{"partida":"057068926","cca":"057040J00000000000000000000001310000010000","tipo":"Urbano","sup_m2":515.3},"geometry":{"type":"Polygon","coordinates":[[[-58.714274,-34.364485],[-58.714055,-34.364627],[-58.71411,-34.3647],[-58.714176,-34.364776],[-58.714397,-34.364634],[-58.714274,-34.364485]]]}},{"type":"Feature","properties":{"partida":"057068927","cca":"057040J00000000000000000000001320000001000","tipo":"Urbano","sup_m2":520.4},"geometry":{"type":"Polygon","coordinates":[[[-58.713056,-34.365196],[-58.713296,-34.365062],[-58.713203,-34.364934],[-58.713156,-34.364923],[-58.712948,-34.365043],[-58.713056,-34.365196]]]}},{"type":"Feature","properties":{"partida":"057068928","cca":"057040J00000000000000000000001320000003000","tipo":"Urbano","sup_m2":1226.2},"geometry":{"type":"Polygon","coordinates":[[[-58.713131,-34.365298],[-58.712948,-34.365043],[-58.712876,-34.365084],[-58.712624,-34.365372],[-58.712728,-34.36553],[-58.713131,-34.365298]]]}},{"type":"Feature","properties":{"partida":"057068929","cca":"057040J00000000000000000000001320000004000","tipo":"Urbano","sup_m2":603.8},"geometry":{"type":"Polygon","coordinates":[[[-58.712728,-34.36553],[-58.71285,-34.365715],[-58.7129,-34.365731],[-58.713073,-34.365629],[-58.712923,-34.365417],[-58.712728,-34.36553]]]}},{"type":"Feature","properties":{"partida":"057068930","cca":"057040J00000000000000000000001320000005000","tipo":"Urbano","sup_m2":639.2},"geometry":{"type":"Polygon","coordinates":[[[-58.713285,-34.365508],[-58.713131,-34.365298],[-58.712923,-34.365417],[-58.713073,-34.365629],[-58.713285,-34.365508]]]}},{"type":"Feature","properties":{"partida":"057068931","cca":"057040J00000000000000000000001320000006000","tipo":"Urbano","sup_m2":539.8},"geometry":{"type":"Polygon","coordinates":[[[-58.713285,-34.365508],[-58.713492,-34.365388],[-58.713507,-34.365341],[-58.71341,-34.365213],[-58.713172,-34.365351],[-58.713285,-34.365508]]]}},{"type":"Feature","properties":{"partida":"057068932","cca":"057040J00000000000000000000001320000007000","tipo":"Urbano","sup_m2":533.2},"geometry":{"type":"Polygon","coordinates":[[[-58.713056,-34.365196],[-58.713172,-34.365351],[-58.71341,-34.365213],[-58.713296,-34.365062],[-58.713056,-34.365196]]]}},{"type":"Feature","properties":{"partida":"057022042","cca":"057040J00000000000000000000001390000001000","tipo":"Urbano","sup_m2":303.7},"geometry":{"type":"Polygon","coordinates":[[[-58.716718,-34.363654],[-58.716996,-34.36349],[-58.716949,-34.363434],[-58.716896,-34.363433],[-58.716658,-34.363593],[-58.716718,-34.363654]]]}},{"type":"Feature","properties":{"partida":"057022043","cca":"057040J00000000000000000000001390000002000","tipo":"Urbano","sup_m2":372.4},"geometry":{"type":"Polygon","coordinates":[[[-58.716789,-34.363723],[-58.716658,-34.363593],[-58.716571,-34.36365],[-58.716821,-34.363907],[-58.716903,-34.363853],[-58.716789,-34.363723]]]}},{"type":"Feature","properties":{"partida":"057022044","cca":"057040J00000000000000000000001390000003000","tipo":"Urbano","sup_m2":394.3},"geometry":{"type":"Polygon","coordinates":[[[-58.71648,-34.363711],[-58.71673,-34.363967],[-58.716821,-34.363907],[-58.716571,-34.36365],[-58.71648,-34.363711]]]}},{"type":"Feature","properties":{"partida":"057022045","cca":"057040J00000000000000000000001390000004000","tipo":"Urbano","sup_m2":360.4},"geometry":{"type":"Polygon","coordinates":[[[-58.71673,-34.363967],[-58.71648,-34.363711],[-58.716398,-34.363764],[-58.716643,-34.364024],[-58.71673,-34.363967]]]}},{"type":"Feature","properties":{"partida":"057022046","cca":"057040J00000000000000000000001390000005000","tipo":"Urbano","sup_m2":376.0},"geometry":{"type":"Polygon","coordinates":[[[-58.716308,-34.363824],[-58.716561,-34.364082],[-58.716643,-34.364024],[-58.716398,-34.363764],[-58.716308,-34.363824]]]}},{"type":"Feature","properties":{"partida":"057022047","cca":"057040J00000000000000000000001390000006000","tipo":"Urbano","sup_m2":375.7},"geometry":{"type":"Polygon","coordinates":[[[-58.716308,-34.363824],[-58.716223,-34.363882],[-58.716472,-34.364139],[-58.716561,-34.364082],[-58.716308,-34.363824]]]}},{"type":"Feature","properties":{"partida":"057022048","cca":"057040J00000000000000000000001390000007000","tipo":"Urbano","sup_m2":353.1},"geometry":{"type":"Polygon","coordinates":[[[-58.716142,-34.363935],[-58.71639,-34.364194],[-58.716472,-34.364139],[-58.716223,-34.363882],[-58.716142,-34.363935]]]}},{"type":"Feature","properties":{"partida":"057022049","cca":"057040J00000000000000000000001390000008000","tipo":"Urbano","sup_m2":404.6},"geometry":{"type":"Polygon","coordinates":[[[-58.716142,-34.363935],[-58.715888,-34.364105],[-58.715901,-34.364146],[-58.715947,-34.364204],[-58.716233,-34.364029],[-58.716142,-34.363935]]]}},{"type":"Feature","properties":{"partida":"057022050","cca":"057040J00000000000000000000001390000009000","tipo":"Urbano","sup_m2":369.4},"geometry":{"type":"Polygon","coordinates":[[[-58.716309,-34.364111],[-58.716233,-34.364029],[-58.715947,-34.364204],[-58.716015,-34.364285],[-58.716309,-34.364111]]]}},{"type":"Feature","properties":{"partida":"057022051","cca":"057040J00000000000000000000001390000010000","tipo":"Urbano","sup_m2":324.7},"geometry":{"type":"Polygon","coordinates":[[[-58.716076,-34.364356],[-58.716375,-34.364178],[-58.716309,-34.364111],[-58.716015,-34.364285],[-58.716076,-34.364356]]]}},{"type":"Feature","properties":{"partida":"057012250","cca":"057040J00000000000000000000001390000011000","tipo":"Urbano","sup_m2":330.5},"geometry":{"type":"Polygon","coordinates":[[[-58.716438,-34.364248],[-58.716375,-34.364178],[-58.716076,-34.364356],[-58.716138,-34.364428],[-58.716438,-34.364248]]]}},{"type":"Feature","properties":{"partida":"057022052","cca":"057040J00000000000000000000001390000012000","tipo":"Urbano","sup_m2":348.9},"geometry":{"type":"Polygon","coordinates":[[[-58.71651,-34.364319],[-58.716438,-34.364248],[-58.716138,-34.364428],[-58.716201,-34.364502],[-58.71651,-34.364319]]]}},{"type":"Feature","properties":{"partida":"057022053","cca":"057040J00000000000000000000001390000013000","tipo":"Urbano","sup_m2":328.1},"geometry":{"type":"Polygon","coordinates":[[[-58.71651,-34.364319],[-58.716201,-34.364502],[-58.716261,-34.36457],[-58.716573,-34.364384],[-58.71651,-34.364319]]]}},{"type":"Feature","properties":{"partida":"057022054","cca":"057040J00000000000000000000001390000014000","tipo":"Urbano","sup_m2":361.1},"geometry":{"type":"Polygon","coordinates":[[[-58.716633,-34.364452],[-58.716573,-34.364384],[-58.716261,-34.36457],[-58.71631,-34.364629],[-58.716366,-34.364632],[-58.716633,-34.364452]]]}},{"type":"Feature","properties":{"partida":"057022055","cca":"057040J00000000000000000000001390000015000","tipo":"Urbano","sup_m2":355.8},"geometry":{"type":"Polygon","coordinates":[[[-58.716438,-34.364248],[-58.716573,-34.364384],[-58.716633,-34.364452],[-58.716719,-34.364398],[-58.716472,-34.364139],[-58.71639,-34.364194],[-58.716438,-34.364248]]]}},{"type":"Feature","properties":{"partida":"057022056","cca":"057040J00000000000000000000001390000016000","tipo":"Urbano","sup_m2":374.6},"geometry":{"type":"Polygon","coordinates":[[[-58.716804,-34.364339],[-58.716561,-34.364082],[-58.716472,-34.364139],[-58.716719,-34.364398],[-58.716804,-34.364339]]]}},{"type":"Feature","properties":{"partida":"057022057","cca":"057040J00000000000000000000001390000017000","tipo":"Urbano","sup_m2":366.3},"geometry":{"type":"Polygon","coordinates":[[[-58.716804,-34.364339],[-58.716892,-34.364282],[-58.716643,-34.364024],[-58.716561,-34.364082],[-58.716804,-34.364339]]]}},{"type":"Feature","properties":{"partida":"057022058","cca":"057040J00000000000000000000001390000018000","tipo":"Urbano","sup_m2":372.6},"geometry":{"type":"Polygon","coordinates":[[[-58.716979,-34.364227],[-58.71673,-34.363967],[-58.716643,-34.364024],[-58.716892,-34.364282],[-58.716979,-34.364227]]]}},{"type":"Feature","properties":{"partida":"057022059","cca":"057040J00000000000000000000001390000019000","tipo":"Urbano","sup_m2":393.6},"geometry":{"type":"Polygon","coordinates":[[[-58.716979,-34.364227],[-58.717069,-34.364166],[-58.716821,-34.363907],[-58.71673,-34.363967],[-58.716979,-34.364227]]]}},{"type":"Feature","properties":{"partida":"057022060","cca":"057040J00000000000000000000001390000020000","tipo":"Urbano","sup_m2":364.5},"geometry":{"type":"Polygon","coordinates":[[[-58.717154,-34.364111],[-58.71692,-34.363865],[-58.716903,-34.363853],[-58.716821,-34.363907],[-58.717069,-34.364166],[-58.717154,-34.364111]]]}},{"type":"Feature","properties":{"partida":"057022061","cca":"057040J00000000000000000000001390000021000","tipo":"Urbano","sup_m2":368.4},"geometry":{"type":"Polygon","coordinates":[[[-58.717154,-34.364111],[-58.717352,-34.363979],[-58.717364,-34.363923],[-58.717309,-34.363858],[-58.717061,-34.364013],[-58.717154,-34.364111]]]}},{"type":"Feature","properties":{"partida":"057022062","cca":"057040J00000000000000000000001390000022000","tipo":"Urbano","sup_m2":314.5},"geometry":{"type":"Polygon","coordinates":[[[-58.717242,-34.363781],[-58.716984,-34.363935],[-58.717061,-34.364013],[-58.717309,-34.363858],[-58.717242,-34.363781]]]}},{"type":"Feature","properties":{"partida":"057022063","cca":"057040J00000000000000000000001390000023000","tipo":"Urbano","sup_m2":289.3},"geometry":{"type":"Polygon","coordinates":[[[-58.716984,-34.363935],[-58.717242,-34.363781],[-58.717181,-34.363707],[-58.71692,-34.363865],[-58.716984,-34.363935]]]}},{"type":"Feature","properties":{"partida":"057022064","cca":"057040J00000000000000000000001390000024000","tipo":"Urbano","sup_m2":296.9},"geometry":{"type":"Polygon","coordinates":[[[-58.717123,-34.363637],[-58.716851,-34.363794],[-58.716903,-34.363853],[-58.71692,-34.363865],[-58.717181,-34.363707],[-58.717123,-34.363637]]]}},{"type":"Feature","properties":{"partida":"057022065","cca":"057040J00000000000000000000001390000025000","tipo":"Urbano","sup_m2":300.6},"geometry":{"type":"Polygon","coordinates":[[[-58.717058,-34.363564],[-58.716789,-34.363723],[-58.716851,-34.363794],[-58.717123,-34.363637],[-58.717058,-34.363564]]]}},{"type":"Feature","properties":{"partida":"057022066","cca":"057040J00000000000000000000001390000026000","tipo":"Urbano","sup_m2":308.1},"geometry":{"type":"Polygon","coordinates":[[[-58.717058,-34.363564],[-58.716996,-34.36349],[-58.716718,-34.363654],[-58.716789,-34.363723],[-58.717058,-34.363564]]]}},{"type":"Feature","properties":{"partida":"057022067","cca":"057040J00000000000000000000001400000001000","tipo":"Urbano","sup_m2":306.0},"geometry":{"type":"Polygon","coordinates":[[[-58.715851,-34.364242],[-58.715804,-34.364185],[-58.715758,-34.364182],[-58.715506,-34.364344],[-58.715562,-34.364406],[-58.715851,-34.364242]]]}},{"type":"Feature","properties":{"partida":"057022068","cca":"057040J00000000000000000000001400000002000","tipo":"Urbano","sup_m2":365.6},"geometry":{"type":"Polygon","coordinates":[[[-58.71542,-34.364398],[-58.715659,-34.364659],[-58.715746,-34.364603],[-58.715696,-34.364545],[-58.715506,-34.364344],[-58.71542,-34.364398]]]}},{"type":"Feature","properties":{"partida":"057022069","cca":"057040J00000000000000000000001400000003000","tipo":"Urbano","sup_m2":362.2},"geometry":{"type":"Polygon","coordinates":[[[-58.715574,-34.364713],[-58.715659,-34.364659],[-58.71542,-34.364398],[-58.715333,-34.364454],[-58.715574,-34.364713]]]}},{"type":"Feature","properties":{"partida":"057022070","cca":"057040J00000000000000000000001400000004000","tipo":"Urbano","sup_m2":339.4},"geometry":{"type":"Polygon","coordinates":[[[-58.715253,-34.364505],[-58.715489,-34.364762],[-58.715574,-34.364713],[-58.715333,-34.364454],[-58.715253,-34.364505]]]}},{"type":"Feature","properties":{"partida":"057022071","cca":"057040J00000000000000000000001400000005000","tipo":"Urbano","sup_m2":372.7},"geometry":{"type":"Polygon","coordinates":[[[-58.7154,-34.364821],[-58.715489,-34.364762],[-58.715253,-34.364505],[-58.715164,-34.364559],[-58.7154,-34.364821]]]}},{"type":"Feature","properties":{"partida":"057022072","cca":"057040J00000000000000000000001400000006000","tipo":"Urbano","sup_m2":353.6},"geometry":{"type":"Polygon","coordinates":[[[-58.7154,-34.364821],[-58.715164,-34.364559],[-58.715077,-34.364616],[-58.715319,-34.364872],[-58.7154,-34.364821]]]}},{"type":"Feature","properties":{"partida":"057022073","cca":"057040J00000000000000000000001400000007000","tipo":"Urbano","sup_m2":369.8},"geometry":{"type":"Polygon","coordinates":[[[-58.71499,-34.36467],[-58.715232,-34.364932],[-58.715319,-34.364872],[-58.715077,-34.364616],[-58.71499,-34.36467]]]}},{"type":"Feature","properties":{"partida":"057022074","cca":"057040J00000000000000000000001400000008000","tipo":"Urbano","sup_m2":395.7},"geometry":{"type":"Polygon","coordinates":[[[-58.71499,-34.36467],[-58.714738,-34.364831],[-58.71473,-34.364874],[-58.714778,-34.364933],[-58.715077,-34.364764],[-58.71499,-34.36467]]]}},{"type":"Feature","properties":{"partida":"057022075","cca":"057040J00000000000000000000001400000009000","tipo":"Urbano","sup_m2":372.1},"geometry":{"type":"Polygon","coordinates":[[[-58.715077,-34.364764],[-58.714778,-34.364933],[-58.71485,-34.365018],[-58.715148,-34.36484],[-58.715077,-34.364764]]]}},{"type":"Feature","properties":{"partida":"057022076","cca":"057040J00000000000000000000001400000010000","tipo":"Urbano","sup_m2":330.5},"geometry":{"type":"Polygon","coordinates":[[[-58.714909,-34.365088],[-58.715212,-34.364913],[-58.715148,-34.36484],[-58.71485,-34.365018],[-58.714909,-34.365088]]]}},{"type":"Feature","properties":{"partida":"057022077","cca":"057040J00000000000000000000001400000011000","tipo":"Urbano","sup_m2":336.7},"geometry":{"type":"Polygon","coordinates":[[[-58.714967,-34.365159],[-58.715281,-34.364984],[-58.715212,-34.364913],[-58.714909,-34.365088],[-58.714967,-34.365159]]]}},{"type":"Feature","properties":{"partida":"057022078","cca":"057040J00000000000000000000001400000012000","tipo":"Urbano","sup_m2":350.3},"geometry":{"type":"Polygon","coordinates":[[[-58.715027,-34.365234],[-58.715346,-34.365056],[-58.715281,-34.364984],[-58.714967,-34.365159],[-58.715027,-34.365234]]]}},{"type":"Feature","properties":{"partida":"057022079","cca":"057040J00000000000000000000001400000013000","tipo":"Urbano","sup_m2":326.6},"geometry":{"type":"Polygon","coordinates":[[[-58.715406,-34.365118],[-58.715346,-34.365056],[-58.715027,-34.365234],[-58.715085,-34.365305],[-58.715406,-34.365118]]]}},{"type":"Feature","properties":{"partida":"057022080","cca":"057040J00000000000000000000001400000014000","tipo":"Urbano","sup_m2":382.9},"geometry":{"type":"Polygon","coordinates":[[[-58.715085,-34.365305],[-58.715134,-34.365363],[-58.71519,-34.365369],[-58.715469,-34.365191],[-58.715406,-34.365118],[-58.715085,-34.365305]]]}},{"type":"Feature","properties":{"partida":"057022081","cca":"057040J00000000000000000000001400000015000","tipo":"Urbano","sup_m2":366.6},"geometry":{"type":"Polygon","coordinates":[[[-58.715555,-34.365136],[-58.715319,-34.364872],[-58.715232,-34.364932],[-58.715406,-34.365118],[-58.715469,-34.365191],[-58.715555,-34.365136]]]}},{"type":"Feature","properties":{"partida":"057022082","cca":"057040J00000000000000000000001400000016000","tipo":"Urbano","sup_m2":356.9},"geometry":{"type":"Polygon","coordinates":[[[-58.715644,-34.365081],[-58.7154,-34.364821],[-58.715319,-34.364872],[-58.715555,-34.365136],[-58.715644,-34.365081]]]}},{"type":"Feature","properties":{"partida":"057022083","cca":"057040J00000000000000000000001400000017000","tipo":"Urbano","sup_m2":373.3},"geometry":{"type":"Polygon","coordinates":[[[-58.7154,-34.364821],[-58.715644,-34.365081],[-58.715728,-34.365027],[-58.715489,-34.364762],[-58.7154,-34.364821]]]}},{"type":"Feature","properties":{"partida":"057022084","cca":"057040J00000000000000000000001400000018000","tipo":"Urbano","sup_m2":350.4},"geometry":{"type":"Polygon","coordinates":[[[-58.715812,-34.364975],[-58.715574,-34.364713],[-58.715489,-34.364762],[-58.715728,-34.365027],[-58.715812,-34.364975]]]}},{"type":"Feature","properties":{"partida":"057022085","cca":"057040J00000000000000000000001400000019000","tipo":"Urbano","sup_m2":353.1},"geometry":{"type":"Polygon","coordinates":[[[-58.715659,-34.364659],[-58.715574,-34.364713],[-58.715812,-34.364975],[-58.715894,-34.364921],[-58.715659,-34.364659]]]}},{"type":"Feature","properties":{"partida":"057022086","cca":"057040J00000000000000000000001400000020000","tipo":"Urbano","sup_m2":377.6},"geometry":{"type":"Polygon","coordinates":[[[-58.715986,-34.364863],[-58.715825,-34.364686],[-58.715746,-34.364603],[-58.715659,-34.364659],[-58.715894,-34.364921],[-58.715986,-34.364863]]]}},{"type":"Feature","properties":{"partida":"057022087","cca":"057040J00000000000000000000001400000021000","tipo":"Urbano","sup_m2":382.3},"geometry":{"type":"Polygon","coordinates":[[[-58.715986,-34.364863],[-58.716197,-34.364728],[-58.716206,-34.36468],[-58.716152,-34.364612],[-58.71589,-34.36476],[-58.715986,-34.364863]]]}},{"type":"Feature","properties":{"partida":"057022088","cca":"057040J00000000000000000000001400000022000","tipo":"Urbano","sup_m2":303.8},"geometry":{"type":"Polygon","coordinates":[[[-58.71589,-34.36476],[-58.716152,-34.364612],[-58.716087,-34.364533],[-58.715825,-34.364686],[-58.71589,-34.36476]]]}},{"type":"Feature","properties":{"partida":"057022089","cca":"057040J00000000000000000000001400000023000","tipo":"Urbano","sup_m2":287.8},"geometry":{"type":"Polygon","coordinates":[[[-58.71576,-34.364617],[-58.715825,-34.364686],[-58.716087,-34.364533],[-58.716027,-34.364461],[-58.71576,-34.364617]]]}},{"type":"Feature","properties":{"partida":"057022090","cca":"057040J00000000000000000000001400000024000","tipo":"Urbano","sup_m2":294.7},"geometry":{"type":"Polygon","coordinates":[[[-58.71597,-34.36439],[-58.715696,-34.364545],[-58.71576,-34.364617],[-58.716027,-34.364461],[-58.71597,-34.36439]]]}},{"type":"Feature","properties":{"partida":"057022091","cca":"057040J00000000000000000000001400000025000","tipo":"Urbano","sup_m2":307.4},"geometry":{"type":"Polygon","coordinates":[[[-58.715909,-34.364312],[-58.71563,-34.364478],[-58.715696,-34.364545],[-58.71597,-34.36439],[-58.715909,-34.364312]]]}},{"type":"Feature","properties":{"partida":"057022092","cca":"057040J00000000000000000000001400000026000","tipo":"Urbano","sup_m2":312.7},"geometry":{"type":"Polygon","coordinates":[[[-58.715909,-34.364312],[-58.715851,-34.364242],[-58.715562,-34.364406],[-58.71563,-34.364478],[-58.715909,-34.364312]]]}},{"type":"Feature","properties":{"partida":"057022098","cca":"057040J00000000000000000000001410000001000","tipo":"Urbano","sup_m2":391.6},"geometry":{"type":"Polygon","coordinates":[[[-58.714709,-34.365005],[-58.714634,-34.364917],[-58.714586,-34.36491],[-58.714374,-34.365046],[-58.714469,-34.365142],[-58.714709,-34.365005]]]}},{"type":"Feature","properties":{"partida":"057022099","cca":"057040J00000000000000000000001410000002000","tipo":"Urbano","sup_m2":398.7},"geometry":{"type":"Polygon","coordinates":[[[-58.714624,-34.365306],[-58.714374,-34.365046],[-58.714283,-34.365105],[-58.714533,-34.365367],[-58.714624,-34.365306]]]}},{"type":"Feature","properties":{"partida":"057022100","cca":"057040J00000000000000000000001410000003000","tipo":"Urbano","sup_m2":362.4},"geometry":{"type":"Polygon","coordinates":[[[-58.714199,-34.365159],[-58.714445,-34.365419],[-58.714533,-34.365367],[-58.714283,-34.365105],[-58.714199,-34.365159]]]}},{"type":"Feature","properties":{"partida":"057022101","cca":"057040J00000000000000000000001410000004000","tipo":"Urbano","sup_m2":354.6},"geometry":{"type":"Polygon","coordinates":[[[-58.714362,-34.365472],[-58.714445,-34.365419],[-58.714199,-34.365159],[-58.714114,-34.365211],[-58.714362,-34.365472]]]}},{"type":"Feature","properties":{"partida":"057022102","cca":"057040J00000000000000000000001410000005000","tipo":"Urbano","sup_m2":375.0},"geometry":{"type":"Polygon","coordinates":[[[-58.714026,-34.365266],[-58.714275,-34.365528],[-58.714362,-34.365472],[-58.714114,-34.365211],[-58.714026,-34.365266]]]}},{"type":"Feature","properties":{"partida":"057022103","cca":"057040J00000000000000000000001410000006000","tipo":"Urbano","sup_m2":374.9},"geometry":{"type":"Polygon","coordinates":[[[-58.714026,-34.365266],[-58.713818,-34.365402],[-58.713807,-34.365444],[-58.713864,-34.365515],[-58.714122,-34.365367],[-58.714026,-34.365266]]]}},{"type":"Feature","properties":{"partida":"057022104","cca":"057040J00000000000000000000001410000007000","tipo":"Urbano","sup_m2":315.9},"geometry":{"type":"Polygon","coordinates":[[[-58.714195,-34.365445],[-58.714122,-34.365367],[-58.713864,-34.365515],[-58.713932,-34.365595],[-58.714195,-34.365445]]]}},{"type":"Feature","properties":{"partida":"057022105","cca":"057040J00000000000000000000001410000008000","tipo":"Urbano","sup_m2":290.1},"geometry":{"type":"Polygon","coordinates":[[[-58.71426,-34.365513],[-58.714195,-34.365445],[-58.713932,-34.365595],[-58.713992,-34.365668],[-58.71426,-34.365513]]]}},{"type":"Feature","properties":{"partida":"057022106","cca":"057040J00000000000000000000001410000009000","tipo":"Urbano","sup_m2":312.0},"geometry":{"type":"Polygon","coordinates":[[[-58.714328,-34.365587],[-58.71426,-34.365513],[-58.713992,-34.365668],[-58.714055,-34.365745],[-58.714328,-34.365587]]]}},{"type":"Feature","properties":{"partida":"057022107","cca":"057040J00000000000000000000001410000010000","tipo":"Urbano","sup_m2":298.0},"geometry":{"type":"Polygon","coordinates":[[[-58.714392,-34.365655],[-58.714328,-34.365587],[-58.714055,-34.365745],[-58.714114,-34.365817],[-58.714392,-34.365655]]]}},{"type":"Feature","properties":{"partida":"057022108","cca":"057040J00000000000000000000001410000011000","tipo":"Urbano","sup_m2":310.3},"geometry":{"type":"Polygon","coordinates":[[[-58.714458,-34.365726],[-58.714392,-34.365655],[-58.714114,-34.365817],[-58.714174,-34.365889],[-58.714458,-34.365726]]]}},{"type":"Feature","properties":{"partida":"057022109","cca":"057040J00000000000000000000001410000012000","tipo":"Urbano","sup_m2":309.5},"geometry":{"type":"Polygon","coordinates":[[[-58.714174,-34.365889],[-58.714219,-34.365944],[-58.714265,-34.36595],[-58.71452,-34.365789],[-58.714458,-34.365726],[-58.714174,-34.365889]]]}},{"type":"Feature","properties":{"partida":"057022110","cca":"057040J00000000000000000000001410000013000","tipo":"Urbano","sup_m2":380.1},"geometry":{"type":"Polygon","coordinates":[[[-58.714275,-34.365528],[-58.71452,-34.365789],[-58.71461,-34.365734],[-58.714362,-34.365472],[-58.714275,-34.365528]]]}},{"type":"Feature","properties":{"partida":"057022111","cca":"057040J00000000000000000000001410000014000","tipo":"Urbano","sup_m2":356.1},"geometry":{"type":"Polygon","coordinates":[[[-58.714362,-34.365472],[-58.71461,-34.365734],[-58.714692,-34.36568],[-58.714445,-34.365419],[-58.714362,-34.365472]]]}},{"type":"Feature","properties":{"partida":"057022112","cca":"057040J00000000000000000000001410000015000","tipo":"Urbano","sup_m2":364.6},"geometry":{"type":"Polygon","coordinates":[[[-58.714533,-34.365367],[-58.714445,-34.365419],[-58.714692,-34.36568],[-58.714778,-34.365625],[-58.714533,-34.365367]]]}},{"type":"Feature","properties":{"partida":"057022113","cca":"057040J00000000000000000000001410000016000","tipo":"Urbano","sup_m2":388.3},"geometry":{"type":"Polygon","coordinates":[[[-58.714778,-34.365625],[-58.714869,-34.365568],[-58.714624,-34.365306],[-58.714533,-34.365367],[-58.714778,-34.365625]]]}},{"type":"Feature","properties":{"partida":"057022114","cca":"057040J00000000000000000000001410000017000","tipo":"Urbano","sup_m2":281.5},"geometry":{"type":"Polygon","coordinates":[[[-58.714869,-34.365568],[-58.715039,-34.365461],[-58.715052,-34.365421],[-58.714998,-34.365358],[-58.714782,-34.365475],[-58.714869,-34.365568]]]}},{"type":"Feature","properties":{"partida":"057022115","cca":"057040J00000000000000000000001410000018000","tipo":"Urbano","sup_m2":291.5},"geometry":{"type":"Polygon","coordinates":[[[-58.714925,-34.365268],[-58.714701,-34.36539],[-58.714782,-34.365475],[-58.714998,-34.365358],[-58.714925,-34.365268]]]}},{"type":"Feature","properties":{"partida":"057022116","cca":"057040J00000000000000000000001410000019000","tipo":"Urbano","sup_m2":291.4},"geometry":{"type":"Polygon","coordinates":[[[-58.714624,-34.365306],[-58.714701,-34.36539],[-58.714925,-34.365268],[-58.714851,-34.365181],[-58.714624,-34.365306]]]}},{"type":"Feature","properties":{"partida":"057022117","cca":"057040J00000000000000000000001410000020000","tipo":"Urbano","sup_m2":300.7},"geometry":{"type":"Polygon","coordinates":[[[-58.714851,-34.365181],[-58.714774,-34.36509],[-58.714547,-34.365227],[-58.714624,-34.365306],[-58.714851,-34.365181]]]}},{"type":"Feature","properties":{"partida":"057022118","cca":"057040J00000000000000000000001410000021000","tipo":"Urbano","sup_m2":301.4},"geometry":{"type":"Polygon","coordinates":[[[-58.714774,-34.36509],[-58.714709,-34.365005],[-58.714469,-34.365142],[-58.714547,-34.365227],[-58.714774,-34.36509]]]}},{"type":"Feature","properties":{"partida":"057022119","cca":"057040J00000000000000000000001420000001000","tipo":"Urbano","sup_m2":400.5},"geometry":{"type":"Polygon","coordinates":[[[-58.713377,-34.36571],[-58.713432,-34.365769],[-58.713736,-34.365598],[-58.713663,-34.365509],[-58.713615,-34.365505],[-58.713377,-34.36571]]]}},{"type":"Feature","properties":{"partida":"057068933","cca":"057040J00000000000000000000001420000002000","tipo":"Urbano","sup_m2":354.0},"geometry":{"type":"Polygon","coordinates":[[[-58.713377,-34.36571],[-58.713615,-34.365505],[-58.713021,-34.365892],[-58.713011,-34.365919],[-58.713054,-34.365981],[-58.713377,-34.36571]]]}},{"type":"Feature","properties":{"partida":"057022120","cca":"057040J00000000000000000000001420000004000","tipo":"Urbano","sup_m2":659.6},"geometry":{"type":"Polygon","coordinates":[[[-58.713111,-34.366062],[-58.713513,-34.365859],[-58.7135,-34.365841],[-58.713377,-34.36571],[-58.713054,-34.365981],[-58.713111,-34.366062]]]}},{"type":"Feature","properties":{"partida":"057022121","cca":"057040J00000000000000000000001420000005000","tipo":"Urbano","sup_m2":435.3},"geometry":{"type":"Polygon","coordinates":[[[-58.71358,-34.365928],[-58.713513,-34.365859],[-58.713111,-34.366062],[-58.713166,-34.36614],[-58.71358,-34.365928]]]}},{"type":"Feature","properties":{"partida":"057022122","cca":"057040J00000000000000000000001420000006000","tipo":"Urbano","sup_m2":273.7},"geometry":{"type":"Polygon","coordinates":[[[-58.713166,-34.36614],[-58.713224,-34.366226],[-58.713464,-34.366101],[-58.713394,-34.366024],[-58.713166,-34.36614]]]}},{"type":"Feature","properties":{"partida":"057022123","cca":"057040J00000000000000000000001420000007000","tipo":"Urbano","sup_m2":285.4},"geometry":{"type":"Polygon","coordinates":[[[-58.713534,-34.366178],[-58.713464,-34.366101],[-58.713224,-34.366226],[-58.713284,-34.366309],[-58.713534,-34.366178]]]}},{"type":"Feature","properties":{"partida":"057022124","cca":"057040J00000000000000000000001420000008000","tipo":"Urbano","sup_m2":300.1},"geometry":{"type":"Polygon","coordinates":[[[-58.713284,-34.366309],[-58.71334,-34.366392],[-58.713608,-34.366256],[-58.713534,-34.366178],[-58.713284,-34.366309]]]}},{"type":"Feature","properties":{"partida":"057022125","cca":"057040J00000000000000000000001420000009000","tipo":"Urbano","sup_m2":284.9},"geometry":{"type":"Polygon","coordinates":[[[-58.713608,-34.366256],[-58.71334,-34.366392],[-58.713384,-34.366454],[-58.713436,-34.36646],[-58.713664,-34.366315],[-58.713608,-34.366256]]]}},{"type":"Feature","properties":{"partida":"057022126","cca":"057040J00000000000000000000001420000010000","tipo":"Urbano","sup_m2":403.6},"geometry":{"type":"Polygon","coordinates":[[[-58.713394,-34.366024],[-58.713664,-34.366315],[-58.713749,-34.366263],[-58.713486,-34.365975],[-58.713394,-34.366024]]]}},{"type":"Feature","properties":{"partida":"057022127","cca":"057040J00000000000000000000001420000011000","tipo":"Urbano","sup_m2":412.3},"geometry":{"type":"Polygon","coordinates":[[[-58.71384,-34.366206],[-58.71358,-34.365928],[-58.713486,-34.365975],[-58.713749,-34.366263],[-58.71384,-34.366206]]]}},{"type":"Feature","properties":{"partida":"057022128","cca":"057040J00000000000000000000001420000012000","tipo":"Urbano","sup_m2":320.6},"geometry":{"type":"Polygon","coordinates":[[[-58.713766,-34.366124],[-58.71384,-34.366206],[-58.714077,-34.366057],[-58.714084,-34.366019],[-58.714042,-34.365967],[-58.713766,-34.366124]]]}},{"type":"Feature","properties":{"partida":"057022129","cca":"057040J00000000000000000000001420000013000","tipo":"Urbano","sup_m2":312.2},"geometry":{"type":"Polygon","coordinates":[[[-58.714042,-34.365967],[-58.713979,-34.365894],[-58.713697,-34.366051],[-58.713766,-34.366124],[-58.714042,-34.365967]]]}},{"type":"Feature","properties":{"partida":"057022130","cca":"057040J00000000000000000000001420000014000","tipo":"Urbano","sup_m2":309.1},"geometry":{"type":"Polygon","coordinates":[[[-58.713919,-34.36582],[-58.713633,-34.365982],[-58.713697,-34.366051],[-58.713979,-34.365894],[-58.713919,-34.36582]]]}},{"type":"Feature","properties":{"partida":"057022131","cca":"057040J00000000000000000000001420000015000","tipo":"Urbano","sup_m2":325.9},"geometry":{"type":"Polygon","coordinates":[[[-58.713919,-34.36582],[-58.713856,-34.365746],[-58.713564,-34.365909],[-58.713633,-34.365982],[-58.713919,-34.36582]]]}},{"type":"Feature","properties":{"partida":"057022132","cca":"057040J00000000000000000000001420000016000","tipo":"Urbano","sup_m2":324.9},"geometry":{"type":"Polygon","coordinates":[[[-58.713796,-34.365669],[-58.7135,-34.365841],[-58.713513,-34.365859],[-58.713564,-34.365909],[-58.713856,-34.365746],[-58.713796,-34.365669]]]}},{"type":"Feature","properties":{"partida":"057022133","cca":"057040J00000000000000000000001420000017000","tipo":"Urbano","sup_m2":330.9},"geometry":{"type":"Polygon","coordinates":[[[-58.7135,-34.365841],[-58.713796,-34.365669],[-58.713736,-34.365598],[-58.713432,-34.365769],[-58.7135,-34.365841]]]}}]}