{"type":"FeatureCollection","features":[{"type":"Feature","properties":{"partida":"357019998","cca":"357000100000000000000066400K00000000001000","tipo":"Rural","sup_m2":1102103.5},"geometry":{"type":"Polygon","coordinates":[[[-58.491336,-34.401476],[-58.49153,-34.401237],[-58.492116,-34.400662],[-58.493132,-34.400331],[-58.493349,-34.400237],[-58.493492,-34.400013],[-58.493558,-34.39987],[-58.493546,-34.399704],[-58.493569,-34.399467],[-58.493521,-34.399249],[-58.493576,-34.399051],[-58.49344,-34.398903],[-58.493465,-34.398638],[-58.493376,-34.398474],[-58.493339,-34.398344],[-58.493251,-34.39817],[-58.493184,-34.397882],[-58.493011,-34.397695],[-58.492947,-34.397619],[-58.492837,-34.397378],[-58.492772,-34.396846],[-58.492725,-34.396716],[-58.492711,-34.396566],[-58.492732,-34.396341],[-58.492676,-34.396239],[-58.492634,-34.395827],[-58.492547,-34.395642],[-58.492493,-34.395451],[-58.492374,-34.39542],[-58.492554,-34.395254],[-58.492386,-34.395149],[-58.492369,-34.395007],[-58.492496,-34.394774],[-58.492389,-34.394601],[-58.492544,-34.39442],[-58.492515,-34.394202],[-58.492363,-34.394093],[-58.492316,-34.393909],[-58.492293,-34.393609],[-58.492207,-34.393377],[-58.492246,-34.393202],[-58.492138,-34.393121],[-58.492155,-34.393038],[-58.492236,-34.392917],[-58.492175,-34.392659],[-58.492179,-34.392561],[-58.492148,-34.392401],[-58.492068,-34.392245],[-58.492094,-34.392108],[-58.49203,-34.39198],[-58.491981,-34.391845],[-58.492008,-34.391652],[-58.491921,-34.391559],[-58.491878,-34.391415],[-58.491831,-34.391175],[-58.491875,-34.391042],[-58.491826,-34.390878],[-58.491752,-34.390686],[-58.491722,-34.39056],[-58.491611,-34.390442],[-58.491669,-34.390048],[-58.491584,-34.389934],[-58.491498,-34.389619],[-58.491556,-34.389503],[-58.491544,-34.389298],[-58.491402,-34.389047],[-58.49141,-34.388935],[-58.491432,-34.388729],[-58.491401,-34.388458],[-58.491231,-34.388223],[-58.491119,-34.387962],[-58.491066,-34.387733],[-58.491004,-34.387635],[-58.490874,-34.387454],[-58.490851,-34.387209],[-58.490759,-34.38693],[-58.4906,-34.386734],[-58.49062,-34.386577],[-58.490605,-34.386414],[-58.490461,-34.386215],[-58.490215,-34.385764],[-58.489938,-34.385287],[-58.489777,-34.38489],[-58.48953,-34.384456],[-58.489341,-34.384606],[-58.488737,-34.385021],[-58.488137,-34.385422],[-58.486679,-34.386416],[-58.48589,-34.386986],[-58.485219,-34.387487],[-58.484975,-34.38766],[-58.484441,-34.388179],[-58.484286,-34.388417],[-58.484151,-34.388486],[-58.484066,-34.388555],[-58.484057,-34.388636],[-58.484184,-34.388692],[-58.484131,-34.388773],[-58.483717,-34.388885],[-58.483552,-34.388983],[-58.483408,-34.389101],[-58.483089,-34.389301],[-58.482859,-34.389613],[-58.482601,-34.389915],[-58.482501,-34.39011],[-58.482381,-34.390469],[-58.482328,-34.39084],[-58.482373,-34.391016],[-58.482434,-34.39117],[-58.48244,-34.391327],[-58.482513,-34.391422],[-58.482598,-34.391423],[-58.482624,-34.391509],[-58.482758,-34.391542],[-58.483012,-34.391791],[-58.483121,-34.391835],[-58.483788,-34.392346],[-58.48386,-34.392477],[-58.483962,-34.392534],[-58.484062,-34.392735],[-58.484206,-34.392921],[-58.484361,-34.393341],[-58.484466,-34.39368],[-58.48444,-34.393996],[-58.484528,-34.394242],[-58.484488,-34.394331],[-58.484424,-34.394693],[-58.484229,-34.395303],[-58.484058,-34.395503],[-58.484069,-34.395698],[-58.484212,-34.395908],[-58.484261,-34.396023],[-58.48435,-34.396087],[-58.484518,-34.396181],[-58.484584,-34.396341],[-58.484727,-34.396573],[-58.484781,-34.396692],[-58.484672,-34.396709],[-58.484452,-34.396757],[-58.484235,-34.396916],[-58.484123,-34.397045],[-58.484072,-34.397204],[-58.484099,-34.397405],[-58.484162,-34.397614],[-58.484255,-34.397727],[-58.484425,-34.397841],[-58.484435,-34.397899],[-58.484574,-34.398056],[-58.484713,-34.397994],[-58.484784,-34.398049],[-58.484976,-34.39804],[-58.485274,-34.397994],[-58.485494,-34.397836],[-58.485625,-34.397636],[-58.485758,-34.397579],[-58.485869,-34.397647],[-58.485939,-34.397636],[-58.48606,-34.397675],[-58.486356,-34.397584],[-58.486575,-34.397505],[-58.486703,-34.397421],[-58.48692,-34.397519],[-58.487076,-34.397633],[-58.487214,-34.397675],[-58.487227,-34.397738],[-58.487332,-34.39776],[-58.487497,-34.397743],[-58.487601,-34.397781],[-58.48769,-34.397992],[-58.487811,-34.398174],[-58.488037,-34.398312],[-58.488052,-34.398429],[-58.488093,-34.398546],[-58.488239,-34.398584],[-58.488345,-34.398804],[-58.488717,-34.398893],[-58.488701,-34.399017],[-58.488838,-34.399209],[-58.489072,-34.39937],[-58.489249,-34.39974],[-58.489276,-34.400273],[-58.489497,-34.40048],[-58.48976,-34.400514],[-58.490134,-34.400789],[-58.490265,-34.401004],[-58.490746,-34.401323],[-58.491336,-34.401476]]]}}]}