{"type":"FeatureCollection","features":[{"type":"Feature","properties":{"partida":"357019174","cca":"35700010000000000000006420000000000000100H","tipo":"Rural","sup_m2":4671.5},"geometry":{"type":"Polygon","coordinates":[[[-58.53506,-34.306332],[-58.53545,-34.305111],[-58.535098,-34.305017],[-58.534723,-34.306258],[-58.53506,-34.306332]]]}},{"type":"Feature","properties":{"partida":"357019175","cca":"35700010000000000000006420000000000000100K","tipo":"Rural","sup_m2":5326.1},"geometry":{"type":"Polygon","coordinates":[[[-58.534723,-34.306258],[-58.535098,-34.305017],[-58.534709,-34.304926],[-58.534326,-34.30617],[-58.534723,-34.306258]]]}},{"type":"Feature","properties":{"partida":"357019176","cca":"35700010000000000000006420000000000000100M","tipo":"Rural","sup_m2":5792.6},"geometry":{"type":"Polygon","coordinates":[[[-58.534326,-34.30617],[-58.534709,-34.304926],[-58.534315,-34.304765],[-58.533911,-34.306077],[-58.534326,-34.30617]]]}},{"type":"Feature","properties":{"partida":"357019177","cca":"35700010000000000000006420000000000000100N","tipo":"Rural","sup_m2":82790.8},"geometry":{"type":"Polygon","coordinates":[[[-58.536738,-34.306705],[-58.533911,-34.306077],[-58.534315,-34.304765],[-58.532771,-34.304394],[-58.531941,-34.307065],[-58.535714,-34.307942],[-58.536738,-34.306705]]]}},{"type":"Feature","properties":{"partida":"357013479","cca":"35700010000000000000006420000000000000200A","tipo":"Urbano","sup_m2":131469.2},"geometry":{"type":"Polygon","coordinates":[[[-58.53214,-34.304205],[-58.53146,-34.306264],[-58.530221,-34.306225],[-58.530771,-34.303995],[-58.529939,-34.303874],[-58.529417,-34.307081],[-58.527703,-34.306681],[-58.527313,-34.308693],[-58.531372,-34.308895],[-58.532771,-34.304394],[-58.532365,-34.304263],[-58.53214,-34.304205]]]}},{"type":"Feature","properties":{"partida":"357019859","cca":"35700010000000000000006420000000000000200B","tipo":"Urbano","sup_m2":29352.3},"geometry":{"type":"Polygon","coordinates":[[[-58.53214,-34.304205],[-58.530771,-34.303995],[-58.530221,-34.306225],[-58.53146,-34.306264],[-58.53214,-34.304205]]]}},{"type":"Feature","properties":{"partida":"357019860","cca":"35700010000000000000006420000000000000200C","tipo":"Urbano","sup_m2":55994.9},"geometry":{"type":"Polygon","coordinates":[[[-58.527703,-34.306681],[-58.529417,-34.307081],[-58.529939,-34.303874],[-58.528304,-34.303574],[-58.527703,-34.306681]]]}},{"type":"Feature","properties":{"partida":"357018057","cca":"357000100000000000000064200000000000003000","tipo":"Rural","sup_m2":358373.2},"geometry":{"type":"Polygon","coordinates":[[[-58.521149,-34.303908],[-58.520431,-34.308351],[-58.527313,-34.308693],[-58.528304,-34.303574],[-58.527834,-34.303499],[-58.526241,-34.30349],[-58.524878,-34.303501],[-58.523958,-34.303389],[-58.522549,-34.303533],[-58.521149,-34.303908]]]}},{"type":"Feature","properties":{"partida":"357019241","cca":"357000100000000000000064200000000000004000","tipo":"Rural","sup_m2":369041.9},"geometry":{"type":"Polygon","coordinates":[[[-58.521149,-34.303908],[-58.519668,-34.304441],[-58.517243,-34.30536],[-58.513766,-34.307145],[-58.511703,-34.308356],[-58.510414,-34.309346],[-58.510265,-34.30974],[-58.510379,-34.309927],[-58.512976,-34.309507],[-58.513853,-34.309418],[-58.517985,-34.309776],[-58.52052,-34.310018],[-58.52142,-34.310085],[-58.521647,-34.308411],[-58.520431,-34.308351],[-58.521149,-34.303908]]]}},{"type":"Feature","properties":{"partida":"357019248","cca":"357000100000000000000064200A0000000000100A","tipo":"Rural","sup_m2":77980.2},"geometry":{"type":"Polygon","coordinates":[[[-58.531209,-34.302332],[-58.530522,-34.302359],[-58.529792,-34.302433],[-58.529697,-34.302613],[-58.529694,-34.302704],[-58.52988,-34.302756],[-58.530334,-34.302906],[-58.531061,-34.303032],[-58.532253,-34.303291],[-58.532982,-34.303466],[-58.533672,-34.303597],[-58.534864,-34.3039],[-58.536785,-34.304401],[-58.537961,-34.304515],[-58.538563,-34.304313],[-58.539004,-34.304284],[-58.539105,-34.304199],[-58.539112,-34.303782],[-58.538673,-34.303492],[-58.537793,-34.303358],[-58.537634,-34.303472],[-58.535976,-34.303257],[-58.535066,-34.303015],[-58.534648,-34.303025],[-58.532436,-34.302587],[-58.531209,-34.302332]]]}}]}