{"type":"FeatureCollection","features":[{"type":"Feature","properties":{"partida":"357019302","cca":"357000100000000000000064200000000000005000","tipo":"Rural","sup_m2":218732.7},"geometry":{"type":"Polygon","coordinates":[[[-58.52142,-34.310085],[-58.524178,-34.310676],[-58.527208,-34.311178],[-58.528609,-34.31111],[-58.529518,-34.311204],[-58.5306,-34.311514],[-58.531372,-34.308895],[-58.521647,-34.308411],[-58.52142,-34.310085]]]}},{"type":"Feature","properties":{"partida":"357018058","cca":"357000100000000000000064200000000000015000","tipo":"Rural","sup_m2":132116.5},"geometry":{"type":"Polygon","coordinates":[[[-58.536872,-34.310124],[-58.531372,-34.308895],[-58.5306,-34.311514],[-58.531321,-34.311626],[-58.531977,-34.31171],[-58.532996,-34.311778],[-58.533853,-34.312066],[-58.535063,-34.312322],[-58.535222,-34.31201],[-58.535509,-34.311722],[-58.535866,-34.311253],[-58.53643,-34.31059],[-58.536872,-34.310124]]]}},{"type":"Feature","properties":{"partida":"357013478","cca":"357000100000000000000064200000000000016000","tipo":"Rural","sup_m2":86101.0},"geometry":{"type":"Polygon","coordinates":[[[-58.537427,-34.309542],[-58.534891,-34.30893],[-58.535714,-34.307942],[-58.531941,-34.307065],[-58.531372,-34.308895],[-58.536872,-34.310124],[-58.537427,-34.309542]]]}},{"type":"Feature","properties":{"partida":"357013615","cca":"35700010000000000000006500000000000000100C","tipo":"Urbano","sup_m2":4578.2},"geometry":{"type":"Polygon","coordinates":[[[-58.532746,-34.311796],[-58.532552,-34.311783],[-58.532433,-34.31177],[-58.532107,-34.313223],[-58.532396,-34.313266],[-58.532569,-34.312521],[-58.532746,-34.311796]]]}},{"type":"Feature","properties":{"partida":"357013616","cca":"35700010000000000000006500000000000000100D","tipo":"Urbano","sup_m2":4286.5},"geometry":{"type":"Polygon","coordinates":[[[-58.532107,-34.313223],[-58.532433,-34.31177],[-58.532151,-34.311757],[-58.531818,-34.31318],[-58.532107,-34.313223]]]}},{"type":"Feature","properties":{"partida":"357013617","cca":"35700010000000000000006500000000000000100E","tipo":"Urbano","sup_m2":4358.6},"geometry":{"type":"Polygon","coordinates":[[[-58.531818,-34.31318],[-58.532151,-34.311757],[-58.531961,-34.311762],[-58.531848,-34.311729],[-58.53153,-34.313137],[-58.531818,-34.31318]]]}},{"type":"Feature","properties":{"partida":"357013618","cca":"35700010000000000000006500000000000000100F","tipo":"Urbano","sup_m2":4366.2},"geometry":{"type":"Polygon","coordinates":[[[-58.53153,-34.313137],[-58.531848,-34.311729],[-58.531549,-34.311684],[-58.531241,-34.313094],[-58.53153,-34.313137]]]}},{"type":"Feature","properties":{"partida":"357013619","cca":"35700010000000000000006500000000000000100G","tipo":"Urbano","sup_m2":4174.4},"geometry":{"type":"Polygon","coordinates":[[[-58.531241,-34.313094],[-58.531549,-34.311684],[-58.531273,-34.311652],[-58.530952,-34.313051],[-58.531241,-34.313094]]]}},{"type":"Feature","properties":{"partida":"357013620","cca":"35700010000000000000006500000000000000100H","tipo":"Urbano","sup_m2":4299.2},"geometry":{"type":"Polygon","coordinates":[[[-58.530952,-34.313051],[-58.531273,-34.311652],[-58.53098,-34.311608],[-58.530664,-34.313008],[-58.530952,-34.313051]]]}},{"type":"Feature","properties":{"partida":"357013621","cca":"35700010000000000000006500000000000000100J","tipo":"Urbano","sup_m2":4215.6},"geometry":{"type":"Polygon","coordinates":[[[-58.530664,-34.313008],[-58.53098,-34.311608],[-58.530706,-34.311553],[-58.530375,-34.312965],[-58.530664,-34.313008]]]}},{"type":"Feature","properties":{"partida":"357013622","cca":"35700010000000000000006500000000000000100K","tipo":"Urbano","sup_m2":3227.9},"geometry":{"type":"Polygon","coordinates":[[[-58.533996,-34.312154],[-58.533917,-34.312523],[-58.534807,-34.312682],[-58.534844,-34.312444],[-58.534755,-34.312313],[-58.534099,-34.312184],[-58.533996,-34.312154]]]}},{"type":"Feature","properties":{"partida":"357013623","cca":"35700010000000000000006500000000000000100M","tipo":"Urbano","sup_m2":1913.5},"geometry":{"type":"Polygon","coordinates":[[[-58.533558,-34.312673],[-58.533871,-34.312721],[-58.533917,-34.312523],[-58.533996,-34.312154],[-58.533697,-34.312074],[-58.533558,-34.312673]]]}},{"type":"Feature","properties":{"partida":"357013624","cca":"35700010000000000000006500000000000000100N","tipo":"Urbano","sup_m2":1986.6},"geometry":{"type":"Polygon","coordinates":[[[-58.533697,-34.312074],[-58.533403,-34.311973],[-58.533264,-34.312628],[-58.533558,-34.312673],[-58.533697,-34.312074]]]}},{"type":"Feature","properties":{"partida":"357013625","cca":"35700010000000000000006500000000000000100P","tipo":"Urbano","sup_m2":2272.6},"geometry":{"type":"Polygon","coordinates":[[[-58.533264,-34.312628],[-58.533403,-34.311973],[-58.533108,-34.311874],[-58.532939,-34.312575],[-58.533264,-34.312628]]]}},{"type":"Feature","properties":{"partida":"357013627","cca":"35700010000000000000006500000000000000100Q","tipo":"Urbano","sup_m2":2783.4},"geometry":{"type":"Polygon","coordinates":[[[-58.532569,-34.312521],[-58.532939,-34.312575],[-58.533108,-34.311874],[-58.532746,-34.311796],[-58.532569,-34.312521]]]}},{"type":"Feature","properties":{"partida":"357013628","cca":"35700010000000000000006500000000000000100R","tipo":"Urbano","sup_m2":2272.8},"geometry":{"type":"Polygon","coordinates":[[[-58.532858,-34.312565],[-58.532569,-34.312521],[-58.532396,-34.313266],[-58.532685,-34.313309],[-58.532858,-34.312565]]]}},{"type":"Feature","properties":{"partida":"357013629","cca":"35700010000000000000006500000000000000100S","tipo":"Urbano","sup_m2":2270.9},"geometry":{"type":"Polygon","coordinates":[[[-58.532858,-34.312565],[-58.532685,-34.313309],[-58.532973,-34.313352],[-58.533146,-34.312609],[-58.532939,-34.312575],[-58.532858,-34.312565]]]}},{"type":"Feature","properties":{"partida":"357013630","cca":"35700010000000000000006500000000000000100T","tipo":"Urbano","sup_m2":2273.0},"geometry":{"type":"Polygon","coordinates":[[[-58.5336,-34.313243],[-58.533722,-34.312698],[-58.533434,-34.312654],[-58.533262,-34.313395],[-58.53355,-34.313438],[-58.5336,-34.313243]]]}},{"type":"Feature","properties":{"partida":"357013631","cca":"35700010000000000000006500000000000000100U","tipo":"Urbano","sup_m2":2263.9},"geometry":{"type":"Polygon","coordinates":[[[-58.533434,-34.312654],[-58.533146,-34.312609],[-58.532973,-34.313352],[-58.533262,-34.313395],[-58.533434,-34.312654]]]}},{"type":"Feature","properties":{"partida":"357013632","cca":"35700010000000000000006500000000000000100V","tipo":"Urbano","sup_m2":1804.9},"geometry":{"type":"Polygon","coordinates":[[[-58.533917,-34.312523],[-58.533871,-34.312721],[-58.534757,-34.312865],[-58.534807,-34.312682],[-58.533917,-34.312523]]]}},{"type":"Feature","properties":{"partida":"357013633","cca":"35700010000000000000006500000000000000200A","tipo":"Urbano","sup_m2":1794.8},"geometry":{"type":"Polygon","coordinates":[[[-58.533749,-34.313562],[-58.533704,-34.313786],[-58.534437,-34.313905],[-58.534448,-34.313784],[-58.534493,-34.313664],[-58.533749,-34.313562]]]}},{"type":"Feature","properties":{"partida":"357013634","cca":"35700010000000000000006500000000000000200B","tipo":"Rural","sup_m2":199174.9},"geometry":{"type":"Polygon","coordinates":[[[-58.526896,-34.314881],[-58.526683,-34.315056],[-58.526503,-34.315863],[-58.532879,-34.316958],[-58.532893,-34.316909],[-58.532969,-34.31671],[-58.533032,-34.316489],[-58.533077,-34.316239],[-58.53313,-34.316015],[-58.533194,-34.315773],[-58.53359,-34.314194],[-58.533653,-34.314039],[-58.533749,-34.313562],[-58.530354,-34.313057],[-58.530588,-34.31205],[-58.529213,-34.311741],[-58.529171,-34.313639],[-58.528002,-34.315068],[-58.526896,-34.314881]]]}},{"type":"Feature","properties":{"partida":"357013635","cca":"35700010000000000000006500000000000000200C","tipo":"Urbano","sup_m2":1588.5},"geometry":{"type":"Polygon","coordinates":[[[-58.534329,-34.314097],[-58.534396,-34.314007],[-58.534437,-34.313905],[-58.533704,-34.313786],[-58.533659,-34.314011],[-58.534329,-34.314097]]]}},{"type":"Feature","properties":{"partida":"357013636","cca":"35700010000000000000006500000000000000200D","tipo":"Urbano","sup_m2":1771.8},"geometry":{"type":"Polygon","coordinates":[[[-58.534357,-34.314349],[-58.534349,-34.314237],[-58.534334,-34.314174],[-58.534329,-34.314097],[-58.533659,-34.314011],[-58.533653,-34.314039],[-58.53359,-34.314194],[-58.533581,-34.314231],[-58.534357,-34.314349]]]}},{"type":"Feature","properties":{"partida":"357013637","cca":"35700010000000000000006500000000000000200E","tipo":"Urbano","sup_m2":1775.1},"geometry":{"type":"Polygon","coordinates":[[[-58.534261,-34.314567],[-58.534293,-34.314458],[-58.534357,-34.314349],[-58.533581,-34.314231],[-58.533525,-34.314454],[-58.534261,-34.314567]]]}},{"type":"Feature","properties":{"partida":"357013638","cca":"35700010000000000000006500000000000000200F","tipo":"Urbano","sup_m2":1663.7},"geometry":{"type":"Polygon","coordinates":[[[-58.534155,-34.31478],[-58.534176,-34.314709],[-58.53422,-34.314654],[-58.534261,-34.314567],[-58.533525,-34.314454],[-58.533469,-34.314677],[-58.534155,-34.31478]]]}},{"type":"Feature","properties":{"partida":"357013639","cca":"35700010000000000000006500000000000000200G","tipo":"Urbano","sup_m2":1679.3},"geometry":{"type":"Polygon","coordinates":[[[-58.534155,-34.31478],[-58.533469,-34.314677],[-58.533413,-34.3149],[-58.534092,-34.315012],[-58.534143,-34.314908],[-58.534155,-34.31478]]]}},{"type":"Feature","properties":{"partida":"357013640","cca":"35700010000000000000006500000000000000200H","tipo":"Urbano","sup_m2":1499.0},"geometry":{"type":"Polygon","coordinates":[[[-58.534092,-34.315012],[-58.533413,-34.3149],[-58.533357,-34.315123],[-58.533996,-34.315206],[-58.53407,-34.315092],[-58.534092,-34.315012]]]}},{"type":"Feature","properties":{"partida":"357013641","cca":"35700010000000000000006500000000000000200J","tipo":"Urbano","sup_m2":1623.4},"geometry":{"type":"Polygon","coordinates":[[[-58.534051,-34.315451],[-58.534026,-34.315382],[-58.533984,-34.315291],[-58.533996,-34.315206],[-58.533357,-34.315123],[-58.533301,-34.315346],[-58.534051,-34.315451]]]}},{"type":"Feature","properties":{"partida":"357013642","cca":"35700010000000000000006500000000000000300A","tipo":"Urbano","sup_m2":1193.3},"geometry":{"type":"Polygon","coordinates":[[[-58.53048,-34.311505],[-58.530367,-34.312001],[-58.530588,-34.31205],[-58.530706,-34.311553],[-58.53048,-34.311505]]]}},{"type":"Feature","properties":{"partida":"357013644","cca":"35700010000000000000006500000000000000300B","tipo":"Urbano","sup_m2":1170.1},"geometry":{"type":"Polygon","coordinates":[[[-58.530146,-34.311951],[-58.530367,-34.312001],[-58.53048,-34.311505],[-58.530258,-34.31146],[-58.530146,-34.311951]]]}},{"type":"Feature","properties":{"partida":"357013645","cca":"35700010000000000000006500000000000000300C","tipo":"Urbano","sup_m2":1164.0},"geometry":{"type":"Polygon","coordinates":[[[-58.530044,-34.311401],[-58.529925,-34.311901],[-58.530146,-34.311951],[-58.530258,-34.31146],[-58.530044,-34.311401]]]}},{"type":"Feature","properties":{"partida":"357013646","cca":"35700010000000000000006500000000000000300D","tipo":"Urbano","sup_m2":1197.4},"geometry":{"type":"Polygon","coordinates":[[[-58.529825,-34.311343],[-58.529704,-34.311852],[-58.529925,-34.311901],[-58.530044,-34.311401],[-58.529825,-34.311343]]]}},{"type":"Feature","properties":{"partida":"357013647","cca":"35700010000000000000006500000000000000300E","tipo":"Urbano","sup_m2":1267.0},"geometry":{"type":"Polygon","coordinates":[[[-58.529606,-34.311259],[-58.529484,-34.311802],[-58.529704,-34.311852],[-58.529825,-34.311343],[-58.529606,-34.311259]]]}},{"type":"Feature","properties":{"partida":"357013648","cca":"35700010000000000000006500000000000000300F","tipo":"Urbano","sup_m2":1549.3},"geometry":{"type":"Polygon","coordinates":[[[-58.529606,-34.311259],[-58.529332,-34.311216],[-58.529213,-34.311741],[-58.529484,-34.311802],[-58.529606,-34.311259]]]}},{"type":"Feature","properties":{"partida":"357013649","cca":"35700010000000000000006500000000000000300G","tipo":"Urbano","sup_m2":1712.1},"geometry":{"type":"Polygon","coordinates":[[[-58.528908,-34.311731],[-58.529213,-34.311741],[-58.529332,-34.311216],[-58.529021,-34.311183],[-58.528908,-34.311731]]]}},{"type":"Feature","properties":{"partida":"357013650","cca":"35700010000000000000006500000000000000300H","tipo":"Urbano","sup_m2":1673.3},"geometry":{"type":"Polygon","coordinates":[[[-58.528718,-34.311151],[-58.528633,-34.311721],[-58.528908,-34.311731],[-58.529021,-34.311183],[-58.528846,-34.311161],[-58.528718,-34.311151]]]}},{"type":"Feature","properties":{"partida":"357013651","cca":"35700010000000000000006500000000000000300J","tipo":"Urbano","sup_m2":1710.2},"geometry":{"type":"Polygon","coordinates":[[[-58.528666,-34.31151],[-58.528718,-34.311151],[-58.528212,-34.311167],[-58.528209,-34.311504],[-58.528666,-34.31151]]]}},{"type":"Feature","properties":{"partida":"357013652","cca":"35700010000000000000006500000000000000300K","tipo":"Urbano","sup_m2":1536.7},"geometry":{"type":"Polygon","coordinates":[[[-58.528209,-34.311504],[-58.528212,-34.311167],[-58.527711,-34.311188],[-58.527784,-34.311499],[-58.528209,-34.311504]]]}},{"type":"Feature","properties":{"partida":"357013653","cca":"35700010000000000000006500000000000000300M","tipo":"Urbano","sup_m2":1744.6},"geometry":{"type":"Polygon","coordinates":[[[-58.527784,-34.311499],[-58.527833,-34.311694],[-58.528633,-34.311721],[-58.528666,-34.31151],[-58.527784,-34.311499]]]}},{"type":"Feature","properties":{"partida":"357013654","cca":"35700010000000000000006500000000000000300N","tipo":"Urbano","sup_m2":3286.3},"geometry":{"type":"Polygon","coordinates":[[[-58.529213,-34.311741],[-58.528633,-34.311721],[-58.527833,-34.311694],[-58.527892,-34.311931],[-58.529208,-34.311983],[-58.529213,-34.311741]]]}},{"type":"Feature","properties":{"partida":"357013655","cca":"35700010000000000000006500000000000000300P","tipo":"Urbano","sup_m2":2419.9},"geometry":{"type":"Polygon","coordinates":[[[-58.52794,-34.312122],[-58.529204,-34.312161],[-58.529208,-34.311983],[-58.527892,-34.311931],[-58.52794,-34.312122]]]}},{"type":"Feature","properties":{"partida":"357013656","cca":"35700010000000000000006500000000000000300Q","tipo":"Urbano","sup_m2":2610.4},"geometry":{"type":"Polygon","coordinates":[[[-58.527992,-34.312326],[-58.529199,-34.312372],[-58.529204,-34.312161],[-58.52794,-34.312122],[-58.527992,-34.312326]]]}},{"type":"Feature","properties":{"partida":"357013657","cca":"35700010000000000000006500000000000000300R","tipo":"Urbano","sup_m2":2269.9},"geometry":{"type":"Polygon","coordinates":[[[-58.52804,-34.312519],[-58.529195,-34.312557],[-58.529199,-34.312372],[-58.527992,-34.312326],[-58.52804,-34.312519]]]}},{"type":"Feature","properties":{"partida":"357013658","cca":"35700010000000000000006500000000000000300S","tipo":"Urbano","sup_m2":2033.1},"geometry":{"type":"Polygon","coordinates":[[[-58.528086,-34.3127],[-58.529192,-34.312729],[-58.529195,-34.312557],[-58.52804,-34.312519],[-58.528086,-34.3127]]]}},{"type":"Feature","properties":{"partida":"357013659","cca":"35700010000000000000006500000000000000300T","tipo":"Urbano","sup_m2":1714.7},"geometry":{"type":"Polygon","coordinates":[[[-58.528124,-34.312852],[-58.529188,-34.312888],[-58.529192,-34.312729],[-58.528086,-34.3127],[-58.528124,-34.312852]]]}},{"type":"Feature","properties":{"partida":"357013660","cca":"35700010000000000000006500000000000000300U","tipo":"Urbano","sup_m2":2028.4},"geometry":{"type":"Polygon","coordinates":[[[-58.528171,-34.313038],[-58.529184,-34.313087],[-58.529188,-34.312888],[-58.528124,-34.312852],[-58.528171,-34.313038]]]}},{"type":"Feature","properties":{"partida":"357013661","cca":"35700010000000000000006500000000000000300V","tipo":"Urbano","sup_m2":1922.4},"geometry":{"type":"Polygon","coordinates":[[[-58.528189,-34.313225],[-58.529179,-34.313279],[-58.529184,-34.313087],[-58.528171,-34.313038],[-58.528199,-34.313149],[-58.528189,-34.313225]]]}},{"type":"Feature","properties":{"partida":"357013662","cca":"35700010000000000000006500000000000000300W","tipo":"Urbano","sup_m2":2121.6},"geometry":{"type":"Polygon","coordinates":[[[-58.528163,-34.313434],[-58.529175,-34.313483],[-58.529179,-34.313279],[-58.528189,-34.313225],[-58.528163,-34.313434]]]}},{"type":"Feature","properties":{"partida":"357013663","cca":"35700010000000000000006500000000000000300X","tipo":"Urbano","sup_m2":2299.4},"geometry":{"type":"Polygon","coordinates":[[[-58.529102,-34.313724],[-58.529171,-34.313639],[-58.529175,-34.313483],[-58.528163,-34.313434],[-58.528138,-34.313632],[-58.529102,-34.313724]]]}},{"type":"Feature","properties":{"partida":"357013664","cca":"35700010000000000000006500000000000000300Y","tipo":"Urbano","sup_m2":2260.1},"geometry":{"type":"Polygon","coordinates":[[[-58.528063,-34.313878],[-58.528916,-34.313951],[-58.529102,-34.313724],[-58.528138,-34.313632],[-58.528114,-34.313831],[-58.528063,-34.313878]]]}},{"type":"Feature","properties":{"partida":"357013665","cca":"35700010000000000000006500000000000000300Z","tipo":"Urbano","sup_m2":1767.8},"geometry":{"type":"Polygon","coordinates":[[[-58.527865,-34.31406],[-58.528767,-34.314134],[-58.528916,-34.313951],[-58.528063,-34.313878],[-58.527865,-34.31406]]]}},{"type":"Feature","properties":{"partida":"357013643","cca":"3570001000000000000000650000000000000030AA","tipo":"Urbano","sup_m2":1962.7},"geometry":{"type":"Polygon","coordinates":[[[-58.528597,-34.314341],[-58.528767,-34.314134],[-58.527865,-34.31406],[-58.527671,-34.314239],[-58.528597,-34.314341]]]}},{"type":"Feature","properties":{"partida":"357013666","cca":"357000100000000000000065000000000000004000","tipo":"Rural","sup_m2":191788.7},"geometry":{"type":"Polygon","coordinates":[[[-58.52759,-34.314313],[-58.528114,-34.313831],[-58.528199,-34.313149],[-58.527784,-34.311499],[-58.527711,-34.311188],[-58.527158,-34.311229],[-58.526057,-34.311052],[-58.524055,-34.31071],[-58.521903,-34.310256],[-58.521451,-34.313149],[-58.52759,-34.314313]]]}},{"type":"Feature","properties":{"partida":"357013668","cca":"35700010000000000000006500000000000000500A","tipo":"Rural","sup_m2":158543.5},"geometry":{"type":"Polygon","coordinates":[[[-58.515733,-34.313485],[-58.516538,-34.313452],[-58.517665,-34.314833],[-58.518638,-34.315009],[-58.518411,-34.316348],[-58.51864,-34.316342],[-58.518849,-34.315048],[-58.521088,-34.315455],[-58.521903,-34.310256],[-58.516523,-34.313276],[-58.515733,-34.313485]]]}},{"type":"Feature","properties":{"partida":"357013669","cca":"35700010000000000000006500000000000000500B","tipo":"Urbano","sup_m2":2178.7},"geometry":{"type":"Polygon","coordinates":[[[-58.515733,-34.313485],[-58.515754,-34.313747],[-58.515689,-34.313994],[-58.516563,-34.313483],[-58.516538,-34.313452],[-58.515733,-34.313485]]]}},{"type":"Feature","properties":{"partida":"357013671","cca":"35700010000000000000006500000000000000500C","tipo":"Urbano","sup_m2":2373.1},"geometry":{"type":"Polygon","coordinates":[[[-58.515689,-34.313994],[-58.515734,-34.31425],[-58.516686,-34.313633],[-58.516563,-34.313483],[-58.515689,-34.313994]]]}},{"type":"Feature","properties":{"partida":"357013673","cca":"35700010000000000000006500000000000000500D","tipo":"Urbano","sup_m2":2173.8},"geometry":{"type":"Polygon","coordinates":[[[-58.515734,-34.31425],[-58.51573,-34.314361],[-58.515737,-34.314441],[-58.516808,-34.313782],[-58.516686,-34.313633],[-58.515734,-34.31425]]]}},{"type":"Feature","properties":{"partida":"357013675","cca":"35700010000000000000006500000000000000500E","tipo":"Urbano","sup_m2":2645.4},"geometry":{"type":"Polygon","coordinates":[[[-58.516808,-34.313782],[-58.515737,-34.314441],[-58.515837,-34.314631],[-58.51693,-34.313932],[-58.516808,-34.313782]]]}},{"type":"Feature","properties":{"partida":"357013677","cca":"35700010000000000000006500000000000000500F","tipo":"Urbano","sup_m2":2573.7},"geometry":{"type":"Polygon","coordinates":[[[-58.515837,-34.314631],[-58.515947,-34.314791],[-58.517052,-34.314081],[-58.51693,-34.313932],[-58.515837,-34.314631]]]}},{"type":"Feature","properties":{"partida":"357013678","cca":"35700010000000000000006500000000000000500G","tipo":"Urbano","sup_m2":2646.3},"geometry":{"type":"Polygon","coordinates":[[[-58.515947,-34.314791],[-58.516063,-34.314955],[-58.517174,-34.314231],[-58.517052,-34.314081],[-58.515947,-34.314791]]]}},{"type":"Feature","properties":{"partida":"357013679","cca":"35700010000000000000006500000000000000500H","tipo":"Urbano","sup_m2":2677.4},"geometry":{"type":"Polygon","coordinates":[[[-58.516063,-34.314955],[-58.516193,-34.315113],[-58.517297,-34.314381],[-58.517174,-34.314231],[-58.516063,-34.314955]]]}},{"type":"Feature","properties":{"partida":"357013680","cca":"35700010000000000000006500000000000000500J","tipo":"Urbano","sup_m2":2387.6},"geometry":{"type":"Polygon","coordinates":[[[-58.516193,-34.315113],[-58.516303,-34.315235],[-58.517419,-34.31453],[-58.517297,-34.314381],[-58.516193,-34.315113]]]}},{"type":"Feature","properties":{"partida":"357013681","cca":"35700010000000000000006500000000000000500K","tipo":"Urbano","sup_m2":2865.7},"geometry":{"type":"Polygon","coordinates":[[[-58.516303,-34.315235],[-58.516351,-34.315462],[-58.517541,-34.31468],[-58.517419,-34.31453],[-58.516303,-34.315235]]]}},{"type":"Feature","properties":{"partida":"357013682","cca":"35700010000000000000006500000000000000500M","tipo":"Urbano","sup_m2":2841.9},"geometry":{"type":"Polygon","coordinates":[[[-58.516351,-34.315462],[-58.516421,-34.315639],[-58.517665,-34.314833],[-58.517541,-34.31468],[-58.516351,-34.315462]]]}},{"type":"Feature","properties":{"partida":"357013683","cca":"35700010000000000000006500000000000000500N","tipo":"Urbano","sup_m2":2608.3},"geometry":{"type":"Polygon","coordinates":[[[-58.516421,-34.315639],[-58.516559,-34.315961],[-58.517665,-34.314833],[-58.516421,-34.315639]]]}},{"type":"Feature","properties":{"partida":"357013684","cca":"35700010000000000000006500000000000000500P","tipo":"Urbano","sup_m2":6556.1},"geometry":{"type":"Polygon","coordinates":[[[-58.516559,-34.315961],[-58.516938,-34.316133],[-58.517305,-34.31639],[-58.517665,-34.314833],[-58.516559,-34.315961]]]}},{"type":"Feature","properties":{"partida":"357013685","cca":"35700010000000000000006500000000000000500Q","tipo":"Urbano","sup_m2":4645.9},"geometry":{"type":"Polygon","coordinates":[[[-58.517946,-34.314884],[-58.517665,-34.314833],[-58.517305,-34.31639],[-58.517591,-34.316427],[-58.517946,-34.314884]]]}},{"type":"Feature","properties":{"partida":"357013686","cca":"35700010000000000000006500000000000000500R","tipo":"Urbano","sup_m2":3777.9},"geometry":{"type":"Polygon","coordinates":[[[-58.517849,-34.316401],[-58.518174,-34.314925],[-58.517946,-34.314884],[-58.517591,-34.316427],[-58.517849,-34.316401]]]}},{"type":"Feature","properties":{"partida":"357013687","cca":"35700010000000000000006500000000000000500S","tipo":"Urbano","sup_m2":4443.9},"geometry":{"type":"Polygon","coordinates":[[[-58.518162,-34.316392],[-58.518454,-34.314976],[-58.518174,-34.314925],[-58.517849,-34.316401],[-58.518162,-34.316392]]]}},{"type":"Feature","properties":{"partida":"357013688","cca":"35700010000000000000006500000000000000500T","tipo":"Urbano","sup_m2":2986.8},"geometry":{"type":"Polygon","coordinates":[[[-58.518411,-34.316348],[-58.518638,-34.315009],[-58.518454,-34.314976],[-58.518162,-34.316392],[-58.518287,-34.316337],[-58.518411,-34.316348]]]}},{"type":"Feature","properties":{"partida":"357013689","cca":"35700010000000000000006500000000000000500U","tipo":"Urbano","sup_m2":2309.9},"geometry":{"type":"Polygon","coordinates":[[[-58.51864,-34.316342],[-58.518807,-34.316364],[-58.519024,-34.31508],[-58.518849,-34.315048],[-58.51864,-34.316342]]]}},{"type":"Feature","properties":{"partida":"357013690","cca":"35700010000000000000006500000000000000500V","tipo":"Urbano","sup_m2":2597.8},"geometry":{"type":"Polygon","coordinates":[[[-58.518807,-34.316364],[-58.519022,-34.316384],[-58.519199,-34.315111],[-58.519024,-34.31508],[-58.518807,-34.316364]]]}},{"type":"Feature","properties":{"partida":"357013691","cca":"35700010000000000000006500000000000000500W","tipo":"Urbano","sup_m2":2787.9},"geometry":{"type":"Polygon","coordinates":[[[-58.519022,-34.316384],[-58.519226,-34.316434],[-58.51941,-34.31515],[-58.519199,-34.315111],[-58.519022,-34.316384]]]}},{"type":"Feature","properties":{"partida":"357013692","cca":"35700010000000000000006500000000000000500X","tipo":"Urbano","sup_m2":3283.3},"geometry":{"type":"Polygon","coordinates":[[[-58.519226,-34.316434],[-58.519463,-34.316501],[-58.519652,-34.315194],[-58.51941,-34.31515],[-58.519226,-34.316434]]]}},{"type":"Feature","properties":{"partida":"357013693","cca":"35700010000000000000006500000000000000500Y","tipo":"Urbano","sup_m2":2859.7},"geometry":{"type":"Polygon","coordinates":[[[-58.519658,-34.316558],[-58.519869,-34.315233],[-58.519652,-34.315194],[-58.519463,-34.316501],[-58.519658,-34.316558]]]}},{"type":"Feature","properties":{"partida":"357013694","cca":"35700010000000000000006500000000000000500Z","tipo":"Urbano","sup_m2":3226.0},"geometry":{"type":"Polygon","coordinates":[[[-58.519658,-34.316558],[-58.519748,-34.316613],[-58.519887,-34.316629],[-58.520089,-34.315273],[-58.519869,-34.315233],[-58.519658,-34.316558]]]}},{"type":"Feature","properties":{"partida":"357013667","cca":"3570001000000000000000650000000000000050AA","tipo":"Urbano","sup_m2":3699.6},"geometry":{"type":"Polygon","coordinates":[[[-58.519887,-34.316629],[-58.520012,-34.316674],[-58.520155,-34.316683],[-58.520336,-34.315318],[-58.520089,-34.315273],[-58.519887,-34.316629]]]}},{"type":"Feature","properties":{"partida":"357013670","cca":"3570001000000000000000650000000000000050BB","tipo":"Urbano","sup_m2":3857.0},"geometry":{"type":"Polygon","coordinates":[[[-58.520155,-34.316683],[-58.520279,-34.31667],[-58.520426,-34.316716],[-58.520615,-34.315369],[-58.520336,-34.315318],[-58.520155,-34.316683]]]}},{"type":"Feature","properties":{"partida":"357013672","cca":"3570001000000000000000650000000000000050CC","tipo":"Urbano","sup_m2":3890.4},"geometry":{"type":"Polygon","coordinates":[[[-58.520426,-34.316716],[-58.520674,-34.316897],[-58.520876,-34.315416],[-58.520615,-34.315369],[-58.520426,-34.316716]]]}},{"type":"Feature","properties":{"partida":"357013674","cca":"3570001000000000000000650000000000000050DD","tipo":"Urbano","sup_m2":3466.3},"geometry":{"type":"Polygon","coordinates":[[[-58.520876,-34.315416],[-58.520674,-34.316897],[-58.520864,-34.317094],[-58.521088,-34.315455],[-58.520876,-34.315416]]]}},{"type":"Feature","properties":{"partida":"357013676","cca":"3570001000000000000000650000000000000050EE","tipo":"Rural","sup_m2":182345.4},"geometry":{"type":"Polygon","coordinates":[[[-58.521903,-34.310256],[-58.521297,-34.31016],[-58.520857,-34.31012],[-58.515163,-34.309656],[-58.513182,-34.312174],[-58.514017,-34.312646],[-58.515327,-34.313021],[-58.515733,-34.313485],[-58.516523,-34.313276],[-58.521903,-34.310256]]]}},{"type":"Feature","properties":{"partida":"357013695","cca":"35700010000000000000006500000000000000600A","tipo":"Urbano","sup_m2":1892.2},"geometry":{"type":"Polygon","coordinates":[[[-58.534172,-34.31569],[-58.53405,-34.315533],[-58.534051,-34.315451],[-58.533301,-34.315346],[-58.533245,-34.315569],[-58.534172,-34.31569]]]}},{"type":"Feature","properties":{"partida":"357013696","cca":"35700010000000000000006500000000000000600B","tipo":"Urbano","sup_m2":2095.9},"geometry":{"type":"Polygon","coordinates":[[[-58.534069,-34.315928],[-58.534017,-34.315876],[-58.534008,-34.315828],[-58.534172,-34.31569],[-58.533245,-34.315569],[-58.533189,-34.315792],[-58.534069,-34.315928]]]}},{"type":"Feature","properties":{"partida":"357013697","cca":"35700010000000000000006500000000000000600C","tipo":"Urbano","sup_m2":2148.8},"geometry":{"type":"Polygon","coordinates":[[[-58.534095,-34.316161],[-58.534066,-34.316073],[-58.534069,-34.315928],[-58.533189,-34.315792],[-58.53313,-34.316015],[-58.534095,-34.316161]]]}},{"type":"Feature","properties":{"partida":"357013698","cca":"35700010000000000000006500000000000000600D","tipo":"Urbano","sup_m2":2200.2},"geometry":{"type":"Polygon","coordinates":[[[-58.534078,-34.316367],[-58.534095,-34.316161],[-58.53313,-34.316015],[-58.533077,-34.316239],[-58.534078,-34.316367]]]}},{"type":"Feature","properties":{"partida":"357013699","cca":"35700010000000000000006500000000000000600E","tipo":"Urbano","sup_m2":2660.3},"geometry":{"type":"Polygon","coordinates":[[[-58.534037,-34.316624],[-58.534078,-34.316367],[-58.533077,-34.316239],[-58.533032,-34.316489],[-58.534037,-34.316624]]]}},{"type":"Feature","properties":{"partida":"357013700","cca":"35700010000000000000006500000000000000600F","tipo":"Urbano","sup_m2":2397.7},"geometry":{"type":"Polygon","coordinates":[[[-58.533967,-34.316853],[-58.534037,-34.316624],[-58.533032,-34.316489],[-58.532969,-34.31671],[-58.533967,-34.316853]]]}},{"type":"Feature","properties":{"partida":"357013701","cca":"35700010000000000000006500000000000000600G","tipo":"Urbano","sup_m2":2316.3},"geometry":{"type":"Polygon","coordinates":[[[-58.532969,-34.31671],[-58.532893,-34.316909],[-58.533837,-34.317087],[-58.533967,-34.316853],[-58.532969,-34.31671]]]}},{"type":"Feature","properties":{"partida":"357013702","cca":"35700010000000000000006500000000000000600H","tipo":"Urbano","sup_m2":2346.6},"geometry":{"type":"Polygon","coordinates":[[[-58.532879,-34.316958],[-58.53281,-34.31713],[-58.53384,-34.317318],[-58.533837,-34.317087],[-58.532893,-34.316909],[-58.532879,-34.316958]]]}},{"type":"Feature","properties":{"partida":"357013703","cca":"35700010000000000000006500000000000000600K","tipo":"Urbano","sup_m2":2036.2},"geometry":{"type":"Polygon","coordinates":[[[-58.528421,-34.314556],[-58.528597,-34.314341],[-58.527671,-34.314239],[-58.52759,-34.314313],[-58.527482,-34.314402],[-58.528421,-34.314556]]]}},{"type":"Feature","properties":{"partida":"357013704","cca":"35700010000000000000006500000000000000600M","tipo":"Urbano","sup_m2":3209.2},"geometry":{"type":"Polygon","coordinates":[[[-58.527168,-34.314659],[-58.528185,-34.314845],[-58.528421,-34.314556],[-58.527482,-34.314402],[-58.527168,-34.314659]]]}},{"type":"Feature","properties":{"partida":"357013705","cca":"35700010000000000000006500000000000000600N","tipo":"Urbano","sup_m2":2843.4},"geometry":{"type":"Polygon","coordinates":[[[-58.528185,-34.314845],[-58.527168,-34.314659],[-58.526896,-34.314881],[-58.528002,-34.315068],[-58.528185,-34.314845]]]}},{"type":"Feature","properties":{"partida":"357013706","cca":"35700010000000000000006500000000000000600Y","tipo":"Urbano","sup_m2":10839.4},"geometry":{"type":"Polygon","coordinates":[[[-58.53281,-34.31713],[-58.532879,-34.316958],[-58.526503,-34.315863],[-58.526471,-34.316007],[-58.53281,-34.31713]]]}},{"type":"Feature","properties":{"partida":"357013707","cca":"35700010000000000000006500000000000000700A","tipo":"Urbano","sup_m2":1980.5},"geometry":{"type":"Polygon","coordinates":[[[-58.533824,-34.31749],[-58.533783,-34.317402],[-58.53384,-34.317318],[-58.53281,-34.31713],[-58.532727,-34.317313],[-58.533824,-34.31749]]]}},{"type":"Feature","properties":{"partida":"357013708","cca":"35700010000000000000006500000000000000700F","tipo":"Urbano","sup_m2":3000.8},"geometry":{"type":"Polygon","coordinates":[[[-58.533583,-34.318444],[-58.532313,-34.318163],[-58.532216,-34.318401],[-58.533397,-34.318628],[-58.533583,-34.318444]]]}},{"type":"Feature","properties":{"partida":"357013709","cca":"35700010000000000000006500000000000000700G","tipo":"Urbano","sup_m2":2673.3},"geometry":{"type":"Polygon","coordinates":[[[-58.533397,-34.318628],[-58.532216,-34.318401],[-58.532153,-34.318622],[-58.533307,-34.318824],[-58.533368,-34.318714],[-58.533397,-34.318628]]]}},{"type":"Feature","properties":{"partida":"357013710","cca":"35700010000000000000006500000000000000700H","tipo":"Urbano","sup_m2":2824.6},"geometry":{"type":"Polygon","coordinates":[[[-58.533179,-34.31906],[-58.533307,-34.318824],[-58.532153,-34.318622],[-58.53209,-34.318844],[-58.533179,-34.31906]]]}},{"type":"Feature","properties":{"partida":"357013711","cca":"35700010000000000000006500000000000000700I","tipo":"Urbano","sup_m2":2747.1},"geometry":{"type":"Polygon","coordinates":[[[-58.533179,-34.31906],[-58.53209,-34.318844],[-58.532012,-34.319092],[-58.533089,-34.319278],[-58.533179,-34.31906]]]}},{"type":"Feature","properties":{"partida":"357013712","cca":"35700010000000000000006500000000000000700J","tipo":"Rural","sup_m2":12282.4},"geometry":{"type":"Polygon","coordinates":[[[-58.526431,-34.316183],[-58.532727,-34.317313],[-58.53281,-34.31713],[-58.526471,-34.316007],[-58.526431,-34.316183]]]}},{"type":"Feature","properties":{"partida":"357013713","cca":"35700010000000000000006500000000000000700K","tipo":"Urbano","sup_m2":124037.2},"geometry":{"type":"Polygon","coordinates":[[[-58.532462,-34.31785],[-58.532727,-34.317313],[-58.526431,-34.316183],[-58.526018,-34.318036],[-58.532012,-34.319092],[-58.53209,-34.318844],[-58.532216,-34.318401],[-58.532313,-34.318163],[-58.533583,-34.318444],[-58.533648,-34.318083],[-58.532462,-34.31785]]]}},{"type":"Feature","properties":{"partida":null,"cca":"35700010000000000000006500000000000000700O","tipo":null,"sup_m2":2583.8},"geometry":{"type":"Polygon","coordinates":[[[-58.533648,-34.318083],[-58.533728,-34.317874],[-58.532554,-34.317663],[-58.532462,-34.31785],[-58.533648,-34.318083]]]}},{"type":"Feature","properties":{"partida":"357013626","cca":"35700010000000000000006500000000000000700Q","tipo":"Urbano","sup_m2":2573.6},"geometry":{"type":"Polygon","coordinates":[[[-58.533728,-34.317874],[-58.533821,-34.317666],[-58.532648,-34.317473],[-58.532554,-34.317663],[-58.533728,-34.317874]]]}},{"type":"Feature","properties":{"partida":"357013714","cca":"35700010000000000000006500000000000000700R","tipo":"Urbano","sup_m2":2026.8},"geometry":{"type":"Polygon","coordinates":[[[-58.532648,-34.317473],[-58.533821,-34.317666],[-58.533824,-34.31749],[-58.532727,-34.317313],[-58.532648,-34.317473]]]}},{"type":"Feature","properties":{"partida":"357013715","cca":"357000100000000000000065000000000000008000","tipo":"Rural","sup_m2":223211.1},"geometry":{"type":"Polygon","coordinates":[[[-58.526018,-34.318036],[-58.526683,-34.315056],[-58.52759,-34.314313],[-58.521451,-34.313149],[-58.521088,-34.315455],[-58.520864,-34.317094],[-58.520919,-34.317156],[-58.526018,-34.318036]]]}},{"type":"Feature","properties":{"partida":"357013716","cca":"357000100000000000000065000000000000009000","tipo":"Rural","sup_m2":215931.3},"geometry":{"type":"Polygon","coordinates":[[[-58.530563,-34.320617],[-58.532188,-34.320896],[-58.532357,-34.320341],[-58.533089,-34.319278],[-58.532012,-34.319092],[-58.526018,-34.318036],[-58.520919,-34.317156],[-58.52105,-34.317524],[-58.521004,-34.317902],[-58.520623,-34.318954],[-58.521168,-34.319041],[-58.530563,-34.320617]]]}},{"type":"Feature","properties":{"partida":"357018609","cca":"35700010000000000000006500000000000001000A","tipo":"Urbano","sup_m2":2874.0},"geometry":{"type":"Polygon","coordinates":[[[-58.530545,-34.320805],[-58.532018,-34.32104],[-58.532188,-34.320896],[-58.530563,-34.320617],[-58.530545,-34.320805]]]}},{"type":"Feature","properties":{"partida":"357018610","cca":"35700010000000000000006500000000000001000B","tipo":"Urbano","sup_m2":3285.8},"geometry":{"type":"Polygon","coordinates":[[[-58.530526,-34.321008],[-58.531939,-34.321265],[-58.532018,-34.32104],[-58.530545,-34.320805],[-58.530526,-34.321008]]]}},{"type":"Feature","properties":{"partida":"357018611","cca":"35700010000000000000006500000000000001000C","tipo":"Urbano","sup_m2":2900.8},"geometry":{"type":"Polygon","coordinates":[[[-58.530507,-34.321216],[-58.531893,-34.321452],[-58.531939,-34.321265],[-58.530526,-34.321008],[-58.530507,-34.321216]]]}},{"type":"Feature","properties":{"partida":"357018612","cca":"35700010000000000000006500000000000001000D","tipo":"Urbano","sup_m2":2834.5},"geometry":{"type":"Polygon","coordinates":[[[-58.530493,-34.321421],[-58.531835,-34.321642],[-58.531893,-34.321452],[-58.530507,-34.321216],[-58.530493,-34.321421]]]}},{"type":"Feature","properties":{"partida":"357018613","cca":"35700010000000000000006500000000000001000E","tipo":"Urbano","sup_m2":2684.7},"geometry":{"type":"Polygon","coordinates":[[[-58.531732,-34.321826],[-58.531835,-34.321642],[-58.530493,-34.321421],[-58.530469,-34.32162],[-58.531732,-34.321826]]]}},{"type":"Feature","properties":{"partida":"357013717","cca":"35700010000000000000006500000000000001000F","tipo":"Rural","sup_m2":81491.3},"geometry":{"type":"Polygon","coordinates":[[[-58.531425,-34.322121],[-58.531612,-34.321888],[-58.531732,-34.321826],[-58.530469,-34.32162],[-58.530493,-34.321421],[-58.530507,-34.321216],[-58.530563,-34.320617],[-58.527082,-34.320033],[-58.526455,-34.322033],[-58.530089,-34.322641],[-58.530185,-34.321938],[-58.531425,-34.322121]]]}},{"type":"Feature","properties":{"partida":"357018614","cca":"35700010000000000000006500000000000001000G","tipo":"Urbano","sup_m2":1771.9},"geometry":{"type":"Polygon","coordinates":[[[-58.531425,-34.322121],[-58.530185,-34.321938],[-58.530167,-34.322066],[-58.531311,-34.322263],[-58.531425,-34.322121]]]}},{"type":"Feature","properties":{"partida":"357018615","cca":"35700010000000000000006500000000000001000H","tipo":"Urbano","sup_m2":1941.0},"geometry":{"type":"Polygon","coordinates":[[[-58.530145,-34.322231],[-58.531325,-34.322423],[-58.531311,-34.322263],[-58.530167,-34.322066],[-58.530145,-34.322231]]]}},{"type":"Feature","properties":{"partida":"357018616","cca":"35700010000000000000006500000000000001000K","tipo":"Urbano","sup_m2":1475.8},"geometry":{"type":"Polygon","coordinates":[[[-58.530129,-34.322351],[-58.531272,-34.322541],[-58.531325,-34.322423],[-58.530145,-34.322231],[-58.530129,-34.322351]]]}},{"type":"Feature","properties":{"partida":"357018617","cca":"35700010000000000000006500000000000001000M","tipo":"Urbano","sup_m2":1625.5},"geometry":{"type":"Polygon","coordinates":[[[-58.530109,-34.322499],[-58.531124,-34.322665],[-58.53117,-34.322589],[-58.531272,-34.322541],[-58.530129,-34.322351],[-58.530109,-34.322499]]]}},{"type":"Feature","properties":{"partida":"357018618","cca":"35700010000000000000006500000000000001000N","tipo":"Urbano","sup_m2":1446.2},"geometry":{"type":"Polygon","coordinates":[[[-58.530109,-34.322499],[-58.530089,-34.322641],[-58.531068,-34.322795],[-58.531124,-34.322665],[-58.530109,-34.322499]]]}},{"type":"Feature","properties":{"partida":"357018619","cca":"35700010000000000000006500000000000001000P","tipo":"Rural","sup_m2":10517.3},"geometry":{"type":"Polygon","coordinates":[[[-58.531043,-34.323073],[-58.531068,-34.322795],[-58.530089,-34.322641],[-58.527324,-34.322179],[-58.527253,-34.322439],[-58.531043,-34.323073]]]}},{"type":"Feature","properties":{"partida":"357018620","cca":"35700010000000000000006500000000000001000R","tipo":"Rural","sup_m2":9284.9},"geometry":{"type":"Polygon","coordinates":[[[-58.531,-34.323311],[-58.531043,-34.323073],[-58.527253,-34.322439],[-58.527181,-34.322664],[-58.529722,-34.323089],[-58.531,-34.323311]]]}},{"type":"Feature","properties":{"partida":"357018621","cca":"35700010000000000000006500000000000001000S","tipo":"Urbano","sup_m2":2446.6},"geometry":{"type":"Polygon","coordinates":[[[-58.531,-34.323311],[-58.529722,-34.323089],[-58.529687,-34.323274],[-58.530909,-34.323488],[-58.531,-34.323311]]]}},{"type":"Feature","properties":{"partida":"357018622","cca":"35700010000000000000006500000000000001000T","tipo":"Urbano","sup_m2":1996.9},"geometry":{"type":"Polygon","coordinates":[[[-58.530857,-34.323634],[-58.530909,-34.323488],[-58.529687,-34.323274],[-58.529655,-34.323436],[-58.530857,-34.323634]]]}},{"type":"Feature","properties":{"partida":"357018623","cca":"35700010000000000000006500000000000001000U","tipo":"Urbano","sup_m2":2094.8},"geometry":{"type":"Polygon","coordinates":[[[-58.530748,-34.323806],[-58.530857,-34.323634],[-58.529655,-34.323436],[-58.529625,-34.323593],[-58.530748,-34.323806]]]}},{"type":"Feature","properties":{"partida":"357013718","cca":"35700010000000000000006500000000000001000V","tipo":"Rural","sup_m2":60216.7},"geometry":{"type":"Polygon","coordinates":[[[-58.529625,-34.323593],[-58.529722,-34.323089],[-58.527181,-34.322664],[-58.526607,-34.324456],[-58.529165,-34.324861],[-58.529246,-34.324518],[-58.53034,-34.324708],[-58.530748,-34.323806],[-58.529625,-34.323593]]]}},{"type":"Feature","properties":{"partida":"357018624","cca":"35700010000000000000006500000000000001000W","tipo":"Urbano","sup_m2":1949.1},"geometry":{"type":"Polygon","coordinates":[[[-58.53034,-34.324708],[-58.529246,-34.324518],[-58.529206,-34.324688],[-58.530256,-34.324872],[-58.53034,-34.324708]]]}},{"type":"Feature","properties":{"partida":"357018625","cca":"35700010000000000000006500000000000001000X","tipo":"Urbano","sup_m2":1858.3},"geometry":{"type":"Polygon","coordinates":[[[-58.53023,-34.325032],[-58.530256,-34.324872],[-58.529206,-34.324688],[-58.529165,-34.324861],[-58.53023,-34.325032]]]}},{"type":"Feature","properties":{"partida":"357018626","cca":"35700010000000000000006500000000000001100A","tipo":"Urbano","sup_m2":1064.7},"geometry":{"type":"Polygon","coordinates":[[[-58.520623,-34.318954],[-58.520565,-34.319175],[-58.520552,-34.319316],[-58.521168,-34.319041],[-58.520623,-34.318954]]]}},{"type":"Feature","properties":{"partida":"357018627","cca":"35700010000000000000006500000000000001100B","tipo":"Urbano","sup_m2":2598.8},"geometry":{"type":"Polygon","coordinates":[[[-58.520552,-34.319316],[-58.520637,-34.319445],[-58.520683,-34.319527],[-58.521775,-34.319143],[-58.521168,-34.319041],[-58.520552,-34.319316]]]}},{"type":"Feature","properties":{"partida":"357018628","cca":"35700010000000000000006500000000000001100C","tipo":"Urbano","sup_m2":2153.8},"geometry":{"type":"Polygon","coordinates":[[[-58.52187,-34.319297],[-58.521775,-34.319143],[-58.520683,-34.319527],[-58.520709,-34.319598],[-58.520738,-34.319699],[-58.52187,-34.319297]]]}},{"type":"Feature","properties":{"partida":"357018629","cca":"35700010000000000000006500000000000001100D","tipo":"Urbano","sup_m2":2288.5},"geometry":{"type":"Polygon","coordinates":[[[-58.521968,-34.319454],[-58.52187,-34.319297],[-58.520738,-34.319699],[-58.520746,-34.31971],[-58.52082,-34.319871],[-58.521968,-34.319454]]]}},{"type":"Feature","properties":{"partida":"357018630","cca":"35700010000000000000006500000000000001100E","tipo":"Urbano","sup_m2":2684.8},"geometry":{"type":"Polygon","coordinates":[[[-58.521968,-34.319454],[-58.52082,-34.319871],[-58.520919,-34.32006],[-58.522084,-34.319642],[-58.521968,-34.319454]]]}},{"type":"Feature","properties":{"partida":"357018631","cca":"35700010000000000000006500000000000001100F","tipo":"Urbano","sup_m2":1969.6},"geometry":{"type":"Polygon","coordinates":[[[-58.522084,-34.319642],[-58.520919,-34.32006],[-58.521005,-34.320191],[-58.52217,-34.319781],[-58.522084,-34.319642]]]}},{"type":"Feature","properties":{"partida":"357018632","cca":"35700010000000000000006500000000000001100G","tipo":"Urbano","sup_m2":2198.5},"geometry":{"type":"Polygon","coordinates":[[[-58.52217,-34.319781],[-58.521005,-34.320191],[-58.521107,-34.320344],[-58.522262,-34.319931],[-58.52217,-34.319781]]]}},{"type":"Feature","properties":{"partida":"357018633","cca":"35700010000000000000006500000000000001100H","tipo":"Urbano","sup_m2":5708.2},"geometry":{"type":"Polygon","coordinates":[[[-58.522262,-34.319931],[-58.521107,-34.320344],[-58.521413,-34.320603],[-58.521754,-34.320685],[-58.522478,-34.320385],[-58.522262,-34.319931]]]}},{"type":"Feature","properties":{"partida":"357018634","cca":"35700010000000000000006500000000000001100K","tipo":"Rural","sup_m2":87157.5},"geometry":{"type":"Polygon","coordinates":[[[-58.524149,-34.321367],[-58.524066,-34.321634],[-58.526455,-34.322033],[-58.527082,-34.320033],[-58.521775,-34.319143],[-58.522262,-34.319931],[-58.522478,-34.320385],[-58.522392,-34.32054],[-58.522391,-34.320621],[-58.522405,-34.320683],[-58.522445,-34.320746],[-58.523805,-34.320957],[-58.5237,-34.321292],[-58.524149,-34.321367]]]}},{"type":"Feature","properties":{"partida":"357018635","cca":"35700010000000000000006500000000000001100M","tipo":"Urbano","sup_m2":1620.9},"geometry":{"type":"Polygon","coordinates":[[[-58.522529,-34.320888],[-58.523771,-34.321067],[-58.523805,-34.320957],[-58.522445,-34.320746],[-58.522485,-34.320818],[-58.522529,-34.320888]]]}},{"type":"Feature","properties":{"partida":"357018636","cca":"35700010000000000000006500000000000001100N","tipo":"Urbano","sup_m2":1246.5},"geometry":{"type":"Polygon","coordinates":[[[-58.523736,-34.32118],[-58.523771,-34.321067],[-58.522529,-34.320888],[-58.522599,-34.320985],[-58.523736,-34.32118]]]}},{"type":"Feature","properties":{"partida":"357018637","cca":"35700010000000000000006500000000000001100P","tipo":"Urbano","sup_m2":1363.0},"geometry":{"type":"Polygon","coordinates":[[[-58.522599,-34.320985],[-58.522702,-34.321135],[-58.5237,-34.321292],[-58.523736,-34.32118],[-58.522599,-34.320985]]]}},{"type":"Feature","properties":{"partida":"357018638","cca":"35700010000000000000006500000000000001100R","tipo":"Urbano","sup_m2":2151.7},"geometry":{"type":"Polygon","coordinates":[[[-58.522702,-34.321135],[-58.522697,-34.321206],[-58.522703,-34.321281],[-58.524106,-34.321505],[-58.524149,-34.321367],[-58.5237,-34.321292],[-58.522702,-34.321135]]]}},{"type":"Feature","properties":{"partida":"357018639","cca":"35700010000000000000006500000000000001100S","tipo":"Urbano","sup_m2":1966.4},"geometry":{"type":"Polygon","coordinates":[[[-58.524066,-34.321634],[-58.524106,-34.321505],[-58.522703,-34.321281],[-58.522689,-34.321422],[-58.524066,-34.321634]]]}},{"type":"Feature","properties":{"partida":"357018640","cca":"35700010000000000000006500000000000001100T","tipo":"Rural","sup_m2":12159.5},"geometry":{"type":"Polygon","coordinates":[[[-58.522696,-34.321656],[-58.527253,-34.322439],[-58.527324,-34.322179],[-58.524066,-34.321634],[-58.522689,-34.321422],[-58.522683,-34.321543],[-58.522696,-34.321656]]]}},{"type":"Feature","properties":{"partida":"357018641","cca":"35700010000000000000006500000000000001100U","tipo":"Rural","sup_m2":11338.2},"geometry":{"type":"Polygon","coordinates":[[[-58.522704,-34.321899],[-58.524386,-34.322197],[-58.527181,-34.322664],[-58.527253,-34.322439],[-58.522696,-34.321656],[-58.522683,-34.321771],[-58.522704,-34.321899]]]}},{"type":"Feature","properties":{"partida":"357018642","cca":"35700010000000000000006500000000000001100V","tipo":"Urbano","sup_m2":2846.9},"geometry":{"type":"Polygon","coordinates":[[[-58.522704,-34.321899],[-58.522715,-34.32208],[-58.524343,-34.322347],[-58.524386,-34.322197],[-58.522704,-34.321899]]]}},{"type":"Feature","properties":{"partida":"357018643","cca":"35700010000000000000006500000000000001100W","tipo":"Urbano","sup_m2":2644.1},"geometry":{"type":"Polygon","coordinates":[[[-58.524297,-34.322507],[-58.524343,-34.322347],[-58.522715,-34.32208],[-58.522731,-34.32224],[-58.524297,-34.322507]]]}},{"type":"Feature","properties":{"partida":"357018644","cca":"35700010000000000000006500000000000001100X","tipo":"Urbano","sup_m2":2613.2},"geometry":{"type":"Polygon","coordinates":[[[-58.522747,-34.322414],[-58.524253,-34.322662],[-58.524297,-34.322507],[-58.522731,-34.32224],[-58.522747,-34.322414]]]}},{"type":"Feature","properties":{"partida":"357018645","cca":"35700010000000000000006500000000000001100Y","tipo":"Rural","sup_m2":67491.8},"geometry":{"type":"Polygon","coordinates":[[[-58.522747,-34.322414],[-58.522737,-34.322687],[-58.522686,-34.323125],[-58.522753,-34.323319],[-58.52282,-34.323485],[-58.524304,-34.323751],[-58.524244,-34.323918],[-58.524183,-34.324073],[-58.526607,-34.324456],[-58.527181,-34.322664],[-58.524386,-34.322197],[-58.524253,-34.322662],[-58.522747,-34.322414]]]}},{"type":"Feature","properties":{"partida":"357018646","cca":"35700010000000000000006500000000000001100Z","tipo":"Urbano","sup_m2":2763.9},"geometry":{"type":"Polygon","coordinates":[[[-58.524244,-34.323918],[-58.524304,-34.323751],[-58.52282,-34.323485],[-58.52272,-34.32365],[-58.524244,-34.323918]]]}},{"type":"Feature","properties":{"partida":"357018647","cca":"3570001000000000000000650000000000000110AA","tipo":"Urbano","sup_m2":2468.9},"geometry":{"type":"Polygon","coordinates":[[[-58.522943,-34.323872],[-58.524183,-34.324073],[-58.524244,-34.323918],[-58.52272,-34.32365],[-58.522943,-34.323872]]]}},{"type":"Feature","properties":{"partida":"357013725","cca":"35700010000000000000006500000000000001200H","tipo":"Rural","sup_m2":14188.1},"geometry":{"type":"Polygon","coordinates":[[[-58.522943,-34.323872],[-58.522994,-34.324025],[-58.53018,-34.325265],[-58.53023,-34.325032],[-58.529165,-34.324861],[-58.524183,-34.324073],[-58.522943,-34.323872]]]}},{"type":"Feature","properties":{"partida":"357013726","cca":"35700010000000000000006500000000000001200J","tipo":"Urbano","sup_m2":15019.3},"geometry":{"type":"Polygon","coordinates":[[[-58.530282,-34.325403],[-58.530244,-34.325329],[-58.53018,-34.325265],[-58.522994,-34.324025],[-58.523036,-34.324317],[-58.530282,-34.325403]]]}},{"type":"Feature","properties":{"partida":"357013796","cca":"357000100000000000000065000000000000053000","tipo":"Urbano","sup_m2":1952.0},"geometry":{"type":"Polygon","coordinates":[[[-58.5336,-34.313243],[-58.53355,-34.313438],[-58.534509,-34.313566],[-58.534611,-34.313395],[-58.5336,-34.313243]]]}},{"type":"Feature","properties":{"partida":"357013797","cca":"357000100000000000000065000000000000054000","tipo":"Urbano","sup_m2":1787.1},"geometry":{"type":"Polygon","coordinates":[[[-58.5336,-34.313243],[-58.534611,-34.313395],[-58.53466,-34.313247],[-58.533641,-34.313061],[-58.5336,-34.313243]]]}},{"type":"Feature","properties":{"partida":"357013798","cca":"357000100000000000000065000000000000055000","tipo":"Urbano","sup_m2":1961.0},"geometry":{"type":"Polygon","coordinates":[[[-58.533641,-34.313061],[-58.53466,-34.313247],[-58.534725,-34.313076],[-58.533681,-34.31288],[-58.533641,-34.313061]]]}},{"type":"Feature","properties":{"partida":"357013799","cca":"357000100000000000000065000000000000056000","tipo":"Urbano","sup_m2":2155.8},"geometry":{"type":"Polygon","coordinates":[[[-58.534757,-34.312865],[-58.533722,-34.312698],[-58.533681,-34.31288],[-58.534725,-34.313076],[-58.534757,-34.312865]]]}},{"type":"Feature","properties":{"partida":"357020123","cca":"357000100000000000000065000A0000000000500A","tipo":"Rural","sup_m2":19005.1},"geometry":{"type":"Polygon","coordinates":[[[-58.515414,-34.313291],[-58.51503,-34.313044],[-58.514833,-34.312994],[-58.512512,-34.314658],[-58.513041,-34.315111],[-58.515414,-34.313291]]]}},{"type":"Feature","properties":{"partida":"357019239","cca":"357000100000000000000065000A0000000000500B","tipo":"Rural","sup_m2":26779.2},"geometry":{"type":"Polygon","coordinates":[[[-58.514833,-34.312994],[-58.513968,-34.312773],[-58.513463,-34.312458],[-58.511888,-34.314125],[-58.512512,-34.314658],[-58.514833,-34.312994]]]}},{"type":"Feature","properties":{"partida":"357014412","cca":"357000100000000000000065700000000000001000","tipo":"Rural","sup_m2":12991.2},"geometry":{"type":"Polygon","coordinates":[[[-58.533642,-34.323949],[-58.534427,-34.324687],[-58.535466,-34.324429],[-58.535464,-34.324252],[-58.535109,-34.324075],[-58.534841,-34.323773],[-58.534705,-34.323482],[-58.534386,-34.323436],[-58.534056,-34.323584],[-58.533642,-34.323949]]]}},{"type":"Feature","properties":{"partida":null,"cca":"357000100000000000000065700000000000002000","tipo":null,"sup_m2":23711.2},"geometry":{"type":"Polygon","coordinates":[[[-58.533642,-34.323949],[-58.533508,-34.32413],[-58.533223,-34.324304],[-58.533031,-34.324645],[-58.533019,-34.325069],[-58.534375,-34.3255],[-58.535485,-34.325365],[-58.535482,-34.325062],[-58.535485,-34.324859],[-58.535466,-34.324429],[-58.534427,-34.324687],[-58.533642,-34.323949]]]}}]}