{"type":"FeatureCollection","features":[{"type":"Feature","properties":{"partida":"357013719","cca":"35700010000000000000006500000000000001200B","tipo":"Urbano","sup_m2":15069.2},"geometry":{"type":"Polygon","coordinates":[[[-58.52386,-34.325426],[-58.5298,-34.326448],[-58.529927,-34.326196],[-58.523717,-34.32519],[-58.52386,-34.325426]]]}},{"type":"Feature","properties":{"partida":"357013720","cca":"35700010000000000000006500000000000001200C","tipo":"Urbano","sup_m2":19028.9},"geometry":{"type":"Polygon","coordinates":[[[-58.52388,-34.325785],[-58.52967,-34.326706],[-58.5298,-34.326448],[-58.52386,-34.325426],[-58.52388,-34.325785]]]}},{"type":"Feature","properties":{"partida":"357013721","cca":"35700010000000000000006500000000000001200D","tipo":"Urbano","sup_m2":13509.9},"geometry":{"type":"Polygon","coordinates":[[[-58.523902,-34.326015],[-58.52956,-34.326924],[-58.52967,-34.326706],[-58.52388,-34.325785],[-58.523902,-34.326015]]]}},{"type":"Feature","properties":{"partida":"357013722","cca":"35700010000000000000006500000000000001200E","tipo":"Urbano","sup_m2":14987.9},"geometry":{"type":"Polygon","coordinates":[[[-58.523898,-34.326281],[-58.529441,-34.327163],[-58.52956,-34.326924],[-58.523902,-34.326015],[-58.523898,-34.326281]]]}},{"type":"Feature","properties":{"partida":"357013723","cca":"35700010000000000000006500000000000001200F","tipo":"Urbano","sup_m2":14286.3},"geometry":{"type":"Polygon","coordinates":[[[-58.523956,-34.32655],[-58.529343,-34.3274],[-58.529386,-34.32727],[-58.529441,-34.327163],[-58.523898,-34.326281],[-58.523938,-34.326445],[-58.523956,-34.32655]]]}},{"type":"Feature","properties":{"partida":"357013724","cca":"35700010000000000000006500000000000001200G","tipo":"Urbano","sup_m2":13463.8},"geometry":{"type":"Polygon","coordinates":[[[-58.52372,-34.326747],[-58.529263,-34.327636],[-58.529343,-34.3274],[-58.523956,-34.32655],[-58.52372,-34.326747]]]}},{"type":"Feature","properties":{"partida":"357013727","cca":"35700010000000000000006500000000000001200K","tipo":"Rural","sup_m2":55588.2},"geometry":{"type":"Polygon","coordinates":[[[-58.523036,-34.324317],[-58.523183,-34.32451],[-58.523717,-34.32519],[-58.529927,-34.326196],[-58.530249,-34.32552],[-58.530282,-34.325403],[-58.523036,-34.324317]]]}},{"type":"Feature","properties":{"partida":"357013728","cca":"357000100000000000000065000000000000013000","tipo":"Urbano","sup_m2":11047.4},"geometry":{"type":"Polygon","coordinates":[[[-58.52372,-34.326747],[-58.523682,-34.326886],[-58.529185,-34.327868],[-58.529263,-34.327636],[-58.52372,-34.326747]]]}},{"type":"Feature","properties":{"partida":"357013729","cca":"357000100000000000000065000000000000014000","tipo":"Urbano","sup_m2":11541.1},"geometry":{"type":"Polygon","coordinates":[[[-58.523645,-34.327021],[-58.529098,-34.328122],[-58.529185,-34.327868],[-58.523682,-34.326886],[-58.523645,-34.327021]]]}},{"type":"Feature","properties":{"partida":"357013730","cca":"357000100000000000000065000000000000015000","tipo":"Rural","sup_m2":16157.5},"geometry":{"type":"Polygon","coordinates":[[[-58.523713,-34.327225],[-58.528973,-34.328497],[-58.529009,-34.328382],[-58.529098,-34.328122],[-58.523645,-34.327021],[-58.523713,-34.327225]]]}},{"type":"Feature","properties":{"partida":"357013731","cca":"357000100000000000000065000000000000016000","tipo":"Rural","sup_m2":13551.7},"geometry":{"type":"Polygon","coordinates":[[[-58.523696,-34.327373],[-58.528865,-34.328827],[-58.528973,-34.328497],[-58.523713,-34.327225],[-58.523757,-34.327306],[-58.523696,-34.327373]]]}},{"type":"Feature","properties":{"partida":"357013732","cca":"357000100000000000000065000000000000017000","tipo":"Rural","sup_m2":20829.4},"geometry":{"type":"Polygon","coordinates":[[[-58.524971,-34.328154],[-58.528785,-34.329239],[-58.528865,-34.328827],[-58.523696,-34.327373],[-58.523638,-34.327521],[-58.524971,-34.328154]]]}},{"type":"Feature","properties":{"partida":"357013733","cca":"35700010000000000000006500000000000001800A","tipo":"Urbano","sup_m2":15633.1},"geometry":{"type":"Polygon","coordinates":[[[-58.52854,-34.329798],[-58.528785,-34.329239],[-58.524971,-34.328154],[-58.524818,-34.32827],[-58.52854,-34.329798]]]}},{"type":"Feature","properties":{"partida":"357013734","cca":"35700010000000000000006500000000000001800B","tipo":"Urbano","sup_m2":28953.2},"geometry":{"type":"Polygon","coordinates":[[[-58.52844,-34.330086],[-58.528481,-34.329907],[-58.52854,-34.329798],[-58.524818,-34.32827],[-58.523742,-34.32896],[-58.52844,-34.330086]]]}},{"type":"Feature","properties":{"partida":"357013735","cca":"35700010000000000000006500000000000001900A","tipo":"Urbano","sup_m2":55188.2},"geometry":{"type":"Polygon","coordinates":[[[-58.526959,-34.330454],[-58.527056,-34.330157],[-58.527116,-34.330005],[-58.528412,-34.330364],[-58.52844,-34.330086],[-58.523742,-34.32896],[-58.523597,-34.329166],[-58.523481,-34.329284],[-58.523527,-34.329504],[-58.523475,-34.329581],[-58.523309,-34.329703],[-58.526361,-34.331577],[-58.526532,-34.331358],[-58.526656,-34.331123],[-58.526768,-34.330892],[-58.526959,-34.330454]]]}},{"type":"Feature","properties":{"partida":"357013736","cca":"35700010000000000000006500000000000001900B","tipo":"Urbano","sup_m2":2634.2},"geometry":{"type":"Polygon","coordinates":[[[-58.528412,-34.330364],[-58.527116,-34.330005],[-58.527056,-34.330157],[-58.52839,-34.33058],[-58.528412,-34.330364]]]}},{"type":"Feature","properties":{"partida":"357013737","cca":"35700010000000000000006500000000000001900C","tipo":"Urbano","sup_m2":4508.6},"geometry":{"type":"Polygon","coordinates":[[[-58.52839,-34.33058],[-58.527056,-34.330157],[-58.526959,-34.330454],[-58.528243,-34.330872],[-58.528333,-34.330758],[-58.52839,-34.33058]]]}},{"type":"Feature","properties":{"partida":"357013738","cca":"35700010000000000000006500000000000001900D","tipo":"Urbano","sup_m2":3862.6},"geometry":{"type":"Polygon","coordinates":[[[-58.526858,-34.330685],[-58.528181,-34.331165],[-58.528243,-34.330872],[-58.526959,-34.330454],[-58.526858,-34.330685]]]}},{"type":"Feature","properties":{"partida":"357013739","cca":"35700010000000000000006500000000000001900E","tipo":"Urbano","sup_m2":7287.1},"geometry":{"type":"Polygon","coordinates":[[[-58.528181,-34.331165],[-58.526858,-34.330685],[-58.526768,-34.330892],[-58.526656,-34.331123],[-58.528018,-34.331651],[-58.528143,-34.331309],[-58.528181,-34.331165]]]}},{"type":"Feature","properties":{"partida":"357013740","cca":"35700010000000000000006500000000000001900J","tipo":"Urbano","sup_m2":9691.2},"geometry":{"type":"Polygon","coordinates":[[[-58.528018,-34.331651],[-58.526656,-34.331123],[-58.526532,-34.331358],[-58.526361,-34.331577],[-58.527863,-34.332327],[-58.527949,-34.331987],[-58.528018,-34.331651]]]}},{"type":"Feature","properties":{"partida":"357013742","cca":"35700010000000000000006500000000000001900M","tipo":"Urbano","sup_m2":3495.3},"geometry":{"type":"Polygon","coordinates":[[[-58.527779,-34.332591],[-58.527863,-34.332327],[-58.526361,-34.331577],[-58.526281,-34.331678],[-58.527779,-34.332591]]]}},{"type":"Feature","properties":{"partida":"357013741","cca":"35700010000000000000006500000000000001900N","tipo":"Rural","sup_m2":93356.9},"geometry":{"type":"Polygon","coordinates":[[[-58.527779,-34.332591],[-58.526281,-34.331678],[-58.526361,-34.331577],[-58.523309,-34.329703],[-58.521989,-34.330524],[-58.521765,-34.330696],[-58.524798,-34.332515],[-58.527257,-34.333918],[-58.527377,-34.333489],[-58.527652,-34.332884],[-58.527779,-34.332591]]]}},{"type":"Feature","properties":{"partida":"357013743","cca":"357000100000000000000065000000000000020000","tipo":"Urbano","sup_m2":9328.1},"geometry":{"type":"Polygon","coordinates":[[[-58.527257,-34.333918],[-58.524798,-34.332515],[-58.524614,-34.332726],[-58.527007,-34.334197],[-58.52719,-34.334055],[-58.527257,-34.333918]]]}},{"type":"Feature","properties":{"partida":"357013744","cca":"357000100000000000000065000000000000021000","tipo":"Urbano","sup_m2":9936.0},"geometry":{"type":"Polygon","coordinates":[[[-58.521765,-34.330696],[-58.521558,-34.33089],[-58.524614,-34.332726],[-58.524798,-34.332515],[-58.521765,-34.330696]]]}},{"type":"Feature","properties":{"partida":"357013745","cca":"357000100000000000000065000000000000022000","tipo":"Urbano","sup_m2":7700.9},"geometry":{"type":"Polygon","coordinates":[[[-58.524614,-34.332726],[-58.524417,-34.332938],[-58.526958,-34.334446],[-58.527002,-34.334319],[-58.527007,-34.334197],[-58.524614,-34.332726]]]}},{"type":"Feature","properties":{"partida":"357013746","cca":"357000100000000000000065000000000000023000","tipo":"Urbano","sup_m2":10341.3},"geometry":{"type":"Polygon","coordinates":[[[-58.521358,-34.331099],[-58.524417,-34.332938],[-58.524614,-34.332726],[-58.521558,-34.33089],[-58.521457,-34.330953],[-58.521358,-34.331099]]]}},{"type":"Feature","properties":{"partida":"357013747","cca":"357000100000000000000065000000000000024000","tipo":"Urbano","sup_m2":6781.8},"geometry":{"type":"Polygon","coordinates":[[[-58.524417,-34.332938],[-58.524252,-34.333129],[-58.526919,-34.334649],[-58.52691,-34.334504],[-58.526958,-34.334446],[-58.524417,-34.332938]]]}},{"type":"Feature","properties":{"partida":"357013748","cca":"357000100000000000000065000000000000025000","tipo":"Urbano","sup_m2":9517.9},"geometry":{"type":"Polygon","coordinates":[[[-58.524252,-34.333129],[-58.524417,-34.332938],[-58.521358,-34.331099],[-58.521152,-34.331292],[-58.524252,-34.333129]]]}},{"type":"Feature","properties":{"partida":"357013749","cca":"357000100000000000000065000000000000026000","tipo":"Urbano","sup_m2":8504.4},"geometry":{"type":"Polygon","coordinates":[[[-58.526834,-34.334893],[-58.526851,-34.334807],[-58.526906,-34.334713],[-58.526919,-34.334649],[-58.524252,-34.333129],[-58.524062,-34.333332],[-58.526626,-34.334785],[-58.526834,-34.334893]]]}},{"type":"Feature","properties":{"partida":"357013750","cca":"357000100000000000000065000000000000027000","tipo":"Urbano","sup_m2":10035.9},"geometry":{"type":"Polygon","coordinates":[[[-58.520947,-34.331487],[-58.524062,-34.333332],[-58.524252,-34.333129],[-58.521152,-34.331292],[-58.520947,-34.331487]]]}},{"type":"Feature","properties":{"partida":"357013751","cca":"357000100000000000000065000000000000028000","tipo":"Urbano","sup_m2":7144.1},"geometry":{"type":"Polygon","coordinates":[[[-58.526834,-34.334893],[-58.526626,-34.334785],[-58.524062,-34.333332],[-58.523915,-34.333506],[-58.526764,-34.335104],[-58.526834,-34.334893]]]}},{"type":"Feature","properties":{"partida":"357013752","cca":"357000100000000000000065000000000000029000","tipo":"Urbano","sup_m2":7952.0},"geometry":{"type":"Polygon","coordinates":[[[-58.520921,-34.33172],[-58.523915,-34.333506],[-58.524062,-34.333332],[-58.520947,-34.331487],[-58.520921,-34.33172]]]}},{"type":"Feature","properties":{"partida":"357013753","cca":"35700010000000000000006500000000000003000A","tipo":"Urbano","sup_m2":16480.5},"geometry":{"type":"Polygon","coordinates":[[[-58.523608,-34.333855],[-58.526524,-34.335563],[-58.526653,-34.335334],[-58.526714,-34.335172],[-58.526764,-34.335104],[-58.523915,-34.333506],[-58.523767,-34.333684],[-58.523608,-34.333855]]]}},{"type":"Feature","properties":{"partida":"357013754","cca":"357000100000000000000065000000000000031000","tipo":"Urbano","sup_m2":8368.1},"geometry":{"type":"Polygon","coordinates":[[[-58.520774,-34.331914],[-58.523767,-34.333684],[-58.523915,-34.333506],[-58.520921,-34.33172],[-58.520774,-34.331914]]]}},{"type":"Feature","properties":{"partida":"357013755","cca":"357000100000000000000065000000000000033000","tipo":"Urbano","sup_m2":8424.7},"geometry":{"type":"Polygon","coordinates":[[[-58.520612,-34.332106],[-58.523608,-34.333855],[-58.523767,-34.333684],[-58.520774,-34.331914],[-58.520612,-34.332106]]]}},{"type":"Feature","properties":{"partida":"357013756","cca":"357000100000000000000065000000000000034000","tipo":"Urbano","sup_m2":10217.8},"geometry":{"type":"Polygon","coordinates":[[[-58.523608,-34.333855],[-58.523422,-34.334065],[-58.526453,-34.335874],[-58.526524,-34.335563],[-58.523608,-34.333855]]]}},{"type":"Feature","properties":{"partida":"357013757","cca":"357000100000000000000065000000000000035000","tipo":"Urbano","sup_m2":9094.4},"geometry":{"type":"Polygon","coordinates":[[[-58.523422,-34.334065],[-58.523608,-34.333855],[-58.520612,-34.332106],[-58.520387,-34.332243],[-58.523422,-34.334065]]]}},{"type":"Feature","properties":{"partida":"357013758","cca":"357000100000000000000065000000000000036000","tipo":"Rural","sup_m2":8015.6},"geometry":{"type":"Polygon","coordinates":[[[-58.52327,-34.334237],[-58.525222,-34.335383],[-58.526449,-34.336134],[-58.526439,-34.335997],[-58.526453,-34.335874],[-58.523422,-34.334065],[-58.52327,-34.334237]]]}},{"type":"Feature","properties":{"partida":"357013759","cca":"357000100000000000000065000000000000037000","tipo":"Rural","sup_m2":8595.5},"geometry":{"type":"Polygon","coordinates":[[[-58.520211,-34.332427],[-58.52327,-34.334237],[-58.523422,-34.334065],[-58.520387,-34.332243],[-58.520211,-34.332427]]]}},{"type":"Feature","properties":{"partida":"357013760","cca":"35700010000000000000006500000000000003800A","tipo":"Rural","sup_m2":5353.6},"geometry":{"type":"Polygon","coordinates":[[[-58.525222,-34.335383],[-58.52327,-34.334237],[-58.523126,-34.3344],[-58.525103,-34.335597],[-58.525222,-34.335383]]]}},{"type":"Feature","properties":{"partida":"357013761","cca":"35700010000000000000006500000000000003800B","tipo":"Urbano","sup_m2":3436.9},"geometry":{"type":"Polygon","coordinates":[[[-58.525222,-34.335383],[-58.525103,-34.335597],[-58.526414,-34.336359],[-58.526449,-34.336134],[-58.525222,-34.335383]]]}},{"type":"Feature","properties":{"partida":"357013762","cca":"357000100000000000000065000000000000039000","tipo":"Rural","sup_m2":7993.8},"geometry":{"type":"Polygon","coordinates":[[[-58.520024,-34.332578],[-58.523126,-34.3344],[-58.52327,-34.334237],[-58.520211,-34.332427],[-58.520024,-34.332578]]]}},{"type":"Feature","properties":{"partida":"357013763","cca":"35700010000000000000006500000000000004000A","tipo":"Rural","sup_m2":43597.1},"geometry":{"type":"Polygon","coordinates":[[[-58.520024,-34.332578],[-58.519872,-34.332721],[-58.519405,-34.333029],[-58.524726,-34.33618],[-58.525103,-34.335597],[-58.523126,-34.3344],[-58.520024,-34.332578]]]}},{"type":"Feature","properties":{"partida":"357013764","cca":"35700010000000000000006500000000000004000B","tipo":"Urbano","sup_m2":12345.5},"geometry":{"type":"Polygon","coordinates":[[[-58.526342,-34.337158],[-58.526374,-34.33687],[-58.526414,-34.336359],[-58.525103,-34.335597],[-58.524726,-34.33618],[-58.526342,-34.337158]]]}},{"type":"Feature","properties":{"partida":"357013765","cca":"357000100000000000000065000000000000041000","tipo":"Rural","sup_m2":39009.5},"geometry":{"type":"Polygon","coordinates":[[[-58.526342,-34.337158],[-58.524726,-34.33618],[-58.519405,-34.333029],[-58.519269,-34.333077],[-58.519153,-34.333229],[-58.519038,-34.333331],[-58.526167,-34.337599],[-58.526237,-34.337479],[-58.526342,-34.337158]]]}},{"type":"Feature","properties":{"partida":"357013766","cca":"357000100000000000000065000000000000042000","tipo":"Rural","sup_m2":34789.3},"geometry":{"type":"Polygon","coordinates":[[[-58.526022,-34.337956],[-58.525991,-34.337937],[-58.52613,-34.337709],[-58.526167,-34.337599],[-58.519038,-34.333331],[-58.518807,-34.333701],[-58.526022,-34.337956]]]}},{"type":"Feature","properties":{"partida":"357013767","cca":"357000100000000000000065000000000000043000","tipo":"Rural","sup_m2":39197.3},"geometry":{"type":"Polygon","coordinates":[[[-58.526022,-34.337956],[-58.518807,-34.333701],[-58.518632,-34.33402],[-58.525838,-34.338484],[-58.525913,-34.338307],[-58.526022,-34.337956]]]}},{"type":"Feature","properties":{"partida":"357013768","cca":"357000100000000000000065000000000000044000","tipo":"Rural","sup_m2":90603.1},"geometry":{"type":"Polygon","coordinates":[[[-58.518632,-34.33402],[-58.518356,-34.334058],[-58.518096,-34.334286],[-58.517625,-34.334514],[-58.525328,-34.339406],[-58.525715,-34.338772],[-58.525801,-34.338596],[-58.525838,-34.338484],[-58.518632,-34.33402]]]}},{"type":"Feature","properties":{"partida":"357013769","cca":"35700010000000000000006500000000000004500A","tipo":"Rural","sup_m2":92607.0},"geometry":{"type":"MultiPolygon","coordinates":[[[[-58.522179,-34.338591],[-58.522153,-34.338418],[-58.521937,-34.338171],[-58.520126,-34.336973],[-58.519804,-34.3368],[-58.516932,-34.334984],[-58.516992,-34.334969],[-58.519863,-34.336744],[-58.520137,-34.336904],[-58.520273,-34.336874],[-58.520688,-34.337161],[-58.521173,-34.337453],[-58.521807,-34.337896],[-58.522054,-34.338129],[-58.522248,-34.338421],[-58.522301,-34.338666],[-58.523269,-34.339214],[-58.523383,-34.339151],[-58.523495,-34.339181],[-58.523662,-34.339278],[-58.523931,-34.339508],[-58.523824,-34.339597],[-58.524628,-34.340105],[-58.525058,-34.339702],[-58.525328,-34.339406],[-58.517625,-34.334514],[-58.517327,-34.334551],[-58.516776,-34.334717],[-58.516539,-34.334757],[-58.516313,-34.334788],[-58.516156,-34.334867],[-58.522179,-34.338591]]],[[[-58.52485,-34.340239],[-58.525151,-34.339801],[-58.525114,-34.33973],[-58.524698,-34.340147],[-58.52485,-34.340239]]]]}},{"type":"Feature","properties":{"partida":"357019841","cca":"35700010000000000000006500000000000004500B","tipo":"Rural","sup_m2":73615.0},"geometry":{"type":"MultiPolygon","coordinates":[[[[-58.523824,-34.339597],[-58.523562,-34.339804],[-58.523152,-34.339527],[-58.523007,-34.339578],[-58.522873,-34.339722],[-58.5229,-34.339909],[-58.523041,-34.340007],[-58.523216,-34.340118],[-58.52336,-34.340222],[-58.523607,-34.340199],[-58.52364,-34.340446],[-58.52364,-34.340584],[-58.523877,-34.34081],[-58.524016,-34.340797],[-58.524474,-34.340304],[-58.524628,-34.340105],[-58.523824,-34.339597]]],[[[-58.516156,-34.334867],[-58.516142,-34.335006],[-58.516059,-34.33512],[-58.515854,-34.335323],[-58.515672,-34.335464],[-58.515618,-34.335583],[-58.515812,-34.33571],[-58.515999,-34.335578],[-58.516865,-34.336102],[-58.51772,-34.33667],[-58.518644,-34.337216],[-58.519474,-34.337786],[-58.520539,-34.338456],[-58.521421,-34.339075],[-58.521773,-34.339287],[-58.522088,-34.339517],[-58.522308,-34.339403],[-58.522211,-34.338807],[-58.522179,-34.338591],[-58.516156,-34.334867]]],[[[-58.52485,-34.340239],[-58.524698,-34.340147],[-58.524679,-34.340166],[-58.524417,-34.340509],[-58.524102,-34.34086],[-58.524297,-34.340858],[-58.524757,-34.340375],[-58.52485,-34.340239]]],[[[-58.522301,-34.338666],[-58.522342,-34.338855],[-58.522485,-34.339713],[-58.522615,-34.339775],[-58.522811,-34.339697],[-58.523092,-34.339403],[-58.523167,-34.339313],[-58.523269,-34.339214],[-58.522301,-34.338666]]]]}},{"type":"Feature","properties":{"partida":"357013770","cca":"35700010000000000000006500000000000004600G","tipo":"Rural","sup_m2":209866.4},"geometry":{"type":"Polygon","coordinates":[[[-58.52131,-34.342485],[-58.52036,-34.341848],[-58.519939,-34.341548],[-58.519654,-34.340151],[-58.520853,-34.339039],[-58.519534,-34.338214],[-58.517957,-34.337188],[-58.51667,-34.336372],[-58.515603,-34.335753],[-58.51548,-34.335784],[-58.515422,-34.335854],[-58.515394,-34.335918],[-58.515377,-34.33613],[-58.515376,-34.336431],[-58.515293,-34.336743],[-58.515267,-34.336893],[-58.515276,-34.337046],[-58.515267,-34.337277],[-58.515209,-34.337518],[-58.515105,-34.339014],[-58.519322,-34.342597],[-58.519577,-34.342413],[-58.519696,-34.342278],[-58.520791,-34.342972],[-58.521064,-34.342785],[-58.52131,-34.342485]]]}},{"type":"Feature","properties":{"partida":"357018011","cca":"35700010000000000000006500000000000004600H","tipo":"Rural","sup_m2":67141.3},"geometry":{"type":"Polygon","coordinates":[[[-58.52131,-34.342485],[-58.521521,-34.342173],[-58.522788,-34.34084],[-58.522442,-34.339887],[-58.521952,-34.339703],[-58.521501,-34.339414],[-58.520853,-34.339039],[-58.519654,-34.340151],[-58.519939,-34.341548],[-58.52036,-34.341848],[-58.52131,-34.342485]]]}},{"type":"Feature","properties":{"partida":"357018010","cca":"35700010000000000000006500000000000004700A","tipo":"Urbano","sup_m2":2694.5},"geometry":{"type":"Polygon","coordinates":[[[-58.520791,-34.342972],[-58.519696,-34.342278],[-58.519577,-34.342413],[-58.520584,-34.343122],[-58.520791,-34.342972]]]}},{"type":"Feature","properties":{"partida":"357018683","cca":"35700010000000000000006500000000000004700B","tipo":"Urbano","sup_m2":1947.3},"geometry":{"type":"Polygon","coordinates":[[[-58.520584,-34.343122],[-58.519577,-34.342413],[-58.519441,-34.342512],[-58.520447,-34.343212],[-58.520584,-34.343122]]]}},{"type":"Feature","properties":{"partida":"357018684","cca":"35700010000000000000006500000000000004700C","tipo":"Urbano","sup_m2":1820.2},"geometry":{"type":"Polygon","coordinates":[[[-58.520447,-34.343212],[-58.519441,-34.342512],[-58.519322,-34.342597],[-58.520322,-34.343309],[-58.520447,-34.343212]]]}},{"type":"Feature","properties":{"partida":"357013772","cca":"35700010000000000000006500000000000004800A","tipo":"Rural","sup_m2":35111.2},"geometry":{"type":"Polygon","coordinates":[[[-58.515105,-34.339014],[-58.515046,-34.339847],[-58.518786,-34.342918],[-58.519146,-34.342637],[-58.520183,-34.343384],[-58.520322,-34.343309],[-58.519322,-34.342597],[-58.515105,-34.339014]]]}},{"type":"Feature","properties":{"partida":"357013773","cca":"35700010000000000000006500000000000004800B","tipo":"Urbano","sup_m2":1359.3},"geometry":{"type":"Polygon","coordinates":[[[-58.520183,-34.343384],[-58.519146,-34.342637],[-58.519064,-34.3427],[-58.520121,-34.34347],[-58.520183,-34.343384]]]}},{"type":"Feature","properties":{"partida":"357013774","cca":"35700010000000000000006500000000000004800C","tipo":"Urbano","sup_m2":1478.0},"geometry":{"type":"Polygon","coordinates":[[[-58.520121,-34.34347],[-58.519064,-34.3427],[-58.518973,-34.342772],[-58.520012,-34.343529],[-58.520121,-34.34347]]]}},{"type":"Feature","properties":{"partida":"357013775","cca":"35700010000000000000006500000000000004800D","tipo":"Urbano","sup_m2":1467.7},"geometry":{"type":"Polygon","coordinates":[[[-58.520012,-34.343529],[-58.518973,-34.342772],[-58.518889,-34.342837],[-58.51991,-34.343606],[-58.520012,-34.343529]]]}},{"type":"Feature","properties":{"partida":"357013776","cca":"35700010000000000000006500000000000004800E","tipo":"Urbano","sup_m2":1903.7},"geometry":{"type":"Polygon","coordinates":[[[-58.51991,-34.343606],[-58.518889,-34.342837],[-58.518786,-34.342918],[-58.519793,-34.343721],[-58.51991,-34.343606]]]}},{"type":"Feature","properties":{"partida":"357013777","cca":"35700010000000000000006500000000000004900A","tipo":"Urbano","sup_m2":65546.8},"geometry":{"type":"Polygon","coordinates":[[[-58.51942,-34.34406],[-58.519275,-34.343943],[-58.518291,-34.34325],[-58.518442,-34.343129],[-58.518515,-34.343051],[-58.518625,-34.342958],[-58.518732,-34.342873],[-58.515046,-34.339847],[-58.514906,-34.341846],[-58.517503,-34.343814],[-58.517863,-34.34347],[-58.518113,-34.343245],[-58.519364,-34.344097],[-58.51942,-34.34406]]]}},{"type":"Feature","properties":{"partida":"357013784","cca":"35700010000000000000006500000000000004900H","tipo":"Urbano","sup_m2":2028.4},"geometry":{"type":"Polygon","coordinates":[[[-58.519706,-34.343806],[-58.518625,-34.342958],[-58.518515,-34.343051],[-58.519588,-34.343901],[-58.519706,-34.343806]]]}},{"type":"Feature","properties":{"partida":"357013785","cca":"35700010000000000000006500000000000004900J","tipo":"Urbano","sup_m2":1757.3},"geometry":{"type":"Polygon","coordinates":[[[-58.519793,-34.343721],[-58.518732,-34.342873],[-58.518625,-34.342958],[-58.519706,-34.343806],[-58.519793,-34.343721]]]}},{"type":"Feature","properties":{"partida":"357013786","cca":"35700010000000000000006500000000000005000A","tipo":"Rural","sup_m2":7456.3},"geometry":{"type":"Polygon","coordinates":[[[-58.518696,-34.344612],[-58.517503,-34.343814],[-58.514906,-34.341846],[-58.514896,-34.341989],[-58.518491,-34.344777],[-58.518696,-34.344612]]]}},{"type":"Feature","properties":{"partida":"357000172","cca":"35700010000000000000006570000000000000300E","tipo":"Urbano","sup_m2":7357.2},"geometry":{"type":"Polygon","coordinates":[[[-58.534051,-34.329326],[-58.536197,-34.32909],[-58.536138,-34.328737],[-58.534101,-34.328992],[-58.534051,-34.329326]]]}},{"type":"Feature","properties":{"partida":"357014415","cca":"35700010000000000000006570000000000000300F","tipo":"Urbano","sup_m2":8207.8},"geometry":{"type":"Polygon","coordinates":[[[-58.534051,-34.329326],[-58.534101,-34.328992],[-58.531794,-34.328309],[-58.531737,-34.328639],[-58.534051,-34.329326]]]}},{"type":"Feature","properties":{"partida":"357000178","cca":"35700010000000000000006570000000000000300H","tipo":"Urbano","sup_m2":4715.0},"geometry":{"type":"Polygon","coordinates":[[[-58.534019,-34.329513],[-58.534051,-34.329326],[-58.531737,-34.328639],[-58.531619,-34.328799],[-58.534019,-34.329513]]]}},{"type":"Feature","properties":{"partida":"357000049","cca":"35700010000000000000006570000000000000300M","tipo":"Urbano","sup_m2":4901.2},"geometry":{"type":"Polygon","coordinates":[[[-58.531619,-34.328799],[-58.531591,-34.328885],[-58.531642,-34.329006],[-58.533988,-34.329705],[-58.534019,-34.329513],[-58.531619,-34.328799]]]}},{"type":"Feature","properties":{"partida":"357000051","cca":"35700010000000000000006570000000000000300P","tipo":"Urbano","sup_m2":4323.5},"geometry":{"type":"Polygon","coordinates":[[[-58.533958,-34.329875],[-58.533988,-34.329705],[-58.531642,-34.329006],[-58.531526,-34.329147],[-58.533958,-34.329875]]]}},{"type":"Feature","properties":{"partida":"357000045","cca":"35700010000000000000006570000000000000300S","tipo":"Urbano","sup_m2":4806.5},"geometry":{"type":"Polygon","coordinates":[[[-58.533958,-34.329875],[-58.531526,-34.329147],[-58.531479,-34.329326],[-58.53393,-34.330058],[-58.533958,-34.329875]]]}},{"type":"Feature","properties":{"partida":null,"cca":"35700010000000000000006570000000000000300U","tipo":null,"sup_m2":4576.2},"geometry":{"type":"Polygon","coordinates":[[[-58.533896,-34.330237],[-58.53393,-34.330058],[-58.531479,-34.329326],[-58.531443,-34.329492],[-58.533896,-34.330237]]]}},{"type":"Feature","properties":{"partida":"357000055","cca":"35700010000000000000006570000000000000300W","tipo":"Urbano","sup_m2":5479.0},"geometry":{"type":"Polygon","coordinates":[[[-58.533864,-34.330427],[-58.533896,-34.330237],[-58.531443,-34.329492],[-58.53133,-34.329689],[-58.533864,-34.330427]]]}},{"type":"Feature","properties":{"partida":"357000057","cca":"35700010000000000000006570000000000000300Y","tipo":"Urbano","sup_m2":4683.9},"geometry":{"type":"Polygon","coordinates":[[[-58.531285,-34.329848],[-58.533833,-34.330608],[-58.533864,-34.330427],[-58.53133,-34.329689],[-58.531308,-34.329811],[-58.531285,-34.329848]]]}},{"type":"Feature","properties":{"partida":"357000044","cca":"3570001000000000000000657000000000000030AA","tipo":"Urbano","sup_m2":4642.2},"geometry":{"type":"Polygon","coordinates":[[[-58.533833,-34.330608],[-58.531285,-34.329848],[-58.53123,-34.33],[-58.533803,-34.330786],[-58.533833,-34.330608]]]}},{"type":"Feature","properties":{"partida":"357000042","cca":"3570001000000000000000657000000000000030CC","tipo":"Urbano","sup_m2":5421.4},"geometry":{"type":"Polygon","coordinates":[[[-58.533773,-34.330954],[-58.533803,-34.330786],[-58.53123,-34.33],[-58.53123,-34.330237],[-58.533773,-34.330954]]]}},{"type":"Feature","properties":{"partida":"357000046","cca":"3570001000000000000000657000000000000030EE","tipo":"Urbano","sup_m2":4306.4},"geometry":{"type":"Polygon","coordinates":[[[-58.533746,-34.331138],[-58.533773,-34.330954],[-58.53123,-34.330237],[-58.531219,-34.330375],[-58.533746,-34.331138]]]}},{"type":"Feature","properties":{"partida":"357000064","cca":"3570001000000000000000657000000000000030GG","tipo":"Urbano","sup_m2":5194.7},"geometry":{"type":"Polygon","coordinates":[[[-58.533746,-34.331138],[-58.531219,-34.330375],[-58.531082,-34.330556],[-58.533715,-34.331302],[-58.533746,-34.331138]]]}},{"type":"Feature","properties":{"partida":"357000066","cca":"3570001000000000000000657000000000000030KK","tipo":"Urbano","sup_m2":4738.6},"geometry":{"type":"Polygon","coordinates":[[[-58.533685,-34.331486],[-58.533715,-34.331302],[-58.531082,-34.330556],[-58.531035,-34.330701],[-58.533685,-34.331486]]]}},{"type":"Feature","properties":{"partida":"357000068","cca":"3570001000000000000000657000000000000030NN","tipo":"Urbano","sup_m2":4687.6},"geometry":{"type":"Polygon","coordinates":[[[-58.533685,-34.331486],[-58.531035,-34.330701],[-58.531008,-34.330856],[-58.533655,-34.331661],[-58.533685,-34.331486]]]}},{"type":"Feature","properties":{"partida":"357000004","cca":"3570001000000000000000657000000000000030RR","tipo":"Urbano","sup_m2":5168.6},"geometry":{"type":"Polygon","coordinates":[[[-58.530928,-34.33102],[-58.533625,-34.331839],[-58.533655,-34.331661],[-58.531008,-34.330856],[-58.530902,-34.330952],[-58.530928,-34.33102]]]}},{"type":"Feature","properties":{"partida":"357000060","cca":"3570001000000000000000657000000000000030TT","tipo":"Urbano","sup_m2":4872.1},"geometry":{"type":"Polygon","coordinates":[[[-58.533592,-34.33202],[-58.533625,-34.331839],[-58.530928,-34.33102],[-58.530869,-34.331162],[-58.533592,-34.33202]]]}},{"type":"Feature","properties":{"partida":"357000062","cca":"3570001000000000000000657000000000000030VV","tipo":"Urbano","sup_m2":5998.1},"geometry":{"type":"Polygon","coordinates":[[[-58.533563,-34.332199],[-58.533592,-34.33202],[-58.530869,-34.331162],[-58.5307,-34.331343],[-58.533563,-34.332199]]]}},{"type":"Feature","properties":{"partida":"357000006","cca":"3570001000000000000000657000000000000030XX","tipo":"Urbano","sup_m2":5409.6},"geometry":{"type":"Polygon","coordinates":[[[-58.53353,-34.332372],[-58.533563,-34.332199],[-58.5307,-34.331343],[-58.530674,-34.331523],[-58.53353,-34.332372]]]}},{"type":"Feature","properties":{"partida":"357000007","cca":"3570001000000000000000657000000000000030YY","tipo":"Urbano","sup_m2":6511.2},"geometry":{"type":"Polygon","coordinates":[[[-58.533529,-34.332388],[-58.533501,-34.332562],[-58.53683,-34.332198],[-58.536912,-34.33198],[-58.533529,-34.332388]]]}},{"type":"Feature","properties":{"partida":"357000008","cca":"3570001000000000000000657000000000000030ZZ","tipo":"Urbano","sup_m2":5637.4},"geometry":{"type":"Polygon","coordinates":[[[-58.533501,-34.332562],[-58.53353,-34.332372],[-58.530674,-34.331523],[-58.530656,-34.331706],[-58.533501,-34.332562]]]}},{"type":"Feature","properties":{"partida":"357000009","cca":"357000100000000000000065700000000000003AAA","tipo":"Urbano","sup_m2":5723.2},"geometry":{"type":"Polygon","coordinates":[[[-58.533501,-34.332562],[-58.533468,-34.332739],[-58.536783,-34.332368],[-58.53683,-34.332198],[-58.533501,-34.332562]]]}},{"type":"Feature","properties":{"partida":"357000010","cca":"357000100000000000000065700000000000003BBB","tipo":"Urbano","sup_m2":6165.0},"geometry":{"type":"Polygon","coordinates":[[[-58.533468,-34.332739],[-58.533501,-34.332562],[-58.530656,-34.331706],[-58.530578,-34.331918],[-58.533468,-34.332739]]]}},{"type":"Feature","properties":{"partida":"357000011","cca":"357000100000000000000065700000000000003CCC","tipo":"Urbano","sup_m2":6048.4},"geometry":{"type":"Polygon","coordinates":[[[-58.533468,-34.332739],[-58.533441,-34.332915],[-58.536787,-34.33255],[-58.536783,-34.332368],[-58.533468,-34.332739]]]}},{"type":"Feature","properties":{"partida":"357000012","cca":"357000100000000000000065700000000000003DDD","tipo":"Urbano","sup_m2":5414.1},"geometry":{"type":"Polygon","coordinates":[[[-58.533441,-34.332915],[-58.533468,-34.332739],[-58.530578,-34.331918],[-58.530511,-34.332079],[-58.533441,-34.332915]]]}},{"type":"Feature","properties":{"partida":"357000013","cca":"357000100000000000000065700000000000003EEE","tipo":"Urbano","sup_m2":6449.9},"geometry":{"type":"Polygon","coordinates":[[[-58.536787,-34.33255],[-58.533441,-34.332915],[-58.533414,-34.333097],[-58.536821,-34.332741],[-58.536787,-34.33255]]]}},{"type":"Feature","properties":{"partida":"357000014","cca":"357000100000000000000065700000000000003FFF","tipo":"Urbano","sup_m2":5517.6},"geometry":{"type":"Polygon","coordinates":[[[-58.5305,-34.332256],[-58.533414,-34.333097],[-58.533441,-34.332915],[-58.530511,-34.332079],[-58.5305,-34.332256]]]}},{"type":"Feature","properties":{"partida":"357017761","cca":"357000100000000000000065700000000000003GGG","tipo":"Urbano","sup_m2":3724.5},"geometry":{"type":"Polygon","coordinates":[[[-58.534356,-34.325755],[-58.534361,-34.325727],[-58.534375,-34.3255],[-58.533019,-34.325069],[-58.532946,-34.325313],[-58.534356,-34.325755]]]}},{"type":"Feature","properties":{"partida":"357017762","cca":"357000100000000000000065700000000000003HHH","tipo":"Urbano","sup_m2":4004.6},"geometry":{"type":"Polygon","coordinates":[[[-58.534338,-34.325999],[-58.534356,-34.325755],[-58.532946,-34.325313],[-58.53286,-34.325374],[-58.532847,-34.325531],[-58.534331,-34.326029],[-58.534338,-34.325999]]]}},{"type":"Feature","properties":{"partida":"357017763","cca":"357000100000000000000065700000000000005000","tipo":"Urbano","sup_m2":4578.8},"geometry":{"type":"Polygon","coordinates":[[[-58.534321,-34.32622],[-58.534331,-34.326029],[-58.532847,-34.325531],[-58.532715,-34.325776],[-58.534312,-34.326315],[-58.534321,-34.32622]]]}},{"type":"Feature","properties":{"partida":"357017764","cca":"357000100000000000000065700000000000006000","tipo":"Urbano","sup_m2":6045.1},"geometry":{"type":"Polygon","coordinates":[[[-58.534285,-34.326633],[-58.534312,-34.326315],[-58.532715,-34.325776],[-58.532552,-34.326107],[-58.534285,-34.326633]]]}},{"type":"Feature","properties":{"partida":"357017765","cca":"357000100000000000000065700000000000007000","tipo":"Urbano","sup_m2":6278.8},"geometry":{"type":"Polygon","coordinates":[[[-58.534259,-34.326971],[-58.534278,-34.326757],[-58.534285,-34.326633],[-58.532552,-34.326107],[-58.532369,-34.326384],[-58.534259,-34.326971]]]}},{"type":"Feature","properties":{"partida":"357017766","cca":"357000100000000000000065700000000000008000","tipo":"Urbano","sup_m2":6781.4},"geometry":{"type":"Polygon","coordinates":[[[-58.532369,-34.326384],[-58.532401,-34.326543],[-58.532344,-34.326747],[-58.534231,-34.327303],[-58.534259,-34.326971],[-58.532369,-34.326384]]]}},{"type":"Feature","properties":{"partida":"357017767","cca":"357000100000000000000065700000000000009000","tipo":"Urbano","sup_m2":7623.9},"geometry":{"type":"Polygon","coordinates":[[[-58.534203,-34.32768],[-58.534231,-34.327303],[-58.532344,-34.326747],[-58.532172,-34.327072],[-58.534203,-34.32768]]]}},{"type":"Feature","properties":{"partida":"357017768","cca":"357000100000000000000065700000000000010000","tipo":"Urbano","sup_m2":8929.9},"geometry":{"type":"Polygon","coordinates":[[[-58.534167,-34.328085],[-58.534203,-34.32768],[-58.532172,-34.327072],[-58.532014,-34.327446],[-58.534167,-34.328085]]]}},{"type":"Feature","properties":{"partida":"357017769","cca":"35700010000000000000006570000000000001100A","tipo":"Urbano","sup_m2":9587.0},"geometry":{"type":"Polygon","coordinates":[[[-58.534136,-34.328495],[-58.534167,-34.328085],[-58.532014,-34.327446],[-58.531825,-34.327589],[-58.531841,-34.327799],[-58.534136,-34.328495]]]}},{"type":"Feature","properties":{"partida":"357014414","cca":"35700010000000000000006570000000000001100B","tipo":"Urbano","sup_m2":12111.7},"geometry":{"type":"Polygon","coordinates":[[[-58.534101,-34.328992],[-58.534136,-34.328495],[-58.531841,-34.327799],[-58.531794,-34.328309],[-58.534101,-34.328992]]]}},{"type":"Feature","properties":{"partida":"357017782","cca":"357000100000000000000065700000000000012000","tipo":"Urbano","sup_m2":3108.8},"geometry":{"type":"Polygon","coordinates":[[[-58.5305,-34.332256],[-58.530442,-34.332582],[-58.531366,-34.332812],[-58.53146,-34.332533],[-58.5305,-34.332256]]]}},{"type":"Feature","properties":{"partida":"357017783","cca":"357000100000000000000065700000000000013000","tipo":"Urbano","sup_m2":1879.8},"geometry":{"type":"Polygon","coordinates":[[[-58.531309,-34.332992],[-58.531366,-34.332812],[-58.530442,-34.332582],[-58.530347,-34.332756],[-58.531309,-34.332992]]]}},{"type":"Feature","properties":{"partida":"357017784","cca":"357000100000000000000065700000000000014000","tipo":"Urbano","sup_m2":1900.9},"geometry":{"type":"Polygon","coordinates":[[[-58.531309,-34.332992],[-58.530347,-34.332756],[-58.530254,-34.332925],[-58.53125,-34.333166],[-58.531309,-34.332992]]]}},{"type":"Feature","properties":{"partida":"357017785","cca":"357000100000000000000065700000000000015000","tipo":"Urbano","sup_m2":1909.8},"geometry":{"type":"Polygon","coordinates":[[[-58.531191,-34.333335],[-58.53125,-34.333166],[-58.530254,-34.332925],[-58.530164,-34.33309],[-58.531191,-34.333335]]]}},{"type":"Feature","properties":{"partida":"357017786","cca":"357000100000000000000065700000000000016000","tipo":"Urbano","sup_m2":1968.8},"geometry":{"type":"Polygon","coordinates":[[[-58.531138,-34.333512],[-58.531191,-34.333335],[-58.530164,-34.33309],[-58.530119,-34.333266],[-58.531138,-34.333512]]]}},{"type":"Feature","properties":{"partida":"357017787","cca":"357000100000000000000065700000000000017000","tipo":"Urbano","sup_m2":2025.6},"geometry":{"type":"Polygon","coordinates":[[[-58.531085,-34.33369],[-58.531138,-34.333512],[-58.530119,-34.333266],[-58.530095,-34.333466],[-58.531085,-34.33369]]]}},{"type":"Feature","properties":{"partida":"357017788","cca":"357000100000000000000065700000000000018000","tipo":"Urbano","sup_m2":1732.7},"geometry":{"type":"Polygon","coordinates":[[[-58.531085,-34.33369],[-58.530095,-34.333466],[-58.530053,-34.333618],[-58.531027,-34.333859],[-58.531085,-34.33369]]]}},{"type":"Feature","properties":{"partida":"357017789","cca":"357000100000000000000065700000000000019000","tipo":"Urbano","sup_m2":1733.4},"geometry":{"type":"Polygon","coordinates":[[[-58.530982,-34.334018],[-58.531027,-34.333859],[-58.530053,-34.333618],[-58.529962,-34.333766],[-58.530982,-34.334018]]]}},{"type":"Feature","properties":{"partida":"357017790","cca":"357000100000000000000065700000000000020000","tipo":"Urbano","sup_m2":2033.3},"geometry":{"type":"Polygon","coordinates":[[[-58.530982,-34.334018],[-58.529962,-34.333766],[-58.529904,-34.333952],[-58.530929,-34.334195],[-58.530982,-34.334018]]]}},{"type":"Feature","properties":{"partida":"357017791","cca":"357000100000000000000065700000000000021000","tipo":"Urbano","sup_m2":1940.1},"geometry":{"type":"Polygon","coordinates":[[[-58.530884,-34.33435],[-58.530929,-34.334195],[-58.529904,-34.333952],[-58.529856,-34.334147],[-58.530884,-34.33435]]]}},{"type":"Feature","properties":{"partida":"357017792","cca":"357000100000000000000065700000000000022000","tipo":"Urbano","sup_m2":1937.7},"geometry":{"type":"Polygon","coordinates":[[[-58.530831,-34.334528],[-58.530884,-34.33435],[-58.529856,-34.334147],[-58.529801,-34.334315],[-58.530831,-34.334528]]]}},{"type":"Feature","properties":{"partida":"357017793","cca":"357000100000000000000065700000000000023000","tipo":"Urbano","sup_m2":1866.7},"geometry":{"type":"Polygon","coordinates":[[[-58.530777,-34.334701],[-58.530831,-34.334528],[-58.529801,-34.334315],[-58.529777,-34.334486],[-58.530777,-34.334701]]]}},{"type":"Feature","properties":{"partida":"357017794","cca":"357000100000000000000065700000000000024000","tipo":"Urbano","sup_m2":2029.2},"geometry":{"type":"Polygon","coordinates":[[[-58.530777,-34.334701],[-58.529777,-34.334486],[-58.529709,-34.33467],[-58.530723,-34.334886],[-58.530777,-34.334701]]]}},{"type":"Feature","properties":{"partida":"357017795","cca":"357000100000000000000065700000000000025000","tipo":"Urbano","sup_m2":1876.6},"geometry":{"type":"Polygon","coordinates":[[[-58.529709,-34.33467],[-58.529644,-34.334761],[-58.529705,-34.334846],[-58.530671,-34.335058],[-58.530723,-34.334886],[-58.529709,-34.33467]]]}},{"type":"Feature","properties":{"partida":"357017796","cca":"357000100000000000000065700000000000026000","tipo":"Urbano","sup_m2":1709.1},"geometry":{"type":"Polygon","coordinates":[[[-58.530622,-34.335224],[-58.530671,-34.335058],[-58.529705,-34.334846],[-58.529646,-34.335],[-58.530622,-34.335224]]]}},{"type":"Feature","properties":{"partida":"357017797","cca":"357000100000000000000065700000000000027000","tipo":"Urbano","sup_m2":2060.7},"geometry":{"type":"Polygon","coordinates":[[[-58.530622,-34.335224],[-58.529646,-34.335],[-58.529574,-34.335197],[-58.530567,-34.335409],[-58.530622,-34.335224]]]}},{"type":"Feature","properties":{"partida":"357017798","cca":"357000100000000000000065700000000000028000","tipo":"Urbano","sup_m2":1935.2},"geometry":{"type":"Polygon","coordinates":[[[-58.530513,-34.335594],[-58.530567,-34.335409],[-58.529574,-34.335197],[-58.529529,-34.335373],[-58.530513,-34.335594]]]}},{"type":"Feature","properties":{"partida":"357017799","cca":"357000100000000000000065700000000000029000","tipo":"Urbano","sup_m2":1944.7},"geometry":{"type":"Polygon","coordinates":[[[-58.530513,-34.335594],[-58.529529,-34.335373],[-58.529486,-34.335564],[-58.530466,-34.335772],[-58.530513,-34.335594]]]}},{"type":"Feature","properties":{"partida":"357017800","cca":"357000100000000000000065700000000000030000","tipo":"Urbano","sup_m2":1820.7},"geometry":{"type":"Polygon","coordinates":[[[-58.530415,-34.335947],[-58.530466,-34.335772],[-58.529486,-34.335564],[-58.529387,-34.335711],[-58.530415,-34.335947]]]}},{"type":"Feature","properties":{"partida":"357017801","cca":"357000100000000000000065700000000000031000","tipo":"Urbano","sup_m2":2037.3},"geometry":{"type":"Polygon","coordinates":[[[-58.530415,-34.335947],[-58.529387,-34.335711],[-58.52932,-34.335899],[-58.530367,-34.336118],[-58.530415,-34.335947]]]}},{"type":"Feature","properties":{"partida":"357017802","cca":"357000100000000000000065700000000000032000","tipo":"Urbano","sup_m2":1988.7},"geometry":{"type":"Polygon","coordinates":[[[-58.530314,-34.336291],[-58.530367,-34.336118],[-58.52932,-34.335899],[-58.529263,-34.336075],[-58.530314,-34.336291]]]}},{"type":"Feature","properties":{"partida":"357017803","cca":"357000100000000000000065700000000000033000","tipo":"Urbano","sup_m2":2121.6},"geometry":{"type":"Polygon","coordinates":[[[-58.530314,-34.336291],[-58.529263,-34.336075],[-58.529213,-34.33626],[-58.530259,-34.33648],[-58.530314,-34.336291]]]}},{"type":"Feature","properties":{"partida":"357018746","cca":"35700010000000000000006570000000000003400A","tipo":"Rural","sup_m2":76120.8},"geometry":{"type":"Polygon","coordinates":[[[-58.529443,-34.338506],[-58.53073,-34.338782],[-58.532901,-34.339232],[-58.533273,-34.337067],[-58.530259,-34.33648],[-58.529213,-34.33626],[-58.529094,-34.336584],[-58.53019,-34.336831],[-58.530154,-34.337004],[-58.53,-34.33732],[-58.529693,-34.33799],[-58.529443,-34.338506]]]}},{"type":"Feature","properties":{"partida":"357018747","cca":"35700010000000000000006570000000000003400B","tipo":"Urbano","sup_m2":2009.3},"geometry":{"type":"Polygon","coordinates":[[[-58.530154,-34.337004],[-58.53019,-34.336831],[-58.529094,-34.336584],[-58.529029,-34.336743],[-58.530154,-34.337004]]]}},{"type":"Feature","properties":{"partida":"357018748","cca":"35700010000000000000006570000000000003500A","tipo":"Urbano","sup_m2":2197.9},"geometry":{"type":"Polygon","coordinates":[[[-58.530076,-34.337165],[-58.530154,-34.337004],[-58.529029,-34.336743],[-58.528951,-34.336929],[-58.530076,-34.337165]]]}},{"type":"Feature","properties":{"partida":"357018749","cca":"35700010000000000000006570000000000003500B","tipo":"Urbano","sup_m2":1952.6},"geometry":{"type":"Polygon","coordinates":[[[-58.53,-34.33732],[-58.530076,-34.337165],[-58.528951,-34.336929],[-58.528939,-34.337106],[-58.53,-34.33732]]]}},{"type":"Feature","properties":{"partida":"357018750","cca":"35700010000000000000006570000000000003500C","tipo":"Urbano","sup_m2":1817.2},"geometry":{"type":"Polygon","coordinates":[[[-58.52993,-34.337473],[-58.53,-34.33732],[-58.528939,-34.337106],[-58.528856,-34.337256],[-58.52993,-34.337473]]]}},{"type":"Feature","properties":{"partida":"357018751","cca":"35700010000000000000006570000000000003600A","tipo":"Urbano","sup_m2":2225.5},"geometry":{"type":"Polygon","coordinates":[[[-58.528656,-34.337406],[-58.529849,-34.337649],[-58.52993,-34.337473],[-58.528856,-34.337256],[-58.528666,-34.337388],[-58.528656,-34.337406]]]}},{"type":"Feature","properties":{"partida":"357018752","cca":"35700010000000000000006570000000000003600B","tipo":"Urbano","sup_m2":2152.2},"geometry":{"type":"Polygon","coordinates":[[[-58.529772,-34.337816],[-58.529849,-34.337649],[-58.528656,-34.337406],[-58.528589,-34.337563],[-58.529772,-34.337816]]]}},{"type":"Feature","properties":{"partida":"357018753","cca":"35700010000000000000006570000000000003600C","tipo":"Urbano","sup_m2":2336.0},"geometry":{"type":"Polygon","coordinates":[[[-58.529772,-34.337816],[-58.528589,-34.337563],[-58.528509,-34.337742],[-58.529693,-34.33799],[-58.529772,-34.337816]]]}},{"type":"Feature","properties":{"partida":"357018754","cca":"35700010000000000000006570000000000003700A","tipo":"Urbano","sup_m2":2195.8},"geometry":{"type":"Polygon","coordinates":[[[-58.529612,-34.338162],[-58.529693,-34.33799],[-58.528509,-34.337742],[-58.528473,-34.337916],[-58.529612,-34.338162]]]}},{"type":"Feature","properties":{"partida":"357018755","cca":"35700010000000000000006570000000000003700B","tipo":"Urbano","sup_m2":2015.4},"geometry":{"type":"Polygon","coordinates":[[[-58.52953,-34.338326],[-58.529612,-34.338162],[-58.528473,-34.337916],[-58.5285,-34.338103],[-58.52953,-34.338326]]]}},{"type":"Feature","properties":{"partida":"357018756","cca":"35700010000000000000006570000000000003700C","tipo":"Urbano","sup_m2":2013.6},"geometry":{"type":"Polygon","coordinates":[[[-58.529443,-34.338506],[-58.52953,-34.338326],[-58.5285,-34.338103],[-58.528443,-34.33828],[-58.529443,-34.338506]]]}},{"type":"Feature","properties":{"partida":"357018757","cca":"35700010000000000000006570000000000003800A","tipo":"Urbano","sup_m2":2039.7},"geometry":{"type":"Polygon","coordinates":[[[-58.528443,-34.33828],[-58.528361,-34.338404],[-58.528321,-34.338457],[-58.529363,-34.338677],[-58.529443,-34.338506],[-58.528443,-34.33828]]]}},{"type":"Feature","properties":{"partida":"357018758","cca":"35700010000000000000006570000000000003800B","tipo":"Urbano","sup_m2":1868.5},"geometry":{"type":"Polygon","coordinates":[[[-58.529279,-34.33884],[-58.529363,-34.338677],[-58.528321,-34.338457],[-58.528271,-34.338622],[-58.529279,-34.33884]]]}},{"type":"Feature","properties":{"partida":"357018759","cca":"35700010000000000000006570000000000003800C","tipo":"Urbano","sup_m2":1995.7},"geometry":{"type":"Polygon","coordinates":[[[-58.529194,-34.339023],[-58.529279,-34.33884],[-58.528271,-34.338622],[-58.528172,-34.338783],[-58.529194,-34.339023]]]}},{"type":"Feature","properties":{"partida":"357018760","cca":"35700010000000000000006570000000000003900A","tipo":"Urbano","sup_m2":1931.9},"geometry":{"type":"Polygon","coordinates":[[[-58.529194,-34.339023],[-58.528172,-34.338783],[-58.528119,-34.338968],[-58.529118,-34.339183],[-58.529194,-34.339023]]]}},{"type":"Feature","properties":{"partida":"357018761","cca":"35700010000000000000006570000000000003900B","tipo":"Urbano","sup_m2":1778.8},"geometry":{"type":"Polygon","coordinates":[[[-58.529036,-34.339351],[-58.529118,-34.339183],[-58.528119,-34.338968],[-58.528061,-34.339122],[-58.529036,-34.339351]]]}},{"type":"Feature","properties":{"partida":"357018762","cca":"35700010000000000000006570000000000003900C","tipo":"Urbano","sup_m2":2160.0},"geometry":{"type":"Polygon","coordinates":[[[-58.529036,-34.339351],[-58.528061,-34.339122],[-58.527829,-34.339277],[-58.528947,-34.339525],[-58.528973,-34.339487],[-58.529036,-34.339351]]]}},{"type":"Feature","properties":{"partida":"357018763","cca":"35700010000000000000006570000000000004000A","tipo":"Urbano","sup_m2":2019.6},"geometry":{"type":"Polygon","coordinates":[[[-58.528862,-34.33969],[-58.528947,-34.339525],[-58.527829,-34.339277],[-58.527787,-34.339445],[-58.528862,-34.33969]]]}},{"type":"Feature","properties":{"partida":"357018764","cca":"35700010000000000000006570000000000004000B","tipo":"Urbano","sup_m2":1795.6},"geometry":{"type":"Polygon","coordinates":[[[-58.528776,-34.339844],[-58.528862,-34.33969],[-58.527787,-34.339445],[-58.527867,-34.339644],[-58.528776,-34.339844]]]}},{"type":"Feature","properties":{"partida":"357018765","cca":"35700010000000000000006570000000000004000C","tipo":"Urbano","sup_m2":1831.2},"geometry":{"type":"Polygon","coordinates":[[[-58.528689,-34.340017],[-58.528776,-34.339844],[-58.527867,-34.339644],[-58.527749,-34.339814],[-58.528689,-34.340017]]]}},{"type":"Feature","properties":{"partida":"357018766","cca":"35700010000000000000006570000000000004100A","tipo":"Urbano","sup_m2":1811.3},"geometry":{"type":"Polygon","coordinates":[[[-58.528689,-34.340017],[-58.527749,-34.339814],[-58.527603,-34.339966],[-58.528596,-34.340181],[-58.528689,-34.340017]]]}},{"type":"Feature","properties":{"partida":"357018767","cca":"35700010000000000000006570000000000004100B","tipo":"Urbano","sup_m2":1736.9},"geometry":{"type":"Polygon","coordinates":[[[-58.527613,-34.340151],[-58.528516,-34.340333],[-58.528596,-34.340181],[-58.527603,-34.339966],[-58.527572,-34.340014],[-58.527613,-34.340151]]]}},{"type":"Feature","properties":{"partida":"357018768","cca":"35700010000000000000006570000000000004100C","tipo":"Urbano","sup_m2":1717.7},"geometry":{"type":"Polygon","coordinates":[[[-58.528516,-34.340333],[-58.527613,-34.340151],[-58.527485,-34.34031],[-58.528441,-34.340496],[-58.528516,-34.340333]]]}},{"type":"Feature","properties":{"partida":"357018769","cca":"35700010000000000000006570000000000004200A","tipo":"Urbano","sup_m2":1841.6},"geometry":{"type":"Polygon","coordinates":[[[-58.52836,-34.340676],[-58.528441,-34.340496],[-58.527485,-34.34031],[-58.527372,-34.340461],[-58.52836,-34.340676]]]}},{"type":"Feature","properties":{"partida":"357018770","cca":"35700010000000000000006570000000000004200B","tipo":"Urbano","sup_m2":2062.2},"geometry":{"type":"Polygon","coordinates":[[[-58.52836,-34.340676],[-58.527372,-34.340461],[-58.527275,-34.340659],[-58.528281,-34.340848],[-58.52836,-34.340676]]]}},{"type":"Feature","properties":{"partida":"357018771","cca":"35700010000000000000006570000000000004200C","tipo":"Urbano","sup_m2":1802.6},"geometry":{"type":"Polygon","coordinates":[[[-58.528212,-34.341003],[-58.528281,-34.340848],[-58.527275,-34.340659],[-58.527172,-34.340817],[-58.528212,-34.341003]]]}},{"type":"Feature","properties":{"partida":"357018772","cca":"35700010000000000000006570000000000004300A","tipo":"Urbano","sup_m2":2029.2},"geometry":{"type":"Polygon","coordinates":[[[-58.528212,-34.341003],[-58.527172,-34.340817],[-58.527068,-34.340979],[-58.528128,-34.341184],[-58.528212,-34.341003]]]}},{"type":"Feature","properties":{"partida":"357018773","cca":"35700010000000000000006570000000000004300B","tipo":"Rural","sup_m2":101591.6},"geometry":{"type":"Polygon","coordinates":[[[-58.526925,-34.341306],[-58.528776,-34.341231],[-58.532662,-34.341213],[-58.532852,-34.339514],[-58.532901,-34.339232],[-58.53073,-34.338782],[-58.529443,-34.338506],[-58.529363,-34.338677],[-58.529279,-34.33884],[-58.528973,-34.339487],[-58.528947,-34.339525],[-58.528862,-34.33969],[-58.528776,-34.339844],[-58.528689,-34.340017],[-58.528596,-34.340181],[-58.528516,-34.340333],[-58.528128,-34.341184],[-58.527068,-34.340979],[-58.527033,-34.341044],[-58.526925,-34.341306]]]}},{"type":"Feature","properties":{"partida":"357014417","cca":"357000100000000000000065700000000000063000","tipo":"Rural","sup_m2":110238.1},"geometry":{"type":"Polygon","coordinates":[[[-58.532852,-34.339514],[-58.533364,-34.339631],[-58.538157,-34.339235],[-58.538106,-34.338932],[-58.537173,-34.338989],[-58.537091,-34.338655],[-58.537053,-34.33848],[-58.537026,-34.338374],[-58.536969,-34.337911],[-58.537128,-34.337512],[-58.537282,-34.337102],[-58.537292,-34.337059],[-58.537277,-34.336908],[-58.537247,-34.33671],[-58.533273,-34.337067],[-58.532852,-34.339514]]]}},{"type":"Feature","properties":{"partida":"357014416","cca":"35700010000000000000006570000000000007000B","tipo":"Rural","sup_m2":103702.8},"geometry":{"type":"Polygon","coordinates":[[[-58.538402,-34.335719],[-58.535795,-34.335967],[-58.535694,-34.335199],[-58.533298,-34.3354],[-58.530723,-34.334886],[-58.530567,-34.335409],[-58.530367,-34.336118],[-58.530259,-34.33648],[-58.533273,-34.337067],[-58.535979,-34.336824],[-58.535926,-34.336448],[-58.538416,-34.33621],[-58.538372,-34.335824],[-58.538402,-34.335719]]]}},{"type":"Feature","properties":{"partida":"357017804","cca":"357000100000000000000065700000000000071000","tipo":"Rural","sup_m2":89109.9},"geometry":{"type":"Polygon","coordinates":[[[-58.538613,-34.334955],[-58.538245,-34.334954],[-58.53785,-34.334927],[-58.53754,-34.334788],[-58.537312,-34.334566],[-58.53723,-34.334188],[-58.537215,-34.333795],[-58.533315,-34.334049],[-58.531138,-34.333512],[-58.531085,-34.33369],[-58.531027,-34.333859],[-58.530982,-34.334018],[-58.530723,-34.334886],[-58.533298,-34.3354],[-58.538613,-34.334955]]]}},{"type":"Feature","properties":{"partida":"357017805","cca":"357000100000000000000065700000000000072000","tipo":"Rural","sup_m2":58960.8},"geometry":{"type":"Polygon","coordinates":[[[-58.537215,-34.333795],[-58.537127,-34.333572],[-58.536855,-34.33314],[-58.536821,-34.332741],[-58.533414,-34.333097],[-58.53146,-34.332533],[-58.531309,-34.332992],[-58.531191,-34.333335],[-58.531138,-34.333512],[-58.533315,-34.334049],[-58.537215,-34.333795]]]}},{"type":"Feature","properties":{"partida":"357017770","cca":"357000100000000000000065700000000000081000","tipo":"Urbano","sup_m2":6696.5},"geometry":{"type":"Polygon","coordinates":[[[-58.536053,-34.328421],[-58.534124,-34.328652],[-58.534101,-34.328992],[-58.536138,-34.328737],[-58.536068,-34.32852],[-58.536053,-34.328421]]]}},{"type":"Feature","properties":{"partida":"357017771","cca":"357000100000000000000065700000000000082000","tipo":"Urbano","sup_m2":6894.2},"geometry":{"type":"Polygon","coordinates":[[[-58.534153,-34.328297],[-58.534124,-34.328652],[-58.536053,-34.328421],[-58.536001,-34.328064],[-58.534153,-34.328297]]]}},{"type":"Feature","properties":{"partida":"357017772","cca":"357000100000000000000065700000000000083000","tipo":"Urbano","sup_m2":6031.8},"geometry":{"type":"Polygon","coordinates":[[[-58.536001,-34.328064],[-58.535971,-34.32786],[-58.535964,-34.327746],[-58.534177,-34.327966],[-58.534153,-34.328297],[-58.536001,-34.328064]]]}},{"type":"Feature","properties":{"partida":"357017773","cca":"357000100000000000000065700000000000084000","tipo":"Urbano","sup_m2":5192.1},"geometry":{"type":"Polygon","coordinates":[[[-58.534203,-34.32768],[-58.534177,-34.327966],[-58.535964,-34.327746],[-58.535946,-34.327455],[-58.534203,-34.32768]]]}},{"type":"Feature","properties":{"partida":"357017774","cca":"357000100000000000000065700000000000085000","tipo":"Urbano","sup_m2":5552.6},"geometry":{"type":"Polygon","coordinates":[[[-58.534227,-34.327356],[-58.534203,-34.32768],[-58.535946,-34.327455],[-58.535927,-34.327146],[-58.534227,-34.327356]]]}},{"type":"Feature","properties":{"partida":"357017775","cca":"357000100000000000000065700000000000086000","tipo":"Urbano","sup_m2":5258.1},"geometry":{"type":"Polygon","coordinates":[[[-58.535853,-34.326843],[-58.534255,-34.327045],[-58.534227,-34.327356],[-58.535927,-34.327146],[-58.535921,-34.327054],[-58.535853,-34.326843]]]}},{"type":"Feature","properties":{"partida":"357017776","cca":"357000100000000000000065700000000000087000","tipo":"Urbano","sup_m2":4504.2},"geometry":{"type":"Polygon","coordinates":[[[-58.53578,-34.326571],[-58.534278,-34.326757],[-58.534255,-34.327045],[-58.535853,-34.326843],[-58.535842,-34.326749],[-58.53578,-34.326571]]]}},{"type":"Feature","properties":{"partida":"357017777","cca":"357000100000000000000065700000000000088000","tipo":"Urbano","sup_m2":4024.0},"geometry":{"type":"Polygon","coordinates":[[[-58.534297,-34.326486],[-58.534278,-34.326757],[-58.53578,-34.326571],[-58.535713,-34.326307],[-58.534297,-34.326486]]]}},{"type":"Feature","properties":{"partida":"357017778","cca":"357000100000000000000065700000000000089000","tipo":"Urbano","sup_m2":3569.3},"geometry":{"type":"Polygon","coordinates":[[[-58.534321,-34.32622],[-58.534297,-34.326486],[-58.535713,-34.326307],[-58.535619,-34.326067],[-58.534321,-34.32622]]]}},{"type":"Feature","properties":{"partida":"357017779","cca":"357000100000000000000065700000000000090000","tipo":"Urbano","sup_m2":2900.2},"geometry":{"type":"Polygon","coordinates":[[[-58.534338,-34.325999],[-58.534331,-34.326029],[-58.534321,-34.32622],[-58.535619,-34.326067],[-58.535546,-34.325842],[-58.534338,-34.325999]]]}},{"type":"Feature","properties":{"partida":"357017780","cca":"357000100000000000000065700000000000091000","tipo":"Urbano","sup_m2":3165.2},"geometry":{"type":"Polygon","coordinates":[[[-58.534361,-34.325727],[-58.534356,-34.325755],[-58.534338,-34.325999],[-58.535546,-34.325842],[-58.535502,-34.325589],[-58.534361,-34.325727]]]}},{"type":"Feature","properties":{"partida":"357017781","cca":"357000100000000000000065700000000000092000","tipo":"Urbano","sup_m2":2603.4},"geometry":{"type":"Polygon","coordinates":[[[-58.535502,-34.325589],[-58.535498,-34.325495],[-58.535485,-34.325365],[-58.534375,-34.3255],[-58.534361,-34.325727],[-58.535502,-34.325589]]]}},{"type":"Feature","properties":{"partida":"357014453","cca":"35700010000000000000006600000000000000300B","tipo":"Urbano","sup_m2":1867.8},"geometry":{"type":"Polygon","coordinates":[[[-58.533268,-34.341192],[-58.534427,-34.34144],[-58.534516,-34.341195],[-58.534523,-34.341147],[-58.533268,-34.341192]]]}},{"type":"Feature","properties":{"partida":"357014455","cca":"35700010000000000000006600000000000000400B","tipo":"Urbano","sup_m2":3178.7},"geometry":{"type":"Polygon","coordinates":[[[-58.533268,-34.341192],[-58.532662,-34.341213],[-58.532582,-34.341213],[-58.534357,-34.341664],[-58.534427,-34.34144],[-58.533268,-34.341192]]]}},{"type":"Feature","properties":{"partida":"357014457","cca":"35700010000000000000006600000000000000500B","tipo":"Urbano","sup_m2":4845.6},"geometry":{"type":"Polygon","coordinates":[[[-58.531718,-34.341218],[-58.534311,-34.341865],[-58.534357,-34.341664],[-58.532582,-34.341213],[-58.531718,-34.341218]]]}},{"type":"Feature","properties":{"partida":"357014459","cca":"35700010000000000000006600000000000000600B","tipo":"Urbano","sup_m2":6972.5},"geometry":{"type":"Polygon","coordinates":[[[-58.530798,-34.341222],[-58.534248,-34.34207],[-58.534311,-34.341865],[-58.531718,-34.341218],[-58.530798,-34.341222]]]}},{"type":"Feature","properties":{"partida":"357014461","cca":"35700010000000000000006600000000000000700B","tipo":"Urbano","sup_m2":7440.6},"geometry":{"type":"Polygon","coordinates":[[[-58.530048,-34.341225],[-58.534205,-34.342254],[-58.534248,-34.34207],[-58.530798,-34.341222],[-58.530048,-34.341225]]]}},{"type":"Feature","properties":{"partida":"357014463","cca":"35700010000000000000006600000000000000800B","tipo":"Urbano","sup_m2":11912.5},"geometry":{"type":"Polygon","coordinates":[[[-58.529264,-34.341229],[-58.529252,-34.341297],[-58.534117,-34.342472],[-58.534205,-34.342254],[-58.530048,-34.341225],[-58.529264,-34.341229]]]}},{"type":"Feature","properties":{"partida":"357014465","cca":"35700010000000000000006600000000000000900B","tipo":"Urbano","sup_m2":11734.0},"geometry":{"type":"Polygon","coordinates":[[[-58.529252,-34.341297],[-58.529196,-34.34151],[-58.529194,-34.341543],[-58.534057,-34.34267],[-58.534117,-34.342472],[-58.529252,-34.341297]]]}},{"type":"Feature","properties":{"partida":"357014467","cca":"35700010000000000000006600000000000001000B","tipo":"Urbano","sup_m2":11696.7},"geometry":{"type":"Polygon","coordinates":[[[-58.529194,-34.341543],[-58.529143,-34.34177],[-58.533995,-34.342889],[-58.534057,-34.34267],[-58.529194,-34.341543]]]}},{"type":"Feature","properties":{"partida":"357014469","cca":"35700010000000000000006600000000000001100B","tipo":"Urbano","sup_m2":10638.6},"geometry":{"type":"Polygon","coordinates":[[[-58.529143,-34.34177],[-58.5291,-34.341935],[-58.529096,-34.341968],[-58.533925,-34.343093],[-58.533995,-34.342889],[-58.529143,-34.34177]]]}},{"type":"Feature","properties":{"partida":"357014471","cca":"35700010000000000000006600000000000001200B","tipo":"Urbano","sup_m2":11037.5},"geometry":{"type":"Polygon","coordinates":[[[-58.529096,-34.341968],[-58.52906,-34.342141],[-58.529058,-34.342182],[-58.533863,-34.343305],[-58.533925,-34.343093],[-58.529096,-34.341968]]]}},{"type":"Feature","properties":{"partida":"357014473","cca":"35700010000000000000006600000000000001300B","tipo":"Urbano","sup_m2":10777.5},"geometry":{"type":"Polygon","coordinates":[[[-58.529058,-34.342182],[-58.52902,-34.342351],[-58.529014,-34.342392],[-58.533802,-34.34351],[-58.533863,-34.343305],[-58.529058,-34.342182]]]}},{"type":"Feature","properties":{"partida":"357014474","cca":"35700010000000000000006600000000000001400H","tipo":"Urbano","sup_m2":12305.1},"geometry":{"type":"Polygon","coordinates":[[[-58.529014,-34.342392],[-58.528969,-34.342576],[-58.528968,-34.342641],[-58.53373,-34.343739],[-58.533802,-34.34351],[-58.529014,-34.342392]]]}},{"type":"Feature","properties":{"partida":"357018537","cca":"35700010000000000000006600000000000001400K","tipo":"Urbano","sup_m2":9733.1},"geometry":{"type":"Polygon","coordinates":[[[-58.528968,-34.342641],[-58.528928,-34.3428],[-58.528921,-34.342842],[-58.533679,-34.343915],[-58.53373,-34.343739],[-58.528968,-34.342641]]]}},{"type":"Feature","properties":{"partida":"357014500","cca":"357000100000000000000066000000000000028000","tipo":"Urbano","sup_m2":7125.6},"geometry":{"type":"Polygon","coordinates":[[[-58.526925,-34.341306],[-58.526649,-34.341594],[-58.529196,-34.34151],[-58.529252,-34.341297],[-58.529264,-34.341229],[-58.528776,-34.341231],[-58.526925,-34.341306]]]}},{"type":"Feature","properties":{"partida":"357014501","cca":"357000100000000000000066000000000000029000","tipo":"Urbano","sup_m2":5582.9},"geometry":{"type":"Polygon","coordinates":[[[-58.526513,-34.341801],[-58.529155,-34.341725],[-58.529194,-34.341543],[-58.529196,-34.34151],[-58.526649,-34.341594],[-58.526514,-34.341724],[-58.526513,-34.341801]]]}},{"type":"Feature","properties":{"partida":"357014502","cca":"35700010000000000000006600000000000003000A","tipo":"Urbano","sup_m2":4232.6},"geometry":{"type":"Polygon","coordinates":[[[-58.52628,-34.341959],[-58.529115,-34.341878],[-58.529155,-34.341725],[-58.526513,-34.341801],[-58.52628,-34.341959]]]}},{"type":"Feature","properties":{"partida":"357014503","cca":"35700010000000000000006600000000000003000B","tipo":"Urbano","sup_m2":1400.4},"geometry":{"type":"Polygon","coordinates":[[[-58.526191,-34.342],[-58.5291,-34.341935],[-58.529115,-34.341878],[-58.52628,-34.341959],[-58.526191,-34.342]]]}},{"type":"Feature","properties":{"partida":"357014504","cca":"35700010000000000000006600000000000003100A","tipo":"Urbano","sup_m2":2923.3},"geometry":{"type":"Polygon","coordinates":[[[-58.526139,-34.342096],[-58.529084,-34.342036],[-58.5291,-34.341935],[-58.526191,-34.342],[-58.526139,-34.342096]]]}},{"type":"Feature","properties":{"partida":"357014505","cca":"35700010000000000000006600000000000003100B","tipo":"Urbano","sup_m2":3733.8},"geometry":{"type":"Polygon","coordinates":[[[-58.526094,-34.342241],[-58.52906,-34.342141],[-58.529084,-34.342036],[-58.526139,-34.342096],[-58.526094,-34.342241]]]}},{"type":"Feature","properties":{"partida":"357014506","cca":"357000100000000000000066000000000000032000","tipo":"Urbano","sup_m2":6172.8},"geometry":{"type":"Polygon","coordinates":[[[-58.52902,-34.342351],[-58.529058,-34.342182],[-58.52906,-34.342141],[-58.526094,-34.342241],[-58.526004,-34.342408],[-58.525998,-34.342437],[-58.52902,-34.342351]]]}},{"type":"Feature","properties":{"partida":"357014507","cca":"357000100000000000000066000000000000033000","tipo":"Urbano","sup_m2":6880.1},"geometry":{"type":"Polygon","coordinates":[[[-58.525923,-34.34266],[-58.528969,-34.342576],[-58.529014,-34.342392],[-58.52902,-34.342351],[-58.525998,-34.342437],[-58.525923,-34.34266]]]}},{"type":"Feature","properties":{"partida":null,"cca":"357000100000000000000066000000000000034000","tipo":null,"sup_m2":6678.8},"geometry":{"type":"Polygon","coordinates":[[[-58.525884,-34.342867],[-58.528928,-34.3428],[-58.528968,-34.342641],[-58.528969,-34.342576],[-58.525923,-34.34266],[-58.525884,-34.342867]]]}},{"type":"Feature","properties":{"partida":null,"cca":"357000100000000000000066000000000000035000","tipo":null,"sup_m2":6985.3},"geometry":{"type":"Polygon","coordinates":[[[-58.525702,-34.343097],[-58.528883,-34.343015],[-58.528921,-34.342842],[-58.528928,-34.3428],[-58.525884,-34.342867],[-58.525702,-34.343097]]]}},{"type":"Feature","properties":{"partida":"357014510","cca":"357000100000000000000066000000000000036000","tipo":"Urbano","sup_m2":6760.2},"geometry":{"type":"Polygon","coordinates":[[[-58.525637,-34.343301],[-58.528837,-34.343229],[-58.528883,-34.343015],[-58.525702,-34.343097],[-58.525637,-34.343301]]]}},{"type":"Feature","properties":{"partida":"357014511","cca":"357000100000000000000066000000000000037000","tipo":"Urbano","sup_m2":6517.8},"geometry":{"type":"Polygon","coordinates":[[[-58.525627,-34.343486],[-58.528799,-34.343444],[-58.528835,-34.343287],[-58.528837,-34.343229],[-58.525637,-34.343301],[-58.525627,-34.343486]]]}}]}