{"type":"FeatureCollection","features":[{"type":"Feature","properties":{"partida":"357013778","cca":"35700010000000000000006500000000000004900B","tipo":"Urbano","sup_m2":2952.2},"geometry":{"type":"Polygon","coordinates":[[[-58.518696,-34.344612],[-58.518859,-34.344514],[-58.51767,-34.343655],[-58.517503,-34.343814],[-58.518696,-34.344612]]]}},{"type":"Feature","properties":{"partida":"357013779","cca":"35700010000000000000006500000000000004900C","tipo":"Urbano","sup_m2":1957.4},"geometry":{"type":"Polygon","coordinates":[[[-58.518966,-34.344431],[-58.517766,-34.343564],[-58.51767,-34.343655],[-58.518859,-34.344514],[-58.518966,-34.344431]]]}},{"type":"Feature","properties":{"partida":"357013780","cca":"35700010000000000000006500000000000004900D","tipo":"Urbano","sup_m2":2533.7},"geometry":{"type":"Polygon","coordinates":[[[-58.519116,-34.344291],[-58.517863,-34.34347],[-58.517766,-34.343564],[-58.518966,-34.344431],[-58.519116,-34.344291]]]}},{"type":"Feature","properties":{"partida":"357013781","cca":"35700010000000000000006500000000000004900E","tipo":"Urbano","sup_m2":4811.7},"geometry":{"type":"Polygon","coordinates":[[[-58.519364,-34.344097],[-58.518113,-34.343245],[-58.517863,-34.34347],[-58.519116,-34.344291],[-58.519185,-34.344248],[-58.519364,-34.344097]]]}},{"type":"Feature","properties":{"partida":"357013782","cca":"35700010000000000000006500000000000004900F","tipo":"Urbano","sup_m2":2069.4},"geometry":{"type":"Polygon","coordinates":[[[-58.518442,-34.343129],[-58.518291,-34.34325],[-58.519275,-34.343943],[-58.51942,-34.34406],[-58.519504,-34.343976],[-58.518442,-34.343129]]]}},{"type":"Feature","properties":{"partida":"357013783","cca":"35700010000000000000006500000000000004900G","tipo":"Urbano","sup_m2":1510.9},"geometry":{"type":"Polygon","coordinates":[[[-58.519504,-34.343976],[-58.519588,-34.343901],[-58.518515,-34.343051],[-58.518442,-34.343129],[-58.519504,-34.343976]]]}},{"type":"Feature","properties":{"partida":"357013787","cca":"35700010000000000000006500000000000005000B","tipo":"Rural","sup_m2":7878.5},"geometry":{"type":"Polygon","coordinates":[[[-58.518491,-34.344777],[-58.514896,-34.341989],[-58.514885,-34.342141],[-58.518322,-34.344921],[-58.518491,-34.344777]]]}},{"type":"Feature","properties":{"partida":"357013788","cca":"35700010000000000000006500000000000005000C","tipo":"Rural","sup_m2":7241.0},"geometry":{"type":"Polygon","coordinates":[[[-58.518322,-34.344921],[-58.514885,-34.342141],[-58.514871,-34.342344],[-58.518169,-34.345005],[-58.518322,-34.344921]]]}},{"type":"Feature","properties":{"partida":"357013789","cca":"35700010000000000000006500000000000005000D","tipo":"Rural","sup_m2":7222.3},"geometry":{"type":"Polygon","coordinates":[[[-58.518169,-34.345005],[-58.514871,-34.342344],[-58.51486,-34.342508],[-58.518012,-34.345141],[-58.518169,-34.345005]]]}},{"type":"Feature","properties":{"partida":"357013790","cca":"35700010000000000000006500000000000005100A","tipo":"Rural","sup_m2":7447.6},"geometry":{"type":"Polygon","coordinates":[[[-58.518012,-34.345141],[-58.51486,-34.342508],[-58.514844,-34.342731],[-58.517814,-34.345215],[-58.51799,-34.345155],[-58.518012,-34.345141]]]}},{"type":"Feature","properties":{"partida":"357013791","cca":"35700010000000000000006500000000000005100B","tipo":"Rural","sup_m2":9381.4},"geometry":{"type":"Polygon","coordinates":[[[-58.517814,-34.345215],[-58.514844,-34.342731],[-58.514822,-34.343052],[-58.517613,-34.345347],[-58.517814,-34.345215]]]}},{"type":"Feature","properties":{"partida":"357013792","cca":"35700010000000000000006500000000000005100C","tipo":"Rural","sup_m2":10911.8},"geometry":{"type":"Polygon","coordinates":[[[-58.517613,-34.345347],[-58.514822,-34.343052],[-58.514808,-34.343253],[-58.517185,-34.345578],[-58.517613,-34.345347]]]}},{"type":"Feature","properties":{"partida":"357013793","cca":"35700010000000000000006500000000000005100D","tipo":"Rural","sup_m2":8721.1},"geometry":{"type":"Polygon","coordinates":[[[-58.517185,-34.345578],[-58.514808,-34.343253],[-58.514791,-34.343494],[-58.516903,-34.34579],[-58.517185,-34.345578]]]}},{"type":"Feature","properties":{"partida":"357013794","cca":"35700010000000000000006500000000000005100E","tipo":"Rural","sup_m2":6546.1},"geometry":{"type":"Polygon","coordinates":[[[-58.516903,-34.34579],[-58.514791,-34.343494],[-58.514775,-34.343716],[-58.516687,-34.345945],[-58.516903,-34.34579]]]}},{"type":"Feature","properties":{"partida":"357013795","cca":"357000100000000000000065000000000000052000","tipo":"Rural","sup_m2":38419.9},"geometry":{"type":"Polygon","coordinates":[[[-58.516687,-34.345945],[-58.514775,-34.343716],[-58.51452,-34.347353],[-58.516687,-34.345945]]]}},{"type":"Feature","properties":{"partida":"357019520","cca":"357000100000000000000065000A000000000250AB","tipo":"Urbano","sup_m2":2162.8},"geometry":{"type":"Polygon","coordinates":[[[-58.513095,-34.347332],[-58.512877,-34.347467],[-58.51344,-34.348096],[-58.513652,-34.347955],[-58.513095,-34.347332]]]}},{"type":"Feature","properties":{"partida":"357019521","cca":"357000100000000000000065000A000000000250AC","tipo":"Urbano","sup_m2":2174.9},"geometry":{"type":"Polygon","coordinates":[[[-58.513095,-34.347332],[-58.513652,-34.347955],[-58.513883,-34.347835],[-58.513313,-34.347198],[-58.513095,-34.347332]]]}},{"type":"Feature","properties":{"partida":"357019522","cca":"357000100000000000000065000A000000000250AD","tipo":"Urbano","sup_m2":2224.9},"geometry":{"type":"Polygon","coordinates":[[[-58.513531,-34.347064],[-58.513313,-34.347198],[-58.513883,-34.347835],[-58.514114,-34.347715],[-58.513531,-34.347064]]]}},{"type":"Feature","properties":{"partida":"357019523","cca":"357000100000000000000065000A000000000250AE","tipo":"Urbano","sup_m2":3250.4},"geometry":{"type":"Polygon","coordinates":[[[-58.513531,-34.347064],[-58.514114,-34.347715],[-58.51431,-34.347611],[-58.513967,-34.346795],[-58.513531,-34.347064]]]}},{"type":"Feature","properties":{"partida":"357019524","cca":"357000100000000000000065000A000000000250AF","tipo":"Urbano","sup_m2":4382.9},"geometry":{"type":"Polygon","coordinates":[[[-58.513967,-34.346795],[-58.51431,-34.347611],[-58.514504,-34.347578],[-58.514586,-34.346414],[-58.513967,-34.346795]]]}},{"type":"Feature","properties":{"partida":"357018532","cca":"35700010000000000000006600000000000001400C","tipo":"Urbano","sup_m2":6089.1},"geometry":{"type":"Polygon","coordinates":[[[-58.536561,-34.344589],[-58.533679,-34.343915],[-58.533608,-34.344141],[-58.536525,-34.34475],[-58.536561,-34.344589]]]}},{"type":"Feature","properties":{"partida":"357018533","cca":"35700010000000000000006600000000000001400D","tipo":"Urbano","sup_m2":6615.4},"geometry":{"type":"Polygon","coordinates":[[[-58.536525,-34.34475],[-58.533608,-34.344141],[-58.533555,-34.34436],[-58.536484,-34.344955],[-58.536525,-34.34475]]]}},{"type":"Feature","properties":{"partida":"357018534","cca":"35700010000000000000006600000000000001400E","tipo":"Urbano","sup_m2":5717.3},"geometry":{"type":"Polygon","coordinates":[[[-58.536484,-34.344955],[-58.533555,-34.34436],[-58.533494,-34.344558],[-58.536376,-34.345109],[-58.536484,-34.344955]]]}},{"type":"Feature","properties":{"partida":"357018535","cca":"35700010000000000000006600000000000001400F","tipo":"Urbano","sup_m2":6518.9},"geometry":{"type":"Polygon","coordinates":[[[-58.536376,-34.345109],[-58.533494,-34.344558],[-58.533442,-34.344763],[-58.536342,-34.345329],[-58.536376,-34.345109]]]}},{"type":"Feature","properties":{"partida":null,"cca":"35700010000000000000006600000000000001400G","tipo":null,"sup_m2":7010.3},"geometry":{"type":"Polygon","coordinates":[[[-58.536342,-34.345329],[-58.533442,-34.344763],[-58.533363,-34.344975],[-58.534463,-34.345202],[-58.536205,-34.345548],[-58.536342,-34.345329]]]}},{"type":"Feature","properties":{"partida":"357018538","cca":"35700010000000000000006600000000000001400M","tipo":"Urbano","sup_m2":11303.7},"geometry":{"type":"Polygon","coordinates":[[[-58.528921,-34.342842],[-58.528876,-34.343056],[-58.533608,-34.344141],[-58.533679,-34.343915],[-58.528921,-34.342842]]]}},{"type":"Feature","properties":{"partida":"357018539","cca":"35700010000000000000006600000000000001400N","tipo":"Urbano","sup_m2":11395.9},"geometry":{"type":"Polygon","coordinates":[[[-58.528876,-34.343056],[-58.528837,-34.343229],[-58.528835,-34.343287],[-58.533555,-34.34436],[-58.533608,-34.344141],[-58.528876,-34.343056]]]}},{"type":"Feature","properties":{"partida":"357018540","cca":"35700010000000000000006600000000000001400R","tipo":"Urbano","sup_m2":10180.5},"geometry":{"type":"Polygon","coordinates":[[[-58.528835,-34.343287],[-58.52879,-34.343489],[-58.533494,-34.344558],[-58.533555,-34.34436],[-58.528835,-34.343287]]]}},{"type":"Feature","properties":{"partida":"357018541","cca":"35700010000000000000006600000000000001400S","tipo":"Urbano","sup_m2":10357.1},"geometry":{"type":"Polygon","coordinates":[[[-58.52879,-34.343489],[-58.528749,-34.343656],[-58.528747,-34.343693],[-58.533442,-34.344763],[-58.533494,-34.344558],[-58.52879,-34.343489]]]}},{"type":"Feature","properties":{"partida":"357018542","cca":"35700010000000000000006600000000000001400T","tipo":"Urbano","sup_m2":11111.6},"geometry":{"type":"Polygon","coordinates":[[[-58.528747,-34.343693],[-58.528706,-34.343876],[-58.528699,-34.343918],[-58.533363,-34.344975],[-58.533442,-34.344763],[-58.528747,-34.343693]]]}},{"type":"Feature","properties":{"partida":"357014475","cca":"35700010000000000000006600000000000001500D","tipo":"Urbano","sup_m2":39703.2},"geometry":{"type":"Polygon","coordinates":[[[-58.528699,-34.343918],[-58.528566,-34.344558],[-58.533167,-34.345606],[-58.534315,-34.345865],[-58.534417,-34.34544],[-58.534463,-34.345202],[-58.533363,-34.344975],[-58.528699,-34.343918]]]}},{"type":"Feature","properties":{"partida":"357014476","cca":"35700010000000000000006600000000000001600A","tipo":"Urbano","sup_m2":6986.7},"geometry":{"type":"Polygon","coordinates":[[[-58.535939,-34.346482],[-58.536008,-34.346229],[-58.534315,-34.345865],[-58.533167,-34.345606],[-58.53311,-34.345814],[-58.535939,-34.346482]]]}},{"type":"Feature","properties":{"partida":"357014477","cca":"35700010000000000000006600000000000001600B","tipo":"Urbano","sup_m2":10310.5},"geometry":{"type":"Polygon","coordinates":[[[-58.53311,-34.345814],[-58.533167,-34.345606],[-58.528566,-34.344558],[-58.528524,-34.344731],[-58.528524,-34.344767],[-58.53311,-34.345814]]]}},{"type":"Feature","properties":{"partida":"357014478","cca":"35700010000000000000006600000000000001700A","tipo":"Urbano","sup_m2":5385.2},"geometry":{"type":"Polygon","coordinates":[[[-58.535896,-34.34663],[-58.535939,-34.346482],[-58.53311,-34.345814],[-58.533046,-34.346013],[-58.535896,-34.34663]]]}},{"type":"Feature","properties":{"partida":"357014479","cca":"35700010000000000000006600000000000001700B","tipo":"Urbano","sup_m2":9993.5},"geometry":{"type":"Polygon","coordinates":[[[-58.53311,-34.345814],[-58.528524,-34.344767],[-58.528479,-34.344971],[-58.533046,-34.346013],[-58.53311,-34.345814]]]}},{"type":"Feature","properties":{"partida":"357014480","cca":"35700010000000000000006600000000000001800A","tipo":"Urbano","sup_m2":7127.0},"geometry":{"type":"Polygon","coordinates":[[[-58.53581,-34.346858],[-58.535896,-34.34663],[-58.533046,-34.346013],[-58.532976,-34.346242],[-58.53581,-34.346858]]]}},{"type":"Feature","properties":{"partida":"357014481","cca":"35700010000000000000006600000000000001800B","tipo":"Urbano","sup_m2":11258.8},"geometry":{"type":"Polygon","coordinates":[[[-58.533046,-34.346013],[-58.528479,-34.344971],[-58.528431,-34.345198],[-58.532976,-34.346242],[-58.533046,-34.346013]]]}},{"type":"Feature","properties":{"partida":"357014482","cca":"35700010000000000000006600000000000001900A","tipo":"Urbano","sup_m2":6689.0},"geometry":{"type":"Polygon","coordinates":[[[-58.53581,-34.346858],[-58.532976,-34.346242],[-58.532916,-34.346457],[-58.535744,-34.347078],[-58.53581,-34.346858]]]}},{"type":"Feature","properties":{"partida":"357014483","cca":"35700010000000000000006600000000000001900B","tipo":"Urbano","sup_m2":10793.1},"geometry":{"type":"Polygon","coordinates":[[[-58.532976,-34.346242],[-58.528431,-34.345198],[-58.528386,-34.345425],[-58.532916,-34.346457],[-58.532976,-34.346242]]]}},{"type":"Feature","properties":{"partida":"357014484","cca":"35700010000000000000006600000000000002000A","tipo":"Urbano","sup_m2":5933.5},"geometry":{"type":"Polygon","coordinates":[[[-58.533493,-34.346801],[-58.533559,-34.346789],[-58.533796,-34.346806],[-58.533998,-34.346882],[-58.534111,-34.346944],[-58.535683,-34.347261],[-58.535744,-34.347078],[-58.532916,-34.346457],[-58.532849,-34.34666],[-58.533493,-34.346801]]]}},{"type":"Feature","properties":{"partida":"357014485","cca":"35700010000000000000006600000000000002000B","tipo":"Urbano","sup_m2":9972.7},"geometry":{"type":"Polygon","coordinates":[[[-58.532849,-34.34666],[-58.532916,-34.346457],[-58.528386,-34.345425],[-58.528346,-34.345588],[-58.528342,-34.345629],[-58.532849,-34.34666]]]}},{"type":"Feature","properties":{"partida":"357014486","cca":"35700010000000000000006600000000000002100A","tipo":"Urbano","sup_m2":4388.0},"geometry":{"type":"MultiPolygon","coordinates":[[[[-58.534146,-34.347175],[-58.534026,-34.347107],[-58.533832,-34.347048],[-58.533528,-34.346974],[-58.533362,-34.346988],[-58.533356,-34.346992],[-58.534146,-34.347175]]],[[[-58.532779,-34.346863],[-58.533115,-34.346936],[-58.533232,-34.34688],[-58.533405,-34.346818],[-58.533493,-34.346801],[-58.532849,-34.34666],[-58.532779,-34.346863]]],[[[-58.534111,-34.346944],[-58.534267,-34.347032],[-58.534497,-34.34721],[-58.534545,-34.347268],[-58.535578,-34.347466],[-58.535683,-34.347261],[-58.534111,-34.346944]]]]}},{"type":"Feature","properties":{"partida":"357014487","cca":"35700010000000000000006600000000000002100B","tipo":"Urbano","sup_m2":10120.2},"geometry":{"type":"Polygon","coordinates":[[[-58.532849,-34.34666],[-58.528342,-34.345629],[-58.528301,-34.345806],[-58.528302,-34.345842],[-58.532779,-34.346863],[-58.532849,-34.34666]]]}},{"type":"Feature","properties":{"partida":"357014489","cca":"35700010000000000000006600000000000002200B","tipo":"Urbano","sup_m2":10093.3},"geometry":{"type":"Polygon","coordinates":[[[-58.532719,-34.347068],[-58.532779,-34.346863],[-58.528302,-34.345842],[-58.528257,-34.346023],[-58.528254,-34.346054],[-58.532719,-34.347068]]]}},{"type":"Feature","properties":{"partida":"357014490","cca":"35700010000000000000006600000000000002300A","tipo":"Urbano","sup_m2":5561.3},"geometry":{"type":"MultiPolygon","coordinates":[[[[-58.535373,-34.347897],[-58.535038,-34.347733],[-58.534912,-34.347665],[-58.534717,-34.34758],[-58.534472,-34.347464],[-58.533048,-34.347147],[-58.532881,-34.347194],[-58.532677,-34.347207],[-58.53266,-34.347287],[-58.535373,-34.347897]]],[[[-58.53477,-34.347511],[-58.534838,-34.347552],[-58.535034,-34.347638],[-58.535241,-34.34776],[-58.535467,-34.347803],[-58.535501,-34.347697],[-58.53477,-34.347511]]]]}},{"type":"Feature","properties":{"partida":"357014491","cca":"35700010000000000000006600000000000002300B","tipo":"Urbano","sup_m2":9691.8},"geometry":{"type":"MultiPolygon","coordinates":[[[[-58.532296,-34.347208],[-58.53266,-34.347287],[-58.532677,-34.347207],[-58.53247,-34.347213],[-58.532296,-34.347208]]],[[[-58.532719,-34.347068],[-58.528254,-34.346054],[-58.528207,-34.346281],[-58.530333,-34.346756],[-58.530254,-34.346697],[-58.530182,-34.346689],[-58.529871,-34.346513],[-58.530207,-34.34666],[-58.530278,-34.346677],[-58.530444,-34.346784],[-58.531834,-34.3471],[-58.531999,-34.347088],[-58.532489,-34.347093],[-58.532675,-34.347082],[-58.532719,-34.347068]]]]}},{"type":"Feature","properties":{"partida":"357014492","cca":"35700010000000000000006600000000000002400A","tipo":"Urbano","sup_m2":6205.9},"geometry":{"type":"Polygon","coordinates":[[[-58.53538,-34.34812],[-58.535386,-34.347963],[-58.535373,-34.347897],[-58.53266,-34.347287],[-58.532596,-34.347493],[-58.53538,-34.34812]]]}},{"type":"Feature","properties":{"partida":"357014493","cca":"35700010000000000000006600000000000002400B","tipo":"Urbano","sup_m2":8484.1},"geometry":{"type":"MultiPolygon","coordinates":[[[[-58.530444,-34.346784],[-58.530729,-34.346948],[-58.531173,-34.34713],[-58.531343,-34.347156],[-58.531473,-34.347163],[-58.531758,-34.347118],[-58.531834,-34.3471],[-58.530444,-34.346784]]],[[[-58.531625,-34.347276],[-58.532596,-34.347493],[-58.53266,-34.347287],[-58.532296,-34.347208],[-58.532085,-34.347211],[-58.531899,-34.347224],[-58.531676,-34.347262],[-58.531625,-34.347276]]],[[[-58.530333,-34.346756],[-58.528207,-34.346281],[-58.528172,-34.346449],[-58.528167,-34.346491],[-58.530503,-34.347015],[-58.530685,-34.347006],[-58.530707,-34.346976],[-58.530604,-34.34691],[-58.530443,-34.346828],[-58.530333,-34.346756]]]]}},{"type":"Feature","properties":{"partida":"357014494","cca":"35700010000000000000006600000000000002500A","tipo":"Urbano","sup_m2":5719.3},"geometry":{"type":"Polygon","coordinates":[[[-58.535362,-34.348302],[-58.53538,-34.34812],[-58.532596,-34.347493],[-58.532533,-34.347692],[-58.535362,-34.348302]]]}},{"type":"Feature","properties":{"partida":"357014495","cca":"35700010000000000000006600000000000002500B","tipo":"Urbano","sup_m2":8309.6},"geometry":{"type":"MultiPolygon","coordinates":[[[[-58.530503,-34.347015],[-58.528167,-34.346491],[-58.528124,-34.346655],[-58.528122,-34.3467],[-58.530095,-34.347133],[-58.530212,-34.347076],[-58.530396,-34.347031],[-58.530503,-34.347015]]],[[[-58.530484,-34.347231],[-58.532533,-34.347692],[-58.532596,-34.347493],[-58.531625,-34.347276],[-58.531523,-34.347295],[-58.531436,-34.347302],[-58.531286,-34.347278],[-58.531179,-34.347239],[-58.531015,-34.347192],[-58.530846,-34.347157],[-58.530723,-34.347141],[-58.53062,-34.347163],[-58.530533,-34.347202],[-58.530484,-34.347231]]]]}},{"type":"Feature","properties":{"partida":"357014496","cca":"35700010000000000000006600000000000002600A","tipo":"Urbano","sup_m2":7401.4},"geometry":{"type":"Polygon","coordinates":[[[-58.532533,-34.347692],[-58.532452,-34.347932],[-58.53541,-34.348556],[-58.535362,-34.348302],[-58.532533,-34.347692]]]}},{"type":"Feature","properties":{"partida":"357014497","cca":"35700010000000000000006600000000000002600B","tipo":"Urbano","sup_m2":9823.9},"geometry":{"type":"MultiPolygon","coordinates":[[[[-58.530095,-34.347133],[-58.528122,-34.3467],[-58.528075,-34.346919],[-58.528522,-34.347007],[-58.528568,-34.347025],[-58.529712,-34.347288],[-58.529821,-34.347269],[-58.529989,-34.347195],[-58.530095,-34.347133]]],[[[-58.530353,-34.34743],[-58.530327,-34.34733],[-58.53027,-34.347309],[-58.530154,-34.347305],[-58.529933,-34.347324],[-58.529898,-34.347332],[-58.530353,-34.34743]]],[[[-58.530484,-34.347231],[-58.530437,-34.347264],[-58.530408,-34.347336],[-58.530397,-34.347407],[-58.530405,-34.347446],[-58.532452,-34.347932],[-58.532533,-34.347692],[-58.530484,-34.347231]]]]}},{"type":"Feature","properties":{"partida":"357014498","cca":"35700010000000000000006600000000000002700A","tipo":"Urbano","sup_m2":19702.4},"geometry":{"type":"Polygon","coordinates":[[[-58.53541,-34.348556],[-58.532452,-34.347932],[-58.532101,-34.349048],[-58.532258,-34.349041],[-58.532948,-34.348862],[-58.535459,-34.348759],[-58.53541,-34.348556]]]}},{"type":"Feature","properties":{"partida":"357014499","cca":"35700010000000000000006600000000000002700B","tipo":"Urbano","sup_m2":80340.3},"geometry":{"type":"MultiPolygon","coordinates":[[[[-58.529712,-34.347288],[-58.528568,-34.347025],[-58.528607,-34.347071],[-58.528703,-34.347171],[-58.528809,-34.347268],[-58.529008,-34.347399],[-58.529091,-34.347447],[-58.529238,-34.347455],[-58.529398,-34.347418],[-58.529474,-34.347392],[-58.52959,-34.34733],[-58.529712,-34.347288]]],[[[-58.527599,-34.349369],[-58.528067,-34.349343],[-58.530025,-34.349134],[-58.532101,-34.349048],[-58.532452,-34.347932],[-58.530405,-34.347446],[-58.530485,-34.347708],[-58.530544,-34.347944],[-58.530544,-34.348112],[-58.530506,-34.347929],[-58.530464,-34.347974],[-58.530367,-34.348048],[-58.530467,-34.347915],[-58.530478,-34.347857],[-58.530423,-34.347687],[-58.53036,-34.347516],[-58.530353,-34.34743],[-58.529898,-34.347332],[-58.529685,-34.34738],[-58.529539,-34.347429],[-58.529464,-34.347475],[-58.529152,-34.347535],[-58.529008,-34.34763],[-58.528962,-34.347718],[-58.528922,-34.347816],[-58.528857,-34.34794],[-58.528816,-34.34799],[-58.528835,-34.347923],[-58.528889,-34.347838],[-58.528921,-34.347727],[-58.528956,-34.347651],[-58.529001,-34.347589],[-58.529065,-34.347556],[-58.529082,-34.347508],[-58.529024,-34.347442],[-58.528803,-34.347297],[-58.528688,-34.347181],[-58.528603,-34.347105],[-58.528522,-34.347007],[-58.528075,-34.346919],[-58.528005,-34.347305],[-58.527962,-34.347517],[-58.527907,-34.347741],[-58.527869,-34.347953],[-58.527814,-34.348168],[-58.527771,-34.348378],[-58.527736,-34.3486],[-58.527694,-34.348809],[-58.527599,-34.349369]]]]}},{"type":"Feature","properties":{"partida":"357014512","cca":"357000100000000000000066000000000000038000","tipo":"Urbano","sup_m2":7431.4},"geometry":{"type":"Polygon","coordinates":[[[-58.525621,-34.343737],[-58.528749,-34.343656],[-58.528799,-34.343444],[-58.525627,-34.343486],[-58.525621,-34.343737]]]}},{"type":"Feature","properties":{"partida":"357014513","cca":"357000100000000000000066000000000000039000","tipo":"Urbano","sup_m2":7099.9},"geometry":{"type":"Polygon","coordinates":[[[-58.525383,-34.343956],[-58.528706,-34.343876],[-58.528747,-34.343693],[-58.528749,-34.343656],[-58.525621,-34.343737],[-58.525383,-34.343956]]]}},{"type":"Feature","properties":{"partida":"357014514","cca":"357000100000000000000066000000000000040000","tipo":"Urbano","sup_m2":6993.5},"geometry":{"type":"Polygon","coordinates":[[[-58.528706,-34.343876],[-58.525383,-34.343956],[-58.525372,-34.34416],[-58.528665,-34.344086],[-58.528706,-34.343876]]]}},{"type":"Feature","properties":{"partida":"357014515","cca":"357000100000000000000066000000000000041000","tipo":"Urbano","sup_m2":7353.5},"geometry":{"type":"Polygon","coordinates":[[[-58.525301,-34.344377],[-58.528621,-34.344302],[-58.528665,-34.344086],[-58.525372,-34.34416],[-58.525275,-34.344222],[-58.525301,-34.344377]]]}},{"type":"Feature","properties":{"partida":"357014516","cca":"357000100000000000000066000000000000042000","tipo":"Urbano","sup_m2":7164.8},"geometry":{"type":"Polygon","coordinates":[[[-58.525222,-34.344592],[-58.528578,-34.344511],[-58.528621,-34.344302],[-58.525301,-34.344377],[-58.525222,-34.344592]]]}},{"type":"Feature","properties":{"partida":"357014517","cca":"357000100000000000000066000000000000043000","tipo":"Urbano","sup_m2":7647.5},"geometry":{"type":"Polygon","coordinates":[[[-58.525111,-34.344819],[-58.528524,-34.344731],[-58.528578,-34.344511],[-58.525222,-34.344592],[-58.525111,-34.344819]]]}},{"type":"Feature","properties":{"partida":"357014518","cca":"357000100000000000000066000000000000044000","tipo":"Urbano","sup_m2":6933.4},"geometry":{"type":"Polygon","coordinates":[[[-58.525214,-34.345018],[-58.528486,-34.344936],[-58.528524,-34.344767],[-58.528524,-34.344731],[-58.525111,-34.344819],[-58.525214,-34.345018]]]}},{"type":"Feature","properties":{"partida":"357014519","cca":"357000100000000000000066000000000000045000","tipo":"Urbano","sup_m2":8031.2},"geometry":{"type":"Polygon","coordinates":[[[-58.524947,-34.345259],[-58.528438,-34.345168],[-58.528486,-34.344936],[-58.525214,-34.345018],[-58.524947,-34.345259]]]}},{"type":"Feature","properties":{"partida":"357014520","cca":"357000100000000000000066000000000000046000","tipo":"Urbano","sup_m2":7558.5},"geometry":{"type":"Polygon","coordinates":[[[-58.5249,-34.345479],[-58.528394,-34.345375],[-58.528438,-34.345168],[-58.524947,-34.345259],[-58.5249,-34.345479]]]}},{"type":"Feature","properties":{"partida":"357014521","cca":"357000100000000000000066000000000000047000","tipo":"Urbano","sup_m2":7328.6},"geometry":{"type":"Polygon","coordinates":[[[-58.524814,-34.345678],[-58.528346,-34.345588],[-58.528386,-34.345425],[-58.528394,-34.345375],[-58.5249,-34.345479],[-58.524814,-34.345678]]]}},{"type":"Feature","properties":{"partida":"357014522","cca":"357000100000000000000066000000000000048000","tipo":"Urbano","sup_m2":7522.1},"geometry":{"type":"Polygon","coordinates":[[[-58.52475,-34.345877],[-58.528301,-34.345806],[-58.528342,-34.345629],[-58.528346,-34.345588],[-58.524814,-34.345678],[-58.52475,-34.345877]]]}},{"type":"Feature","properties":{"partida":"357014523","cca":"357000100000000000000066000000000000049000","tipo":"Urbano","sup_m2":7985.6},"geometry":{"type":"Polygon","coordinates":[[[-58.524598,-34.346099],[-58.528257,-34.346023],[-58.528302,-34.345842],[-58.528301,-34.345806],[-58.52475,-34.345877],[-58.524598,-34.346099]]]}},{"type":"Feature","properties":{"partida":null,"cca":"357000100000000000000066000000000000050000","tipo":null,"sup_m2":8359.1},"geometry":{"type":"Polygon","coordinates":[[[-58.524484,-34.346329],[-58.528217,-34.346238],[-58.528254,-34.346054],[-58.528257,-34.346023],[-58.524598,-34.346099],[-58.524484,-34.346329]]]}},{"type":"Feature","properties":{"partida":null,"cca":"357000100000000000000066000000000000051000","tipo":null,"sup_m2":7958.4},"geometry":{"type":"Polygon","coordinates":[[[-58.524436,-34.346538],[-58.528172,-34.346449],[-58.528217,-34.346238],[-58.524484,-34.346329],[-58.524436,-34.346538]]]}},{"type":"Feature","properties":{"partida":"357014526","cca":"357000100000000000000066000000000000052000","tipo":"Urbano","sup_m2":7803.5},"geometry":{"type":"Polygon","coordinates":[[[-58.524339,-34.346742],[-58.528124,-34.346655],[-58.528167,-34.346491],[-58.528172,-34.346449],[-58.524436,-34.346538],[-58.524339,-34.346742]]]}},{"type":"Feature","properties":{"partida":"357014527","cca":"357000100000000000000066000000000000053000","tipo":"Urbano","sup_m2":8368.3},"geometry":{"type":"Polygon","coordinates":[[[-58.524339,-34.346742],[-58.524342,-34.346961],[-58.528085,-34.346872],[-58.528122,-34.3467],[-58.528124,-34.346655],[-58.524339,-34.346742]]]}},{"type":"Feature","properties":{"partida":"357014528","cca":"357000100000000000000066000000000000054000","tipo":"Urbano","sup_m2":7953.2},"geometry":{"type":"Polygon","coordinates":[[[-58.524293,-34.347167],[-58.525089,-34.347152],[-58.528047,-34.347081],[-58.528085,-34.346872],[-58.524342,-34.346961],[-58.524293,-34.347167]]]}},{"type":"Feature","properties":{"partida":"357014529","cca":"357000100000000000000066000000000000055000","tipo":"Urbano","sup_m2":8475.9},"geometry":{"type":"Polygon","coordinates":[[[-58.524293,-34.347167],[-58.524232,-34.347391],[-58.524987,-34.347372],[-58.528005,-34.347305],[-58.528047,-34.347081],[-58.525089,-34.347152],[-58.524293,-34.347167]]]}},{"type":"Feature","properties":{"partida":"357014530","cca":"357000100000000000000066000000000000056000","tipo":"Urbano","sup_m2":8218.7},"geometry":{"type":"Polygon","coordinates":[[[-58.524138,-34.347615],[-58.524974,-34.347583],[-58.527962,-34.347517],[-58.528005,-34.347305],[-58.524987,-34.347372],[-58.524232,-34.347391],[-58.524138,-34.347615]]]}},{"type":"Feature","properties":{"partida":"357014531","cca":"357000100000000000000066000000000000057000","tipo":"Urbano","sup_m2":8882.0},"geometry":{"type":"Polygon","coordinates":[[[-58.524138,-34.347615],[-58.52401,-34.347829],[-58.524896,-34.347815],[-58.527907,-34.347741],[-58.527962,-34.347517],[-58.524974,-34.347583],[-58.524138,-34.347615]]]}},{"type":"Feature","properties":{"partida":null,"cca":"357000100000000000000066000000000000058000","tipo":null,"sup_m2":8337.9},"geometry":{"type":"Polygon","coordinates":[[[-58.523944,-34.348049],[-58.524726,-34.348024],[-58.527869,-34.347953],[-58.527907,-34.347741],[-58.524896,-34.347815],[-58.52401,-34.347829],[-58.523944,-34.348049]]]}},{"type":"Feature","properties":{"partida":"357014533","cca":"357000100000000000000066000000000000059000","tipo":"Urbano","sup_m2":8336.4},"geometry":{"type":"Polygon","coordinates":[[[-58.523944,-34.348049],[-58.524066,-34.348251],[-58.527814,-34.348168],[-58.527869,-34.347953],[-58.524726,-34.348024],[-58.523944,-34.348049]]]}},{"type":"Feature","properties":{"partida":"357014534","cca":"357000100000000000000066000000000000060000","tipo":"Urbano","sup_m2":8203.8},"geometry":{"type":"Polygon","coordinates":[[[-58.523891,-34.348477],[-58.524502,-34.348453],[-58.527771,-34.348378],[-58.527814,-34.348168],[-58.524066,-34.348251],[-58.523891,-34.348477]]]}},{"type":"Feature","properties":{"partida":"357014535","cca":"357000100000000000000066000000000000061000","tipo":"Urbano","sup_m2":8569.9},"geometry":{"type":"Polygon","coordinates":[[[-58.523891,-34.348477],[-58.523802,-34.348686],[-58.524464,-34.348665],[-58.527736,-34.3486],[-58.527771,-34.348378],[-58.524502,-34.348453],[-58.523891,-34.348477]]]}},{"type":"Feature","properties":{"partida":"357014536","cca":"357000100000000000000066000000000000062000","tipo":"Urbano","sup_m2":8945.7},"geometry":{"type":"Polygon","coordinates":[[[-58.52361,-34.34891],[-58.524459,-34.348892],[-58.527694,-34.348809],[-58.527736,-34.3486],[-58.524464,-34.348665],[-58.523802,-34.348686],[-58.52361,-34.34891]]]}},{"type":"Feature","properties":{"partida":"357014537","cca":"357000100000000000000066000000000000063000","tipo":"Urbano","sup_m2":24794.8},"geometry":{"type":"Polygon","coordinates":[[[-58.52361,-34.34891],[-58.523486,-34.34923],[-58.523458,-34.349413],[-58.523463,-34.34964],[-58.524873,-34.349432],[-58.527116,-34.349396],[-58.527599,-34.349369],[-58.527694,-34.348809],[-58.524459,-34.348892],[-58.52361,-34.34891]]]}},{"type":"Feature","properties":{"partida":"357014538","cca":"35700010000000000000006600000000000006400A","tipo":"Urbano","sup_m2":5166.9},"geometry":{"type":"Polygon","coordinates":[[[-58.524873,-34.349432],[-58.523463,-34.34964],[-58.523455,-34.350089],[-58.52397,-34.35007],[-58.524079,-34.350068],[-58.524873,-34.349432]]]}},{"type":"Feature","properties":{"partida":"357014539","cca":"35700010000000000000006600000000000006400B","tipo":"Urbano","sup_m2":1203.6},"geometry":{"type":"Polygon","coordinates":[[[-58.523455,-34.350089],[-58.5236,-34.350479],[-58.523886,-34.350209],[-58.524079,-34.350068],[-58.52397,-34.35007],[-58.523455,-34.350089]]]}},{"type":"Feature","properties":{"partida":null,"cca":"357000100000000000000066300000000000000000","tipo":null,"sup_m2":807632.0},"geometry":{"type":"Polygon","coordinates":[[[-58.535459,-34.348759],[-58.532948,-34.348862],[-58.532258,-34.349041],[-58.530025,-34.349134],[-58.528067,-34.349343],[-58.527116,-34.349396],[-58.524873,-34.349432],[-58.524079,-34.350068],[-58.523886,-34.350209],[-58.5236,-34.350479],[-58.524354,-34.351612],[-58.524873,-34.352408],[-58.526177,-34.354707],[-58.526638,-34.355717],[-58.526627,-34.356085],[-58.526785,-34.356438],[-58.526694,-34.356678],[-58.526806,-34.356911],[-58.52706,-34.356965],[-58.527077,-34.357011],[-58.526853,-34.357046],[-58.526991,-34.357401],[-58.527244,-34.357825],[-58.528061,-34.357723],[-58.52995,-34.35748],[-58.530337,-34.357266],[-58.53093,-34.357177],[-58.531605,-34.356959],[-58.531911,-34.356793],[-58.532355,-34.356385],[-58.533102,-34.355864],[-58.533356,-34.355812],[-58.533548,-34.355843],[-58.5339,-34.355992],[-58.533973,-34.356091],[-58.534009,-34.35636],[-58.534118,-34.356483],[-58.534787,-34.356717],[-58.534877,-34.356451],[-58.53537,-34.355378],[-58.535533,-34.354341],[-58.535497,-34.352937],[-58.53542,-34.352093],[-58.535442,-34.350368],[-58.535459,-34.348759]]]}},{"type":"Feature","properties":{"partida":"357014762","cca":"35700010000000000000006640000000000000100B","tipo":"Urbano","sup_m2":2958.5},"geometry":{"type":"Polygon","coordinates":[[[-58.520941,-34.34603],[-58.52043,-34.345401],[-58.520248,-34.345152],[-58.519975,-34.34528],[-58.520869,-34.346247],[-58.520941,-34.34603]]]}},{"type":"Feature","properties":{"partida":"357014763","cca":"35700010000000000000006640000000000000100C","tipo":"Urbano","sup_m2":3128.8},"geometry":{"type":"Polygon","coordinates":[[[-58.519764,-34.345403],[-58.520799,-34.346464],[-58.520869,-34.346247],[-58.519975,-34.34528],[-58.519764,-34.345403]]]}},{"type":"Feature","properties":{"partida":"357014764","cca":"35700010000000000000006640000000000000100D","tipo":"Urbano","sup_m2":3788.8},"geometry":{"type":"Polygon","coordinates":[[[-58.520799,-34.346464],[-58.519764,-34.345403],[-58.519558,-34.345554],[-58.52016,-34.346157],[-58.520723,-34.346687],[-58.520799,-34.346464]]]}},{"type":"Feature","properties":{"partida":null,"cca":"35700010000000000000006640000000000000100E","tipo":null,"sup_m2":3840.9},"geometry":{"type":"Polygon","coordinates":[[[-58.520799,-34.346464],[-58.520723,-34.346687],[-58.522296,-34.347041],[-58.522375,-34.346822],[-58.520799,-34.346464]]]}},{"type":"Feature","properties":{"partida":"357014766","cca":"35700010000000000000006640000000000000100F","tipo":"Urbano","sup_m2":3732.7},"geometry":{"type":"Polygon","coordinates":[[[-58.520869,-34.346247],[-58.520799,-34.346464],[-58.522375,-34.346822],[-58.522449,-34.346608],[-58.520869,-34.346247]]]}},{"type":"Feature","properties":{"partida":"357014767","cca":"35700010000000000000006640000000000000100G","tipo":"Urbano","sup_m2":3787.8},"geometry":{"type":"Polygon","coordinates":[[[-58.520869,-34.346247],[-58.522449,-34.346608],[-58.522522,-34.346389],[-58.520941,-34.34603],[-58.520869,-34.346247]]]}},{"type":"Feature","properties":{"partida":null,"cca":"35700010000000000000006640000000000000100H","tipo":null,"sup_m2":52977.0},"geometry":{"type":"Polygon","coordinates":[[[-58.521075,-34.344692],[-58.521079,-34.345294],[-58.520543,-34.345541],[-58.520941,-34.34603],[-58.522522,-34.346389],[-58.522953,-34.34648],[-58.523466,-34.34452],[-58.523326,-34.343383],[-58.521075,-34.344692]]]}},{"type":"Feature","properties":{"partida":"357018527","cca":"35700010000000000000006640000000000000100M","tipo":"Urbano","sup_m2":1878.0},"geometry":{"type":"Polygon","coordinates":[[[-58.521075,-34.344692],[-58.521071,-34.344609],[-58.520612,-34.344936],[-58.520992,-34.345333],[-58.521079,-34.345294],[-58.521075,-34.344692]]]}},{"type":"Feature","properties":{"partida":"357018528","cca":"35700010000000000000006640000000000000100N","tipo":"Urbano","sup_m2":1147.0},"geometry":{"type":"Polygon","coordinates":[[[-58.520612,-34.344936],[-58.520419,-34.345038],[-58.520798,-34.345424],[-58.520992,-34.345333],[-58.520612,-34.344936]]]}},{"type":"Feature","properties":{"partida":"357018529","cca":"35700010000000000000006640000000000000100P","tipo":"Urbano","sup_m2":1253.4},"geometry":{"type":"Polygon","coordinates":[[[-58.520248,-34.345152],[-58.52043,-34.345401],[-58.520543,-34.345541],[-58.520798,-34.345424],[-58.520419,-34.345038],[-58.520248,-34.345152]]]}},{"type":"Feature","properties":{"partida":"357014768","cca":"357000100000000000000066400000000000002000","tipo":"Rural","sup_m2":988837.1},"geometry":{"type":"Polygon","coordinates":[[[-58.511449,-34.361706],[-58.519404,-34.35728],[-58.519318,-34.350925],[-58.515977,-34.34773],[-58.514202,-34.348962],[-58.511429,-34.351256],[-58.509683,-34.352877],[-58.508614,-34.354682],[-58.508467,-34.356433],[-58.508352,-34.358498],[-58.509369,-34.358373],[-58.509912,-34.357799],[-58.510281,-34.35775],[-58.510864,-34.358068],[-58.510975,-34.358406],[-58.511449,-34.361706]]]}},{"type":"Feature","properties":{"partida":"357014769","cca":"357000100000000000000066400000000000003000","tipo":"Rural","sup_m2":530470.2},"geometry":{"type":"Polygon","coordinates":[[[-58.519404,-34.35728],[-58.519039,-34.361634],[-58.52405,-34.361065],[-58.524173,-34.360313],[-58.524194,-34.360273],[-58.52473,-34.358438],[-58.524846,-34.357755],[-58.5248,-34.357635],[-58.524773,-34.356523],[-58.52465,-34.355598],[-58.523944,-34.35478],[-58.523421,-34.354095],[-58.522854,-34.353279],[-58.521812,-34.351765],[-58.521683,-34.350432],[-58.521857,-34.349709],[-58.521977,-34.349104],[-58.52216,-34.348664],[-58.522242,-34.34842],[-58.522354,-34.34824],[-58.52252,-34.347936],[-58.522643,-34.347351],[-58.522806,-34.346797],[-58.522953,-34.34648],[-58.522522,-34.346389],[-58.522375,-34.346822],[-58.522296,-34.347041],[-58.522222,-34.347269],[-58.522073,-34.347706],[-58.522007,-34.347921],[-58.521929,-34.348141],[-58.52186,-34.348362],[-58.521639,-34.349008],[-58.521525,-34.349365],[-58.519949,-34.349004],[-58.519834,-34.349333],[-58.519655,-34.349876],[-58.519484,-34.350398],[-58.519318,-34.350925],[-58.519404,-34.35728]]]}},{"type":"Feature","properties":{"partida":"357014772","cca":"35700010000000000000006640000000000000500B","tipo":"Rural","sup_m2":9068.4},"geometry":{"type":"Polygon","coordinates":[[[-58.520277,-34.348028],[-58.5204,-34.347659],[-58.518747,-34.346046],[-58.518394,-34.346221],[-58.520277,-34.348028]]]}},{"type":"Feature","properties":{"partida":"357017825","cca":"35700010000000000000006640000000000000500K","tipo":"Rural","sup_m2":2815.2},"geometry":{"type":"Polygon","coordinates":[[[-58.519253,-34.345719],[-58.519904,-34.346329],[-58.52016,-34.346157],[-58.519558,-34.345554],[-58.519253,-34.345719]]]}},{"type":"Feature","properties":{"partida":"357017826","cca":"35700010000000000000006640000000000000500M","tipo":"Rural","sup_m2":2580.8},"geometry":{"type":"Polygon","coordinates":[[[-58.519018,-34.345856],[-58.519663,-34.346509],[-58.519904,-34.346329],[-58.519253,-34.345719],[-58.519018,-34.345856]]]}},{"type":"Feature","properties":{"partida":"357014773","cca":"35700010000000000000006640000000000000600A","tipo":"Urbano","sup_m2":25435.8},"geometry":{"type":"Polygon","coordinates":[[[-58.520063,-34.348656],[-58.520157,-34.348391],[-58.520277,-34.348028],[-58.518394,-34.346221],[-58.51765,-34.346695],[-58.519977,-34.348919],[-58.520063,-34.348656]]]}},{"type":"Feature","properties":{"partida":"357019971","cca":"35700010000000000000006640000000000000600B","tipo":"Urbano","sup_m2":13641.7},"geometry":{"type":"Polygon","coordinates":[[[-58.519834,-34.349333],[-58.519977,-34.348919],[-58.51765,-34.346695],[-58.517305,-34.346916],[-58.519834,-34.349333]]]}},{"type":"Feature","properties":{"partida":null,"cca":"35700010000000000000006640000000000000600F","tipo":null,"sup_m2":13094.5},"geometry":{"type":"Polygon","coordinates":[[[-58.519904,-34.346329],[-58.519663,-34.346509],[-58.519018,-34.345856],[-58.518747,-34.346046],[-58.5204,-34.347659],[-58.520723,-34.346687],[-58.52016,-34.346157],[-58.519904,-34.346329]]]}},{"type":"Feature","properties":{"partida":"357014774","cca":"357000100000000000000066400000000000007000","tipo":"Rural","sup_m2":18991.6},"geometry":{"type":"Polygon","coordinates":[[[-58.516865,-34.347176],[-58.519655,-34.349876],[-58.519834,-34.349333],[-58.517305,-34.346916],[-58.516865,-34.347176]]]}},{"type":"Feature","properties":{"partida":"357014775","cca":"35700010000000000000006640000000000000800A","tipo":"Rural","sup_m2":18506.3},"geometry":{"type":"Polygon","coordinates":[[[-58.516598,-34.347336],[-58.5174,-34.348117],[-58.517236,-34.34824],[-58.519484,-34.350398],[-58.519655,-34.349876],[-58.516865,-34.347176],[-58.516598,-34.347336]]]}},{"type":"Feature","properties":{"partida":"357017969","cca":"35700010000000000000006640000000000000800B","tipo":"Rural","sup_m2":2153.8},"geometry":{"type":"Polygon","coordinates":[[[-58.516598,-34.347336],[-58.516459,-34.347444],[-58.517236,-34.34824],[-58.5174,-34.348117],[-58.516598,-34.347336]]]}},{"type":"Feature","properties":{"partida":"357014776","cca":"357000100000000000000066400000000000009000","tipo":"Urbano","sup_m2":22809.0},"geometry":{"type":"Polygon","coordinates":[[[-58.517236,-34.34824],[-58.516459,-34.347444],[-58.515977,-34.34773],[-58.519318,-34.350925],[-58.519484,-34.350398],[-58.517236,-34.34824]]]}},{"type":"Feature","properties":{"partida":"357014777","cca":"357000100000000000000066400000000000010000","tipo":"Urbano","sup_m2":3868.5},"geometry":{"type":"Polygon","coordinates":[[[-58.52065,-34.346907],[-58.522222,-34.347269],[-58.522296,-34.347041],[-58.520723,-34.346687],[-58.52065,-34.346907]]]}},{"type":"Feature","properties":{"partida":"357014778","cca":"357000100000000000000066400000000000011000","tipo":"Urbano","sup_m2":3644.6},"geometry":{"type":"Polygon","coordinates":[[[-58.52058,-34.347119],[-58.522152,-34.347479],[-58.522222,-34.347269],[-58.52065,-34.346907],[-58.52058,-34.347119]]]}},{"type":"Feature","properties":{"partida":"357014779","cca":"357000100000000000000066400000000000012000","tipo":"Urbano","sup_m2":3874.5},"geometry":{"type":"Polygon","coordinates":[[[-58.52058,-34.347119],[-58.520508,-34.347341],[-58.522073,-34.347706],[-58.522152,-34.347479],[-58.52058,-34.347119]]]}},{"type":"Feature","properties":{"partida":"357014780","cca":"357000100000000000000066400000000000013000","tipo":"Urbano","sup_m2":3762.0},"geometry":{"type":"Polygon","coordinates":[[[-58.520508,-34.347341],[-58.520432,-34.347563],[-58.522007,-34.347921],[-58.522073,-34.347706],[-58.520508,-34.347341]]]}},{"type":"Feature","properties":{"partida":"357014781","cca":"357000100000000000000066400000000000014000","tipo":"Urbano","sup_m2":3779.3},"geometry":{"type":"Polygon","coordinates":[[[-58.520432,-34.347563],[-58.520362,-34.34778],[-58.521929,-34.348141],[-58.522007,-34.347921],[-58.520432,-34.347563]]]}},{"type":"Feature","properties":{"partida":"357014782","cca":"357000100000000000000066400000000000015000","tipo":"Urbano","sup_m2":3819.5},"geometry":{"type":"Polygon","coordinates":[[[-58.520362,-34.34778],[-58.520285,-34.348002],[-58.52186,-34.348362],[-58.521929,-34.348141],[-58.520362,-34.34778]]]}},{"type":"Feature","properties":{"partida":"357014783","cca":"357000100000000000000066400000000000016000","tipo":"Urbano","sup_m2":3692.4},"geometry":{"type":"Polygon","coordinates":[[[-58.520285,-34.348002],[-58.520216,-34.348217],[-58.521788,-34.348574],[-58.52186,-34.348362],[-58.520285,-34.348002]]]}},{"type":"Feature","properties":{"partida":"357014784","cca":"35700010000000000000006640000000000001700A","tipo":"Urbano","sup_m2":2972.0},"geometry":{"type":"Polygon","coordinates":[[[-58.520216,-34.348217],[-58.520157,-34.348391],[-58.521729,-34.348744],[-58.521788,-34.348574],[-58.520216,-34.348217]]]}},{"type":"Feature","properties":{"partida":"357014785","cca":"35700010000000000000006640000000000001800A","tipo":"Urbano","sup_m2":4575.1},"geometry":{"type":"Polygon","coordinates":[[[-58.520157,-34.348391],[-58.520063,-34.348656],[-58.521639,-34.349008],[-58.521729,-34.348744],[-58.520157,-34.348391]]]}},{"type":"Feature","properties":{"partida":"357014786","cca":"35700010000000000000006640000000000001900A","tipo":"Urbano","sup_m2":6092.2},"geometry":{"type":"Polygon","coordinates":[[[-58.520063,-34.348656],[-58.519949,-34.349004],[-58.521525,-34.349365],[-58.521639,-34.349008],[-58.520063,-34.348656]]]}},{"type":"Feature","properties":{"partida":"357019929","cca":"357000100000000000000066400000000000049000","tipo":"Urbano","sup_m2":12445.7},"geometry":{"type":"Polygon","coordinates":[[[-58.519039,-34.361634],[-58.519078,-34.361176],[-58.517357,-34.360984],[-58.517121,-34.361612],[-58.518271,-34.36185],[-58.519039,-34.361634]]]}},{"type":"Feature","properties":{"partida":"357019930","cca":"357000100000000000000066400000000000050000","tipo":"Urbano","sup_m2":11972.1},"geometry":{"type":"Polygon","coordinates":[[[-58.519078,-34.361176],[-58.519141,-34.360418],[-58.517602,-34.36033],[-58.517357,-34.360984],[-58.519078,-34.361176]]]}},{"type":"Feature","properties":{"partida":"357019931","cca":"357000100000000000000066400000000000051000","tipo":"Urbano","sup_m2":9513.9},"geometry":{"type":"Polygon","coordinates":[[[-58.519141,-34.360418],[-58.519192,-34.359816],[-58.517652,-34.359727],[-58.517602,-34.36033],[-58.519141,-34.360418]]]}},{"type":"Feature","properties":{"partida":"357019932","cca":"357000100000000000000066400000000000052000","tipo":"Urbano","sup_m2":10508.3},"geometry":{"type":"Polygon","coordinates":[[[-58.519192,-34.359816],[-58.519247,-34.35915],[-58.517708,-34.359062],[-58.517652,-34.359727],[-58.519192,-34.359816]]]}},{"type":"Feature","properties":{"partida":"357019933","cca":"357000100000000000000066400000000000053000","tipo":"Urbano","sup_m2":9797.9},"geometry":{"type":"Polygon","coordinates":[[[-58.519247,-34.35915],[-58.519299,-34.35853],[-58.51776,-34.358441],[-58.517708,-34.359062],[-58.519247,-34.35915]]]}},{"type":"Feature","properties":{"partida":"357019934","cca":"357000100000000000000066400000000000054000","tipo":"Urbano","sup_m2":11909.2},"geometry":{"type":"Polygon","coordinates":[[[-58.517781,-34.358183],[-58.51776,-34.358441],[-58.519299,-34.35853],[-58.519404,-34.35728],[-58.517781,-34.358183]]]}},{"type":"Feature","properties":{"partida":"357014910","cca":"357000100000000000000066400M00000000000000","tipo":"Rural","sup_m2":11461.1},"geometry":{"type":"Polygon","coordinates":[[[-58.522323,-34.343056],[-58.522157,-34.343066],[-58.522006,-34.343165],[-58.521791,-34.343289],[-58.521559,-34.343476],[-58.521062,-34.343809],[-58.520808,-34.343987],[-58.519995,-34.344602],[-58.519677,-34.344912],[-58.519595,-34.345014],[-58.519951,-34.344904],[-58.520119,-34.344798],[-58.520333,-34.344686],[-58.520444,-34.344621],[-58.520562,-34.344648],[-58.520838,-34.344471],[-58.520877,-34.344372],[-58.520808,-34.34433],[-58.520911,-34.344282],[-58.521063,-34.344195],[-58.521164,-34.344148],[-58.521283,-34.344167],[-58.521337,-34.344157],[-58.521459,-34.3441],[-58.521648,-34.343953],[-58.521753,-34.34388],[-58.521818,-34.343813],[-58.521771,-34.343751],[-58.521864,-34.343703],[-58.521949,-34.343673],[-58.522102,-34.343571],[-58.522285,-34.343433],[-58.522488,-34.343216],[-58.522509,-34.343088],[-58.522323,-34.343056]]]}},{"type":"Feature","properties":{"partida":"357014938","cca":"35700010000000000000006660000000000000100A","tipo":"Urbano","sup_m2":10291.0},"geometry":{"type":"Polygon","coordinates":[[[-58.534768,-34.356942],[-58.534787,-34.356717],[-58.534118,-34.356483],[-58.534009,-34.35636],[-58.533973,-34.356091],[-58.5339,-34.355992],[-58.533548,-34.355843],[-58.533356,-34.355812],[-58.533264,-34.355831],[-58.533651,-34.357168],[-58.534768,-34.356942]]]}},{"type":"Feature","properties":{"partida":"357014939","cca":"35700010000000000000006660000000000000100B","tipo":"Rural","sup_m2":70066.4},"geometry":{"type":"Polygon","coordinates":[[[-58.533264,-34.355831],[-58.533102,-34.355864],[-58.532355,-34.356385],[-58.531911,-34.356793],[-58.531605,-34.356959],[-58.531032,-34.357144],[-58.531764,-34.359127],[-58.532077,-34.359062],[-58.534417,-34.358525],[-58.534049,-34.35787],[-58.53483,-34.357318],[-58.534768,-34.356942],[-58.533651,-34.357168],[-58.533264,-34.355831]]]}},{"type":"Feature","properties":{"partida":"357014940","cca":"35700010000000000000006660000000000000100C","tipo":"Urbano","sup_m2":6041.6},"geometry":{"type":"Polygon","coordinates":[[[-58.530757,-34.357203],[-58.531483,-34.359185],[-58.531764,-34.359127],[-58.531032,-34.357144],[-58.53093,-34.357177],[-58.530757,-34.357203]]]}},{"type":"Feature","properties":{"partida":"357014941","cca":"357000100000000000000066600000000000002000","tipo":"Urbano","sup_m2":7693.6},"geometry":{"type":"Polygon","coordinates":[[[-58.53483,-34.357318],[-58.534049,-34.35787],[-58.534417,-34.358525],[-58.535135,-34.358368],[-58.534941,-34.357731],[-58.53483,-34.357318]]]}},{"type":"Feature","properties":{"partida":"357014942","cca":"35700010000000000000006660000000000000300A","tipo":"Urbano","sup_m2":9660.7},"geometry":{"type":"Polygon","coordinates":[[[-58.527449,-34.35812],[-58.530872,-34.357516],[-58.530757,-34.357203],[-58.530337,-34.357266],[-58.52995,-34.35748],[-58.528061,-34.357723],[-58.527244,-34.357825],[-58.527449,-34.35812]]]}},{"type":"Feature","properties":{"partida":"357014943","cca":"357000100000000000000066600000000000004000","tipo":"Urbano","sup_m2":6637.0},"geometry":{"type":"Polygon","coordinates":[[[-58.527449,-34.35812],[-58.527552,-34.358229],[-58.527591,-34.358289],[-58.530938,-34.357696],[-58.530872,-34.357516],[-58.527449,-34.35812]]]}},{"type":"Feature","properties":{"partida":"357014944","cca":"357000100000000000000066600000000000005000","tipo":"Urbano","sup_m2":6430.3},"geometry":{"type":"Polygon","coordinates":[[[-58.527703,-34.358462],[-58.531001,-34.35787],[-58.530938,-34.357696],[-58.527591,-34.358289],[-58.52766,-34.358403],[-58.527703,-34.358462]]]}},{"type":"Feature","properties":{"partida":"357014945","cca":"357000100000000000000066600000000000006000","tipo":"Urbano","sup_m2":5964.8},"geometry":{"type":"Polygon","coordinates":[[[-58.527785,-34.358623],[-58.531063,-34.358038],[-58.531001,-34.35787],[-58.527703,-34.358462],[-58.527715,-34.358479],[-58.527725,-34.358518],[-58.527766,-34.358577],[-58.527785,-34.358623]]]}},{"type":"Feature","properties":{"partida":"357014946","cca":"357000100000000000000066600000000000007000","tipo":"Urbano","sup_m2":5983.8},"geometry":{"type":"Polygon","coordinates":[[[-58.527891,-34.358771],[-58.53113,-34.35822],[-58.531063,-34.358038],[-58.527785,-34.358623],[-58.527846,-34.358699],[-58.527891,-34.358771]]]}},{"type":"Feature","properties":{"partida":"357014947","cca":"357000100000000000000066600000000000008000","tipo":"Urbano","sup_m2":6316.9},"geometry":{"type":"Polygon","coordinates":[[[-58.527891,-34.358771],[-58.527934,-34.358834],[-58.527958,-34.358886],[-58.527974,-34.358952],[-58.531195,-34.358398],[-58.53113,-34.35822],[-58.527891,-34.358771]]]}},{"type":"Feature","properties":{"partida":"357014948","cca":"357000100000000000000066600000000000009000","tipo":"Urbano","sup_m2":5812.3},"geometry":{"type":"Polygon","coordinates":[[[-58.528084,-34.359115],[-58.531255,-34.358563],[-58.531195,-34.358398],[-58.527974,-34.358952],[-58.528026,-34.359011],[-58.528052,-34.359052],[-58.528084,-34.359115]]]}},{"type":"Feature","properties":{"partida":"357014949","cca":"357000100000000000000066600000000000010000","tipo":"Urbano","sup_m2":6237.8},"geometry":{"type":"Polygon","coordinates":[[[-58.528084,-34.359115],[-58.528125,-34.3592],[-58.528142,-34.359253],[-58.52817,-34.359292],[-58.531322,-34.358746],[-58.531255,-34.358563],[-58.528084,-34.359115]]]}},{"type":"Feature","properties":{"partida":"357014950","cca":"357000100000000000000066600000000000011000","tipo":"Urbano","sup_m2":5843.9},"geometry":{"type":"Polygon","coordinates":[[[-58.528253,-34.359469],[-58.531382,-34.358909],[-58.531322,-34.358746],[-58.52817,-34.359292],[-58.528236,-34.359421],[-58.528253,-34.359469]]]}},{"type":"Feature","properties":{"partida":"357014951","cca":"357000100000000000000066600000000000012000","tipo":"Urbano","sup_m2":10512.5},"geometry":{"type":"Polygon","coordinates":[[[-58.528398,-34.35978],[-58.529337,-34.35963],[-58.531483,-34.359185],[-58.531382,-34.358909],[-58.528253,-34.359469],[-58.528316,-34.359572],[-58.528398,-34.35978]]]}},{"type":"Feature","properties":{"partida":"357014952","cca":"357000100000000000000066600000000000013000","tipo":"Rural","sup_m2":788.5},"geometry":{"type":"Polygon","coordinates":[[[-58.527052,-34.357815],[-58.527142,-34.358194],[-58.527411,-34.358144],[-58.527317,-34.357991],[-58.527205,-34.357825],[-58.527052,-34.357815]]]}},{"type":"Feature","properties":{"partida":"357014953","cca":"357000100000000000000066600000000000014000","tipo":"Urbano","sup_m2":859.5},"geometry":{"type":"Polygon","coordinates":[[[-58.526936,-34.358233],[-58.527142,-34.358194],[-58.527052,-34.357815],[-58.52684,-34.357832],[-58.526936,-34.358233]]]}},{"type":"Feature","properties":{"partida":"357014954","cca":"357000100000000000000066600000000000015000","tipo":"Urbano","sup_m2":589.0},"geometry":{"type":"Polygon","coordinates":[[[-58.527508,-34.358318],[-58.527445,-34.358212],[-58.527411,-34.358144],[-58.527142,-34.358194],[-58.527178,-34.358382],[-58.527508,-34.358318]]]}},{"type":"Feature","properties":{"partida":"357014955","cca":"357000100000000000000066600000000000016000","tipo":"Rural","sup_m2":454.9},"geometry":{"type":"Polygon","coordinates":[[[-58.527178,-34.358382],[-58.527142,-34.358194],[-58.526936,-34.358233],[-58.526941,-34.358438],[-58.527178,-34.358382]]]}},{"type":"Feature","properties":{"partida":"357014956","cca":"357000100000000000000066600000000000017000","tipo":"Rural","sup_m2":649.0},"geometry":{"type":"Polygon","coordinates":[[[-58.527211,-34.358556],[-58.527579,-34.358485],[-58.527564,-34.358436],[-58.527543,-34.358386],[-58.527508,-34.358318],[-58.527178,-34.358382],[-58.527211,-34.358556]]]}},{"type":"Feature","properties":{"partida":"357014957","cca":"357000100000000000000066600000000000018000","tipo":"Urbano","sup_m2":534.4},"geometry":{"type":"Polygon","coordinates":[[[-58.526895,-34.358647],[-58.527211,-34.358556],[-58.527178,-34.358382],[-58.526941,-34.358438],[-58.526895,-34.358647]]]}},{"type":"Feature","properties":{"partida":"357014958","cca":"357000100000000000000066600000000000019000","tipo":"Urbano","sup_m2":750.4},"geometry":{"type":"Polygon","coordinates":[[[-58.527702,-34.358641],[-58.527604,-34.358533],[-58.527579,-34.358485],[-58.527211,-34.358556],[-58.527244,-34.35873],[-58.527702,-34.358641]]]}},{"type":"Feature","properties":{"partida":"357014959","cca":"357000100000000000000066600000000000020000","tipo":"Urbano","sup_m2":633.5},"geometry":{"type":"Polygon","coordinates":[[[-58.527244,-34.35873],[-58.527211,-34.358556],[-58.526895,-34.358647],[-58.526878,-34.358833],[-58.527244,-34.35873]]]}},{"type":"Feature","properties":{"partida":"357014960","cca":"357000100000000000000066600000000000021000","tipo":"Urbano","sup_m2":824.6},"geometry":{"type":"Polygon","coordinates":[[[-58.527273,-34.358884],[-58.527804,-34.358788],[-58.527753,-34.358714],[-58.527729,-34.358672],[-58.527702,-34.358641],[-58.527244,-34.35873],[-58.527273,-34.358884]]]}},{"type":"Feature","properties":{"partida":"357014961","cca":"357000100000000000000066600000000000022000","tipo":"Urbano","sup_m2":589.9},"geometry":{"type":"Polygon","coordinates":[[[-58.526878,-34.358833],[-58.526884,-34.358976],[-58.527273,-34.358884],[-58.527244,-34.35873],[-58.526878,-34.358833]]]}},{"type":"Feature","properties":{"partida":"357014962","cca":"357000100000000000000066600000000000023000","tipo":"Urbano","sup_m2":1018.1},"geometry":{"type":"Polygon","coordinates":[[[-58.527279,-34.358916],[-58.527311,-34.359089],[-58.527893,-34.358986],[-58.527867,-34.358916],[-58.527846,-34.358877],[-58.527825,-34.358822],[-58.527279,-34.358916]]]}},{"type":"Feature","properties":{"partida":"357014963","cca":"357000100000000000000066600000000000024000","tipo":"Urbano","sup_m2":756.1},"geometry":{"type":"Polygon","coordinates":[[[-58.527279,-34.358916],[-58.526886,-34.359026],[-58.526846,-34.359201],[-58.527311,-34.359089],[-58.527279,-34.358916]]]}},{"type":"Feature","properties":{"partida":"357014964","cca":"357000100000000000000066600000000000025000","tipo":"Urbano","sup_m2":1148.9},"geometry":{"type":"Polygon","coordinates":[[[-58.527989,-34.359151],[-58.527893,-34.358986],[-58.527311,-34.359089],[-58.527345,-34.359267],[-58.527989,-34.359151]]]}},{"type":"Feature","properties":{"partida":"357014965","cca":"357000100000000000000066600000000000026000","tipo":"Rural","sup_m2":978.5},"geometry":{"type":"Polygon","coordinates":[[[-58.527311,-34.359089],[-58.526846,-34.359201],[-58.526769,-34.359401],[-58.527345,-34.359267],[-58.527311,-34.359089]]]}},{"type":"Feature","properties":{"partida":"357014966","cca":"357000100000000000000066600000000000027000","tipo":"Urbano","sup_m2":1351.6},"geometry":{"type":"Polygon","coordinates":[[[-58.527989,-34.359151],[-58.527345,-34.359267],[-58.527381,-34.359456],[-58.528096,-34.359326],[-58.527989,-34.359151]]]}},{"type":"Feature","properties":{"partida":"357014967","cca":"357000100000000000000066600000000000028000","tipo":"Urbano","sup_m2":1260.2},"geometry":{"type":"Polygon","coordinates":[[[-58.527381,-34.359456],[-58.527345,-34.359267],[-58.526769,-34.359401],[-58.526722,-34.359614],[-58.527381,-34.359456]]]}},{"type":"Feature","properties":{"partida":"357014968","cca":"357000100000000000000066600000000000029000","tipo":"Urbano","sup_m2":1357.3},"geometry":{"type":"Polygon","coordinates":[[[-58.528193,-34.359486],[-58.528096,-34.359326],[-58.527381,-34.359456],[-58.527413,-34.359629],[-58.528193,-34.359486]]]}},{"type":"Feature","properties":{"partida":"357014969","cca":"357000100000000000000066600000000000030000","tipo":"Urbano","sup_m2":1269.6},"geometry":{"type":"Polygon","coordinates":[[[-58.527413,-34.359629],[-58.527381,-34.359456],[-58.526722,-34.359614],[-58.526649,-34.359801],[-58.527413,-34.359629]]]}},{"type":"Feature","properties":{"partida":"357014970","cca":"357000100000000000000066600000000000031000","tipo":"Urbano","sup_m2":2605.1},"geometry":{"type":"Polygon","coordinates":[[[-58.528312,-34.359796],[-58.528211,-34.359514],[-58.528193,-34.359486],[-58.527413,-34.359629],[-58.527466,-34.359905],[-58.527952,-34.359854],[-58.528312,-34.359796]]]}},{"type":"Feature","properties":{"partida":"357014971","cca":"357000100000000000000066600000000000032000","tipo":"Urbano","sup_m2":2282.7},"geometry":{"type":"Polygon","coordinates":[[[-58.527413,-34.359629],[-58.526649,-34.359801],[-58.52653,-34.360064],[-58.527466,-34.359905],[-58.527413,-34.359629]]]}},{"type":"Feature","properties":{"partida":"357000421","cca":"35700010000000000000006700000000000000100A","tipo":"Urbano","sup_m2":17630.9},"geometry":{"type":"Polygon","coordinates":[[[-58.532077,-34.359062],[-58.531278,-34.359228],[-58.531126,-34.359596],[-58.535287,-34.358868],[-58.535135,-34.358368],[-58.534417,-34.358525],[-58.532077,-34.359062]]]}},{"type":"Feature","properties":{"partida":"357000422","cca":"35700010000000000000006700000000000000100B","tipo":"Urbano","sup_m2":8820.7},"geometry":{"type":"Polygon","coordinates":[[[-58.535424,-34.359067],[-58.535287,-34.358868],[-58.531126,-34.359596],[-58.531042,-34.359793],[-58.535424,-34.359067]]]}},{"type":"Feature","properties":{"partida":"357000423","cca":"35700010000000000000006700000000000000100C","tipo":"Urbano","sup_m2":7969.6},"geometry":{"type":"Polygon","coordinates":[[[-58.535424,-34.359067],[-58.531042,-34.359793],[-58.530961,-34.359983],[-58.535456,-34.359237],[-58.535424,-34.359067]]]}},{"type":"Feature","properties":{"partida":"357000424","cca":"35700010000000000000006700000000000000100D","tipo":"Urbano","sup_m2":8556.1},"geometry":{"type":"Polygon","coordinates":[[[-58.535495,-34.359401],[-58.535456,-34.359237],[-58.530961,-34.359983],[-58.530872,-34.360195],[-58.535495,-34.359401]]]}},{"type":"Feature","properties":{"partida":"357000425","cca":"35700010000000000000006700000000000000100E","tipo":"Urbano","sup_m2":8907.2},"geometry":{"type":"Polygon","coordinates":[[[-58.535517,-34.359594],[-58.535495,-34.359401],[-58.530872,-34.360195],[-58.530791,-34.360385],[-58.535517,-34.359594]]]}},{"type":"Feature","properties":{"partida":"357000426","cca":"35700010000000000000006700000000000000100F","tipo":"Urbano","sup_m2":8469.7},"geometry":{"type":"Polygon","coordinates":[[[-58.535476,-34.359774],[-58.535517,-34.359594],[-58.530791,-34.360385],[-58.53071,-34.360575],[-58.535476,-34.359774]]]}},{"type":"Feature","properties":{"partida":"357000427","cca":"35700010000000000000006700000000000000100G","tipo":"Urbano","sup_m2":9498.6},"geometry":{"type":"Polygon","coordinates":[[[-58.535416,-34.359986],[-58.535476,-34.359774],[-58.53071,-34.360575],[-58.530625,-34.360777],[-58.535416,-34.359986]]]}},{"type":"Feature","properties":{"partida":"357000428","cca":"35700010000000000000006700000000000000100H","tipo":"Urbano","sup_m2":8866.9},"geometry":{"type":"Polygon","coordinates":[[[-58.5354,-34.360158],[-58.535416,-34.359986],[-58.530625,-34.360777],[-58.530538,-34.360982],[-58.5354,-34.360158]]]}},{"type":"Feature","properties":{"partida":"357000429","cca":"35700010000000000000006700000000000000100J","tipo":"Urbano","sup_m2":8122.2},"geometry":{"type":"Polygon","coordinates":[[[-58.535358,-34.360338],[-58.5354,-34.360158],[-58.530538,-34.360982],[-58.530468,-34.361147],[-58.535358,-34.360338]]]}},{"type":"Feature","properties":{"partida":"357000430","cca":"35700010000000000000006700000000000000100K","tipo":"Urbano","sup_m2":8475.8},"geometry":{"type":"Polygon","coordinates":[[[-58.535358,-34.360338],[-58.530468,-34.361147],[-58.530391,-34.361328],[-58.535359,-34.360507],[-58.535358,-34.360338]]]}},{"type":"Feature","properties":{"partida":"357000431","cca":"35700010000000000000006700000000000000100M","tipo":"Urbano","sup_m2":7973.5},"geometry":{"type":"Polygon","coordinates":[[[-58.535359,-34.360507],[-58.530391,-34.361328],[-58.530312,-34.361514],[-58.535302,-34.360657],[-58.535359,-34.360507]]]}},{"type":"Feature","properties":{"partida":"357000433","cca":"35700010000000000000006700000000000000100S","tipo":"Urbano","sup_m2":18568.1},"geometry":{"type":"Polygon","coordinates":[[[-58.530143,-34.361914],[-58.535258,-34.361014],[-58.535302,-34.360657],[-58.530312,-34.361514],[-58.530143,-34.361914]]]}},{"type":"Feature","properties":{"partida":"357015013","cca":"35700010000000000000006700000000000000200B","tipo":"Rural","sup_m2":21839.7},"geometry":{"type":"Polygon","coordinates":[[[-58.528312,-34.359796],[-58.527952,-34.359854],[-58.527466,-34.359905],[-58.52653,-34.360064],[-58.526298,-34.360849],[-58.526008,-34.361159],[-58.52873,-34.36067],[-58.528688,-34.360579],[-58.528654,-34.360448],[-58.528585,-34.360344],[-58.528563,-34.360266],[-58.528437,-34.360052],[-58.528312,-34.359796]]]}},{"type":"Feature","properties":{"partida":"357015012","cca":"35700010000000000000006700000000000000200H","tipo":"Rural","sup_m2":29024.3},"geometry":{"type":"Polygon","coordinates":[[[-58.528398,-34.35978],[-58.528517,-34.360035],[-58.528626,-34.360215],[-58.528674,-34.360348],[-58.528742,-34.360515],[-58.528817,-34.360764],[-58.5289,-34.360928],[-58.530718,-34.360559],[-58.531126,-34.359596],[-58.531278,-34.359228],[-58.529337,-34.35963],[-58.528398,-34.35978]]]}},{"type":"Feature","properties":{"partida":"357000087","cca":"35700010000000000000006700000000000000200K","tipo":"Rural","sup_m2":20327.1},"geometry":{"type":"Polygon","coordinates":[[[-58.528911,-34.36247],[-58.529977,-34.362304],[-58.530718,-34.360559],[-58.5289,-34.360928],[-58.528963,-34.361039],[-58.52902,-34.361113],[-58.529066,-34.361187],[-58.529091,-34.361285],[-58.529163,-34.361384],[-58.529214,-34.361489],[-58.529239,-34.361628],[-58.529181,-34.361725],[-58.529088,-34.361831],[-58.529066,-34.361909],[-58.529082,-34.362002],[-58.529116,-34.362081],[-58.529106,-34.362156],[-58.529041,-34.362285],[-58.528911,-34.36247]]]}},{"type":"Feature","properties":{"partida":"357000088","cca":"35700010000000000000006700000000000000200M","tipo":"Rural","sup_m2":9241.0},"geometry":{"type":"Polygon","coordinates":[[[-58.528975,-34.361219],[-58.528929,-34.361138],[-58.528883,-34.361021],[-58.528832,-34.360952],[-58.525882,-34.361484],[-58.525703,-34.361805],[-58.528975,-34.361219]]]}},{"type":"Feature","properties":{"partida":"357000089","cca":"35700010000000000000006700000000000000200N","tipo":"Rural","sup_m2":8694.9},"geometry":{"type":"Polygon","coordinates":[[[-58.52873,-34.36067],[-58.526008,-34.361159],[-58.525882,-34.361484],[-58.528832,-34.360952],[-58.528794,-34.360898],[-58.528766,-34.360831],[-58.52875,-34.360743],[-58.52873,-34.36067]]]}}]}