{"type":"FeatureCollection","features":[{"type":"Feature","properties":{"partida":"357014878","cca":"357000100000000000000066400C0000000001700A","tipo":"Rural","sup_m2":563696.0},"geometry":{"type":"Polygon","coordinates":[[[-58.516628,-34.385924],[-58.515868,-34.385787],[-58.515965,-34.385045],[-58.514693,-34.384905],[-58.514149,-34.387923],[-58.510294,-34.387519],[-58.510682,-34.388173],[-58.511063,-34.388934],[-58.511813,-34.390334],[-58.512029,-34.390678],[-58.511948,-34.390964],[-58.511727,-34.391181],[-58.512752,-34.391811],[-58.508146,-34.394218],[-58.508926,-34.394398],[-58.520628,-34.396966],[-58.520785,-34.396292],[-58.520509,-34.396126],[-58.520607,-34.395884],[-58.519925,-34.395488],[-58.518681,-34.394509],[-58.518498,-34.394355],[-58.51833,-34.394232],[-58.517969,-34.393948],[-58.515952,-34.393426],[-58.516103,-34.392649],[-58.516461,-34.39139],[-58.516251,-34.391342],[-58.516628,-34.385924]]]}},{"type":"Feature","properties":{"partida":"357018132","cca":"357000100000000000000066400C0000000001700D","tipo":"Rural","sup_m2":243106.2},"geometry":{"type":"Polygon","coordinates":[[[-58.520628,-34.396966],[-58.508926,-34.394398],[-58.508209,-34.395965],[-58.519983,-34.399126],[-58.520628,-34.396966]]]}},{"type":"Feature","properties":{"partida":"357000161","cca":"357000100000000000000066400C0000000001800A","tipo":"Urbano","sup_m2":3840.1},"geometry":{"type":"Polygon","coordinates":[[[-58.516103,-34.392649],[-58.515952,-34.393426],[-58.516337,-34.393526],[-58.516643,-34.3928],[-58.516103,-34.392649]]]}},{"type":"Feature","properties":{"partida":"357000162","cca":"357000100000000000000066400C0000000001800B","tipo":"Urbano","sup_m2":1593.5},"geometry":{"type":"Polygon","coordinates":[[[-58.516532,-34.393576],[-58.516836,-34.392856],[-58.516643,-34.3928],[-58.516337,-34.393526],[-58.516532,-34.393576]]]}},{"type":"Feature","properties":{"partida":"357000152","cca":"357000100000000000000066400C0000000001800C","tipo":"Urbano","sup_m2":1586.1},"geometry":{"type":"Polygon","coordinates":[[[-58.516726,-34.393626],[-58.51703,-34.392907],[-58.516836,-34.392856],[-58.516532,-34.393576],[-58.516726,-34.393626]]]}},{"type":"Feature","properties":{"partida":"357000160","cca":"357000100000000000000066400C0000000001800D","tipo":"Urbano","sup_m2":1581.7},"geometry":{"type":"Polygon","coordinates":[[[-58.516921,-34.393677],[-58.517223,-34.392961],[-58.51703,-34.392907],[-58.516726,-34.393626],[-58.516921,-34.393677]]]}},{"type":"Feature","properties":{"partida":"357000158","cca":"357000100000000000000066400C0000000001800E","tipo":"Urbano","sup_m2":1573.4},"geometry":{"type":"Polygon","coordinates":[[[-58.517116,-34.393727],[-58.517416,-34.393015],[-58.517223,-34.392961],[-58.516921,-34.393677],[-58.517116,-34.393727]]]}},{"type":"Feature","properties":{"partida":"357000151","cca":"357000100000000000000066400C0000000001800F","tipo":"Urbano","sup_m2":1566.5},"geometry":{"type":"Polygon","coordinates":[[[-58.51731,-34.393778],[-58.51761,-34.393069],[-58.517416,-34.393015],[-58.517116,-34.393727],[-58.51731,-34.393778]]]}},{"type":"Feature","properties":{"partida":"357000150","cca":"357000100000000000000066400C0000000001800G","tipo":"Urbano","sup_m2":1558.6},"geometry":{"type":"Polygon","coordinates":[[[-58.517505,-34.393828],[-58.517803,-34.393123],[-58.51761,-34.393069],[-58.51731,-34.393778],[-58.517505,-34.393828]]]}},{"type":"Feature","properties":{"partida":"357000159","cca":"357000100000000000000066400C0000000001800H","tipo":"Urbano","sup_m2":1551.7},"geometry":{"type":"Polygon","coordinates":[[[-58.5177,-34.393879],[-58.517996,-34.393176],[-58.517803,-34.393123],[-58.517505,-34.393828],[-58.5177,-34.393879]]]}},{"type":"Feature","properties":{"partida":"357000148","cca":"357000100000000000000066400C0000000001800J","tipo":"Urbano","sup_m2":2655.6},"geometry":{"type":"Polygon","coordinates":[[[-58.5177,-34.393879],[-58.517969,-34.393948],[-58.518395,-34.393288],[-58.517996,-34.393176],[-58.5177,-34.393879]]]}},{"type":"Feature","properties":{"partida":"357000149","cca":"357000100000000000000066400C0000000001800K","tipo":"Urbano","sup_m2":1918.1},"geometry":{"type":"Polygon","coordinates":[[[-58.518157,-34.394097],[-58.518583,-34.393437],[-58.518395,-34.393288],[-58.517969,-34.393948],[-58.518157,-34.394097]]]}},{"type":"Feature","properties":{"partida":"357000210","cca":"357000100000000000000066400C0000000001800M","tipo":"Urbano","sup_m2":1749.6},"geometry":{"type":"Polygon","coordinates":[[[-58.51833,-34.394232],[-58.518755,-34.393573],[-58.518583,-34.393437],[-58.518157,-34.394097],[-58.51833,-34.394232]]]}},{"type":"Feature","properties":{"partida":"357000211","cca":"357000100000000000000066400C0000000001800N","tipo":"Urbano","sup_m2":1659.3},"geometry":{"type":"Polygon","coordinates":[[[-58.518498,-34.394355],[-58.518919,-34.393703],[-58.518755,-34.393573],[-58.51833,-34.394232],[-58.518498,-34.394355]]]}},{"type":"Feature","properties":{"partida":"357000191","cca":"357000100000000000000066400C0000000001800P","tipo":"Urbano","sup_m2":1886.3},"geometry":{"type":"Polygon","coordinates":[[[-58.518681,-34.394509],[-58.519106,-34.393851],[-58.518919,-34.393703],[-58.518498,-34.394355],[-58.518681,-34.394509]]]}},{"type":"Feature","properties":{"partida":"357000209","cca":"357000100000000000000066400C0000000001800Q","tipo":"Urbano","sup_m2":1411.4},"geometry":{"type":"Polygon","coordinates":[[[-58.518821,-34.394619],[-58.519245,-34.393962],[-58.519106,-34.393851],[-58.518681,-34.394509],[-58.518821,-34.394619]]]}},{"type":"Feature","properties":{"partida":"357014879","cca":"357000100000000000000066400C0000000001800R","tipo":"Rural","sup_m2":79795.2},"geometry":{"type":"Polygon","coordinates":[[[-58.518395,-34.393288],[-58.520224,-34.394739],[-58.520282,-34.39484],[-58.520478,-34.395002],[-58.520479,-34.394763],[-58.520504,-34.39461],[-58.521014,-34.392463],[-58.516461,-34.39139],[-58.516103,-34.392649],[-58.516836,-34.392856],[-58.51703,-34.392907],[-58.518395,-34.393288]]]}},{"type":"Feature","properties":{"partida":"357000189","cca":"357000100000000000000066400C0000000001800S","tipo":"Urbano","sup_m2":1374.9},"geometry":{"type":"Polygon","coordinates":[[[-58.519274,-34.393985],[-58.519055,-34.394324],[-58.519547,-34.394402],[-58.519703,-34.394325],[-58.519274,-34.393985]]]}},{"type":"Feature","properties":{"partida":"357000190","cca":"357000100000000000000066400C0000000001800T","tipo":"Urbano","sup_m2":1172.5},"geometry":{"type":"Polygon","coordinates":[[[-58.518923,-34.394699],[-58.519547,-34.394402],[-58.519055,-34.394324],[-58.51885,-34.394642],[-58.518923,-34.394699]]]}},{"type":"Feature","properties":{"partida":"357000187","cca":"357000100000000000000066400C0000000001800U","tipo":"Urbano","sup_m2":1454.6},"geometry":{"type":"Polygon","coordinates":[[[-58.519703,-34.394325],[-58.519547,-34.394402],[-58.518923,-34.394699],[-58.519067,-34.394812],[-58.519848,-34.394441],[-58.519703,-34.394325]]]}},{"type":"Feature","properties":{"partida":"357000166","cca":"357000100000000000000066400C0000000001800V","tipo":"Urbano","sup_m2":1243.4},"geometry":{"type":"Polygon","coordinates":[[[-58.519067,-34.394812],[-58.51919,-34.39491],[-58.519971,-34.394538],[-58.519848,-34.394441],[-58.519067,-34.394812]]]}},{"type":"Feature","properties":{"partida":"357000168","cca":"357000100000000000000066400C0000000001800W","tipo":"Urbano","sup_m2":1379.3},"geometry":{"type":"Polygon","coordinates":[[[-58.51919,-34.39491],[-58.519328,-34.395018],[-58.520108,-34.394646],[-58.519971,-34.394538],[-58.51919,-34.39491]]]}},{"type":"Feature","properties":{"partida":"357000165","cca":"357000100000000000000066400C0000000001800X","tipo":"Urbano","sup_m2":1172.8},"geometry":{"type":"Polygon","coordinates":[[[-58.519328,-34.395018],[-58.519444,-34.395109],[-58.520224,-34.394739],[-58.520108,-34.394646],[-58.519328,-34.395018]]]}},{"type":"Feature","properties":{"partida":"357000170","cca":"357000100000000000000066400C0000000001800Y","tipo":"Urbano","sup_m2":1831.8},"geometry":{"type":"Polygon","coordinates":[[[-58.519444,-34.395109],[-58.519723,-34.395328],[-58.520282,-34.39484],[-58.520224,-34.394739],[-58.519444,-34.395109]]]}},{"type":"Feature","properties":{"partida":"357000156","cca":"357000100000000000000066400C0000000001800Z","tipo":"Urbano","sup_m2":1910.0},"geometry":{"type":"Polygon","coordinates":[[[-58.52048,-34.395003],[-58.520282,-34.39484],[-58.519723,-34.395328],[-58.519925,-34.395488],[-58.52048,-34.395003]]]}},{"type":"Feature","properties":{"partida":"357000164","cca":"357000100000000000000066400C000000000180AA","tipo":"Urbano","sup_m2":2403.1},"geometry":{"type":"Polygon","coordinates":[[[-58.520768,-34.395178],[-58.52048,-34.395003],[-58.519925,-34.395488],[-58.520218,-34.395658],[-58.520768,-34.395178]]]}},{"type":"Feature","properties":{"partida":"357000188","cca":"357000100000000000000066400C000000000180BB","tipo":"Urbano","sup_m2":3200.8},"geometry":{"type":"Polygon","coordinates":[[[-58.520607,-34.395884],[-58.520931,-34.395775],[-58.520971,-34.395281],[-58.520768,-34.395178],[-58.520218,-34.395658],[-58.520607,-34.395884]]]}},{"type":"Feature","properties":{"partida":"357000185","cca":"357000100000000000000066400C000000000180CC","tipo":"Urbano","sup_m2":1403.8},"geometry":{"type":"Polygon","coordinates":[[[-58.520478,-34.395002],[-58.520768,-34.395178],[-58.520971,-34.395281],[-58.520986,-34.39499],[-58.520479,-34.394763],[-58.520478,-34.395002]]]}},{"type":"Feature","properties":{"partida":"357000186","cca":"357000100000000000000066400C000000000180DD","tipo":"Urbano","sup_m2":951.7},"geometry":{"type":"Polygon","coordinates":[[[-58.520986,-34.39499],[-58.520943,-34.394742],[-58.520504,-34.39461],[-58.520479,-34.394763],[-58.520986,-34.39499]]]}},{"type":"Feature","properties":{"partida":"357000208","cca":"357000100000000000000066400C000000000180EE","tipo":"Urbano","sup_m2":962.5},"geometry":{"type":"Polygon","coordinates":[[[-58.520504,-34.39461],[-58.520943,-34.394742],[-58.521029,-34.394546],[-58.520549,-34.39443],[-58.520504,-34.39461]]]}},{"type":"Feature","properties":{"partida":"357000184","cca":"357000100000000000000066400C000000000180FF","tipo":"Urbano","sup_m2":1006.4},"geometry":{"type":"Polygon","coordinates":[[[-58.520549,-34.39443],[-58.521029,-34.394546],[-58.521059,-34.39434],[-58.520595,-34.394236],[-58.520549,-34.39443]]]}},{"type":"Feature","properties":{"partida":"357000206","cca":"357000100000000000000066400C000000000180GG","tipo":"Urbano","sup_m2":1072.6},"geometry":{"type":"Polygon","coordinates":[[[-58.520595,-34.394236],[-58.521059,-34.39434],[-58.521144,-34.394125],[-58.52064,-34.394042],[-58.520595,-34.394236]]]}},{"type":"Feature","properties":{"partida":"357000183","cca":"357000100000000000000066400C000000000180HH","tipo":"Urbano","sup_m2":1137.4},"geometry":{"type":"Polygon","coordinates":[[[-58.52064,-34.394042],[-58.521144,-34.394125],[-58.521157,-34.393998],[-58.521188,-34.393907],[-58.520692,-34.393825],[-58.52064,-34.394042]]]}},{"type":"Feature","properties":{"partida":"357000144","cca":"357000100000000000000066400C000000000180JJ","tipo":"Urbano","sup_m2":949.6},"geometry":{"type":"Polygon","coordinates":[[[-58.520692,-34.393825],[-58.521188,-34.393907],[-58.521246,-34.393732],[-58.520734,-34.393648],[-58.520692,-34.393825]]]}},{"type":"Feature","properties":{"partida":"357000109","cca":"357000100000000000000066400C000000000180KK","tipo":"Urbano","sup_m2":1024.8},"geometry":{"type":"Polygon","coordinates":[[[-58.520734,-34.393648],[-58.521246,-34.393732],[-58.521307,-34.393549],[-58.520777,-34.393462],[-58.520734,-34.393648]]]}},{"type":"Feature","properties":{"partida":"357000146","cca":"357000100000000000000066400C000000000180MM","tipo":"Urbano","sup_m2":1114.6},"geometry":{"type":"Polygon","coordinates":[[[-58.520825,-34.39326],[-58.520777,-34.393462],[-58.521307,-34.393549],[-58.521369,-34.393364],[-58.520825,-34.39326]]]}},{"type":"Feature","properties":{"partida":"357000108","cca":"357000100000000000000066400C000000000180PP","tipo":"Urbano","sup_m2":1049.0},"geometry":{"type":"Polygon","coordinates":[[[-58.520825,-34.39326],[-58.521369,-34.393364],[-58.521423,-34.3932],[-58.52087,-34.39307],[-58.520825,-34.39326]]]}},{"type":"Feature","properties":{"partida":"357000105","cca":"357000100000000000000066400C000000000180QQ","tipo":"Urbano","sup_m2":1087.2},"geometry":{"type":"Polygon","coordinates":[[[-58.52087,-34.39307],[-58.521423,-34.3932],[-58.521482,-34.393025],[-58.520913,-34.39289],[-58.52087,-34.39307]]]}},{"type":"Feature","properties":{"partida":"357000106","cca":"357000100000000000000066400C000000000180RR","tipo":"Urbano","sup_m2":1267.0},"geometry":{"type":"Polygon","coordinates":[[[-58.520913,-34.39289],[-58.521482,-34.393025],[-58.521548,-34.392826],[-58.520961,-34.392687],[-58.520913,-34.39289]]]}},{"type":"Feature","properties":{"partida":"357000103","cca":"357000100000000000000066400C000000000180SS","tipo":"Urbano","sup_m2":1446.6},"geometry":{"type":"Polygon","coordinates":[[[-58.520961,-34.392687],[-58.521548,-34.392826],[-58.521622,-34.392606],[-58.521014,-34.392463],[-58.520961,-34.392687]]]}},{"type":"Feature","properties":{"partida":"357017659","cca":"357000100000000000000066400C0000000001900A","tipo":"Urbano","sup_m2":1161.4},"geometry":{"type":"Polygon","coordinates":[[[-58.521669,-34.392411],[-58.521058,-34.392303],[-58.521014,-34.392463],[-58.521622,-34.392606],[-58.52163,-34.392581],[-58.521669,-34.392411]]]}},{"type":"Feature","properties":{"partida":"357017660","cca":"357000100000000000000066400C0000000001900B","tipo":"Urbano","sup_m2":1082.6},"geometry":{"type":"Polygon","coordinates":[[[-58.521058,-34.392303],[-58.521669,-34.392411],[-58.521726,-34.392249],[-58.521104,-34.392139],[-58.521058,-34.392303]]]}},{"type":"Feature","properties":{"partida":"357017661","cca":"357000100000000000000066400C0000000001900C","tipo":"Urbano","sup_m2":1304.4},"geometry":{"type":"Polygon","coordinates":[[[-58.521104,-34.392139],[-58.521726,-34.392249],[-58.521793,-34.392057],[-58.521158,-34.391945],[-58.521104,-34.392139]]]}},{"type":"Feature","properties":{"partida":"357017662","cca":"357000100000000000000066400C0000000002000A","tipo":"Urbano","sup_m2":1256.0},"geometry":{"type":"Polygon","coordinates":[[[-58.521158,-34.391945],[-58.521793,-34.392057],[-58.521852,-34.391887],[-58.521213,-34.391751],[-58.521158,-34.391945]]]}},{"type":"Feature","properties":{"partida":"357017663","cca":"357000100000000000000066400C0000000002000B","tipo":"Urbano","sup_m2":1482.2},"geometry":{"type":"Polygon","coordinates":[[[-58.521852,-34.391887],[-58.521949,-34.39167],[-58.521267,-34.391558],[-58.521213,-34.391751],[-58.521852,-34.391887]]]}},{"type":"Feature","properties":{"partida":"357017664","cca":"357000100000000000000066400C0000000002000C","tipo":"Urbano","sup_m2":1426.2},"geometry":{"type":"Polygon","coordinates":[[[-58.521949,-34.39167],[-58.522017,-34.391479],[-58.521321,-34.391364],[-58.521267,-34.391558],[-58.521949,-34.39167]]]}},{"type":"Feature","properties":{"partida":"357017665","cca":"357000100000000000000066400C0000000002100A","tipo":"Urbano","sup_m2":1453.2},"geometry":{"type":"Polygon","coordinates":[[[-58.522017,-34.391479],[-58.522084,-34.391287],[-58.521375,-34.39117],[-58.521321,-34.391364],[-58.522017,-34.391479]]]}},{"type":"Feature","properties":{"partida":"357017666","cca":"357000100000000000000066400C0000000002100B","tipo":"Urbano","sup_m2":1479.9},"geometry":{"type":"Polygon","coordinates":[[[-58.522084,-34.391287],[-58.522151,-34.391095],[-58.52143,-34.390976],[-58.521375,-34.39117],[-58.522084,-34.391287]]]}},{"type":"Feature","properties":{"partida":"357017667","cca":"357000100000000000000066400C0000000002100C","tipo":"Urbano","sup_m2":1507.0},"geometry":{"type":"Polygon","coordinates":[[[-58.52143,-34.390976],[-58.522151,-34.391095],[-58.522218,-34.390903],[-58.521484,-34.390782],[-58.52143,-34.390976]]]}},{"type":"Feature","properties":{"partida":"357017668","cca":"357000100000000000000066400C0000000002200A","tipo":"Urbano","sup_m2":1533.8},"geometry":{"type":"Polygon","coordinates":[[[-58.521484,-34.390782],[-58.522218,-34.390903],[-58.522286,-34.390712],[-58.521538,-34.390588],[-58.521484,-34.390782]]]}},{"type":"Feature","properties":{"partida":"357017669","cca":"357000100000000000000066400C0000000002200B","tipo":"Urbano","sup_m2":1560.7},"geometry":{"type":"Polygon","coordinates":[[[-58.521538,-34.390588],[-58.522286,-34.390712],[-58.522353,-34.39052],[-58.521592,-34.390394],[-58.521538,-34.390588]]]}},{"type":"Feature","properties":{"partida":"357017670","cca":"357000100000000000000066400C0000000002200C","tipo":"Urbano","sup_m2":1587.6},"geometry":{"type":"Polygon","coordinates":[[[-58.521592,-34.390394],[-58.522353,-34.39052],[-58.52242,-34.390328],[-58.521647,-34.390201],[-58.521592,-34.390394]]]}},{"type":"Feature","properties":{"partida":"357017671","cca":"357000100000000000000066400C0000000002300A","tipo":"Urbano","sup_m2":1618.0},"geometry":{"type":"Polygon","coordinates":[[[-58.521647,-34.390201],[-58.52242,-34.390328],[-58.522464,-34.390203],[-58.522497,-34.390138],[-58.521701,-34.390007],[-58.521647,-34.390201]]]}},{"type":"Feature","properties":{"partida":"357017672","cca":"357000100000000000000066400C0000000002300B","tipo":"Urbano","sup_m2":1689.6},"geometry":{"type":"Polygon","coordinates":[[[-58.522592,-34.389951],[-58.521755,-34.389813],[-58.521701,-34.390007],[-58.522497,-34.390138],[-58.522592,-34.389951]]]}},{"type":"Feature","properties":{"partida":"357014880","cca":"357000100000000000000066400C00000000024000","tipo":"Rural","sup_m2":311838.7},"geometry":{"type":"Polygon","coordinates":[[[-58.521014,-34.392463],[-58.521755,-34.389813],[-58.522592,-34.389951],[-58.522686,-34.389764],[-58.521809,-34.389619],[-58.522569,-34.386905],[-58.516628,-34.385924],[-58.516251,-34.391342],[-58.521014,-34.392463]]]}},{"type":"Feature","properties":{"partida":"357017673","cca":"357000100000000000000066400C0000000002500A","tipo":"Urbano","sup_m2":1857.6},"geometry":{"type":"Polygon","coordinates":[[[-58.522686,-34.389764],[-58.522781,-34.389577],[-58.521863,-34.389425],[-58.521809,-34.389619],[-58.522686,-34.389764]]]}},{"type":"Feature","properties":{"partida":"357017674","cca":"357000100000000000000066400C0000000002500B","tipo":"Urbano","sup_m2":1941.3},"geometry":{"type":"Polygon","coordinates":[[[-58.521863,-34.389425],[-58.522781,-34.389577],[-58.522876,-34.389389],[-58.521918,-34.389231],[-58.521863,-34.389425]]]}},{"type":"Feature","properties":{"partida":"357017675","cca":"357000100000000000000066400C0000000002500C","tipo":"Urbano","sup_m2":2025.1},"geometry":{"type":"Polygon","coordinates":[[[-58.521918,-34.389231],[-58.522876,-34.389389],[-58.522971,-34.389202],[-58.521972,-34.389037],[-58.521918,-34.389231]]]}},{"type":"Feature","properties":{"partida":"357017676","cca":"357000100000000000000066400C0000000002600A","tipo":"Urbano","sup_m2":2109.0},"geometry":{"type":"Polygon","coordinates":[[[-58.521972,-34.389037],[-58.522971,-34.389202],[-58.523065,-34.389015],[-58.522026,-34.388844],[-58.521972,-34.389037]]]}},{"type":"Feature","properties":{"partida":"357017677","cca":"357000100000000000000066400C0000000002600B","tipo":"Urbano","sup_m2":2193.4},"geometry":{"type":"Polygon","coordinates":[[[-58.522026,-34.388844],[-58.523065,-34.389015],[-58.52316,-34.388828],[-58.52208,-34.38865],[-58.522026,-34.388844]]]}},{"type":"Feature","properties":{"partida":"357017678","cca":"357000100000000000000066400C0000000002600C","tipo":"Urbano","sup_m2":2276.8},"geometry":{"type":"Polygon","coordinates":[[[-58.52208,-34.38865],[-58.52316,-34.388828],[-58.523255,-34.388641],[-58.522135,-34.388456],[-58.52208,-34.38865]]]}},{"type":"Feature","properties":{"partida":"357017679","cca":"357000100000000000000066400C0000000002700A","tipo":"Urbano","sup_m2":2360.5},"geometry":{"type":"Polygon","coordinates":[[[-58.522135,-34.388456],[-58.523255,-34.388641],[-58.52335,-34.388454],[-58.522189,-34.388262],[-58.522135,-34.388456]]]}},{"type":"Feature","properties":{"partida":null,"cca":"357000100000000000000066400C0000000002700B","tipo":null,"sup_m2":2444.6},"geometry":{"type":"Polygon","coordinates":[[[-58.522243,-34.388068],[-58.522189,-34.388262],[-58.52335,-34.388454],[-58.523445,-34.388266],[-58.522243,-34.388068]]]}},{"type":"Feature","properties":{"partida":"357017681","cca":"357000100000000000000066400C00000000028000","tipo":"Urbano","sup_m2":7837.4},"geometry":{"type":"Polygon","coordinates":[[[-58.522243,-34.388068],[-58.523445,-34.388266],[-58.523729,-34.387705],[-58.522406,-34.387486],[-58.522243,-34.388068]]]}},{"type":"Feature","properties":{"partida":"357017682","cca":"357000100000000000000066400C0000000002900A","tipo":"Urbano","sup_m2":2708.8},"geometry":{"type":"Polygon","coordinates":[[[-58.522406,-34.387486],[-58.523729,-34.387705],[-58.523801,-34.387521],[-58.52246,-34.387293],[-58.522406,-34.387486]]]}},{"type":"Feature","properties":{"partida":"357017683","cca":"357000100000000000000066400C0000000002900B","tipo":"Urbano","sup_m2":2810.8},"geometry":{"type":"Polygon","coordinates":[[[-58.52246,-34.387293],[-58.523801,-34.387521],[-58.523829,-34.387467],[-58.523879,-34.387331],[-58.522514,-34.387099],[-58.52246,-34.387293]]]}},{"type":"Feature","properties":{"partida":"357017684","cca":"357000100000000000000066400C0000000002900C","tipo":"Urbano","sup_m2":2844.2},"geometry":{"type":"Polygon","coordinates":[[[-58.522514,-34.387099],[-58.523879,-34.387331],[-58.523948,-34.38714],[-58.522569,-34.386905],[-58.522514,-34.387099]]]}},{"type":"Feature","properties":{"partida":"357014883","cca":"357000100000000000000066400C00000000046000","tipo":"Urbano","sup_m2":2733.4},"geometry":{"type":"Polygon","coordinates":[[[-58.524356,-34.380151],[-58.524312,-34.380049],[-58.524298,-34.379967],[-58.522861,-34.380082],[-58.522933,-34.380263],[-58.524356,-34.380151]]]}},{"type":"Feature","properties":{"partida":"357014884","cca":"357000100000000000000066400C00000000047000","tipo":"Urbano","sup_m2":2743.6},"geometry":{"type":"Polygon","coordinates":[[[-58.522788,-34.3799],[-58.522861,-34.380082],[-58.524298,-34.379967],[-58.524208,-34.379785],[-58.522788,-34.3799]]]}},{"type":"Feature","properties":{"partida":"357014885","cca":"357000100000000000000066400C00000000048000","tipo":"Urbano","sup_m2":2648.7},"geometry":{"type":"Polygon","coordinates":[[[-58.522716,-34.379718],[-58.522788,-34.3799],[-58.524208,-34.379785],[-58.524109,-34.379612],[-58.522716,-34.379718]]]}},{"type":"Feature","properties":{"partida":"357018066","cca":"357000100000000000000066400C00000000074000","tipo":null,"sup_m2":214093.2},"geometry":{"type":"Polygon","coordinates":[[[-58.524504,-34.380875],[-58.521307,-34.381229],[-58.51633,-34.381185],[-58.516232,-34.383319],[-58.524694,-34.383964],[-58.524718,-34.382105],[-58.524504,-34.380875]]]}},{"type":"Feature","properties":{"partida":"357017923","cca":"357000100000000000000066400C00000000075000","tipo":"Rural","sup_m2":246401.9},"geometry":{"type":"Polygon","coordinates":[[[-58.516628,-34.385924],[-58.522569,-34.386905],[-58.523948,-34.38714],[-58.524385,-34.385947],[-58.52463,-34.384128],[-58.524694,-34.383964],[-58.516232,-34.383319],[-58.515965,-34.385045],[-58.515868,-34.385787],[-58.516628,-34.385924]]]}},{"type":"Feature","properties":{"partida":"357015267","cca":"35700010000000000000006800000000000000300E","tipo":"Urbano","sup_m2":46170.5},"geometry":{"type":"Polygon","coordinates":[[[-58.531656,-34.382783],[-58.535054,-34.383421],[-58.536622,-34.382844],[-58.531992,-34.38157],[-58.531876,-34.38186],[-58.531656,-34.382783]]]}},{"type":"Feature","properties":{"partida":"357015274","cca":"35700010000000000000006800000000000000300H","tipo":"Rural","sup_m2":10663.0},"geometry":{"type":"Polygon","coordinates":[[[-58.533319,-34.379107],[-58.532985,-34.37893],[-58.532941,-34.378975],[-58.532887,-34.379067],[-58.532832,-34.379179],[-58.535471,-34.380732],[-58.535656,-34.380394],[-58.533319,-34.379107]]]}},{"type":"Feature","properties":{"partida":"357015277","cca":"35700010000000000000006800000000000000300S","tipo":"Urbano","sup_m2":2741.0},"geometry":{"type":"Polygon","coordinates":[[[-58.532749,-34.379314],[-58.532695,-34.379367],[-58.532622,-34.379501],[-58.534014,-34.380129],[-58.534065,-34.380008],[-58.532749,-34.379314]]]}},{"type":"Feature","properties":{"partida":null,"cca":"35700010000000000000006800000000000000300T","tipo":null,"sup_m2":52653.0},"geometry":{"type":"Polygon","coordinates":[[[-58.5325,-34.379937],[-58.533951,-34.380325],[-58.53331,-34.381933],[-58.536622,-34.382844],[-58.535471,-34.380732],[-58.5341,-34.379925],[-58.534014,-34.380129],[-58.532622,-34.379501],[-58.532538,-34.379791],[-58.5325,-34.379937]]]}},{"type":"Feature","properties":{"partida":"357015279","cca":"35700010000000000000006800000000000000300U","tipo":"Urbano","sup_m2":2602.9},"geometry":{"type":"Polygon","coordinates":[[[-58.533886,-34.380488],[-58.533951,-34.380325],[-58.5325,-34.379937],[-58.532422,-34.380085],[-58.533886,-34.380488]]]}},{"type":"Feature","properties":{"partida":"357015280","cca":"35700010000000000000006800000000000000300V","tipo":"Urbano","sup_m2":2681.5},"geometry":{"type":"Polygon","coordinates":[[[-58.533886,-34.380488],[-58.532492,-34.380105],[-58.532422,-34.380085],[-58.532374,-34.380259],[-58.532424,-34.380266],[-58.533821,-34.380652],[-58.533886,-34.380488]]]}},{"type":"Feature","properties":{"partida":"357015281","cca":"35700010000000000000006800000000000000300W","tipo":"Urbano","sup_m2":2424.5},"geometry":{"type":"Polygon","coordinates":[[[-58.53376,-34.380805],[-58.533821,-34.380652],[-58.532424,-34.380266],[-58.532374,-34.380259],[-58.532326,-34.380395],[-58.532392,-34.380417],[-58.53376,-34.380805]]]}},{"type":"Feature","properties":{"partida":"357015282","cca":"35700010000000000000006800000000000000300X","tipo":"Urbano","sup_m2":2668.9},"geometry":{"type":"Polygon","coordinates":[[[-58.533698,-34.380959],[-58.53376,-34.380805],[-58.532392,-34.380417],[-58.532326,-34.380395],[-58.53226,-34.380572],[-58.533698,-34.380959]]]}},{"type":"Feature","properties":{"partida":"357015283","cca":"35700010000000000000006800000000000000300Y","tipo":"Urbano","sup_m2":2705.1},"geometry":{"type":"Polygon","coordinates":[[[-58.533633,-34.381124],[-58.533698,-34.380959],[-58.53226,-34.380572],[-58.532207,-34.380746],[-58.533633,-34.381124]]]}},{"type":"Feature","properties":{"partida":"357015284","cca":"35700010000000000000006800000000000000300Z","tipo":"Urbano","sup_m2":2515.6},"geometry":{"type":"Polygon","coordinates":[[[-58.532175,-34.380912],[-58.533569,-34.381284],[-58.533633,-34.381124],[-58.532207,-34.380746],[-58.532199,-34.38082],[-58.532175,-34.380912]]]}},{"type":"Feature","properties":{"partida":null,"cca":"3570001000000000000000680000000000000030AA","tipo":null,"sup_m2":2529.4},"geometry":{"type":"Polygon","coordinates":[[[-58.533505,-34.381444],[-58.533569,-34.381284],[-58.532175,-34.380912],[-58.53213,-34.381081],[-58.533505,-34.381444]]]}},{"type":"Feature","properties":{"partida":"357015263","cca":"3570001000000000000000680000000000000030BB","tipo":"Urbano","sup_m2":2413.6},"geometry":{"type":"Polygon","coordinates":[[[-58.533442,-34.381603],[-58.533505,-34.381444],[-58.53213,-34.381081],[-58.532088,-34.38124],[-58.533442,-34.381603]]]}},{"type":"Feature","properties":{"partida":"357015265","cca":"3570001000000000000000680000000000000030CC","tipo":"Urbano","sup_m2":2396.6},"geometry":{"type":"Polygon","coordinates":[[[-58.533379,-34.381759],[-58.533442,-34.381603],[-58.532088,-34.38124],[-58.532044,-34.381404],[-58.533379,-34.381759]]]}},{"type":"Feature","properties":{"partida":"357015266","cca":"3570001000000000000000680000000000000030DD","tipo":"Urbano","sup_m2":2516.3},"geometry":{"type":"Polygon","coordinates":[[[-58.532044,-34.381404],[-58.532015,-34.381514],[-58.531992,-34.38157],[-58.53331,-34.381933],[-58.533379,-34.381759],[-58.532044,-34.381404]]]}},{"type":"Feature","properties":{"partida":"357015268","cca":"3570001000000000000000680000000000000030EE","tipo":"Urbano","sup_m2":1630.3},"geometry":{"type":"Polygon","coordinates":[[[-58.532531,-34.383121],[-58.532577,-34.382956],[-58.531656,-34.382783],[-58.531616,-34.382949],[-58.532531,-34.383121]]]}},{"type":"Feature","properties":{"partida":"357015272","cca":"3570001000000000000000680000000000000030FF","tipo":"Urbano","sup_m2":1627.0},"geometry":{"type":"Polygon","coordinates":[[[-58.532484,-34.383287],[-58.532531,-34.383121],[-58.531616,-34.382949],[-58.531575,-34.383117],[-58.532484,-34.383287]]]}},{"type":"Feature","properties":{"partida":"357015269","cca":"3570001000000000000000680000000000000030GG","tipo":"Urbano","sup_m2":1564.6},"geometry":{"type":"Polygon","coordinates":[[[-58.532484,-34.383287],[-58.531575,-34.383117],[-58.531536,-34.383278],[-58.532438,-34.383449],[-58.532484,-34.383287]]]}},{"type":"Feature","properties":{"partida":"357015273","cca":"3570001000000000000000680000000000000030HH","tipo":"Rural","sup_m2":27114.5},"geometry":{"type":"Polygon","coordinates":[[[-58.532577,-34.382956],[-58.532438,-34.383449],[-58.531536,-34.383278],[-58.531464,-34.38358],[-58.532331,-34.38389],[-58.533781,-34.384439],[-58.535054,-34.383421],[-58.532577,-34.382956]]]}},{"type":"Feature","properties":{"partida":"357000098","cca":"3570001000000000000000680000000000000030JJ","tipo":"Urbano","sup_m2":1681.9},"geometry":{"type":"Polygon","coordinates":[[[-58.53231,-34.38397],[-58.532331,-34.38389],[-58.531464,-34.38358],[-58.5314,-34.38385],[-58.53231,-34.38397]]]}},{"type":"Feature","properties":{"partida":"357000134","cca":"3570001000000000000000680000000000000030KK","tipo":"Urbano","sup_m2":1426.2},"geometry":{"type":"Polygon","coordinates":[[[-58.532269,-34.384131],[-58.53231,-34.38397],[-58.5314,-34.38385],[-58.531364,-34.383986],[-58.532269,-34.384131]]]}},{"type":"Feature","properties":{"partida":"357000129","cca":"3570001000000000000000680000000000000030MM","tipo":"Urbano","sup_m2":1565.9},"geometry":{"type":"Polygon","coordinates":[[[-58.531364,-34.383986],[-58.531296,-34.384141],[-58.532227,-34.384293],[-58.532269,-34.384131],[-58.531364,-34.383986]]]}},{"type":"Feature","properties":{"partida":"357000127","cca":"3570001000000000000000680000000000000030NN","tipo":"Urbano","sup_m2":1658.6},"geometry":{"type":"Polygon","coordinates":[[[-58.532184,-34.384461],[-58.532227,-34.384293],[-58.531296,-34.384141],[-58.531259,-34.38431],[-58.532184,-34.384461]]]}},{"type":"Feature","properties":{"partida":"357000124","cca":"3570001000000000000000680000000000000030PP","tipo":"Urbano","sup_m2":1612.1},"geometry":{"type":"Polygon","coordinates":[[[-58.532141,-34.384629],[-58.532184,-34.384461],[-58.531259,-34.38431],[-58.531201,-34.384464],[-58.532141,-34.384629]]]}},{"type":"Feature","properties":{"partida":"357000120","cca":"3570001000000000000000680000000000000030QQ","tipo":"Urbano","sup_m2":1611.9},"geometry":{"type":"Polygon","coordinates":[[[-58.532141,-34.384629],[-58.531201,-34.384464],[-58.531169,-34.384625],[-58.532098,-34.384793],[-58.532141,-34.384629]]]}},{"type":"Feature","properties":{"partida":"357000122","cca":"3570001000000000000000680000000000000030SS","tipo":"Urbano","sup_m2":1182.0},"geometry":{"type":"Polygon","coordinates":[[[-58.532016,-34.38515],[-58.532029,-34.385043],[-58.53118,-34.384949],[-58.531153,-34.385109],[-58.532016,-34.38515]]]}},{"type":"Feature","properties":{"partida":"357015271","cca":"357000100000000000000068000000000000003AAA","tipo":"Urbano","sup_m2":16981.7},"geometry":{"type":"Polygon","coordinates":[[[-58.531169,-34.384625],[-58.53118,-34.384949],[-58.532029,-34.385043],[-58.532016,-34.38515],[-58.533947,-34.384824],[-58.533781,-34.384439],[-58.532331,-34.38389],[-58.532098,-34.384793],[-58.531169,-34.384625]]]}},{"type":"Feature","properties":{"partida":"357000099","cca":"357000100000000000000068000000000000003DDD","tipo":"Rural","sup_m2":60533.7},"geometry":{"type":"MultiPolygon","coordinates":[[[[-58.532106,-34.38623],[-58.531882,-34.386277],[-58.531685,-34.386336],[-58.531608,-34.386485],[-58.531748,-34.386623],[-58.531872,-34.386856],[-58.531957,-34.386998],[-58.532064,-34.3871],[-58.532243,-34.387481],[-58.532384,-34.387702],[-58.532394,-34.387818],[-58.532437,-34.387951],[-58.532489,-34.387996],[-58.532576,-34.387992],[-58.532651,-34.387961],[-58.53272,-34.387905],[-58.532768,-34.387862],[-58.532991,-34.387709],[-58.533141,-34.387612],[-58.53322,-34.387581],[-58.533283,-34.387535],[-58.533466,-34.387438],[-58.533508,-34.387397],[-58.533568,-34.387373],[-58.533719,-34.387256],[-58.533742,-34.387126],[-58.533738,-34.386998],[-58.533684,-34.386868],[-58.533639,-34.386742],[-58.533582,-34.386601],[-58.533292,-34.386513],[-58.532905,-34.386496],[-58.532556,-34.386492],[-58.532455,-34.386488],[-58.532284,-34.38639],[-58.532106,-34.38623]]],[[[-58.534774,-34.3867],[-58.534646,-34.386449],[-58.533947,-34.384824],[-58.532016,-34.38515],[-58.531153,-34.385109],[-58.531191,-34.385481],[-58.531303,-34.385598],[-58.531686,-34.385582],[-58.532566,-34.385374],[-58.53273,-34.385386],[-58.532794,-34.38545],[-58.53277,-34.385558],[-58.53244,-34.38569],[-58.531989,-34.385776],[-58.531574,-34.385725],[-58.531296,-34.385659],[-58.531282,-34.385789],[-58.531314,-34.385886],[-58.531472,-34.386127],[-58.532673,-34.386138],[-58.532941,-34.386186],[-58.533806,-34.386385],[-58.533663,-34.386593],[-58.533699,-34.386751],[-58.533793,-34.386986],[-58.53409,-34.386959],[-58.534347,-34.386869],[-58.534774,-34.3867]]]]}},{"type":"Feature","properties":{"partida":"357019163","cca":"357000100000000000000068000000000000003HHH","tipo":"Rural","sup_m2":34581.1},"geometry":{"type":"Polygon","coordinates":[[[-58.536191,-34.386114],[-58.536076,-34.385949],[-58.534601,-34.383784],[-58.533781,-34.384439],[-58.534646,-34.386449],[-58.534774,-34.3867],[-58.535743,-34.386308],[-58.536046,-34.386161],[-58.536191,-34.386114]]]}},{"type":"Feature","properties":{"partida":"357020190","cca":"35700010000000000000006810000000000000100C","tipo":"Rural","sup_m2":11612.0},"geometry":{"type":"Polygon","coordinates":[[[-58.527631,-34.385468],[-58.530184,-34.386792],[-58.530429,-34.386493],[-58.52763,-34.385042],[-58.527631,-34.385468]]]}},{"type":"Feature","properties":{"partida":"357020191","cca":"35700010000000000000006810000000000000100D","tipo":"Rural","sup_m2":10843.7},"geometry":{"type":"Polygon","coordinates":[[[-58.530184,-34.386792],[-58.527631,-34.385468],[-58.527633,-34.38591],[-58.529897,-34.387084],[-58.530184,-34.386792]]]}},{"type":"Feature","properties":{"partida":"357020192","cca":"35700010000000000000006810000000000000100E","tipo":"Rural","sup_m2":10699.7},"geometry":{"type":"Polygon","coordinates":[[[-58.529897,-34.387084],[-58.527633,-34.38591],[-58.527635,-34.38641],[-58.529567,-34.387412],[-58.529897,-34.387084]]]}},{"type":"Feature","properties":{"partida":"357020193","cca":"35700010000000000000006810000000000000100F","tipo":"Rural","sup_m2":10525.0},"geometry":{"type":"Polygon","coordinates":[[[-58.529567,-34.387412],[-58.527635,-34.38641],[-58.527637,-34.387002],[-58.529201,-34.387813],[-58.529567,-34.387412]]]}},{"type":"Feature","properties":{"partida":"357020194","cca":"35700010000000000000006810000000000000100G","tipo":"Rural","sup_m2":11342.2},"geometry":{"type":"Polygon","coordinates":[[[-58.529201,-34.387813],[-58.527637,-34.387002],[-58.527639,-34.387494],[-58.528547,-34.388579],[-58.528801,-34.388412],[-58.528949,-34.388097],[-58.529201,-34.387813]]]}},{"type":"Feature","properties":{"partida":"357015386","cca":"357000100000000000000068100000000000029000","tipo":"Urbano","sup_m2":2230.6},"geometry":{"type":"Polygon","coordinates":[[[-58.527188,-34.379792],[-58.527128,-34.379619],[-58.525958,-34.379896],[-58.526028,-34.380067],[-58.527188,-34.379792]]]}},{"type":"Feature","properties":{"partida":"357015387","cca":"357000100000000000000068100000000000030000","tipo":"Urbano","sup_m2":2230.2},"geometry":{"type":"Polygon","coordinates":[[[-58.527248,-34.379966],[-58.527188,-34.379792],[-58.526028,-34.380067],[-58.526077,-34.380243],[-58.527248,-34.379966]]]}},{"type":"Feature","properties":{"partida":"357015388","cca":"357000100000000000000068100000000000031000","tipo":"Urbano","sup_m2":2249.7},"geometry":{"type":"Polygon","coordinates":[[[-58.527307,-34.380139],[-58.527248,-34.379966],[-58.526077,-34.380243],[-58.526126,-34.380419],[-58.527307,-34.380139]]]}},{"type":"Feature","properties":{"partida":"357015389","cca":"357000100000000000000068100000000000032000","tipo":"Urbano","sup_m2":2269.9},"geometry":{"type":"Polygon","coordinates":[[[-58.527367,-34.380312],[-58.527307,-34.380139],[-58.526126,-34.380419],[-58.526175,-34.380594],[-58.527367,-34.380312]]]}},{"type":"Feature","properties":{"partida":"357015390","cca":"357000100000000000000068100000000000033000","tipo":"Urbano","sup_m2":2300.0},"geometry":{"type":"Polygon","coordinates":[[[-58.527427,-34.380486],[-58.527367,-34.380312],[-58.526175,-34.380594],[-58.526214,-34.380773],[-58.527427,-34.380486]]]}},{"type":"Feature","properties":{"partida":"357015391","cca":"357000100000000000000068100000000000034000","tipo":"Urbano","sup_m2":2300.0},"geometry":{"type":"Polygon","coordinates":[[[-58.527486,-34.380659],[-58.527427,-34.380486],[-58.526214,-34.380773],[-58.526295,-34.380941],[-58.527486,-34.380659]]]}},{"type":"Feature","properties":{"partida":"357015392","cca":"357000100000000000000068100000000000035000","tipo":"Urbano","sup_m2":2289.9},"geometry":{"type":"Polygon","coordinates":[[[-58.527546,-34.380832],[-58.527486,-34.380659],[-58.526295,-34.380941],[-58.526344,-34.381117],[-58.527546,-34.380832]]]}},{"type":"Feature","properties":{"partida":"357015393","cca":"357000100000000000000068100000000000036000","tipo":"Urbano","sup_m2":2320.0},"geometry":{"type":"Polygon","coordinates":[[[-58.526383,-34.381295],[-58.527606,-34.381006],[-58.527546,-34.380832],[-58.526344,-34.381117],[-58.526383,-34.381295]]]}},{"type":"Feature","properties":{"partida":"357015394","cca":"357000100000000000000068100000000000037000","tipo":"Urbano","sup_m2":2340.4},"geometry":{"type":"Polygon","coordinates":[[[-58.527616,-34.381191],[-58.527615,-34.381033],[-58.527606,-34.381006],[-58.526383,-34.381295],[-58.526401,-34.381478],[-58.527616,-34.381191]]]}},{"type":"Feature","properties":{"partida":"357015395","cca":"357000100000000000000068100000000000038000","tipo":"Urbano","sup_m2":2298.6},"geometry":{"type":"Polygon","coordinates":[[[-58.527617,-34.381378],[-58.527616,-34.381191],[-58.526401,-34.381478],[-58.526429,-34.381659],[-58.527617,-34.381378]]]}},{"type":"Feature","properties":{"partida":"357015396","cca":"357000100000000000000068100000000000039000","tipo":"Urbano","sup_m2":2453.1},"geometry":{"type":"Polygon","coordinates":[[[-58.527617,-34.381584],[-58.527617,-34.381378],[-58.526429,-34.381659],[-58.526474,-34.381855],[-58.527617,-34.381584]]]}},{"type":"Feature","properties":{"partida":"357015397","cca":"357000100000000000000068100000000000040000","tipo":"Urbano","sup_m2":2977.9},"geometry":{"type":"Polygon","coordinates":[[[-58.527619,-34.381973],[-58.527617,-34.381584],[-58.526474,-34.381855],[-58.526496,-34.381978],[-58.527619,-34.381973]]]}},{"type":"Feature","properties":{"partida":"357015398","cca":"357000100000000000000068100000000000041000","tipo":"Urbano","sup_m2":2055.4},"geometry":{"type":"Polygon","coordinates":[[[-58.527619,-34.381973],[-58.526496,-34.381978],[-58.526508,-34.382158],[-58.527619,-34.382153],[-58.527619,-34.381973]]]}},{"type":"Feature","properties":{"partida":"357015399","cca":"357000100000000000000068100000000000042000","tipo":"Urbano","sup_m2":2035.2},"geometry":{"type":"Polygon","coordinates":[[[-58.52762,-34.382334],[-58.527619,-34.382153],[-58.526508,-34.382158],[-58.52652,-34.382338],[-58.52762,-34.382334]]]}},{"type":"Feature","properties":{"partida":"357015400","cca":"357000100000000000000068100000000000043000","tipo":"Urbano","sup_m2":2014.1},"geometry":{"type":"Polygon","coordinates":[[[-58.527621,-34.382514],[-58.52762,-34.382334],[-58.52652,-34.382338],[-58.526531,-34.382518],[-58.527621,-34.382514]]]}},{"type":"Feature","properties":{"partida":"357015401","cca":"357000100000000000000068100000000000044000","tipo":"Urbano","sup_m2":1984.8},"geometry":{"type":"Polygon","coordinates":[[[-58.526554,-34.382699],[-58.527621,-34.382694],[-58.527621,-34.382514],[-58.526531,-34.382518],[-58.526554,-34.382699]]]}},{"type":"Feature","properties":{"partida":"357015402","cca":"357000100000000000000068100000000000045000","tipo":"Urbano","sup_m2":1924.4},"geometry":{"type":"Polygon","coordinates":[[[-58.527622,-34.382874],[-58.527621,-34.382694],[-58.526554,-34.382699],[-58.526598,-34.382879],[-58.527622,-34.382874]]]}},{"type":"Feature","properties":{"partida":"357015403","cca":"357000100000000000000068100000000000046000","tipo":"Urbano","sup_m2":1863.7},"geometry":{"type":"Polygon","coordinates":[[[-58.527623,-34.383055],[-58.527622,-34.382874],[-58.526598,-34.382879],[-58.526621,-34.383059],[-58.527623,-34.383055]]]}},{"type":"Feature","properties":{"partida":"357015404","cca":"357000100000000000000068100000000000047000","tipo":"Urbano","sup_m2":1863.5},"geometry":{"type":"Polygon","coordinates":[[[-58.527623,-34.383235],[-58.527623,-34.383055],[-58.526621,-34.383059],[-58.5266,-34.383239],[-58.527623,-34.383235]]]}},{"type":"Feature","properties":{"partida":"357015405","cca":"357000100000000000000068100000000000048000","tipo":"Urbano","sup_m2":1883.7},"geometry":{"type":"Polygon","coordinates":[[[-58.527624,-34.383415],[-58.527623,-34.383235],[-58.5266,-34.383239],[-58.5266,-34.383419],[-58.527624,-34.383415]]]}},{"type":"Feature","properties":{"partida":"357015406","cca":"357000100000000000000068100000000000049000","tipo":"Urbano","sup_m2":1892.9},"geometry":{"type":"Polygon","coordinates":[[[-58.527625,-34.383595],[-58.527624,-34.383415],[-58.5266,-34.383419],[-58.52659,-34.3836],[-58.527625,-34.383595]]]}},{"type":"Feature","properties":{"partida":"357015407","cca":"357000100000000000000068100000000000050000","tipo":"Urbano","sup_m2":1922.7},"geometry":{"type":"Polygon","coordinates":[[[-58.527625,-34.383595],[-58.52659,-34.3836],[-58.526569,-34.38378],[-58.527625,-34.383776],[-58.527625,-34.383595]]]}},{"type":"Feature","properties":{"partida":"357015408","cca":"357000100000000000000068100000000000051000","tipo":"Urbano","sup_m2":1952.8},"geometry":{"type":"Polygon","coordinates":[[[-58.527626,-34.383956],[-58.527625,-34.383776],[-58.526569,-34.38378],[-58.526559,-34.38396],[-58.527626,-34.383956]]]}},{"type":"Feature","properties":{"partida":"357015409","cca":"357000100000000000000068100000000000052000","tipo":"Urbano","sup_m2":1952.1},"geometry":{"type":"Polygon","coordinates":[[[-58.527627,-34.384136],[-58.527626,-34.383956],[-58.526559,-34.38396],[-58.526571,-34.38414],[-58.527627,-34.384136]]]}},{"type":"Feature","properties":{"partida":"357015410","cca":"357000100000000000000068100000000000053000","tipo":"Urbano","sup_m2":1921.8},"geometry":{"type":"Polygon","coordinates":[[[-58.527627,-34.384316],[-58.527627,-34.384136],[-58.526571,-34.38414],[-58.526594,-34.384321],[-58.527627,-34.384316]]]}},{"type":"Feature","properties":{"partida":"357015411","cca":"357000100000000000000068100000000000054000","tipo":"Urbano","sup_m2":1892.0},"geometry":{"type":"Polygon","coordinates":[[[-58.527627,-34.384316],[-58.526594,-34.384321],[-58.526605,-34.384501],[-58.527628,-34.384497],[-58.527627,-34.384316]]]}},{"type":"Feature","properties":{"partida":"357015412","cca":"357000100000000000000068100000000000055000","tipo":"Urbano","sup_m2":1881.3},"geometry":{"type":"Polygon","coordinates":[[[-58.527629,-34.384677],[-58.527628,-34.384497],[-58.526605,-34.384501],[-58.526606,-34.384681],[-58.527629,-34.384677]]]}},{"type":"Feature","properties":{"partida":"357015413","cca":"357000100000000000000068100000000000056000","tipo":"Urbano","sup_m2":1901.4},"geometry":{"type":"Polygon","coordinates":[[[-58.527629,-34.384857],[-58.527629,-34.384677],[-58.526606,-34.384681],[-58.526585,-34.384861],[-58.527629,-34.384857]]]}},{"type":"Feature","properties":{"partida":"357015414","cca":"357000100000000000000068100000000000057000","tipo":"Urbano","sup_m2":1941.1},"geometry":{"type":"Polygon","coordinates":[[[-58.52763,-34.385037],[-58.527629,-34.384857],[-58.526585,-34.384861],[-58.526564,-34.385042],[-58.52763,-34.385037]]]}},{"type":"Feature","properties":{"partida":"357015415","cca":"357000100000000000000068100000000000058000","tipo":"Urbano","sup_m2":1970.6},"geometry":{"type":"Polygon","coordinates":[[[-58.52763,-34.385037],[-58.526564,-34.385042],[-58.526554,-34.385222],[-58.527631,-34.385218],[-58.52763,-34.385037]]]}},{"type":"Feature","properties":{"partida":"357015416","cca":"357000100000000000000068100000000000059000","tipo":"Urbano","sup_m2":1990.5},"geometry":{"type":"Polygon","coordinates":[[[-58.527631,-34.385398],[-58.527631,-34.385218],[-58.526554,-34.385222],[-58.526544,-34.385402],[-58.527631,-34.385398]]]}},{"type":"Feature","properties":{"partida":"357015417","cca":"357000100000000000000068100000000000060000","tipo":"Urbano","sup_m2":2887.3},"geometry":{"type":"Polygon","coordinates":[[[-58.527632,-34.385659],[-58.527631,-34.385398],[-58.526544,-34.385402],[-58.526523,-34.385658],[-58.527632,-34.385659]]]}},{"type":"Feature","properties":{"partida":"357015418","cca":"357000100000000000000068100000000000061000","tipo":"Urbano","sup_m2":3479.1},"geometry":{"type":"Polygon","coordinates":[[[-58.527634,-34.386141],[-58.527632,-34.385659],[-58.526523,-34.385658],[-58.526496,-34.385778],[-58.527634,-34.386141]]]}},{"type":"Feature","properties":{"partida":"357015419","cca":"357000100000000000000068100000000000062000","tipo":"Urbano","sup_m2":2309.7},"geometry":{"type":"Polygon","coordinates":[[[-58.527634,-34.386141],[-58.526496,-34.385778],[-58.526428,-34.385949],[-58.527635,-34.386334],[-58.527634,-34.386141]]]}},{"type":"Feature","properties":{"partida":"357015420","cca":"357000100000000000000068100000000000063000","tipo":"Urbano","sup_m2":2426.5},"geometry":{"type":"Polygon","coordinates":[[[-58.527635,-34.386334],[-58.526601,-34.386004],[-58.526428,-34.385949],[-58.52638,-34.386127],[-58.527635,-34.386527],[-58.527635,-34.386334]]]}},{"type":"Feature","properties":{"partida":"357015421","cca":"357000100000000000000068100000000000064000","tipo":"Urbano","sup_m2":2532.1},"geometry":{"type":"Polygon","coordinates":[[[-58.527635,-34.386527],[-58.526522,-34.386172],[-58.52638,-34.386127],[-58.526322,-34.386302],[-58.527636,-34.386721],[-58.527635,-34.386527]]]}},{"type":"Feature","properties":{"partida":"357015422","cca":"357000100000000000000068100000000000065000","tipo":"Urbano","sup_m2":2657.8},"geometry":{"type":"Polygon","coordinates":[[[-58.527637,-34.386914],[-58.527636,-34.386721],[-58.526322,-34.386302],[-58.526254,-34.386473],[-58.527637,-34.386914]]]}},{"type":"Feature","properties":{"partida":"357015423","cca":"357000100000000000000068100000000000066000","tipo":"Urbano","sup_m2":2794.0},"geometry":{"type":"Polygon","coordinates":[[[-58.527637,-34.387107],[-58.527637,-34.386914],[-58.526254,-34.386473],[-58.526186,-34.386645],[-58.527637,-34.387107]]]}},{"type":"Feature","properties":{"partida":"357015424","cca":"357000100000000000000068100000000000067000","tipo":"Urbano","sup_m2":2919.3},"geometry":{"type":"Polygon","coordinates":[[[-58.527637,-34.387107],[-58.526287,-34.386677],[-58.526186,-34.386645],[-58.526128,-34.386819],[-58.527638,-34.387301],[-58.527637,-34.387107]]]}},{"type":"Feature","properties":{"partida":"357015425","cca":"357000100000000000000068100000000000068000","tipo":"Urbano","sup_m2":3025.5},"geometry":{"type":"Polygon","coordinates":[[[-58.527639,-34.387494],[-58.527638,-34.387301],[-58.526128,-34.386819],[-58.52608,-34.386997],[-58.527639,-34.387494]]]}},{"type":"Feature","properties":{"partida":"357015426","cca":"357000100000000000000068100000000000069000","tipo":"Urbano","sup_m2":3011.4},"geometry":{"type":"Polygon","coordinates":[[[-58.527507,-34.387645],[-58.527639,-34.387494],[-58.52608,-34.386997],[-58.526011,-34.387168],[-58.527507,-34.387645]]]}},{"type":"Feature","properties":{"partida":"357015427","cca":"357000100000000000000068100000000000070000","tipo":"Urbano","sup_m2":2903.8},"geometry":{"type":"Polygon","coordinates":[[[-58.527375,-34.387796],[-58.527507,-34.387645],[-58.526011,-34.387168],[-58.525923,-34.387333],[-58.527375,-34.387796]]]}},{"type":"Feature","properties":{"partida":"357015428","cca":"357000100000000000000068100000000000071000","tipo":"Urbano","sup_m2":2789.0},"geometry":{"type":"Polygon","coordinates":[[[-58.527375,-34.387796],[-58.525974,-34.387349],[-58.525923,-34.387333],[-58.525865,-34.387508],[-58.527243,-34.387947],[-58.527375,-34.387796]]]}},{"type":"Feature","properties":{"partida":"357015429","cca":"357000100000000000000068100000000000072000","tipo":"Urbano","sup_m2":2652.5},"geometry":{"type":"Polygon","coordinates":[[[-58.525797,-34.387679],[-58.527111,-34.388098],[-58.527243,-34.387947],[-58.525865,-34.387508],[-58.525797,-34.387679]]]}},{"type":"Feature","properties":{"partida":"357015430","cca":"357000100000000000000068100000000000073000","tipo":"Urbano","sup_m2":2527.1},"geometry":{"type":"Polygon","coordinates":[[[-58.526979,-34.388249],[-58.527111,-34.388098],[-58.525797,-34.387679],[-58.525728,-34.387851],[-58.526979,-34.388249]]]}},{"type":"Feature","properties":{"partida":"357015431","cca":"357000100000000000000068100000000000074000","tipo":"Urbano","sup_m2":2411.4},"geometry":{"type":"Polygon","coordinates":[[[-58.526846,-34.3884],[-58.526979,-34.388249],[-58.525728,-34.387851],[-58.52565,-34.388019],[-58.526846,-34.3884]]]}},{"type":"Feature","properties":{"partida":"357015432","cca":"357000100000000000000068100000000000075000","tipo":"Urbano","sup_m2":2300.0},"geometry":{"type":"Polygon","coordinates":[[[-58.526846,-34.3884],[-58.52565,-34.388019],[-58.525577,-34.388189],[-58.526714,-34.388551],[-58.526846,-34.3884]]]}},{"type":"Feature","properties":{"partida":"357015433","cca":"357000100000000000000068100000000000076000","tipo":"Urbano","sup_m2":2194.4},"geometry":{"type":"Polygon","coordinates":[[[-58.525493,-34.388355],[-58.526582,-34.388702],[-58.526714,-34.388551],[-58.525577,-34.388189],[-58.525493,-34.388355]]]}},{"type":"Feature","properties":{"partida":"357015434","cca":"357000100000000000000068100000000000077000","tipo":"Urbano","sup_m2":2093.7},"geometry":{"type":"Polygon","coordinates":[[[-58.52645,-34.388853],[-58.526582,-34.388702],[-58.525493,-34.388355],[-58.525415,-34.388523],[-58.52645,-34.388853]]]}},{"type":"Feature","properties":{"partida":"357015435","cca":"357000100000000000000068100000000000078000","tipo":"Urbano","sup_m2":2007.0},"geometry":{"type":"Polygon","coordinates":[[[-58.526318,-34.389004],[-58.52645,-34.388853],[-58.525415,-34.388523],[-58.525316,-34.388685],[-58.526318,-34.389004]]]}},{"type":"Feature","properties":{"partida":"357015436","cca":"357000100000000000000068100000000000079000","tipo":"Urbano","sup_m2":2135.2},"geometry":{"type":"Polygon","coordinates":[[[-58.526157,-34.389189],[-58.526318,-34.389004],[-58.525316,-34.388685],[-58.525296,-34.38873],[-58.525326,-34.38874],[-58.525295,-34.38873],[-58.525231,-34.388851],[-58.526157,-34.389189]]]}},{"type":"Feature","properties":{"partida":"357015437","cca":"357000100000000000000068100000000000080000","tipo":"Urbano","sup_m2":1828.7},"geometry":{"type":"Polygon","coordinates":[[[-58.526026,-34.389338],[-58.526157,-34.389189],[-58.525231,-34.388851],[-58.525133,-34.389012],[-58.526026,-34.389338]]]}},{"type":"Feature","properties":{"partida":"357015438","cca":"357000100000000000000068100000000000081000","tipo":"Urbano","sup_m2":1772.3},"geometry":{"type":"Polygon","coordinates":[[[-58.526026,-34.389338],[-58.525133,-34.389012],[-58.525026,-34.38917],[-58.525896,-34.389487],[-58.526026,-34.389338]]]}},{"type":"Feature","properties":{"partida":"357015439","cca":"357000100000000000000068100000000000082000","tipo":"Urbano","sup_m2":1819.8},"geometry":{"type":"Polygon","coordinates":[[[-58.525859,-34.389671],[-58.525896,-34.389487],[-58.525026,-34.38917],[-58.524918,-34.389328],[-58.525859,-34.389671]]]}},{"type":"Feature","properties":{"partida":"357015440","cca":"357000100000000000000068100000000000083000","tipo":"Urbano","sup_m2":1952.6},"geometry":{"type":"Polygon","coordinates":[[[-58.525823,-34.389854],[-58.525859,-34.389671],[-58.524918,-34.389328],[-58.524821,-34.389489],[-58.525823,-34.389854]]]}},{"type":"Feature","properties":{"partida":"357015441","cca":"357000100000000000000068100000000000084000","tipo":"Urbano","sup_m2":2074.7},"geometry":{"type":"Polygon","coordinates":[[[-58.525786,-34.390038],[-58.525823,-34.389854],[-58.524821,-34.389489],[-58.524723,-34.38965],[-58.525786,-34.390038]]]}},{"type":"Feature","properties":{"partida":"357015442","cca":"357000100000000000000068100000000000085000","tipo":"Urbano","sup_m2":2186.9},"geometry":{"type":"Polygon","coordinates":[[[-58.525749,-34.390221],[-58.525786,-34.390038],[-58.524723,-34.38965],[-58.524636,-34.389815],[-58.525749,-34.390221]]]}},{"type":"Feature","properties":{"partida":"357015443","cca":"357000100000000000000068100000000000086000","tipo":"Urbano","sup_m2":2298.8},"geometry":{"type":"Polygon","coordinates":[[[-58.525713,-34.390405],[-58.525749,-34.390221],[-58.524636,-34.389815],[-58.524538,-34.389977],[-58.525713,-34.390405]]]}},{"type":"Feature","properties":{"partida":"357015444","cca":"357000100000000000000068100000000000087000","tipo":"Urbano","sup_m2":2402.6},"geometry":{"type":"Polygon","coordinates":[[[-58.525676,-34.390589],[-58.525713,-34.390405],[-58.524538,-34.389977],[-58.524461,-34.390145],[-58.525676,-34.390589]]]}},{"type":"Feature","properties":{"partida":"357015445","cca":"357000100000000000000068100000000000088000","tipo":"Urbano","sup_m2":2503.4},"geometry":{"type":"Polygon","coordinates":[[[-58.525639,-34.390772],[-58.525676,-34.390589],[-58.524461,-34.390145],[-58.524363,-34.390307],[-58.525639,-34.390772]]]}},{"type":"Feature","properties":{"partida":"357015446","cca":"357000100000000000000068100000000000089000","tipo":"Urbano","sup_m2":2626.0},"geometry":{"type":"Polygon","coordinates":[[[-58.525639,-34.390772],[-58.524363,-34.390307],[-58.524266,-34.390468],[-58.525603,-34.390956],[-58.525639,-34.390772]]]}},{"type":"Feature","properties":{"partida":"357015447","cca":"357000100000000000000068100000000000090000","tipo":"Urbano","sup_m2":2758.3},"geometry":{"type":"Polygon","coordinates":[[[-58.524266,-34.390468],[-58.524158,-34.390626],[-58.525566,-34.391139],[-58.525603,-34.390956],[-58.524266,-34.390468]]]}},{"type":"Feature","properties":{"partida":"357015448","cca":"357000100000000000000068100000000000091000","tipo":"Urbano","sup_m2":2901.3},"geometry":{"type":"Polygon","coordinates":[[[-58.525566,-34.391139],[-58.524158,-34.390626],[-58.524051,-34.390784],[-58.525529,-34.391323],[-58.525566,-34.391139]]]}},{"type":"Feature","properties":{"partida":"357015449","cca":"357000100000000000000068100000000000092000","tipo":"Urbano","sup_m2":3052.6},"geometry":{"type":"Polygon","coordinates":[[[-58.525529,-34.391323],[-58.524051,-34.390784],[-58.523933,-34.390938],[-58.525493,-34.391506],[-58.525529,-34.391323]]]}},{"type":"Feature","properties":{"partida":"357015450","cca":"357000100000000000000068100000000000093000","tipo":"Urbano","sup_m2":3165.3},"geometry":{"type":"Polygon","coordinates":[[[-58.525493,-34.391506],[-58.524122,-34.391007],[-58.523933,-34.390938],[-58.523866,-34.39111],[-58.525456,-34.39169],[-58.525493,-34.391506]]]}},{"type":"Feature","properties":{"partida":"357015451","cca":"357000100000000000000068100000000000094000","tipo":"Urbano","sup_m2":3217.5},"geometry":{"type":"Polygon","coordinates":[[[-58.525456,-34.39169],[-58.524035,-34.391172],[-58.523866,-34.39111],[-58.523808,-34.391286],[-58.525419,-34.391873],[-58.525456,-34.39169]]]}},{"type":"Feature","properties":{"partida":"357015452","cca":"357000100000000000000068100000000000095000","tipo":"Urbano","sup_m2":3269.9},"geometry":{"type":"Polygon","coordinates":[[[-58.525383,-34.392057],[-58.525419,-34.391873],[-58.523808,-34.391286],[-58.52374,-34.391458],[-58.525383,-34.392057]]]}},{"type":"Feature","properties":{"partida":"357015453","cca":"357000100000000000000068100000000000096000","tipo":"Urbano","sup_m2":4929.3},"geometry":{"type":"Polygon","coordinates":[[[-58.52374,-34.391458],[-58.523647,-34.391813],[-58.525346,-34.392241],[-58.525383,-34.392057],[-58.52374,-34.391458]]]}},{"type":"Feature","properties":{"partida":"357015454","cca":"357000100000000000000068100000000000097000","tipo":"Urbano","sup_m2":3806.9},"geometry":{"type":"Polygon","coordinates":[[[-58.525346,-34.392241],[-58.523647,-34.391813],[-58.523498,-34.39212],[-58.525303,-34.392324],[-58.525346,-34.392241]]]}},{"type":"Feature","properties":{"partida":"357015455","cca":"357000100000000000000068100000000000098000","tipo":"Urbano","sup_m2":3338.3},"geometry":{"type":"Polygon","coordinates":[[[-58.525303,-34.392324],[-58.523498,-34.39212],[-58.523425,-34.392294],[-58.525216,-34.392496],[-58.525303,-34.392324]]]}},{"type":"Feature","properties":{"partida":"357015456","cca":"357000100000000000000068100000000000099000","tipo":"Urbano","sup_m2":3279.9},"geometry":{"type":"Polygon","coordinates":[[[-58.525128,-34.392668],[-58.525216,-34.392496],[-58.523425,-34.392294],[-58.523385,-34.392471],[-58.525128,-34.392668]]]}},{"type":"Feature","properties":{"partida":"357015457","cca":"357000100000000000000068100000000000100000","tipo":"Urbano","sup_m2":3201.5},"geometry":{"type":"Polygon","coordinates":[[[-58.525128,-34.392668],[-58.523385,-34.392471],[-58.523334,-34.392647],[-58.52504,-34.39284],[-58.525128,-34.392668]]]}},{"type":"Feature","properties":{"partida":"357015458","cca":"357000100000000000000068100000000000101000","tipo":"Urbano","sup_m2":3132.9},"geometry":{"type":"Polygon","coordinates":[[[-58.524952,-34.393012],[-58.52504,-34.39284],[-58.523334,-34.392647],[-58.523283,-34.392824],[-58.524952,-34.393012]]]}},{"type":"Feature","properties":{"partida":"357015459","cca":"357000100000000000000068100000000000102000","tipo":"Urbano","sup_m2":3064.5},"geometry":{"type":"Polygon","coordinates":[[[-58.524952,-34.393012],[-58.523283,-34.392824],[-58.523232,-34.393],[-58.524864,-34.393184],[-58.524952,-34.393012]]]}},{"type":"Feature","properties":{"partida":"357015460","cca":"357000100000000000000068100000000000103000","tipo":"Urbano","sup_m2":2996.7},"geometry":{"type":"Polygon","coordinates":[[[-58.524864,-34.393184],[-58.523232,-34.393],[-58.523181,-34.393176],[-58.524776,-34.393356],[-58.524864,-34.393184]]]}},{"type":"Feature","properties":{"partida":"357015461","cca":"357000100000000000000068100000000000104000","tipo":"Urbano","sup_m2":2907.1},"geometry":{"type":"Polygon","coordinates":[[[-58.524688,-34.393528],[-58.524776,-34.393356],[-58.523181,-34.393176],[-58.523152,-34.393354],[-58.524688,-34.393528]]]}},{"type":"Feature","properties":{"partida":"357015462","cca":"357000100000000000000068100000000000105000","tipo":"Urbano","sup_m2":2778.8},"geometry":{"type":"Polygon","coordinates":[[[-58.523144,-34.393536],[-58.524601,-34.3937],[-58.524688,-34.393528],[-58.523152,-34.393354],[-58.523144,-34.393536]]]}},{"type":"Feature","properties":{"partida":"357015463","cca":"357000100000000000000068100000000000106000","tipo":"Urbano","sup_m2":2660.8},"geometry":{"type":"Polygon","coordinates":[[[-58.524601,-34.3937],[-58.523144,-34.393536],[-58.523104,-34.393713],[-58.524513,-34.393872],[-58.524601,-34.3937]]]}},{"type":"Feature","properties":{"partida":"357015464","cca":"357000100000000000000068100000000000107000","tipo":"Urbano","sup_m2":2561.3},"geometry":{"type":"Polygon","coordinates":[[[-58.524425,-34.394044],[-58.524513,-34.393872],[-58.523104,-34.393713],[-58.523074,-34.393891],[-58.524425,-34.394044]]]}},{"type":"Feature","properties":{"partida":"357015465","cca":"357000100000000000000068100000000000108000","tipo":"Urbano","sup_m2":2474.0},"geometry":{"type":"Polygon","coordinates":[[[-58.524425,-34.394044],[-58.523074,-34.393891],[-58.523023,-34.394068],[-58.524337,-34.394216],[-58.524425,-34.394044]]]}},{"type":"Feature","properties":{"partida":"357015466","cca":"357000100000000000000068100000000000109000","tipo":"Urbano","sup_m2":2976.3},"geometry":{"type":"Polygon","coordinates":[[[-58.523023,-34.394068],[-58.522976,-34.39429],[-58.524227,-34.394431],[-58.524337,-34.394216],[-58.523023,-34.394068]]]}},{"type":"Feature","properties":{"partida":"357015467","cca":"357000100000000000000068100000000000110000","tipo":"Urbano","sup_m2":2844.9},"geometry":{"type":"Polygon","coordinates":[[[-58.524117,-34.394646],[-58.524227,-34.394431],[-58.522976,-34.39429],[-58.522918,-34.394511],[-58.524117,-34.394646]]]}},{"type":"Feature","properties":{"partida":"357015468","cca":"357000100000000000000068100000000000111000","tipo":"Urbano","sup_m2":2700.0},"geometry":{"type":"Polygon","coordinates":[[[-58.524008,-34.394861],[-58.524117,-34.394646],[-58.522918,-34.394511],[-58.522881,-34.394734],[-58.524008,-34.394861]]]}},{"type":"Feature","properties":{"partida":"357015469","cca":"357000100000000000000068100000000000112000","tipo":"Urbano","sup_m2":2529.8},"geometry":{"type":"Polygon","coordinates":[[[-58.522844,-34.394957],[-58.523898,-34.395076],[-58.524008,-34.394861],[-58.522881,-34.394734],[-58.522844,-34.394957]]]}},{"type":"Feature","properties":{"partida":"357015470","cca":"357000100000000000000068100000000000113000","tipo":"Urbano","sup_m2":2361.1},"geometry":{"type":"Polygon","coordinates":[[[-58.522807,-34.39518],[-58.523788,-34.395291],[-58.523898,-34.395076],[-58.522844,-34.394957],[-58.522807,-34.39518]]]}},{"type":"Feature","properties":{"partida":"357015471","cca":"357000100000000000000068100000000000114000","tipo":"Urbano","sup_m2":2204.0},"geometry":{"type":"Polygon","coordinates":[[[-58.523788,-34.395291],[-58.522807,-34.39518],[-58.52276,-34.395402],[-58.523678,-34.395506],[-58.523788,-34.395291]]]}},{"type":"Feature","properties":{"partida":"357015472","cca":"357000100000000000000068100000000000115000","tipo":"Urbano","sup_m2":2047.1},"geometry":{"type":"Polygon","coordinates":[[[-58.523568,-34.395721],[-58.523678,-34.395506],[-58.52276,-34.395402],[-58.522723,-34.395625],[-58.523568,-34.395721]]]}},{"type":"Feature","properties":{"partida":"357015473","cca":"357000100000000000000068100000000000116000","tipo":"Urbano","sup_m2":1889.5},"geometry":{"type":"Polygon","coordinates":[[[-58.523568,-34.395721],[-58.522723,-34.395625],[-58.522675,-34.395848],[-58.523459,-34.395936],[-58.523568,-34.395721]]]}},{"type":"Feature","properties":{"partida":"357015474","cca":"357000100000000000000068100000000000117000","tipo":"Urbano","sup_m2":1732.5},"geometry":{"type":"Polygon","coordinates":[[[-58.522639,-34.396071],[-58.523349,-34.396151],[-58.523459,-34.395936],[-58.522675,-34.395848],[-58.522639,-34.396071]]]}},{"type":"Feature","properties":{"partida":"357015475","cca":"357000100000000000000068100000000000118000","tipo":"Urbano","sup_m2":1538.0},"geometry":{"type":"Polygon","coordinates":[[[-58.523349,-34.396151],[-58.522639,-34.396071],[-58.522624,-34.396296],[-58.523239,-34.396366],[-58.523349,-34.396151]]]}},{"type":"Feature","properties":{"partida":"357015476","cca":"357000100000000000000068100000000000119000","tipo":"Urbano","sup_m2":1318.4},"geometry":{"type":"Polygon","coordinates":[[[-58.523239,-34.396366],[-58.522624,-34.396296],[-58.522608,-34.396522],[-58.523129,-34.396581],[-58.523239,-34.396366]]]}},{"type":"Feature","properties":{"partida":"357015477","cca":"357000100000000000000068100000000000120000","tipo":"Urbano","sup_m2":5462.4},"geometry":{"type":"Polygon","coordinates":[[[-58.523129,-34.396581],[-58.522608,-34.396522],[-58.522636,-34.396753],[-58.522595,-34.397203],[-58.522622,-34.397401],[-58.5228,-34.397226],[-58.522625,-34.39741],[-58.522756,-34.397494],[-58.523005,-34.39736],[-58.523457,-34.396794],[-58.523129,-34.396581]]]}},{"type":"Feature","properties":{"partida":"357015478","cca":"357000100000000000000068100000000000121000","tipo":"Urbano","sup_m2":1017.6},"geometry":{"type":"Polygon","coordinates":[[[-58.523129,-34.396581],[-58.523457,-34.396794],[-58.523608,-34.396606],[-58.523239,-34.396366],[-58.523129,-34.396581]]]}},{"type":"Feature","properties":{"partida":"357015479","cca":"357000100000000000000068100000000000122000","tipo":"Urbano","sup_m2":1162.5},"geometry":{"type":"Polygon","coordinates":[[[-58.523239,-34.396366],[-58.523608,-34.396606],[-58.523775,-34.396429],[-58.523349,-34.396151],[-58.523239,-34.396366]]]}},{"type":"Feature","properties":{"partida":"357015480","cca":"357000100000000000000068100000000000123000","tipo":"Urbano","sup_m2":1332.0},"geometry":{"type":"Polygon","coordinates":[[[-58.523349,-34.396151],[-58.523775,-34.396429],[-58.523943,-34.396251],[-58.523459,-34.395936],[-58.523349,-34.396151]]]}},{"type":"Feature","properties":{"partida":"357015481","cca":"357000100000000000000068100000000000124000","tipo":"Urbano","sup_m2":1501.4},"geometry":{"type":"Polygon","coordinates":[[[-58.523459,-34.395936],[-58.523943,-34.396251],[-58.524111,-34.396074],[-58.523568,-34.395721],[-58.523459,-34.395936]]]}},{"type":"Feature","properties":{"partida":"357015482","cca":"357000100000000000000068100000000000125000","tipo":"Urbano","sup_m2":1696.0},"geometry":{"type":"Polygon","coordinates":[[[-58.523678,-34.395506],[-58.523568,-34.395721],[-58.524111,-34.396074],[-58.524296,-34.395908],[-58.523678,-34.395506]]]}},{"type":"Feature","properties":{"partida":"357015483","cca":"357000100000000000000068100000000000126000","tipo":"Urbano","sup_m2":1865.8},"geometry":{"type":"Polygon","coordinates":[[[-58.524447,-34.39572],[-58.52431,-34.395631],[-58.523788,-34.395291],[-58.523678,-34.395506],[-58.524296,-34.395908],[-58.524447,-34.39572]]]}},{"type":"Feature","properties":{"partida":"357015484","cca":"357000100000000000000068100000000000127000","tipo":"Urbano","sup_m2":2010.5},"geometry":{"type":"Polygon","coordinates":[[[-58.523898,-34.395076],[-58.523788,-34.395291],[-58.524447,-34.39572],[-58.524615,-34.395542],[-58.523898,-34.395076]]]}},{"type":"Feature","properties":{"partida":"357015485","cca":"357000100000000000000068100000000000128000","tipo":"Urbano","sup_m2":2179.3},"geometry":{"type":"Polygon","coordinates":[[[-58.524008,-34.394861],[-58.523898,-34.395076],[-58.524615,-34.395542],[-58.524782,-34.395365],[-58.524008,-34.394861]]]}},{"type":"Feature","properties":{"partida":"357015486","cca":"357000100000000000000068100000000000129000","tipo":"Urbano","sup_m2":2324.2},"geometry":{"type":"Polygon","coordinates":[[[-58.524008,-34.394861],[-58.524782,-34.395365],[-58.524933,-34.395177],[-58.524117,-34.394646],[-58.524008,-34.394861]]]}},{"type":"Feature","properties":{"partida":"357015487","cca":"357000100000000000000068100000000000130000","tipo":"Urbano","sup_m2":2469.3},"geometry":{"type":"Polygon","coordinates":[[[-58.524117,-34.394646],[-58.524933,-34.395177],[-58.525101,-34.395],[-58.524227,-34.394431],[-58.524117,-34.394646]]]}},{"type":"Feature","properties":{"partida":"357015488","cca":"357000100000000000000068100000000000131000","tipo":"Urbano","sup_m2":2638.6},"geometry":{"type":"Polygon","coordinates":[[[-58.524337,-34.394216],[-58.524227,-34.394431],[-58.525101,-34.395],[-58.525269,-34.394822],[-58.524337,-34.394216]]]}},{"type":"Feature","properties":{"partida":"357015489","cca":"357000100000000000000068100000000000132000","tipo":"Urbano","sup_m2":2222.9},"geometry":{"type":"Polygon","coordinates":[[[-58.525394,-34.394675],[-58.524425,-34.394044],[-58.524337,-34.394216],[-58.525269,-34.394822],[-58.525394,-34.394675]]]}},{"type":"Feature","properties":{"partida":"357015490","cca":"357000100000000000000068100000000000133000","tipo":"Urbano","sup_m2":2320.8},"geometry":{"type":"Polygon","coordinates":[[[-58.524513,-34.393872],[-58.524425,-34.394044],[-58.525394,-34.394675],[-58.525529,-34.394533],[-58.524513,-34.393872]]]}},{"type":"Feature","properties":{"partida":"357015491","cca":"357000100000000000000068100000000000134000","tipo":"Urbano","sup_m2":2420.0},"geometry":{"type":"Polygon","coordinates":[[[-58.524601,-34.3937],[-58.524513,-34.393872],[-58.525529,-34.394533],[-58.525654,-34.394386],[-58.524601,-34.3937]]]}},{"type":"Feature","properties":{"partida":"357015492","cca":"357000100000000000000068100000000000135000","tipo":"Urbano","sup_m2":2518.6},"geometry":{"type":"Polygon","coordinates":[[[-58.524688,-34.393528],[-58.524601,-34.3937],[-58.525654,-34.394386],[-58.525789,-34.394244],[-58.524688,-34.393528]]]}},{"type":"Feature","properties":{"partida":"357015493","cca":"357000100000000000000068100000000000136000","tipo":"Urbano","sup_m2":2627.0},"geometry":{"type":"Polygon","coordinates":[[[-58.524688,-34.393528],[-58.525789,-34.394244],[-58.525923,-34.394102],[-58.524776,-34.393356],[-58.524688,-34.393528]]]}},{"type":"Feature","properties":{"partida":"357015494","cca":"357000100000000000000068100000000000137000","tipo":"Urbano","sup_m2":2735.9},"geometry":{"type":"Polygon","coordinates":[[[-58.524776,-34.393356],[-58.525923,-34.394102],[-58.526057,-34.393961],[-58.524864,-34.393184],[-58.524776,-34.393356]]]}},{"type":"Feature","properties":{"partida":"357015495","cca":"357000100000000000000068100000000000138000","tipo":"Urbano","sup_m2":2844.2},"geometry":{"type":"Polygon","coordinates":[[[-58.524864,-34.393184],[-58.526057,-34.393961],[-58.526191,-34.393819],[-58.524952,-34.393012],[-58.524864,-34.393184]]]}},{"type":"Feature","properties":{"partida":"357015496","cca":"357000100000000000000068100000000000139000","tipo":"Urbano","sup_m2":2952.6},"geometry":{"type":"Polygon","coordinates":[[[-58.52504,-34.39284],[-58.524952,-34.393012],[-58.526191,-34.393819],[-58.526326,-34.393677],[-58.52504,-34.39284]]]}},{"type":"Feature","properties":{"partida":"357015497","cca":"357000100000000000000068100000000000140000","tipo":"Urbano","sup_m2":3050.5},"geometry":{"type":"Polygon","coordinates":[[[-58.525128,-34.392668],[-58.52504,-34.39284],[-58.526326,-34.393677],[-58.526451,-34.39353],[-58.525128,-34.392668]]]}},{"type":"Feature","properties":{"partida":"357015498","cca":"357000100000000000000068100000000000141000","tipo":"Urbano","sup_m2":3139.6},"geometry":{"type":"Polygon","coordinates":[[[-58.525216,-34.392496],[-58.525128,-34.392668],[-58.526451,-34.39353],[-58.526577,-34.393382],[-58.525216,-34.392496]]]}},{"type":"Feature","properties":{"partida":"357015499","cca":"357000100000000000000068100000000000142000","tipo":"Urbano","sup_m2":3228.2},"geometry":{"type":"Polygon","coordinates":[[[-58.525303,-34.392324],[-58.525216,-34.392496],[-58.526577,-34.393382],[-58.526703,-34.393235],[-58.525303,-34.392324]]]}},{"type":"Feature","properties":{"partida":"357015500","cca":"357000100000000000000068100000000000143000","tipo":"Urbano","sup_m2":3853.7},"geometry":{"type":"Polygon","coordinates":[[[-58.525925,-34.39238],[-58.525346,-34.392241],[-58.525303,-34.392324],[-58.526703,-34.393235],[-58.526823,-34.393093],[-58.525925,-34.39238]]]}},{"type":"Feature","properties":{"partida":"357015501","cca":"357000100000000000000068100000000000144000","tipo":"Urbano","sup_m2":2023.4},"geometry":{"type":"Polygon","coordinates":[[[-58.525925,-34.39238],[-58.52676,-34.393043],[-58.526823,-34.393093],[-58.526941,-34.392963],[-58.526503,-34.392519],[-58.525925,-34.39238]]]}},{"type":"Feature","properties":{"partida":"357015502","cca":"357000100000000000000068100000000000145000","tipo":"Urbano","sup_m2":1832.8},"geometry":{"type":"Polygon","coordinates":[[[-58.526503,-34.392519],[-58.526941,-34.392963],[-58.527168,-34.392681],[-58.527116,-34.392667],[-58.527168,-34.39268],[-58.52715,-34.392473],[-58.526503,-34.392519]]]}},{"type":"Feature","properties":{"partida":"357015503","cca":"357000100000000000000068100000000000146000","tipo":"Urbano","sup_m2":1701.8},"geometry":{"type":"Polygon","coordinates":[[[-58.525925,-34.39238],[-58.526503,-34.392519],[-58.52715,-34.392473],[-58.527121,-34.392294],[-58.525925,-34.39238]]]}},{"type":"Feature","properties":{"partida":"357015504","cca":"357000100000000000000068100000000000147000","tipo":"Urbano","sup_m2":2734.9},"geometry":{"type":"Polygon","coordinates":[[[-58.525925,-34.39238],[-58.527121,-34.392294],[-58.527113,-34.392114],[-58.525346,-34.392241],[-58.525925,-34.39238]]]}},{"type":"Feature","properties":{"partida":"357015505","cca":"357000100000000000000068100000000000148000","tipo":"Urbano","sup_m2":3261.6},"geometry":{"type":"Polygon","coordinates":[[[-58.525383,-34.392057],[-58.525346,-34.392241],[-58.527113,-34.392114],[-58.527148,-34.39193],[-58.525383,-34.392057]]]}},{"type":"Feature","properties":{"partida":"357015506","cca":"357000100000000000000068100000000000149000","tipo":"Urbano","sup_m2":3228.8},"geometry":{"type":"Polygon","coordinates":[[[-58.525383,-34.392057],[-58.527148,-34.39193],[-58.527151,-34.391749],[-58.525419,-34.391873],[-58.525383,-34.392057]]]}},{"type":"Feature","properties":{"partida":"357015507","cca":"357000100000000000000068100000000000150000","tipo":"Urbano","sup_m2":3136.0},"geometry":{"type":"Polygon","coordinates":[[[-58.527151,-34.391749],[-58.527122,-34.39157],[-58.525456,-34.39169],[-58.525419,-34.391873],[-58.527151,-34.391749]]]}},{"type":"Feature","properties":{"partida":"357015508","cca":"357000100000000000000068100000000000151000","tipo":"Urbano","sup_m2":3025.4},"geometry":{"type":"Polygon","coordinates":[[[-58.527122,-34.39157],[-58.527103,-34.391391],[-58.525493,-34.391506],[-58.525456,-34.39169],[-58.527122,-34.39157]]]}},{"type":"Feature","properties":{"partida":"357015509","cca":"357000100000000000000068100000000000152000","tipo":"Urbano","sup_m2":2892.8},"geometry":{"type":"Polygon","coordinates":[[[-58.527103,-34.391391],[-58.527052,-34.391214],[-58.525529,-34.391323],[-58.525493,-34.391506],[-58.527103,-34.391391]]]}},{"type":"Feature","properties":{"partida":"357015510","cca":"357000100000000000000068100000000000153000","tipo":"Urbano","sup_m2":2740.6},"geometry":{"type":"Polygon","coordinates":[[[-58.525566,-34.391139],[-58.525529,-34.391323],[-58.527052,-34.391214],[-58.527012,-34.391036],[-58.525566,-34.391139]]]}},{"type":"Feature","properties":{"partida":"357015511","cca":"357000100000000000000068100000000000154000","tipo":"Urbano","sup_m2":2569.3},"geometry":{"type":"Polygon","coordinates":[[[-58.527012,-34.391036],[-58.526939,-34.39086],[-58.525603,-34.390956],[-58.525566,-34.391139],[-58.527012,-34.391036]]]}},{"type":"Feature","properties":{"partida":"357015512","cca":"357000100000000000000068100000000000155000","tipo":"Urbano","sup_m2":2416.5},"geometry":{"type":"Polygon","coordinates":[[[-58.526939,-34.39086],[-58.526921,-34.39068],[-58.52691,-34.390681],[-58.525639,-34.390772],[-58.525603,-34.390956],[-58.526939,-34.39086]]]}},{"type":"Feature","properties":{"partida":"357015513","cca":"357000100000000000000068100000000000156000","tipo":"Urbano","sup_m2":2314.4},"geometry":{"type":"Polygon","coordinates":[[[-58.525639,-34.390772],[-58.526921,-34.39068],[-58.526902,-34.390501],[-58.525676,-34.390589],[-58.525639,-34.390772]]]}},{"type":"Feature","properties":{"partida":"357015514","cca":"357000100000000000000068100000000000157000","tipo":"Urbano","sup_m2":2222.8},"geometry":{"type":"Polygon","coordinates":[[[-58.525676,-34.390589],[-58.526902,-34.390501],[-58.526894,-34.39032],[-58.525713,-34.390405],[-58.525676,-34.390589]]]}},{"type":"Feature","properties":{"partida":"357015515","cca":"357000100000000000000068100000000000158000","tipo":"Urbano","sup_m2":2160.4},"geometry":{"type":"Polygon","coordinates":[[[-58.525713,-34.390405],[-58.526894,-34.39032],[-58.526908,-34.390138],[-58.525749,-34.390221],[-58.525713,-34.390405]]]}},{"type":"Feature","properties":{"partida":"357015516","cca":"357000100000000000000068100000000000159000","tipo":"Urbano","sup_m2":2138.2},"geometry":{"type":"Polygon","coordinates":[[[-58.525749,-34.390221],[-58.526908,-34.390138],[-58.526943,-34.389955],[-58.525786,-34.390038],[-58.525749,-34.390221]]]}},{"type":"Feature","properties":{"partida":"357015517","cca":"357000100000000000000068100000000000160000","tipo":"Urbano","sup_m2":4570.2},"geometry":{"type":"Polygon","coordinates":[[[-58.525896,-34.389487],[-58.525786,-34.390038],[-58.526943,-34.389955],[-58.527101,-34.38977],[-58.525896,-34.389487]]]}},{"type":"Feature","properties":{"partida":"357015518","cca":"357000100000000000000068100000000000161000","tipo":"Urbano","sup_m2":5146.7},"geometry":{"type":"Polygon","coordinates":[[[-58.525896,-34.389487],[-58.527101,-34.38977],[-58.527179,-34.38969],[-58.52643,-34.388876],[-58.525896,-34.389487]]]}},{"type":"Feature","properties":{"partida":"357015519","cca":"357000100000000000000068100000000000162000","tipo":"Urbano","sup_m2":2799.7},"geometry":{"type":"Polygon","coordinates":[[[-58.52643,-34.388876],[-58.527045,-34.389548],[-58.527179,-34.38969],[-58.527327,-34.389481],[-58.526596,-34.388686],[-58.52643,-34.388876]]]}},{"type":"Feature","properties":{"partida":"357015520","cca":"357000100000000000000068100000000000163000","tipo":"Urbano","sup_m2":2830.2},"geometry":{"type":"Polygon","coordinates":[[[-58.527327,-34.389481],[-58.527528,-34.389328],[-58.526762,-34.388497],[-58.526596,-34.388686],[-58.527327,-34.389481]]]}},{"type":"Feature","properties":{"partida":"357015521","cca":"357000100000000000000068100000000000164000","tipo":"Urbano","sup_m2":2961.1},"geometry":{"type":"Polygon","coordinates":[[[-58.527729,-34.389175],[-58.527689,-34.389133],[-58.526928,-34.388307],[-58.526762,-34.388497],[-58.527528,-34.389328],[-58.527729,-34.389175]]]}},{"type":"Feature","properties":{"partida":"357015522","cca":"357000100000000000000068100000000000165000","tipo":"Urbano","sup_m2":3092.2},"geometry":{"type":"Polygon","coordinates":[[[-58.527729,-34.389175],[-58.52793,-34.389023],[-58.527094,-34.388117],[-58.526928,-34.388307],[-58.527729,-34.389175]]]}},{"type":"Feature","properties":{"partida":"357015523","cca":"357000100000000000000068100000000000166000","tipo":"Urbano","sup_m2":3235.6},"geometry":{"type":"Polygon","coordinates":[[[-58.528138,-34.388877],[-58.528118,-34.388856],[-58.52726,-34.387928],[-58.527094,-34.388117],[-58.52793,-34.389023],[-58.528138,-34.388877]]]}},{"type":"Feature","properties":{"partida":"357015524","cca":"357000100000000000000068100000000000167000","tipo":"Urbano","sup_m2":3378.9},"geometry":{"type":"Polygon","coordinates":[[[-58.528138,-34.388877],[-58.528339,-34.388725],[-58.527426,-34.387738],[-58.52726,-34.387928],[-58.528138,-34.388877]]]}},{"type":"Feature","properties":{"partida":"357015525","cca":"357000100000000000000068100000000000168000","tipo":"Urbano","sup_m2":4033.8},"geometry":{"type":"Polygon","coordinates":[[[-58.528339,-34.388725],[-58.528547,-34.388579],[-58.527639,-34.387494],[-58.527426,-34.387738],[-58.528339,-34.388725]]]}},{"type":"Feature","properties":{"partida":"357015526","cca":"357000100000000000000068100000000000169000","tipo":"Urbano","sup_m2":2583.8},"geometry":{"type":"Polygon","coordinates":[[[-58.529419,-34.385871],[-58.529401,-34.38596],[-58.530429,-34.386493],[-58.530647,-34.386227],[-58.529419,-34.385871]]]}},{"type":"Feature","properties":{"partida":"357015527","cca":"357000100000000000000068100000000000170000","tipo":"Urbano","sup_m2":2849.9},"geometry":{"type":"Polygon","coordinates":[[[-58.529441,-34.38576],[-58.529419,-34.385871],[-58.530647,-34.386227],[-58.53076,-34.386062],[-58.530496,-34.385997],[-58.530762,-34.386055],[-58.530803,-34.385947],[-58.529441,-34.38576]]]}},{"type":"Feature","properties":{"partida":"357015528","cca":"357000100000000000000068100000000000171000","tipo":"Urbano","sup_m2":2500.3},"geometry":{"type":"Polygon","coordinates":[[[-58.529476,-34.385582],[-58.529441,-34.38576],[-58.530803,-34.385947],[-58.530796,-34.385763],[-58.529476,-34.385582]]]}},{"type":"Feature","properties":{"partida":"357015529","cca":"357000100000000000000068100000000000172000","tipo":"Urbano","sup_m2":2399.8},"geometry":{"type":"Polygon","coordinates":[[[-58.529476,-34.385582],[-58.530549,-34.385729],[-58.530796,-34.385763],[-58.530767,-34.385577],[-58.530584,-34.385552],[-58.529512,-34.385405],[-58.529476,-34.385582]]]}},{"type":"Feature","properties":{"partida":"357015530","cca":"357000100000000000000068100000000000173000","tipo":"Urbano","sup_m2":2299.8},"geometry":{"type":"Polygon","coordinates":[[[-58.530767,-34.385577],[-58.530759,-34.385393],[-58.529547,-34.385227],[-58.529512,-34.385405],[-58.530767,-34.385577]]]}},{"type":"Feature","properties":{"partida":"357015531","cca":"357000100000000000000068100000000000174000","tipo":"Urbano","sup_m2":2230.2},"geometry":{"type":"Polygon","coordinates":[[[-58.529583,-34.385049],[-58.529547,-34.385227],[-58.530759,-34.385393],[-58.530763,-34.385211],[-58.529583,-34.385049]]]}},{"type":"Feature","properties":{"partida":"357015532","cca":"357000100000000000000068100000000000175000","tipo":"Urbano","sup_m2":2200.3},"geometry":{"type":"Polygon","coordinates":[[[-58.529618,-34.384871],[-58.529583,-34.385049],[-58.530763,-34.385211],[-58.530798,-34.385033],[-58.529618,-34.384871]]]}},{"type":"Feature","properties":{"partida":"357015533","cca":"357000100000000000000068100000000000176000","tipo":"Urbano","sup_m2":2199.7},"geometry":{"type":"Polygon","coordinates":[[[-58.529654,-34.384693],[-58.529618,-34.384871],[-58.530798,-34.385033],[-58.530834,-34.384855],[-58.529654,-34.384693]]]}},{"type":"Feature","properties":{"partida":"357015534","cca":"357000100000000000000068100000000000177000","tipo":"Urbano","sup_m2":2179.8},"geometry":{"type":"Polygon","coordinates":[[[-58.529654,-34.384693],[-58.530726,-34.38484],[-58.530834,-34.384855],[-58.530848,-34.384674],[-58.529689,-34.384515],[-58.529654,-34.384693]]]}},{"type":"Feature","properties":{"partida":"357015535","cca":"357000100000000000000068100000000000178000","tipo":"Urbano","sup_m2":2150.2},"geometry":{"type":"Polygon","coordinates":[[[-58.530872,-34.384495],[-58.529725,-34.384338],[-58.529689,-34.384515],[-58.530848,-34.384674],[-58.530872,-34.384495]]]}},{"type":"Feature","properties":{"partida":"357015536","cca":"357000100000000000000068100000000000179000","tipo":"Urbano","sup_m2":2130.3},"geometry":{"type":"Polygon","coordinates":[[[-58.529725,-34.384338],[-58.530872,-34.384495],[-58.530897,-34.384316],[-58.52976,-34.38416],[-58.529725,-34.384338]]]}},{"type":"Feature","properties":{"partida":"357015537","cca":"357000100000000000000068100000000000180000","tipo":"Urbano","sup_m2":2129.7},"geometry":{"type":"Polygon","coordinates":[[[-58.52976,-34.38416],[-58.530897,-34.384316],[-58.530943,-34.384139],[-58.529795,-34.383982],[-58.52976,-34.38416]]]}},{"type":"Feature","properties":{"partida":"357015538","cca":"357000100000000000000068100000000000181000","tipo":"Urbano","sup_m2":2139.8},"geometry":{"type":"Polygon","coordinates":[[[-58.529831,-34.383804],[-58.529795,-34.383982],[-58.530943,-34.384139],[-58.530979,-34.383961],[-58.529831,-34.383804]]]}},{"type":"Feature","properties":{"partida":"357015539","cca":"357000100000000000000068100000000000182000","tipo":"Urbano","sup_m2":2150.2},"geometry":{"type":"Polygon","coordinates":[[[-58.529831,-34.383804],[-58.530979,-34.383961],[-58.531025,-34.383785],[-58.529866,-34.383626],[-58.529831,-34.383804]]]}},{"type":"Feature","properties":{"partida":"357015540","cca":"357000100000000000000068100000000000183000","tipo":"Urbano","sup_m2":2170.2},"geometry":{"type":"Polygon","coordinates":[[[-58.529902,-34.383448],[-58.529866,-34.383626],[-58.531025,-34.383785],[-58.531071,-34.383609],[-58.529902,-34.383448]]]}},{"type":"Feature","properties":{"partida":"357015541","cca":"357000100000000000000068100000000000184000","tipo":"Urbano","sup_m2":2179.7},"geometry":{"type":"Polygon","coordinates":[[[-58.529937,-34.383271],[-58.529902,-34.383448],[-58.531071,-34.383609],[-58.531106,-34.383431],[-58.529937,-34.383271]]]}},{"type":"Feature","properties":{"partida":"357015542","cca":"357000100000000000000068100000000000185000","tipo":"Urbano","sup_m2":2189.7},"geometry":{"type":"Polygon","coordinates":[[[-58.531153,-34.383254],[-58.529973,-34.383093],[-58.529937,-34.383271],[-58.531106,-34.383431],[-58.531153,-34.383254]]]}},{"type":"Feature","properties":{"partida":"357015543","cca":"357000100000000000000068100000000000186000","tipo":"Urbano","sup_m2":2210.2},"geometry":{"type":"Polygon","coordinates":[[[-58.530008,-34.382915],[-58.529973,-34.383093],[-58.531153,-34.383254],[-58.531199,-34.383078],[-58.530008,-34.382915]]]}},{"type":"Feature","properties":{"partida":"357015544","cca":"357000100000000000000068100000000000187000","tipo":"Urbano","sup_m2":2230.3},"geometry":{"type":"Polygon","coordinates":[[[-58.530044,-34.382737],[-58.530008,-34.382915],[-58.531199,-34.383078],[-58.531245,-34.382902],[-58.530044,-34.382737]]]}},{"type":"Feature","properties":{"partida":"357015545","cca":"357000100000000000000068100000000000188000","tipo":"Urbano","sup_m2":2249.8},"geometry":{"type":"Polygon","coordinates":[[[-58.530044,-34.382737],[-58.531245,-34.382902],[-58.531291,-34.382725],[-58.530079,-34.382559],[-58.530044,-34.382737]]]}},{"type":"Feature","properties":{"partida":"357015546","cca":"357000100000000000000068100000000000189000","tipo":"Urbano","sup_m2":2259.7},"geometry":{"type":"Polygon","coordinates":[[[-58.530115,-34.382381],[-58.530079,-34.382559],[-58.531291,-34.382725],[-58.531327,-34.382547],[-58.530115,-34.382381]]]}},{"type":"Feature","properties":{"partida":"357015547","cca":"357000100000000000000068100000000000190000","tipo":"Urbano","sup_m2":2280.2},"geometry":{"type":"Polygon","coordinates":[[[-58.530115,-34.382381],[-58.531327,-34.382547],[-58.531384,-34.382373],[-58.53015,-34.382203],[-58.530115,-34.382381]]]}},{"type":"Feature","properties":{"partida":"357015548","cca":"357000100000000000000068100000000000191000","tipo":"Urbano","sup_m2":2299.8},"geometry":{"type":"Polygon","coordinates":[[[-58.530186,-34.382026],[-58.53015,-34.382203],[-58.531384,-34.382373],[-58.531419,-34.382195],[-58.530186,-34.382026]]]}},{"type":"Feature","properties":{"partida":"357015549","cca":"357000100000000000000068100000000000192000","tipo":"Urbano","sup_m2":2310.3},"geometry":{"type":"Polygon","coordinates":[[[-58.530221,-34.381848],[-58.530186,-34.382026],[-58.531419,-34.382195],[-58.531465,-34.382018],[-58.530221,-34.381848]]]}},{"type":"Feature","properties":{"partida":"357015550","cca":"357000100000000000000068100000000000193000","tipo":"Urbano","sup_m2":2319.6},"geometry":{"type":"Polygon","coordinates":[[[-58.531501,-34.38184],[-58.530256,-34.38167],[-58.530221,-34.381848],[-58.531465,-34.382018],[-58.531501,-34.38184]]]}},{"type":"Feature","properties":{"partida":"357015551","cca":"357000100000000000000068100000000000194000","tipo":"Urbano","sup_m2":2350.3},"geometry":{"type":"Polygon","coordinates":[[[-58.531501,-34.38184],[-58.531568,-34.381667],[-58.530292,-34.381492],[-58.530256,-34.38167],[-58.531501,-34.38184]]]}},{"type":"Feature","properties":{"partida":"357015552","cca":"357000100000000000000068100000000000195000","tipo":"Urbano","sup_m2":2379.7},"geometry":{"type":"Polygon","coordinates":[[[-58.531568,-34.381667],[-58.531604,-34.381489],[-58.530327,-34.381314],[-58.530292,-34.381492],[-58.531568,-34.381667]]]}},{"type":"Feature","properties":{"partida":"357015553","cca":"357000100000000000000068100000000000196000","tipo":"Urbano","sup_m2":2370.4},"geometry":{"type":"Polygon","coordinates":[[[-58.531604,-34.381489],[-58.531628,-34.38131],[-58.530363,-34.381136],[-58.530327,-34.381314],[-58.531604,-34.381489]]]}},{"type":"Feature","properties":{"partida":"357015554","cca":"357000100000000000000068100000000000197000","tipo":"Urbano","sup_m2":2349.6},"geometry":{"type":"Polygon","coordinates":[[[-58.531628,-34.38131],[-58.531653,-34.381131],[-58.530398,-34.380959],[-58.530363,-34.381136],[-58.531628,-34.38131]]]}},{"type":"Feature","properties":{"partida":"357015555","cca":"357000100000000000000068100000000000198000","tipo":"Urbano","sup_m2":2350.4},"geometry":{"type":"Polygon","coordinates":[[[-58.531699,-34.380954],[-58.530434,-34.380781],[-58.530398,-34.380959],[-58.531653,-34.381131],[-58.531699,-34.380954]]]}},{"type":"Feature","properties":{"partida":"357015556","cca":"357000100000000000000068100000000000199000","tipo":"Urbano","sup_m2":2379.8},"geometry":{"type":"Polygon","coordinates":[[[-58.530469,-34.380603],[-58.530434,-34.380781],[-58.531699,-34.380954],[-58.531756,-34.380779],[-58.530469,-34.380603]]]}},{"type":"Feature","properties":{"partida":"357015557","cca":"357000100000000000000068100000000000200000","tipo":"Urbano","sup_m2":3414.1},"geometry":{"type":"Polygon","coordinates":[[[-58.530469,-34.380603],[-58.531756,-34.380779],[-58.531824,-34.380644],[-58.530591,-34.38025],[-58.530469,-34.380603]]]}},{"type":"Feature","properties":{"partida":"357015558","cca":"357000100000000000000068100000000000201000","tipo":"Urbano","sup_m2":2417.5},"geometry":{"type":"Polygon","coordinates":[[[-58.531872,-34.380466],[-58.531699,-34.380411],[-58.530652,-34.380077],[-58.530591,-34.38025],[-58.531824,-34.380644],[-58.531872,-34.380466]]]}},{"type":"Feature","properties":{"partida":"357015559","cca":"357000100000000000000068100000000000202000","tipo":"Urbano","sup_m2":2413.0},"geometry":{"type":"Polygon","coordinates":[[[-58.530652,-34.380077],[-58.531872,-34.380466],[-58.531939,-34.380294],[-58.530712,-34.379903],[-58.530652,-34.380077]]]}},{"type":"Feature","properties":{"partida":"357015560","cca":"357000100000000000000068100000000000203000","tipo":"Urbano","sup_m2":2437.7},"geometry":{"type":"Polygon","coordinates":[[[-58.530772,-34.379729],[-58.530712,-34.379903],[-58.531939,-34.380294],[-58.532018,-34.380126],[-58.530772,-34.379729]]]}},{"type":"Feature","properties":{"partida":"357015561","cca":"357000100000000000000068100000000000204000","tipo":"Urbano","sup_m2":2453.5},"geometry":{"type":"Polygon","coordinates":[[[-58.530772,-34.379729],[-58.531855,-34.380074],[-58.532018,-34.380126],[-58.532075,-34.379951],[-58.530832,-34.379555],[-58.530772,-34.379729]]]}},{"type":"Feature","properties":{"partida":"357015603","cca":"357000100000000000000068100A00000000002000","tipo":"Rural","sup_m2":29393.2},"geometry":{"type":"Polygon","coordinates":[[[-58.530328,-34.388986],[-58.531797,-34.388151],[-58.531636,-34.38746],[-58.531615,-34.387464],[-58.531635,-34.387456],[-58.531011,-34.386293],[-58.529941,-34.387396],[-58.530328,-34.388986]]]}},{"type":"Feature","properties":{"partida":"357020512","cca":"357000100000000000000068100A0000000000300A","tipo":"Rural","sup_m2":10005.8},"geometry":{"type":"Polygon","coordinates":[[[-58.53106,-34.389525],[-58.531441,-34.389257],[-58.531823,-34.388968],[-58.531932,-34.388844],[-58.531906,-34.388482],[-58.531736,-34.388186],[-58.530523,-34.388875],[-58.53106,-34.389525]]]}},{"type":"Feature","properties":{"partida":"357020513","cca":"357000100000000000000068100A0000000000300B","tipo":"Rural","sup_m2":14234.2},"geometry":{"type":"Polygon","coordinates":[[[-58.530645,-34.389816],[-58.53106,-34.389525],[-58.530523,-34.388875],[-58.530328,-34.388986],[-58.529962,-34.387484],[-58.529709,-34.387732],[-58.529436,-34.388123],[-58.529223,-34.388357],[-58.530645,-34.389816]]]}},{"type":"Feature","properties":{"partida":"357020514","cca":"357000100000000000000068100A0000000000300C","tipo":"Rural","sup_m2":10006.6},"geometry":{"type":"Polygon","coordinates":[[[-58.530219,-34.390117],[-58.530645,-34.389816],[-58.529223,-34.388357],[-58.529108,-34.388483],[-58.528916,-34.388726],[-58.530219,-34.390117]]]}},{"type":"Feature","properties":{"partida":"357020515","cca":"357000100000000000000068100A0000000000300D","tipo":"Rural","sup_m2":10006.2},"geometry":{"type":"Polygon","coordinates":[[[-58.528508,-34.389018],[-58.529778,-34.390426],[-58.530219,-34.390117],[-58.528916,-34.388726],[-58.528508,-34.389018]]]}},{"type":"Feature","properties":{"partida":"357017655","cca":"357000100000000000000068100A0000000000400A","tipo":"Rural","sup_m2":34262.3},"geometry":{"type":"Polygon","coordinates":[[[-58.529778,-34.390426],[-58.528508,-34.389018],[-58.52809,-34.389312],[-58.527713,-34.389649],[-58.527429,-34.389876],[-58.52725,-34.390162],[-58.527243,-34.390368],[-58.528307,-34.391556],[-58.528635,-34.391197],[-58.528559,-34.39112],[-58.528641,-34.391192],[-58.528931,-34.390985],[-58.52936,-34.390707],[-58.529778,-34.390426]]]}},{"type":"Feature","properties":{"partida":"357017656","cca":"357000100000000000000068100A0000000000400B","tipo":"Rural","sup_m2":10137.9},"geometry":{"type":"Polygon","coordinates":[[[-58.528307,-34.391556],[-58.528246,-34.391488],[-58.527243,-34.390368],[-58.527235,-34.390614],[-58.527307,-34.391062],[-58.527401,-34.391509],[-58.527418,-34.391959],[-58.527393,-34.392412],[-58.527476,-34.392395],[-58.527665,-34.392251],[-58.528004,-34.391898],[-58.528307,-34.391556]]]}},{"type":"Feature","properties":{"partida":"357016880","cca":"357000100000000000000069800C00000000001000","tipo":"Urbano","sup_m2":1029.1},"geometry":{"type":"Polygon","coordinates":[[[-58.535017,-34.389681],[-58.534812,-34.389573],[-58.534525,-34.389457],[-58.534838,-34.389994],[-58.535017,-34.389681]]]}},{"type":"Feature","properties":{"partida":"357016892","cca":"357000100000000000000069800C00000000069000","tipo":"Urbano","sup_m2":844.3},"geometry":{"type":"Polygon","coordinates":[[[-58.534946,-34.390176],[-58.535045,-34.390342],[-58.53537,-34.389714],[-58.535187,-34.389796],[-58.534946,-34.390176]]]}},{"type":"Feature","properties":{"partida":"357016893","cca":"357000100000000000000069800C00000000070000","tipo":"Urbano","sup_m2":804.9},"geometry":{"type":"Polygon","coordinates":[[[-58.535187,-34.389796],[-58.535107,-34.38975],[-58.535017,-34.389681],[-58.534838,-34.389994],[-58.534946,-34.390176],[-58.535187,-34.389796]]]}},{"type":"Feature","properties":{"partida":"357016720","cca":"357000100000000000000069800G00000000001000","tipo":"Urbano","sup_m2":14939.7},"geometry":{"type":"Polygon","coordinates":[[[-58.533606,-34.397263],[-58.532553,-34.395146],[-58.532372,-34.396527],[-58.532652,-34.397579],[-58.533606,-34.397263]]]}},{"type":"Feature","properties":{"partida":"357016721","cca":"357000100000000000000069800G00000000002000","tipo":"Urbano","sup_m2":2020.1},"geometry":{"type":"Polygon","coordinates":[[[-58.532692,-34.397777],[-58.533688,-34.39743],[-58.533606,-34.397263],[-58.532652,-34.397579],[-58.532692,-34.397777]]]}},{"type":"Feature","properties":{"partida":"357016722","cca":"357000100000000000000069800G00000000003000","tipo":"Urbano","sup_m2":1988.4},"geometry":{"type":"Polygon","coordinates":[[[-58.532745,-34.397949],[-58.533771,-34.397596],[-58.533688,-34.39743],[-58.532692,-34.397777],[-58.532745,-34.397949]]]}}]}