{"type":"FeatureCollection","features":[{"type":"Feature","properties":{"partida":"357018133","cca":"357000100000000000000066400C0000000001700E","tipo":"Rural","sup_m2":288205.8},"geometry":{"type":"Polygon","coordinates":[[[-58.519983,-34.399126],[-58.508209,-34.395965],[-58.507718,-34.397056],[-58.507736,-34.397062],[-58.506984,-34.398426],[-58.516774,-34.400377],[-58.518857,-34.400784],[-58.518875,-34.400747],[-58.518941,-34.400748],[-58.518982,-34.400733],[-58.519014,-34.40068],[-58.519002,-34.400551],[-58.519003,-34.400479],[-58.519034,-34.400374],[-58.519087,-34.4003],[-58.519163,-34.40027],[-58.519357,-34.400293],[-58.519486,-34.400324],[-58.519505,-34.400361],[-58.519489,-34.400443],[-58.51943,-34.400468],[-58.519353,-34.400456],[-58.519313,-34.400417],[-58.519312,-34.400375],[-58.519308,-34.400347],[-58.519256,-34.400337],[-58.51917,-34.400347],[-58.519108,-34.400403],[-58.519083,-34.400504],[-58.519089,-34.400614],[-58.519081,-34.400717],[-58.519091,-34.400781],[-58.519163,-34.400839],[-58.519501,-34.400942],[-58.519574,-34.400969],[-58.519813,-34.400658],[-58.51987,-34.400336],[-58.519746,-34.400203],[-58.519983,-34.399126]]]}},{"type":"Feature","properties":{"partida":"357016723","cca":"357000100000000000000069800G00000000004000","tipo":"Urbano","sup_m2":2092.8},"geometry":{"type":"Polygon","coordinates":[[[-58.532797,-34.398129],[-58.533854,-34.397763],[-58.533771,-34.397596],[-58.532745,-34.397949],[-58.532797,-34.398129]]]}},{"type":"Feature","properties":{"partida":"357016724","cca":"357000100000000000000069800G00000000005000","tipo":"Urbano","sup_m2":2159.0},"geometry":{"type":"Polygon","coordinates":[[[-58.532822,-34.398315],[-58.533937,-34.39793],[-58.533854,-34.397763],[-58.532797,-34.398129],[-58.532822,-34.398315]]]}},{"type":"Feature","properties":{"partida":"357016725","cca":"357000100000000000000069800G00000000006000","tipo":"Urbano","sup_m2":2254.0},"geometry":{"type":"Polygon","coordinates":[[[-58.532855,-34.398496],[-58.53402,-34.398096],[-58.533937,-34.39793],[-58.532822,-34.398315],[-58.532855,-34.398496]]]}},{"type":"Feature","properties":{"partida":"357016726","cca":"357000100000000000000069800G00000000007000","tipo":"Urbano","sup_m2":2358.4},"geometry":{"type":"Polygon","coordinates":[[[-58.532895,-34.398677],[-58.534103,-34.398263],[-58.53402,-34.398096],[-58.532855,-34.398496],[-58.532895,-34.398677]]]}},{"type":"Feature","properties":{"partida":"357016727","cca":"357000100000000000000069800G00000000008000","tipo":"Urbano","sup_m2":2398.6},"geometry":{"type":"Polygon","coordinates":[[[-58.532955,-34.398847],[-58.534185,-34.39843],[-58.534103,-34.398263],[-58.532895,-34.398677],[-58.532955,-34.398847]]]}},{"type":"Feature","properties":{"partida":"357016728","cca":"357000100000000000000069800G00000000009000","tipo":"Urbano","sup_m2":2437.6},"geometry":{"type":"Polygon","coordinates":[[[-58.532993,-34.399021],[-58.534268,-34.398596],[-58.534185,-34.39843],[-58.532955,-34.398847],[-58.532993,-34.399021]]]}},{"type":"Feature","properties":{"partida":"357016729","cca":"357000100000000000000069800G00000000010000","tipo":"Urbano","sup_m2":2643.1},"geometry":{"type":"Polygon","coordinates":[[[-58.533048,-34.39921],[-58.534351,-34.398763],[-58.534268,-34.398596],[-58.532993,-34.399021],[-58.533048,-34.39921]]]}},{"type":"Feature","properties":{"partida":"357016730","cca":"357000100000000000000069800G00000000011000","tipo":"Urbano","sup_m2":2564.0},"geometry":{"type":"Polygon","coordinates":[[[-58.533099,-34.399379],[-58.534434,-34.39893],[-58.534351,-34.398763],[-58.533048,-34.39921],[-58.533099,-34.399379]]]}},{"type":"Feature","properties":{"partida":"357016731","cca":"357000100000000000000069800G00000000012000","tipo":"Urbano","sup_m2":2792.7},"geometry":{"type":"Polygon","coordinates":[[[-58.533149,-34.399572],[-58.534517,-34.399096],[-58.534434,-34.39893],[-58.533099,-34.399379],[-58.533149,-34.399572]]]}},{"type":"Feature","properties":{"partida":"357016732","cca":"357000100000000000000069800G00000000013000","tipo":"Urbano","sup_m2":2737.2},"geometry":{"type":"Polygon","coordinates":[[[-58.5346,-34.399263],[-58.534517,-34.399096],[-58.533149,-34.399572],[-58.53315,-34.399676],[-58.533165,-34.399753],[-58.5346,-34.399263]]]}},{"type":"Feature","properties":{"partida":"357016733","cca":"357000100000000000000069800G00000000014000","tipo":"Urbano","sup_m2":2900.1},"geometry":{"type":"Polygon","coordinates":[[[-58.533201,-34.399936],[-58.534682,-34.39943],[-58.5346,-34.399263],[-58.533165,-34.399753],[-58.533201,-34.399936]]]}},{"type":"Feature","properties":{"partida":"357016734","cca":"357000100000000000000069800G00000000015000","tipo":"Urbano","sup_m2":2960.4},"geometry":{"type":"Polygon","coordinates":[[[-58.533277,-34.400105],[-58.534765,-34.399596],[-58.534682,-34.39943],[-58.533201,-34.399936],[-58.533277,-34.400105]]]}},{"type":"Feature","properties":{"partida":"357016735","cca":"357000100000000000000069800G00000000016000","tipo":"Urbano","sup_m2":2966.6},"geometry":{"type":"Polygon","coordinates":[[[-58.533307,-34.400284],[-58.534848,-34.399763],[-58.534765,-34.399596],[-58.533277,-34.400105],[-58.533307,-34.400284]]]}},{"type":"Feature","properties":{"partida":"357016736","cca":"357000100000000000000069800G00000000017000","tipo":"Urbano","sup_m2":3176.2},"geometry":{"type":"Polygon","coordinates":[[[-58.533349,-34.400473],[-58.534931,-34.39993],[-58.534848,-34.399763],[-58.533307,-34.400284],[-58.533349,-34.400473]]]}},{"type":"Feature","properties":{"partida":"357016738","cca":"357000100000000000000069800G00000000018000","tipo":"Urbano","sup_m2":3247.7},"geometry":{"type":"Polygon","coordinates":[[[-58.533383,-34.400663],[-58.535014,-34.400096],[-58.534931,-34.39993],[-58.533349,-34.400473],[-58.533383,-34.400663]]]}},{"type":"Feature","properties":{"partida":"357016739","cca":"357000100000000000000069800G00000000019000","tipo":"Urbano","sup_m2":3219.8},"geometry":{"type":"Polygon","coordinates":[[[-58.533427,-34.400835],[-58.535097,-34.400263],[-58.535014,-34.400096],[-58.533383,-34.400663],[-58.533427,-34.400835]]]}},{"type":"Feature","properties":{"partida":"357016740","cca":"357000100000000000000069800G00000000020000","tipo":"Urbano","sup_m2":3391.3},"geometry":{"type":"Polygon","coordinates":[[[-58.533457,-34.401021],[-58.53518,-34.40043],[-58.535097,-34.400263],[-58.533427,-34.400835],[-58.533457,-34.401021]]]}},{"type":"Feature","properties":{"partida":"357016741","cca":"357000100000000000000069800G00000000021000","tipo":"Urbano","sup_m2":3530.1},"geometry":{"type":"Polygon","coordinates":[[[-58.533484,-34.401212],[-58.535262,-34.400596],[-58.53518,-34.40043],[-58.533457,-34.401021],[-58.533484,-34.401212]]]}},{"type":"Feature","properties":{"partida":"357016742","cca":"357000100000000000000069800G00000000022000","tipo":"Urbano","sup_m2":3628.8},"geometry":{"type":"Polygon","coordinates":[[[-58.533529,-34.401396],[-58.535345,-34.400763],[-58.535262,-34.400596],[-58.533484,-34.401212],[-58.533529,-34.401396]]]}},{"type":"Feature","properties":{"partida":"357016743","cca":"357000100000000000000069800G00000000023000","tipo":"Urbano","sup_m2":3580.2},"geometry":{"type":"Polygon","coordinates":[[[-58.533557,-34.401572],[-58.535428,-34.40093],[-58.535345,-34.400763],[-58.533529,-34.401396],[-58.533557,-34.401572]]]}},{"type":"Feature","properties":{"partida":"357016744","cca":"357000100000000000000069800G00000000024000","tipo":"Urbano","sup_m2":3768.0},"geometry":{"type":"Polygon","coordinates":[[[-58.53356,-34.401762],[-58.535511,-34.401096],[-58.535428,-34.40093],[-58.533557,-34.401572],[-58.53356,-34.401762]]]}},{"type":"Feature","properties":{"partida":"357016745","cca":"357000100000000000000069800G00000000025000","tipo":"Urbano","sup_m2":3927.3},"geometry":{"type":"Polygon","coordinates":[[[-58.533596,-34.401945],[-58.535594,-34.401263],[-58.535511,-34.401096],[-58.53356,-34.401762],[-58.533596,-34.401945]]]}},{"type":"Feature","properties":{"partida":"357016746","cca":"357000100000000000000069800G00000000026000","tipo":"Urbano","sup_m2":4090.9},"geometry":{"type":"Polygon","coordinates":[[[-58.533651,-34.40213],[-58.535677,-34.40143],[-58.535594,-34.401263],[-58.533596,-34.401945],[-58.533651,-34.40213]]]}},{"type":"Feature","properties":{"partida":"357016747","cca":"357000100000000000000069800G00000000027000","tipo":"Urbano","sup_m2":3968.8},"geometry":{"type":"Polygon","coordinates":[[[-58.533657,-34.402309],[-58.535759,-34.401596],[-58.535677,-34.40143],[-58.533651,-34.40213],[-58.533657,-34.402309]]]}},{"type":"Feature","properties":{"partida":"357016748","cca":"357000100000000000000069800G00000000028000","tipo":"Urbano","sup_m2":4265.9},"geometry":{"type":"Polygon","coordinates":[[[-58.535842,-34.401763],[-58.535759,-34.401596],[-58.533657,-34.402309],[-58.533677,-34.4025],[-58.535842,-34.401763]]]}},{"type":"Feature","properties":{"partida":"357016750","cca":"357000100000000000000069800G00000000029000","tipo":"Urbano","sup_m2":4250.6},"geometry":{"type":"Polygon","coordinates":[[[-58.533706,-34.402675],[-58.535925,-34.40193],[-58.535842,-34.401763],[-58.533677,-34.4025],[-58.533706,-34.402675]]]}},{"type":"Feature","properties":{"partida":"357016752","cca":"357000100000000000000069800G00000000030000","tipo":"Urbano","sup_m2":4373.4},"geometry":{"type":"Polygon","coordinates":[[[-58.533706,-34.40286],[-58.536008,-34.402096],[-58.535925,-34.40193],[-58.533706,-34.402675],[-58.533706,-34.40286]]]}},{"type":"Feature","properties":{"partida":"357016754","cca":"357000100000000000000069800G00000000031000","tipo":"Urbano","sup_m2":4559.8},"geometry":{"type":"Polygon","coordinates":[[[-58.533711,-34.403046],[-58.536091,-34.402263],[-58.536008,-34.402096],[-58.533706,-34.40286],[-58.533711,-34.403046]]]}},{"type":"Feature","properties":{"partida":"357016756","cca":"357000100000000000000069800G00000000032000","tipo":"Urbano","sup_m2":4846.5},"geometry":{"type":"Polygon","coordinates":[[[-58.533739,-34.403238],[-58.536174,-34.40243],[-58.536091,-34.402263],[-58.533711,-34.403046],[-58.533726,-34.403133],[-58.533739,-34.403238]]]}},{"type":"Feature","properties":{"partida":"357016758","cca":"357000100000000000000069800G00000000033000","tipo":"Urbano","sup_m2":5119.5},"geometry":{"type":"Polygon","coordinates":[[[-58.533763,-34.403442],[-58.536256,-34.402596],[-58.536174,-34.40243],[-58.533739,-34.403238],[-58.533763,-34.403442]]]}},{"type":"Feature","properties":{"partida":"357016760","cca":"357000100000000000000069800G00000000034000","tipo":"Urbano","sup_m2":4927.0},"geometry":{"type":"Polygon","coordinates":[[[-58.533764,-34.403628],[-58.536339,-34.402763],[-58.536256,-34.402596],[-58.533763,-34.403442],[-58.533764,-34.403628]]]}},{"type":"Feature","properties":{"partida":"357016762","cca":"357000100000000000000069800G00000000035000","tipo":"Urbano","sup_m2":5394.6},"geometry":{"type":"Polygon","coordinates":[[[-58.533805,-34.403827],[-58.536422,-34.40293],[-58.536339,-34.402763],[-58.533764,-34.403628],[-58.533805,-34.403827]]]}},{"type":"Feature","properties":{"partida":"357016764","cca":"357000100000000000000069800G00000000036000","tipo":"Urbano","sup_m2":5041.6},"geometry":{"type":"Polygon","coordinates":[[[-58.533813,-34.404002],[-58.536505,-34.403096],[-58.536422,-34.40293],[-58.533805,-34.403827],[-58.533813,-34.404002]]]}},{"type":"Feature","properties":{"partida":"357016781","cca":"357000100000000000000069800G00000000045000","tipo":"Urbano","sup_m2":1428.2},"geometry":{"type":"Polygon","coordinates":[[[-58.534393,-34.405377],[-58.533809,-34.405555],[-58.533682,-34.405809],[-58.534476,-34.405544],[-58.534393,-34.405377]]]}},{"type":"Feature","properties":{"partida":"357016784","cca":"357000100000000000000069800G00000000046000","tipo":"Urbano","sup_m2":6456.6},"geometry":{"type":"Polygon","coordinates":[[[-58.533682,-34.405809],[-58.533653,-34.406403],[-58.533765,-34.406489],[-58.53401,-34.406357],[-58.534543,-34.40618],[-58.534768,-34.406127],[-58.534476,-34.405544],[-58.533682,-34.405809]]]}},{"type":"Feature","properties":{"partida":"357016786","cca":"357000100000000000000069800G00000000047000","tipo":"Urbano","sup_m2":2172.3},"geometry":{"type":"Polygon","coordinates":[[[-58.534393,-34.405377],[-58.534768,-34.406127],[-58.535029,-34.406084],[-58.534624,-34.405298],[-58.534393,-34.405377]]]}},{"type":"Feature","properties":{"partida":"357016788","cca":"357000100000000000000069800G00000000048000","tipo":"Urbano","sup_m2":2103.2},"geometry":{"type":"Polygon","coordinates":[[[-58.534624,-34.405298],[-58.535029,-34.406084],[-58.535262,-34.4061],[-58.534855,-34.405219],[-58.534624,-34.405298]]]}},{"type":"Feature","properties":{"partida":"357017496","cca":"357000100000000000000071300000000000001000","tipo":"Rural","sup_m2":1654297.4},"geometry":{"type":"Polygon","coordinates":[[[-58.536373,-34.416803],[-58.536766,-34.416397],[-58.53655,-34.41629],[-58.536217,-34.41592],[-58.536158,-34.415661],[-58.53613,-34.415432],[-58.53601,-34.415123],[-58.535868,-34.414688],[-58.535592,-34.413676],[-58.535531,-34.413409],[-58.535353,-34.413119],[-58.535238,-34.412948],[-58.535132,-34.412815],[-58.535028,-34.41262],[-58.534826,-34.412725],[-58.534446,-34.412934],[-58.534219,-34.412948],[-58.534031,-34.412884],[-58.533852,-34.412701],[-58.533753,-34.412625],[-58.533618,-34.412583],[-58.533514,-34.412589],[-58.533425,-34.412608],[-58.533153,-34.412695],[-58.533132,-34.412655],[-58.533622,-34.412533],[-58.533846,-34.412621],[-58.534093,-34.412837],[-58.534282,-34.412902],[-58.53447,-34.412859],[-58.53499,-34.412587],[-58.534916,-34.412328],[-58.534901,-34.412166],[-58.534824,-34.411942],[-58.534714,-34.411778],[-58.53462,-34.411543],[-58.534525,-34.411357],[-58.534755,-34.411105],[-58.534955,-34.410969],[-58.535317,-34.41038],[-58.535201,-34.409757],[-58.53531,-34.409567],[-58.535639,-34.409335],[-58.535734,-34.409169],[-58.535657,-34.408542],[-58.535666,-34.408264],[-58.535844,-34.407909],[-58.535894,-34.40767],[-58.536044,-34.40725],[-58.536248,-34.407136],[-58.536551,-34.406993],[-58.536694,-34.406904],[-58.536441,-34.406824],[-58.535938,-34.406707],[-58.535488,-34.406445],[-58.535325,-34.406307],[-58.5352,-34.40614],[-58.535004,-34.406138],[-58.534432,-34.406263],[-58.534147,-34.406364],[-58.533764,-34.40656],[-58.533573,-34.406441],[-58.533566,-34.40591],[-58.533748,-34.405507],[-58.533857,-34.40528],[-58.533934,-34.405091],[-58.533987,-34.404934],[-58.533985,-34.404806],[-58.533948,-34.404693],[-58.533843,-34.40449],[-58.533713,-34.40409],[-58.533709,-34.403607],[-58.533653,-34.403087],[-58.533622,-34.402645],[-58.533392,-34.401038],[-58.533188,-34.400033],[-58.53306,-34.399548],[-58.532918,-34.398972],[-58.532705,-34.397955],[-58.53245,-34.397022],[-58.532362,-34.396828],[-58.532301,-34.396551],[-58.532379,-34.396019],[-58.532455,-34.395277],[-58.532575,-34.394693],[-58.532776,-34.393888],[-58.533008,-34.393061],[-58.533295,-34.392431],[-58.533615,-34.391434],[-58.533632,-34.39105],[-58.533519,-34.390647],[-58.533146,-34.390202],[-58.53295,-34.390088],[-58.532285,-34.390062],[-58.531803,-34.390381],[-58.531363,-34.390716],[-58.531095,-34.390956],[-58.530467,-34.391446],[-58.52994,-34.391927],[-58.529253,-34.392692],[-58.52796,-34.393999],[-58.527379,-34.394635],[-58.526121,-34.396134],[-58.525366,-34.396946],[-58.524309,-34.39842],[-58.523023,-34.400421],[-58.522604,-34.401301],[-58.522476,-34.401961],[-58.522546,-34.402288],[-58.522858,-34.40291],[-58.523536,-34.403686],[-58.523592,-34.40397],[-58.523934,-34.404382],[-58.524228,-34.404391],[-58.524546,-34.404565],[-58.524795,-34.405163],[-58.525133,-34.405362],[-58.525145,-34.405379],[-58.525241,-34.405301],[-58.525149,-34.404901],[-58.525154,-34.404614],[-58.525212,-34.404035],[-58.52525,-34.403594],[-58.525635,-34.403428],[-58.526306,-34.40304],[-58.526872,-34.402669],[-58.527434,-34.402327],[-58.528083,-34.401961],[-58.528231,-34.401767],[-58.52832,-34.401116],[-58.528386,-34.400485],[-58.528541,-34.400055],[-58.529022,-34.398811],[-58.529213,-34.398542],[-58.529091,-34.398837],[-58.528673,-34.400064],[-58.52851,-34.400513],[-58.528436,-34.401144],[-58.52835,-34.401632],[-58.528293,-34.401841],[-58.52814,-34.402026],[-58.526925,-34.402738],[-58.525712,-34.403488],[-58.525331,-34.403659],[-58.525302,-34.404317],[-58.525237,-34.404604],[-58.525216,-34.404791],[-58.525268,-34.405047],[-58.525426,-34.405355],[-58.525238,-34.405474],[-58.525926,-34.406387],[-58.527415,-34.407336],[-58.527506,-34.407645],[-58.528478,-34.407983],[-58.528601,-34.408528],[-58.528836,-34.408725],[-58.529161,-34.409087],[-58.53021,-34.410213],[-58.530743,-34.410531],[-58.530714,-34.410862],[-58.530992,-34.410963],[-58.531909,-34.411728],[-58.532026,-34.412028],[-58.531943,-34.412141],[-58.532096,-34.412383],[-58.53237,-34.412749],[-58.532734,-34.413162],[-58.532914,-34.413112],[-58.533104,-34.413308],[-58.533187,-34.413469],[-58.533422,-34.413712],[-58.53353,-34.413667],[-58.533995,-34.414136],[-58.534062,-34.41433],[-58.534392,-34.414671],[-58.534621,-34.414944],[-58.534861,-34.41516],[-58.535168,-34.415565],[-58.535191,-34.415715],[-58.535429,-34.415964],[-58.535675,-34.416152],[-58.535878,-34.416495],[-58.535825,-34.416613],[-58.535886,-34.416666],[-58.536176,-34.41669],[-58.536373,-34.416803]]]}},{"type":"Feature","properties":{"partida":"357017497","cca":"357000100000000000000071300000000000002000","tipo":"Rural","sup_m2":928121.0},"geometry":{"type":"Polygon","coordinates":[[[-58.521072,-34.413246],[-58.520955,-34.418347],[-58.521142,-34.418249],[-58.521219,-34.41845],[-58.52146,-34.418453],[-58.522382,-34.418075],[-58.522909,-34.417873],[-58.523256,-34.417883],[-58.523716,-34.41811],[-58.524303,-34.418501],[-58.525109,-34.419117],[-58.533615,-34.416645],[-58.533434,-34.416445],[-58.533187,-34.41616],[-58.532856,-34.416015],[-58.532288,-34.415737],[-58.532201,-34.415313],[-58.531855,-34.414918],[-58.531378,-34.4145],[-58.531033,-34.414107],[-58.530526,-34.413597],[-58.53005,-34.412958],[-58.529605,-34.41243],[-58.529274,-34.412174],[-58.528907,-34.411807],[-58.528501,-34.411282],[-58.528302,-34.411061],[-58.527885,-34.410735],[-58.527237,-34.410064],[-58.526493,-34.409642],[-58.526389,-34.409187],[-58.525827,-34.408802],[-58.525533,-34.408465],[-58.524954,-34.408043],[-58.524671,-34.407815],[-58.524232,-34.40756],[-58.523821,-34.40733],[-58.523299,-34.406933],[-58.522773,-34.406701],[-58.522403,-34.406602],[-58.521918,-34.406465],[-58.521162,-34.410332],[-58.521072,-34.413246]]]}},{"type":"Feature","properties":{"partida":"357018079","cca":"357000100000000000000071300000000000006000","tipo":"Rural","sup_m2":165425.1},"geometry":{"type":"Polygon","coordinates":[[[-58.521072,-34.413246],[-58.521162,-34.410332],[-58.521918,-34.406465],[-58.521567,-34.406449],[-58.521266,-34.406348],[-58.521031,-34.406301],[-58.520689,-34.406341],[-58.520358,-34.406445],[-58.519982,-34.406941],[-58.519616,-34.407557],[-58.519331,-34.408022],[-58.518716,-34.408689],[-58.518122,-34.409596],[-58.517328,-34.410664],[-58.521072,-34.413246]]]}}]}