{"type":"FeatureCollection","features":[{"type":"Feature","properties":{"partida":"357017499","cca":"357000100000000000000071300000000000004000","tipo":"Rural","sup_m2":901813.0},"geometry":{"type":"Polygon","coordinates":[[[-58.525109,-34.419117],[-58.525898,-34.420179],[-58.527931,-34.422185],[-58.528631,-34.422836],[-58.530401,-34.424964],[-58.531004,-34.424508],[-58.53244,-34.425877],[-58.533997,-34.426925],[-58.53575,-34.427209],[-58.537242,-34.427629],[-58.53805,-34.42751],[-58.538688,-34.427257],[-58.539212,-34.42695],[-58.539483,-34.425108],[-58.539406,-34.42411],[-58.538683,-34.42235],[-58.537614,-34.421341],[-58.537217,-34.420872],[-58.537027,-34.420569],[-58.536761,-34.420287],[-58.536549,-34.419884],[-58.53626,-34.419693],[-58.536128,-34.419541],[-58.536032,-34.41926],[-58.535544,-34.418661],[-58.535166,-34.418241],[-58.53484,-34.418028],[-58.534461,-34.417705],[-58.533949,-34.417146],[-58.53385,-34.416932],[-58.533615,-34.416645],[-58.525109,-34.419117]]]}},{"type":"Feature","properties":{"partida":"357017500","cca":"357000100000000000000071300000000000005000","tipo":"Rural","sup_m2":752262.5},"geometry":{"type":"Polygon","coordinates":[[[-58.523421,-34.422855],[-58.527398,-34.426682],[-58.531037,-34.430199],[-58.531267,-34.430236],[-58.531767,-34.430276],[-58.532228,-34.430404],[-58.532586,-34.430551],[-58.532853,-34.430727],[-58.539651,-34.428794],[-58.539488,-34.428373],[-58.539532,-34.428092],[-58.539454,-34.427761],[-58.539254,-34.427318],[-58.539221,-34.427113],[-58.539212,-34.42695],[-58.538688,-34.427257],[-58.53805,-34.42751],[-58.537242,-34.427629],[-58.53575,-34.427209],[-58.533997,-34.426925],[-58.53244,-34.425877],[-58.531004,-34.424508],[-58.530401,-34.424964],[-58.528631,-34.422836],[-58.527931,-34.422185],[-58.525898,-34.420179],[-58.525109,-34.419117],[-58.524946,-34.419159],[-58.523214,-34.418023],[-58.52292,-34.418014],[-58.522057,-34.418322],[-58.521561,-34.418547],[-58.521121,-34.418529],[-58.520802,-34.41877],[-58.520437,-34.41922],[-58.520374,-34.419306],[-58.520315,-34.419503],[-58.520178,-34.419802],[-58.523421,-34.422855]]]}},{"type":"Feature","properties":{"partida":"357019254","cca":"35700010000000000000007130000000000000700A","tipo":"Rural","sup_m2":148092.0},"geometry":{"type":"Polygon","coordinates":[[[-58.523421,-34.422855],[-58.519728,-34.422124],[-58.519464,-34.422662],[-58.519304,-34.422939],[-58.522462,-34.424199],[-58.525853,-34.426644],[-58.525906,-34.429524],[-58.526058,-34.429572],[-58.526879,-34.429783],[-58.527398,-34.426682],[-58.523421,-34.422855]]]}},{"type":"Feature","properties":{"partida":"357019294","cca":"357000100000000000000071300000000000008000","tipo":"Rural","sup_m2":66409.7},"geometry":{"type":"Polygon","coordinates":[[[-58.531037,-34.430199],[-58.527398,-34.426682],[-58.526879,-34.429783],[-58.528309,-34.429862],[-58.529398,-34.429992],[-58.530141,-34.430188],[-58.530734,-34.430225],[-58.530928,-34.430192],[-58.531037,-34.430199]]]}},{"type":"Feature","properties":{"partida":"357019246","cca":"357000100000000000000071300000000000009000","tipo":"Rural","sup_m2":951281.8},"geometry":{"type":"Polygon","coordinates":[[[-58.521072,-34.413246],[-58.517328,-34.410664],[-58.516474,-34.411566],[-58.516231,-34.411953],[-58.51585,-34.412221],[-58.515324,-34.412664],[-58.514676,-34.413339],[-58.514075,-34.414034],[-58.512975,-34.414976],[-58.512109,-34.415999],[-58.509631,-34.420352],[-58.510083,-34.420546],[-58.510763,-34.420675],[-58.512101,-34.42127],[-58.51334,-34.421985],[-58.514011,-34.422613],[-58.514578,-34.423169],[-58.515178,-34.423564],[-58.515762,-34.423872],[-58.516486,-34.423941],[-58.517302,-34.423906],[-58.518029,-34.423854],[-58.518395,-34.423671],[-58.518828,-34.423256],[-58.519041,-34.42301],[-58.519198,-34.42281],[-58.519411,-34.422281],[-58.51968,-34.421451],[-58.519775,-34.420649],[-58.519916,-34.419846],[-58.520061,-34.419382],[-58.520343,-34.418952],[-58.520692,-34.418629],[-58.520955,-34.418347],[-58.521072,-34.413246]]]}},{"type":"Feature","properties":{"partida":"357019259","cca":"357000100000000000000071300000000000010000","tipo":"Rural","sup_m2":45070.6},"geometry":{"type":"Polygon","coordinates":[[[-58.523421,-34.422855],[-58.520178,-34.419802],[-58.52004,-34.42066],[-58.51992,-34.421261],[-58.519821,-34.421641],[-58.519728,-34.422124],[-58.523421,-34.422855]]]}},{"type":"Feature","properties":{"partida":"357019260","cca":"357000100000000000000071300000000000011000","tipo":"Rural","sup_m2":84527.3},"geometry":{"type":"Polygon","coordinates":[[[-58.520952,-34.42618],[-58.522462,-34.424199],[-58.519304,-34.422939],[-58.519187,-34.423141],[-58.519538,-34.423356],[-58.51975,-34.423502],[-58.519798,-34.423836],[-58.519721,-34.42363],[-58.519365,-34.423342],[-58.519086,-34.4232],[-58.518702,-34.423659],[-58.518413,-34.423849],[-58.518019,-34.424061],[-58.518082,-34.424551],[-58.518053,-34.424744],[-58.520741,-34.426395],[-58.520952,-34.42618]]]}},{"type":"Feature","properties":{"partida":"357019261","cca":"357000100000000000000071300000000000012000","tipo":"Rural","sup_m2":144509.0},"geometry":{"type":"Polygon","coordinates":[[[-58.522462,-34.424199],[-58.520952,-34.42618],[-58.522642,-34.427165],[-58.522447,-34.427984],[-58.522689,-34.42824],[-58.523157,-34.428678],[-58.523488,-34.428759],[-58.523763,-34.428908],[-58.524221,-34.429068],[-58.525245,-34.429347],[-58.525644,-34.429443],[-58.525906,-34.429524],[-58.525853,-34.426644],[-58.522462,-34.424199]]]}},{"type":"Feature","properties":{"partida":"357019262","cca":"357000100000000000000071300000000000013000","tipo":"Rural","sup_m2":57970.1},"geometry":{"type":"Polygon","coordinates":[[[-58.520595,-34.429218],[-58.521139,-34.428479],[-58.52135,-34.428314],[-58.522202,-34.427983],[-58.522447,-34.427984],[-58.522642,-34.427165],[-58.520952,-34.42618],[-58.518897,-34.42828],[-58.520595,-34.429218]]]}},{"type":"Feature","properties":{"partida":"357019413","cca":"357000100000000000000071300000000000014000","tipo":"Rural","sup_m2":444201.7},"geometry":{"type":"Polygon","coordinates":[[[-58.516774,-34.43039],[-58.518897,-34.42828],[-58.520741,-34.426395],[-58.518053,-34.424744],[-58.51805,-34.424769],[-58.517911,-34.425121],[-58.517674,-34.425573],[-58.517656,-34.426041],[-58.517602,-34.426595],[-58.51752,-34.426877],[-58.517125,-34.427155],[-58.517447,-34.426856],[-58.517579,-34.426282],[-58.517643,-34.425553],[-58.518007,-34.424716],[-58.518028,-34.424548],[-58.517927,-34.424163],[-58.517661,-34.424115],[-58.516824,-34.424115],[-58.515568,-34.424079],[-58.515324,-34.423981],[-58.514961,-34.42406],[-58.514676,-34.424256],[-58.514589,-34.424613],[-58.514558,-34.424933],[-58.514518,-34.424641],[-58.514601,-34.424217],[-58.515085,-34.423841],[-58.514419,-34.423321],[-58.513066,-34.422099],[-58.512009,-34.421454],[-58.5111,-34.421023],[-58.510412,-34.420828],[-58.509784,-34.420907],[-58.509141,-34.421379],[-58.508894,-34.421713],[-58.51443,-34.427116],[-58.512775,-34.428214],[-58.516774,-34.43039]]]}},{"type":"Feature","properties":{"partida":"357019414","cca":"357000100000000000000071300000000000015000","tipo":"Rural","sup_m2":53606.9},"geometry":{"type":"Polygon","coordinates":[[[-58.518897,-34.42828],[-58.516774,-34.43039],[-58.518317,-34.43123],[-58.518845,-34.430753],[-58.51997,-34.429698],[-58.520429,-34.429443],[-58.520595,-34.429218],[-58.518897,-34.42828]]]}},{"type":"Feature","properties":{"partida":"357019247","cca":"357000100000000000000071300E00000000000000","tipo":"Rural","sup_m2":99506.8},"geometry":{"type":"Polygon","coordinates":[[[-58.524561,-34.429243],[-58.524196,-34.429146],[-58.523113,-34.428776],[-58.522663,-34.428542],[-58.522376,-34.428081],[-58.521962,-34.428153],[-58.521338,-34.428446],[-58.521076,-34.428747],[-58.520506,-34.429527],[-58.520019,-34.42977],[-58.519746,-34.430081],[-58.519283,-34.430511],[-58.518735,-34.431146],[-58.519141,-34.431153],[-58.519522,-34.431167],[-58.520008,-34.431135],[-58.520921,-34.431159],[-58.521505,-34.431166],[-58.522102,-34.431224],[-58.522517,-34.431269],[-58.524561,-34.429243]]]}},{"type":"Feature","properties":{"partida":"357017501","cca":"357000100000000000000071300M0000000000100A","tipo":"Rural","sup_m2":397109.0},"geometry":{"type":"Polygon","coordinates":[[[-58.537888,-34.433491],[-58.538088,-34.433172],[-58.538264,-34.43298],[-58.538404,-34.432558],[-58.538654,-34.432206],[-58.538756,-34.432009],[-58.538792,-34.431835],[-58.538864,-34.431637],[-58.538938,-34.431303],[-58.53876,-34.431178],[-58.53851,-34.430983],[-58.538285,-34.430857],[-58.53801,-34.43074],[-58.537771,-34.430651],[-58.537616,-34.430617],[-58.537366,-34.430626],[-58.536832,-34.430746],[-58.536406,-34.430869],[-58.536173,-34.430903],[-58.536018,-34.430918],[-58.535857,-34.430909],[-58.535654,-34.430953],[-58.535358,-34.430945],[-58.535158,-34.430957],[-58.534814,-34.43104],[-58.534164,-34.431132],[-58.533677,-34.431133],[-58.533074,-34.430963],[-58.532804,-34.430755],[-58.532342,-34.430521],[-58.53169,-34.430321],[-58.530758,-34.430289],[-58.530541,-34.430278],[-58.530069,-34.43024],[-58.529126,-34.430016],[-58.528565,-34.429961],[-58.528014,-34.429913],[-58.527343,-34.429926],[-58.526541,-34.429792],[-58.526064,-34.429663],[-58.525713,-34.429535],[-58.525095,-34.429404],[-58.524712,-34.429282],[-58.524561,-34.429243],[-58.522517,-34.431269],[-58.522971,-34.431433],[-58.523971,-34.432029],[-58.525033,-34.432609],[-58.531969,-34.432833],[-58.537888,-34.433491]]]}},{"type":"Feature","properties":{"partida":"357018080","cca":"357000100000000000000071300M0000000000200A","tipo":"Rural","sup_m2":330086.6},"geometry":{"type":"MultiPolygon","coordinates":[[[[-58.518073,-34.432455],[-58.518317,-34.43123],[-58.511992,-34.427788],[-58.509141,-34.430981],[-58.509147,-34.431588],[-58.509199,-34.431805],[-58.509267,-34.431982],[-58.509266,-34.432073],[-58.509303,-34.432141],[-58.518073,-34.432455]]],[[[-58.524775,-34.432591],[-58.523876,-34.432105],[-58.523095,-34.431613],[-58.522556,-34.431343],[-58.5215,-34.431231],[-58.520382,-34.431204],[-58.519414,-34.431243],[-58.519037,-34.431201],[-58.518678,-34.431223],[-58.518397,-34.431596],[-58.518383,-34.431978],[-58.518345,-34.432465],[-58.524775,-34.432591]]]]}},{"type":"Feature","properties":{"partida":"357019739","cca":"357000100000000000000071300M00000000005000","tipo":"Rural","sup_m2":199704.9},"geometry":{"type":"Polygon","coordinates":[[[-58.525033,-34.432609],[-58.525391,-34.432865],[-58.526098,-34.433329],[-58.526771,-34.433709],[-58.527255,-34.434007],[-58.527903,-34.434434],[-58.528441,-34.434745],[-58.529064,-34.434887],[-58.530026,-34.435034],[-58.5308,-34.435043],[-58.531919,-34.435023],[-58.532533,-34.434895],[-58.533366,-34.43468],[-58.534047,-34.434554],[-58.534212,-34.434454],[-58.534495,-34.434322],[-58.53494,-34.43426],[-58.535408,-34.434426],[-58.536139,-34.434928],[-58.536484,-34.435125],[-58.536669,-34.435054],[-58.536902,-34.434661],[-58.537097,-34.434399],[-58.537209,-34.434069],[-58.53753,-34.433803],[-58.537888,-34.433491],[-58.531969,-34.432833],[-58.525033,-34.432609]]]}}]}