{"type":"FeatureCollection","features":[{"type":"Feature","properties":{"partida":"357018544","cca":"357000100000000000000071300C00000000001000","tipo":"Rural","sup_m2":14796.1},"geometry":{"type":"Polygon","coordinates":[[[-58.529977,-34.436155],[-58.53151,-34.436198],[-58.53229,-34.437004],[-58.532578,-34.436997],[-58.532811,-34.437021],[-58.530417,-34.435127],[-58.530217,-34.435171],[-58.529993,-34.435135],[-58.529977,-34.436155]]]}},{"type":"Feature","properties":{"partida":"357018545","cca":"357000100000000000000071300C00000000002000","tipo":"Rural","sup_m2":3555.1},"geometry":{"type":"Polygon","coordinates":[[[-58.53151,-34.436198],[-58.531508,-34.437052],[-58.531684,-34.437066],[-58.53183,-34.437057],[-58.531916,-34.437048],[-58.53205,-34.437045],[-58.532178,-34.437027],[-58.53229,-34.437004],[-58.53151,-34.436198]]]}},{"type":"Feature","properties":{"partida":"357018546","cca":"357000100000000000000071300C00000000003000","tipo":"Rural","sup_m2":4365.1},"geometry":{"type":"Polygon","coordinates":[[[-58.53151,-34.436198],[-58.531016,-34.436184],[-58.531023,-34.437055],[-58.531105,-34.437068],[-58.531233,-34.437071],[-58.531336,-34.437062],[-58.531405,-34.437066],[-58.531508,-34.437052],[-58.53151,-34.436198]]]}},{"type":"Feature","properties":{"partida":"357018547","cca":"357000100000000000000071300C00000000004000","tipo":"Rural","sup_m2":4767.7},"geometry":{"type":"Polygon","coordinates":[[[-58.531016,-34.436184],[-58.53049,-34.436169],[-58.53048,-34.437054],[-58.53052,-34.437056],[-58.530718,-34.437044],[-58.530891,-34.437051],[-58.530984,-34.43706],[-58.531023,-34.437055],[-58.531016,-34.436184]]]}},{"type":"Feature","properties":{"partida":"357018548","cca":"357000100000000000000071300C00000000005000","tipo":"Rural","sup_m2":4783.3},"geometry":{"type":"Polygon","coordinates":[[[-58.529977,-34.436155],[-58.529951,-34.437072],[-58.530095,-34.437069],[-58.530255,-34.437053],[-58.530299,-34.437062],[-58.530392,-34.437054],[-58.53044,-34.437058],[-58.53048,-34.437054],[-58.53049,-34.436169],[-58.529977,-34.436155]]]}},{"type":"Feature","properties":{"partida":"357018549","cca":"357000100000000000000071300C00000000006000","tipo":"Rural","sup_m2":17455.8},"geometry":{"type":"Polygon","coordinates":[[[-58.529977,-34.436155],[-58.529993,-34.435135],[-58.529692,-34.435117],[-58.529371,-34.435062],[-58.529023,-34.43501],[-58.528894,-34.43496],[-58.528672,-34.43492],[-58.528687,-34.435037],[-58.528648,-34.436143],[-58.52971,-34.436168],[-58.529681,-34.437127],[-58.529951,-34.437072],[-58.529977,-34.436155]]]}},{"type":"Feature","properties":{"partida":"357018550","cca":"357000100000000000000071300C00000000007000","tipo":"Rural","sup_m2":5225.7},"geometry":{"type":"Polygon","coordinates":[[[-58.52917,-34.436155],[-58.529164,-34.437137],[-58.529212,-34.437135],[-58.529288,-34.437137],[-58.529424,-34.437126],[-58.529494,-34.437124],[-58.529531,-34.437133],[-58.529614,-34.437126],[-58.529681,-34.437127],[-58.52971,-34.436168],[-58.52917,-34.436155]]]}},{"type":"Feature","properties":{"partida":"357018551","cca":"357000100000000000000071300C00000000008000","tipo":"Rural","sup_m2":5671.7},"geometry":{"type":"Polygon","coordinates":[[[-58.52917,-34.436155],[-58.528648,-34.436143],[-58.528617,-34.437031],[-58.528619,-34.43716],[-58.528747,-34.437166],[-58.528803,-34.437202],[-58.528864,-34.437224],[-58.528969,-34.437225],[-58.529059,-34.437176],[-58.529116,-34.43714],[-58.529164,-34.437137],[-58.52917,-34.436155]]]}},{"type":"Feature","properties":{"partida":"357018552","cca":"357000100000000000000071300C00000000009000","tipo":"Rural","sup_m2":5689.4},"geometry":{"type":"Polygon","coordinates":[[[-58.528101,-34.436131],[-58.528083,-34.437024],[-58.528083,-34.437191],[-58.528262,-34.437169],[-58.528376,-34.43717],[-58.52847,-34.437149],[-58.528561,-34.437171],[-58.528619,-34.43716],[-58.528617,-34.437031],[-58.528648,-34.436143],[-58.528101,-34.436131]]]}},{"type":"Feature","properties":{"partida":"357018553","cca":"357000100000000000000071300C00000000010000","tipo":"Rural","sup_m2":5870.9},"geometry":{"type":"Polygon","coordinates":[[[-58.527584,-34.436119],[-58.52752,-34.437017],[-58.527518,-34.437166],[-58.527776,-34.437186],[-58.527806,-34.437193],[-58.527948,-34.437181],[-58.528083,-34.437191],[-58.528083,-34.437024],[-58.528101,-34.436131],[-58.527584,-34.436119]]]}},{"type":"Feature","properties":{"partida":"357018554","cca":"357000100000000000000071300C00000000011000","tipo":"Rural","sup_m2":5781.5},"geometry":{"type":"Polygon","coordinates":[[[-58.527518,-34.437166],[-58.52752,-34.437017],[-58.527584,-34.436119],[-58.527074,-34.436107],[-58.526937,-34.437155],[-58.527055,-34.437138],[-58.527134,-34.437147],[-58.527195,-34.437159],[-58.527372,-34.437174],[-58.52748,-34.437163],[-58.527518,-34.437166]]]}},{"type":"Feature","properties":{"partida":"357017848","cca":"357000100000000000000071300C00000000012000","tipo":"Rural","sup_m2":26234.9},"geometry":{"type":"Polygon","coordinates":[[[-58.528648,-34.436143],[-58.528687,-34.435037],[-58.528672,-34.43492],[-58.528413,-34.434877],[-58.52798,-34.434572],[-58.527642,-34.434896],[-58.52608,-34.436987],[-58.526234,-34.437065],[-58.526414,-34.437086],[-58.526562,-34.43709],[-58.52664,-34.437097],[-58.52672,-34.437111],[-58.526937,-34.437155],[-58.527074,-34.436107],[-58.528648,-34.436143]]]}},{"type":"Feature","properties":{"partida":"357018081","cca":"357000100000000000000071300D00000000000000","tipo":"Rural","sup_m2":999183.2},"geometry":{"type":"MultiPolygon","coordinates":[[[[-58.519277,-34.438205],[-58.51961,-34.438506],[-58.519956,-34.44052],[-58.520056,-34.441297],[-58.520264,-34.44241],[-58.520453,-34.443645],[-58.520549,-34.444002],[-58.521466,-34.444029],[-58.522423,-34.443869],[-58.523548,-34.443283],[-58.524523,-34.442686],[-58.525373,-34.442106],[-58.526066,-34.441896],[-58.526911,-34.441544],[-58.527408,-34.441263],[-58.527603,-34.441332],[-58.529358,-34.440525],[-58.529587,-34.440142],[-58.530361,-34.439594],[-58.530818,-34.43956],[-58.532578,-34.438427],[-58.533084,-34.438089],[-58.533373,-34.437844],[-58.533043,-34.437693],[-58.532338,-34.437327],[-58.531028,-34.437369],[-58.52977,-34.43755],[-58.528334,-34.437601],[-58.526846,-34.437422],[-58.525054,-34.437066],[-58.524027,-34.436846],[-58.523357,-34.436895],[-58.522439,-34.437185],[-58.521122,-34.437561],[-58.519874,-34.438019],[-58.519277,-34.438205]]],[[[-58.512237,-34.436063],[-58.512133,-34.437185],[-58.511948,-34.438293],[-58.51074,-34.440397],[-58.513117,-34.441517],[-58.514377,-34.441409],[-58.516906,-34.442619],[-58.519452,-34.443802],[-58.520431,-34.443972],[-58.520374,-34.443644],[-58.520184,-34.442453],[-58.519996,-34.441375],[-58.519678,-34.439057],[-58.519524,-34.438481],[-58.519277,-34.438205],[-58.512237,-34.436063]]]]}},{"type":"Feature","properties":{"partida":"357019266","cca":"357000100000000000000071300M00000000003000","tipo":"Rural","sup_m2":716926.4},"geometry":{"type":"MultiPolygon","coordinates":[[[[-58.524775,-34.432591],[-58.518345,-34.432465],[-58.518338,-34.432552],[-58.518209,-34.433003],[-58.518047,-34.433317],[-58.517922,-34.433552],[-58.517821,-34.43386],[-58.517651,-34.434181],[-58.517095,-34.434651],[-58.516922,-34.43471],[-58.516706,-34.43471],[-58.5165,-34.434658],[-58.516253,-34.434551],[-58.515951,-34.434367],[-58.515292,-34.433878],[-58.515061,-34.43369],[-58.514796,-34.433416],[-58.51467,-34.433256],[-58.514541,-34.433142],[-58.514367,-34.433079],[-58.513593,-34.432904],[-58.513309,-34.432807],[-58.513001,-34.432749],[-58.512633,-34.433007],[-58.512306,-34.433371],[-58.512086,-34.43354],[-58.511407,-34.433725],[-58.511127,-34.434088],[-58.512171,-34.435804],[-58.512237,-34.436063],[-58.519277,-34.438205],[-58.519401,-34.437826],[-58.520183,-34.437554],[-58.521193,-34.437138],[-58.522152,-34.436908],[-58.522766,-34.436902],[-58.523477,-34.436762],[-58.524337,-34.436753],[-58.525312,-34.436921],[-58.52608,-34.436987],[-58.527642,-34.434896],[-58.52798,-34.434572],[-58.527227,-34.434123],[-58.52627,-34.433535],[-58.525685,-34.433241],[-58.524775,-34.432591]]],[[[-58.509303,-34.432141],[-58.509522,-34.432457],[-58.509892,-34.432846],[-58.510506,-34.433425],[-58.510635,-34.433535],[-58.510939,-34.433992],[-58.511062,-34.43383],[-58.51123,-34.433647],[-58.511434,-34.433549],[-58.511698,-34.433485],[-58.511906,-34.433442],[-58.512055,-34.433407],[-58.512195,-34.433288],[-58.512408,-34.433017],[-58.512819,-34.432666],[-58.513111,-34.432613],[-58.513823,-34.432833],[-58.514454,-34.43297],[-58.514743,-34.43309],[-58.514911,-34.433351],[-58.515004,-34.433466],[-58.515166,-34.433586],[-58.515464,-34.433823],[-58.51583,-34.434121],[-58.516181,-34.434341],[-58.516502,-34.434498],[-58.516745,-34.434554],[-58.516987,-34.434522],[-58.517381,-34.434149],[-58.517646,-34.433786],[-58.517966,-34.432984],[-58.518073,-34.432455],[-58.509303,-34.432141]]]]}},{"type":"Feature","properties":{"partida":"357019738","cca":"357000100000000000000071300M00000000004000","tipo":"Rural","sup_m2":100182.1},"geometry":{"type":"Polygon","coordinates":[[[-58.530417,-34.435127],[-58.533029,-34.437193],[-58.533431,-34.437568],[-58.533927,-34.437638],[-58.534164,-34.437508],[-58.534636,-34.437121],[-58.535038,-34.436745],[-58.535653,-34.436229],[-58.536155,-34.435751],[-58.536186,-34.435458],[-58.536185,-34.43527],[-58.535763,-34.434969],[-58.534778,-34.434402],[-58.534032,-34.434655],[-58.533459,-34.434794],[-58.532313,-34.43505],[-58.531567,-34.43514],[-58.530417,-34.435127]]]}}]}