{"type":"FeatureCollection","features":[{"type":"Feature","properties":{"partida":"357010957","cca":"357000100000000000000065000B00000000004000","tipo":"Rural","sup_m2":52959.9},"geometry":{"type":"Polygon","coordinates":[[[-58.479705,-34.339118],[-58.477202,-34.338097],[-58.476232,-34.339761],[-58.478753,-34.340786],[-58.478909,-34.340595],[-58.479497,-34.33944],[-58.479639,-34.339248],[-58.479705,-34.339118]]]}},{"type":"Feature","properties":{"partida":"357010958","cca":"357000100000000000000065000B00000000005000","tipo":"Rural","sup_m2":66449.0},"geometry":{"type":"Polygon","coordinates":[[[-58.477202,-34.338097],[-58.479705,-34.339118],[-58.479807,-34.338917],[-58.480146,-34.338461],[-58.480459,-34.337885],[-58.480654,-34.337514],[-58.480735,-34.337395],[-58.480916,-34.337086],[-58.478271,-34.336018],[-58.477202,-34.338097]]]}},{"type":"Feature","properties":{"partida":"357010959","cca":"357000100000000000000065000B00000000006000","tipo":"Urbano","sup_m2":80160.6},"geometry":{"type":"Polygon","coordinates":[[[-58.483871,-34.332242],[-58.481281,-34.331164],[-58.479841,-34.333609],[-58.482395,-34.334665],[-58.482661,-34.334208],[-58.482746,-34.334134],[-58.483044,-34.33365],[-58.483145,-34.333341],[-58.483277,-34.333193],[-58.483414,-34.332952],[-58.483723,-34.332666],[-58.483871,-34.332242]]]}},{"type":"Feature","properties":{"partida":"357018075","cca":"357000100000000000000065000B00000000010000","tipo":"Urbano","sup_m2":23364.7},"geometry":{"type":"Polygon","coordinates":[[[-58.481275,-34.330518],[-58.481281,-34.331164],[-58.483871,-34.332242],[-58.483918,-34.331984],[-58.484103,-34.331582],[-58.484372,-34.331383],[-58.484014,-34.331291],[-58.481275,-34.330518]]]}},{"type":"Feature","properties":{"partida":"357018076","cca":"357000100000000000000065000B00000000011000","tipo":"Urbano","sup_m2":27634.3},"geometry":{"type":"Polygon","coordinates":[[[-58.481275,-34.330518],[-58.484014,-34.331291],[-58.484372,-34.331383],[-58.484514,-34.331168],[-58.48461,-34.330889],[-58.484769,-34.330475],[-58.484356,-34.330417],[-58.481268,-34.329879],[-58.481275,-34.330518]]]}},{"type":"Feature","properties":{"partida":"357018077","cca":"357000100000000000000065000B00000000012000","tipo":"Urbano","sup_m2":30286.9},"geometry":{"type":"Polygon","coordinates":[[[-58.481268,-34.329879],[-58.484356,-34.330417],[-58.484769,-34.330475],[-58.484857,-34.330178],[-58.484923,-34.329975],[-58.484927,-34.329771],[-58.484983,-34.329502],[-58.484461,-34.329486],[-58.481262,-34.329232],[-58.481268,-34.329879]]]}},{"type":"Feature","properties":{"partida":"357018078","cca":"357000100000000000000065000B00000000013000","tipo":"Urbano","sup_m2":59319.1},"geometry":{"type":"Polygon","coordinates":[[[-58.484983,-34.329502],[-58.484953,-34.32923],[-58.484903,-34.329043],[-58.484716,-34.328738],[-58.484653,-34.328644],[-58.484474,-34.328476],[-58.484172,-34.328288],[-58.483751,-34.328069],[-58.483423,-34.327719],[-58.483097,-34.327655],[-58.482599,-34.327593],[-58.482228,-34.327393],[-58.481267,-34.327026],[-58.481256,-34.328566],[-58.481262,-34.329232],[-58.484461,-34.329486],[-58.484983,-34.329502]]]}},{"type":"Feature","properties":{"partida":"357013805","cca":"357000100000000000000065000C00000000011000","tipo":"Rural","sup_m2":114847.5},"geometry":{"type":"Polygon","coordinates":[[[-58.485476,-34.334079],[-58.487767,-34.33498],[-58.491471,-34.330933],[-58.489591,-34.330038],[-58.487002,-34.332919],[-58.485476,-34.334079]]]}},{"type":"Feature","properties":{"partida":"357013806","cca":"357000100000000000000065000C00000000012000","tipo":"Urbano","sup_m2":96736.9},"geometry":{"type":"Polygon","coordinates":[[[-58.485147,-34.338167],[-58.487767,-34.33498],[-58.485476,-34.334079],[-58.483191,-34.337036],[-58.482933,-34.337349],[-58.485147,-34.338167]]]}},{"type":"Feature","properties":{"partida":"357013807","cca":"357000100000000000000065000C00000000013000","tipo":"Rural","sup_m2":53559.0},"geometry":{"type":"Polygon","coordinates":[[[-58.482933,-34.337349],[-58.481944,-34.33855],[-58.481508,-34.33946],[-58.481651,-34.339486],[-58.48361,-34.33989],[-58.485147,-34.338167],[-58.482933,-34.337349]]]}}]}