{"type":"FeatureCollection","features":[{"type":"Feature","properties":{"partida":"357019299","cca":"357000100000000000000065000A0000000004500A","tipo":"Rural","sup_m2":2985953.6},"geometry":{"type":"Polygon","coordinates":[[[-58.497949,-34.33801],[-58.497408,-34.339118],[-58.494766,-34.342967],[-58.494477,-34.343315],[-58.493584,-34.34436],[-58.493392,-34.344704],[-58.49287,-34.345321],[-58.49248,-34.345817],[-58.492138,-34.34629],[-58.491902,-34.346696],[-58.491548,-34.347333],[-58.491061,-34.347618],[-58.490778,-34.347917],[-58.490128,-34.348639],[-58.489307,-34.34921],[-58.488745,-34.349578],[-58.488015,-34.35019],[-58.487168,-34.350585],[-58.486659,-34.350858],[-58.486416,-34.351012],[-58.485923,-34.351623],[-58.485632,-34.35221],[-58.485315,-34.352806],[-58.485189,-34.353282],[-58.484963,-34.354183],[-58.484404,-34.354957],[-58.483641,-34.355451],[-58.482647,-34.35596],[-58.481801,-34.356366],[-58.481173,-34.356323],[-58.47992,-34.3561],[-58.478645,-34.35591],[-58.478037,-34.355832],[-58.47753,-34.355849],[-58.477293,-34.356052],[-58.476813,-34.356349],[-58.476545,-34.356525],[-58.476361,-34.356599],[-58.476205,-34.356755],[-58.475537,-34.357552],[-58.47492,-34.358421],[-58.473721,-34.359439],[-58.473992,-34.362004],[-58.475046,-34.366326],[-58.477873,-34.371068],[-58.479203,-34.372118],[-58.479286,-34.372219],[-58.480398,-34.373202],[-58.480961,-34.373553],[-58.480366,-34.37333],[-58.479764,-34.373184],[-58.479216,-34.373012],[-58.478783,-34.372909],[-58.478578,-34.372804],[-58.479273,-34.373958],[-58.479742,-34.374758],[-58.482053,-34.378859],[-58.482564,-34.379001],[-58.483075,-34.378845],[-58.483311,-34.378354],[-58.483532,-34.378241],[-58.483934,-34.377912],[-58.483977,-34.377454],[-58.484168,-34.377173],[-58.484476,-34.376702],[-58.484462,-34.376552],[-58.484573,-34.376416],[-58.484821,-34.376578],[-58.485086,-34.376539],[-58.4847,-34.375791],[-58.484627,-34.375232],[-58.484612,-34.374391],[-58.484574,-34.373506],[-58.484595,-34.372781],[-58.484594,-34.371564],[-58.484545,-34.371005],[-58.484529,-34.36976],[-58.484163,-34.3688],[-58.483765,-34.368017],[-58.482905,-34.366548],[-58.482265,-34.365322],[-58.481687,-34.364388],[-58.481183,-34.362969],[-58.481064,-34.362456],[-58.481097,-34.36203],[-58.481771,-34.361741],[-58.482521,-34.361494],[-58.483323,-34.361248],[-58.483686,-34.361082],[-58.484236,-34.360471],[-58.484941,-34.359905],[-58.485855,-34.359128],[-58.486714,-34.35852],[-58.487695,-34.357889],[-58.489026,-34.35716],[-58.490823,-34.356207],[-58.490996,-34.356124],[-58.491014,-34.35594],[-58.490619,-34.355358],[-58.489903,-34.353852],[-58.489822,-34.353212],[-58.489898,-34.352708],[-58.490002,-34.352086],[-58.490491,-34.351224],[-58.491039,-34.350562],[-58.491718,-34.350225],[-58.492376,-34.350256],[-58.493634,-34.350416],[-58.495119,-34.350645],[-58.496353,-34.35095],[-58.497193,-34.350846],[-58.497584,-34.350175],[-58.497763,-34.348975],[-58.497489,-34.347188],[-58.497523,-34.345825],[-58.49748,-34.345004],[-58.497303,-34.344699],[-58.497098,-34.344177],[-58.497237,-34.34374],[-58.497773,-34.343092],[-58.497953,-34.343093],[-58.514801,-34.343343],[-58.497949,-34.33801]]]}},{"type":"Feature","properties":{"partida":"357010955","cca":"357000100000000000000065000B00000000002000","tipo":"Rural","sup_m2":77862.3},"geometry":{"type":"Polygon","coordinates":[[[-58.47458,-34.347861],[-58.472016,-34.346826],[-58.470583,-34.34936],[-58.473274,-34.350163],[-58.473406,-34.350002],[-58.473557,-34.349768],[-58.473634,-34.349434],[-58.473986,-34.348955],[-58.474072,-34.348693],[-58.47427,-34.348447],[-58.474371,-34.348226],[-58.474546,-34.347969],[-58.47458,-34.347861]]]}},{"type":"Feature","properties":{"partida":"357010956","cca":"357000100000000000000065000B00000000003000","tipo":"Rural","sup_m2":75385.6},"geometry":{"type":"Polygon","coordinates":[[[-58.47458,-34.347861],[-58.47476,-34.347577],[-58.474896,-34.347294],[-58.47507,-34.347114],[-58.475124,-34.346986],[-58.475315,-34.346747],[-58.475419,-34.346534],[-58.475645,-34.346184],[-58.475719,-34.345908],[-58.475901,-34.345654],[-58.473257,-34.344483],[-58.472016,-34.346826],[-58.47458,-34.347861]]]}},{"type":"Feature","properties":{"partida":"357000133","cca":"357000100000000000000065000B00000000007000","tipo":"Rural","sup_m2":26158.6},"geometry":{"type":"Polygon","coordinates":[[[-58.473257,-34.344483],[-58.475901,-34.345654],[-58.475971,-34.345533],[-58.476033,-34.345369],[-58.476248,-34.345046],[-58.476412,-34.344814],[-58.476285,-34.344773],[-58.47576,-34.34462],[-58.473653,-34.343729],[-58.473257,-34.344483]]]}},{"type":"Feature","properties":{"partida":"357020125","cca":"357000100000000000000065000E00000000000000","tipo":"Rural","sup_m2":32634.7},"geometry":{"type":"Polygon","coordinates":[[[-58.472941,-34.357444],[-58.472434,-34.357134],[-58.47014,-34.360518],[-58.469128,-34.362076],[-58.468392,-34.363002],[-58.467993,-34.363852],[-58.469634,-34.361963],[-58.469639,-34.361705],[-58.47091,-34.360368],[-58.471487,-34.360276],[-58.471232,-34.359796],[-58.472046,-34.358573],[-58.472469,-34.357703],[-58.472941,-34.357444]]]}},{"type":"Feature","properties":{"partida":"357017657","cca":"357000100000000000000066400A0000000000400A","tipo":"Rural","sup_m2":695511.0},"geometry":{"type":"Polygon","coordinates":[[[-58.484525,-34.361359],[-58.484694,-34.361898],[-58.484762,-34.362099],[-58.485806,-34.365778],[-58.488859,-34.365491],[-58.496237,-34.364454],[-58.494037,-34.356827],[-58.493287,-34.357172],[-58.493088,-34.357251],[-58.492901,-34.357339],[-58.491079,-34.35799],[-58.489701,-34.358488],[-58.488308,-34.358984],[-58.488112,-34.359056],[-58.487911,-34.359125],[-58.487715,-34.359196],[-58.487555,-34.35926],[-58.487266,-34.359507],[-58.486651,-34.36002],[-58.485886,-34.360653],[-58.485723,-34.360782],[-58.485267,-34.361169],[-58.484913,-34.360885],[-58.484525,-34.361359]]]}},{"type":"Feature","properties":{"partida":"357018891","cca":"357000100000000000000066400A00000000019000","tipo":"Urbano","sup_m2":1869.9},"geometry":{"type":"Polygon","coordinates":[[[-58.491079,-34.35799],[-58.491296,-34.357912],[-58.490936,-34.357191],[-58.490726,-34.357286],[-58.491079,-34.35799]]]}},{"type":"Feature","properties":{"partida":"357018892","cca":"357000100000000000000066400A00000000020000","tipo":"Urbano","sup_m2":1633.5},"geometry":{"type":"Polygon","coordinates":[[[-58.491079,-34.35799],[-58.490726,-34.357286],[-58.490536,-34.357373],[-58.490889,-34.35806],[-58.491079,-34.35799]]]}},{"type":"Feature","properties":{"partida":"357018893","cca":"357000100000000000000066400A00000000021000","tipo":"Urbano","sup_m2":1671.0},"geometry":{"type":"Polygon","coordinates":[[[-58.490889,-34.35806],[-58.490536,-34.357373],[-58.490338,-34.357459],[-58.490687,-34.358132],[-58.490889,-34.35806]]]}},{"type":"Feature","properties":{"partida":"357018894","cca":"357000100000000000000066400A00000000022000","tipo":"Urbano","sup_m2":1507.8},"geometry":{"type":"Polygon","coordinates":[[[-58.490495,-34.358201],[-58.490687,-34.358132],[-58.490338,-34.357459],[-58.490163,-34.357534],[-58.490495,-34.358201]]]}},{"type":"Feature","properties":{"partida":"357018895","cca":"357000100000000000000066400A00000000023000","tipo":"Urbano","sup_m2":1627.8},"geometry":{"type":"Polygon","coordinates":[[[-58.490163,-34.357534],[-58.48996,-34.35762],[-58.490295,-34.358273],[-58.490495,-34.358201],[-58.490163,-34.357534]]]}},{"type":"Feature","properties":{"partida":"357018896","cca":"357000100000000000000066400A00000000024000","tipo":"Urbano","sup_m2":1599.6},"geometry":{"type":"Polygon","coordinates":[[[-58.490096,-34.358344],[-58.490295,-34.358273],[-58.48996,-34.35762],[-58.489755,-34.357707],[-58.490096,-34.358344]]]}},{"type":"Feature","properties":{"partida":"357018897","cca":"357000100000000000000066400A00000000025000","tipo":"Urbano","sup_m2":1487.4},"geometry":{"type":"Polygon","coordinates":[[[-58.489898,-34.358416],[-58.490096,-34.358344],[-58.489755,-34.357707],[-58.489572,-34.357785],[-58.489898,-34.358416]]]}},{"type":"Feature","properties":{"partida":"357018898","cca":"357000100000000000000066400A00000000026000","tipo":"Urbano","sup_m2":1538.5},"geometry":{"type":"Polygon","coordinates":[[[-58.489701,-34.358488],[-58.489898,-34.358416],[-58.489572,-34.357785],[-58.489369,-34.357866],[-58.489701,-34.358488]]]}},{"type":"Feature","properties":{"partida":"357018899","cca":"357000100000000000000066400A00000000027000","tipo":"Urbano","sup_m2":1462.7},"geometry":{"type":"Polygon","coordinates":[[[-58.489505,-34.358556],[-58.489701,-34.358488],[-58.489369,-34.357866],[-58.489178,-34.357942],[-58.489505,-34.358556]]]}},{"type":"Feature","properties":{"partida":"357018900","cca":"357000100000000000000066400A00000000028000","tipo":"Urbano","sup_m2":1497.7},"geometry":{"type":"Polygon","coordinates":[[[-58.489505,-34.358556],[-58.489178,-34.357942],[-58.488981,-34.358019],[-58.489302,-34.35863],[-58.489505,-34.358556]]]}},{"type":"Feature","properties":{"partida":"357018901","cca":"357000100000000000000066400A00000000029000","tipo":"Urbano","sup_m2":1456.3},"geometry":{"type":"Polygon","coordinates":[[[-58.489302,-34.35863],[-58.488981,-34.358019],[-58.488783,-34.358098],[-58.489109,-34.3587],[-58.489302,-34.35863]]]}},{"type":"Feature","properties":{"partida":"357018902","cca":"357000100000000000000066400A00000000030000","tipo":"Urbano","sup_m2":1434.5},"geometry":{"type":"Polygon","coordinates":[[[-58.488912,-34.358769],[-58.489109,-34.3587],[-58.488783,-34.358098],[-58.48859,-34.358174],[-58.488912,-34.358769]]]}},{"type":"Feature","properties":{"partida":"357018903","cca":"357000100000000000000066400A00000000031000","tipo":"Urbano","sup_m2":1464.0},"geometry":{"type":"Polygon","coordinates":[[[-58.488704,-34.358844],[-58.488912,-34.358769],[-58.48859,-34.358174],[-58.488396,-34.358251],[-58.488704,-34.358844]]]}},{"type":"Feature","properties":{"partida":"357018904","cca":"357000100000000000000066400A00000000032000","tipo":"Urbano","sup_m2":1407.0},"geometry":{"type":"Polygon","coordinates":[[[-58.488396,-34.358251],[-58.488231,-34.358316],[-58.488202,-34.358333],[-58.488509,-34.358914],[-58.488704,-34.358844],[-58.488396,-34.358251]]]}},{"type":"Feature","properties":{"partida":"357018905","cca":"357000100000000000000066400A00000000033000","tipo":"Urbano","sup_m2":1358.9},"geometry":{"type":"Polygon","coordinates":[[[-58.488202,-34.358333],[-58.488023,-34.35844],[-58.488308,-34.358984],[-58.488509,-34.358914],[-58.488202,-34.358333]]]}},{"type":"Feature","properties":{"partida":"357018906","cca":"357000100000000000000066400A00000000034000","tipo":"Urbano","sup_m2":1257.4},"geometry":{"type":"Polygon","coordinates":[[[-58.488023,-34.35844],[-58.487846,-34.358546],[-58.488112,-34.359056],[-58.488308,-34.358984],[-58.488023,-34.35844]]]}},{"type":"Feature","properties":{"partida":"357018907","cca":"357000100000000000000066400A00000000035000","tipo":"Urbano","sup_m2":1184.1},"geometry":{"type":"Polygon","coordinates":[[[-58.487666,-34.358653],[-58.487911,-34.359125],[-58.488112,-34.359056],[-58.487846,-34.358546],[-58.487666,-34.358653]]]}},{"type":"Feature","properties":{"partida":"357018908","cca":"357000100000000000000066400A00000000036000","tipo":"Urbano","sup_m2":1083.9},"geometry":{"type":"Polygon","coordinates":[[[-58.487666,-34.358653],[-58.487487,-34.35876],[-58.487715,-34.359196],[-58.487911,-34.359125],[-58.487666,-34.358653]]]}},{"type":"Feature","properties":{"partida":"357018909","cca":"357000100000000000000066400A00000000037000","tipo":"Urbano","sup_m2":1069.8},"geometry":{"type":"Polygon","coordinates":[[[-58.487256,-34.358898],[-58.487555,-34.35926],[-58.487715,-34.359196],[-58.487487,-34.35876],[-58.487256,-34.358898]]]}},{"type":"Feature","properties":{"partida":"357018910","cca":"357000100000000000000066400A00000000038000","tipo":"Urbano","sup_m2":1091.2},"geometry":{"type":"Polygon","coordinates":[[[-58.487256,-34.358898],[-58.487024,-34.359036],[-58.487424,-34.359372],[-58.487555,-34.35926],[-58.487256,-34.358898]]]}},{"type":"Feature","properties":{"partida":"357018911","cca":"357000100000000000000066400A00000000039000","tipo":"Urbano","sup_m2":1128.5},"geometry":{"type":"Polygon","coordinates":[[[-58.48684,-34.359146],[-58.487266,-34.359507],[-58.487424,-34.359372],[-58.487024,-34.359036],[-58.48684,-34.359146]]]}},{"type":"Feature","properties":{"partida":"357018912","cca":"357000100000000000000066400A00000000040000","tipo":"Urbano","sup_m2":1117.0},"geometry":{"type":"Polygon","coordinates":[[[-58.48684,-34.359146],[-58.486666,-34.35925],[-58.487118,-34.35963],[-58.487266,-34.359507],[-58.48684,-34.359146]]]}},{"type":"Feature","properties":{"partida":"357018913","cca":"357000100000000000000066400A00000000041000","tipo":"Urbano","sup_m2":1196.6},"geometry":{"type":"Polygon","coordinates":[[[-58.486666,-34.35925],[-58.486492,-34.359354],[-58.486965,-34.359757],[-58.487118,-34.35963],[-58.486666,-34.35925]]]}},{"type":"Feature","properties":{"partida":"357018914","cca":"357000100000000000000066400A00000000042000","tipo":"Urbano","sup_m2":1330.0},"geometry":{"type":"Polygon","coordinates":[[[-58.486304,-34.359466],[-58.486809,-34.359887],[-58.486965,-34.359757],[-58.486492,-34.359354],[-58.486304,-34.359466]]]}},{"type":"Feature","properties":{"partida":"357018915","cca":"357000100000000000000066400A00000000043000","tipo":"Urbano","sup_m2":1355.0},"geometry":{"type":"Polygon","coordinates":[[[-58.486304,-34.359466],[-58.486131,-34.359569],[-58.486651,-34.36002],[-58.486809,-34.359887],[-58.486304,-34.359466]]]}},{"type":"Feature","properties":{"partida":"357018916","cca":"357000100000000000000066400A00000000044000","tipo":"Urbano","sup_m2":1415.3},"geometry":{"type":"Polygon","coordinates":[[[-58.486131,-34.359569],[-58.485949,-34.359678],[-58.486501,-34.360144],[-58.486651,-34.36002],[-58.486131,-34.359569]]]}},{"type":"Feature","properties":{"partida":"357018917","cca":"357000100000000000000066400A00000000045000","tipo":"Urbano","sup_m2":1484.4},"geometry":{"type":"Polygon","coordinates":[[[-58.485949,-34.359678],[-58.485882,-34.359718],[-58.485802,-34.359813],[-58.48634,-34.360276],[-58.486501,-34.360144],[-58.485949,-34.359678]]]}},{"type":"Feature","properties":{"partida":"357018918","cca":"357000100000000000000066400A00000000046000","tipo":"Urbano","sup_m2":1376.2},"geometry":{"type":"Polygon","coordinates":[[[-58.48634,-34.360276],[-58.485802,-34.359813],[-58.485679,-34.359959],[-58.486186,-34.360404],[-58.48634,-34.360276]]]}},{"type":"Feature","properties":{"partida":"357018919","cca":"357000100000000000000066400A00000000047000","tipo":"Urbano","sup_m2":1312.8},"geometry":{"type":"Polygon","coordinates":[[[-58.486034,-34.360529],[-58.486186,-34.360404],[-58.485679,-34.359959],[-58.485552,-34.360111],[-58.486034,-34.360529]]]}},{"type":"Feature","properties":{"partida":"357018920","cca":"357000100000000000000066400A00000000048000","tipo":"Urbano","sup_m2":1230.0},"geometry":{"type":"Polygon","coordinates":[[[-58.485886,-34.360653],[-58.486034,-34.360529],[-58.485552,-34.360111],[-58.485425,-34.360262],[-58.485886,-34.360653]]]}},{"type":"Feature","properties":{"partida":"357018921","cca":"357000100000000000000066400A00000000049000","tipo":"Urbano","sup_m2":1188.8},"geometry":{"type":"Polygon","coordinates":[[[-58.485301,-34.360412],[-58.485723,-34.360782],[-58.485886,-34.360653],[-58.485425,-34.360262],[-58.485301,-34.360412]]]}},{"type":"Feature","properties":{"partida":"357018922","cca":"357000100000000000000066400A00000000050000","tipo":"Urbano","sup_m2":1106.4},"geometry":{"type":"Polygon","coordinates":[[[-58.48557,-34.360913],[-58.485723,-34.360782],[-58.485301,-34.360412],[-58.485175,-34.360565],[-58.48557,-34.360913]]]}},{"type":"Feature","properties":{"partida":"357018923","cca":"357000100000000000000066400A00000000051000","tipo":"Urbano","sup_m2":999.0},"geometry":{"type":"Polygon","coordinates":[[[-58.48557,-34.360913],[-58.485175,-34.360565],[-58.48505,-34.360718],[-58.485422,-34.361035],[-58.48557,-34.360913]]]}},{"type":"Feature","properties":{"partida":"357018924","cca":"357000100000000000000066400A00000000052000","tipo":"Urbano","sup_m2":1005.0},"geometry":{"type":"Polygon","coordinates":[[[-58.485422,-34.361035],[-58.48505,-34.360718],[-58.484913,-34.360885],[-58.485267,-34.361169],[-58.485422,-34.361035]]]}}]}