{"type":"FeatureCollection","features":[{"type":"Feature","properties":{"partida":"357019253","cca":"357000100000000000000065000B00000000014000","tipo":"Rural","sup_m2":5062238.0},"geometry":{"type":"Polygon","coordinates":[[[-58.478751,-34.326294],[-58.477804,-34.326525],[-58.476649,-34.326654],[-58.474699,-34.327168],[-58.474116,-34.327603],[-58.47393,-34.327575],[-58.473357,-34.327321],[-58.473002,-34.327303],[-58.472583,-34.327425],[-58.472138,-34.327626],[-58.471524,-34.327866],[-58.470975,-34.328029],[-58.470212,-34.328195],[-58.469705,-34.328232],[-58.469274,-34.328292],[-58.467894,-34.328244],[-58.46721,-34.328284],[-58.466804,-34.328353],[-58.466345,-34.328374],[-58.46593,-34.328421],[-58.465594,-34.328525],[-58.465191,-34.328658],[-58.464415,-34.328927],[-58.463957,-34.329183],[-58.463624,-34.329339],[-58.463188,-34.329656],[-58.462934,-34.329919],[-58.462782,-34.330191],[-58.4625,-34.330603],[-58.462162,-34.331037],[-58.461684,-34.331552],[-58.461376,-34.331773],[-58.461009,-34.332135],[-58.460729,-34.332422],[-58.460599,-34.332597],[-58.460328,-34.332852],[-58.45982,-34.333367],[-58.459341,-34.333754],[-58.458872,-34.334249],[-58.458501,-34.334588],[-58.458169,-34.334866],[-58.457824,-34.335266],[-58.45757,-34.335644],[-58.457329,-34.336099],[-58.457338,-34.336295],[-58.457501,-34.336701],[-58.457699,-34.337106],[-58.45811,-34.337538],[-58.458434,-34.338096],[-58.458544,-34.33849],[-58.458604,-34.338779],[-58.458905,-34.339609],[-58.459067,-34.340172],[-58.458984,-34.340914],[-58.459039,-34.341438],[-58.459332,-34.341977],[-58.459609,-34.342338],[-58.460098,-34.342682],[-58.460792,-34.343212],[-58.461138,-34.343572],[-58.461426,-34.343717],[-58.461629,-34.34397],[-58.462835,-34.345294],[-58.463349,-34.345845],[-58.463666,-34.3462],[-58.463849,-34.346501],[-58.463937,-34.346821],[-58.463949,-34.347183],[-58.463845,-34.347399],[-58.463808,-34.347668],[-58.463684,-34.347998],[-58.463602,-34.348187],[-58.46344,-34.348614],[-58.46338,-34.348943],[-58.463309,-34.349247],[-58.463038,-34.349768],[-58.462775,-34.350349],[-58.462673,-34.350662],[-58.462474,-34.351168],[-58.46242,-34.351476],[-58.462383,-34.351771],[-58.462246,-34.352292],[-58.461979,-34.35287],[-58.461918,-34.353205],[-58.461795,-34.353483],[-58.461571,-34.353737],[-58.461324,-34.353906],[-58.460993,-34.353963],[-58.460348,-34.353943],[-58.459826,-34.353904],[-58.459231,-34.353877],[-58.458727,-34.353833],[-58.458505,-34.353761],[-58.458007,-34.35372],[-58.457225,-34.353691],[-58.456644,-34.353687],[-58.456087,-34.353613],[-58.455652,-34.353662],[-58.455118,-34.353665],[-58.454763,-34.353613],[-58.454351,-34.353503],[-58.453443,-34.353441],[-58.453088,-34.353472],[-58.452859,-34.353471],[-58.4525,-34.353482],[-58.452189,-34.353585],[-58.451853,-34.353858],[-58.451693,-34.354055],[-58.451563,-34.354298],[-58.45131,-34.354597],[-58.450788,-34.355286],[-58.450394,-34.355731],[-58.449873,-34.356413],[-58.44972,-34.356551],[-58.447775,-34.358576],[-58.447328,-34.359023],[-58.446779,-34.359637],[-58.446528,-34.359862],[-58.446213,-34.360119],[-58.44582,-34.360523],[-58.445588,-34.360784],[-58.445496,-34.360915],[-58.44526,-34.361303],[-58.445093,-34.361493],[-58.444874,-34.361655],[-58.444661,-34.361889],[-58.444418,-34.362142],[-58.444028,-34.362461],[-58.443622,-34.362692],[-58.443345,-34.36289],[-58.442531,-34.363379],[-58.442076,-34.363823],[-58.441709,-34.36423],[-58.441568,-34.364565],[-58.441594,-34.364828],[-58.441573,-34.365329],[-58.441647,-34.365833],[-58.441743,-34.366291],[-58.441988,-34.366679],[-58.442019,-34.367255],[-58.442076,-34.367928],[-58.442165,-34.3685],[-58.442251,-34.368758],[-58.442393,-34.369087],[-58.442442,-34.36946],[-58.442458,-34.369864],[-58.442503,-34.370276],[-58.442612,-34.370645],[-58.44277,-34.370923],[-58.442998,-34.371204],[-58.443235,-34.371484],[-58.443363,-34.371715],[-58.443535,-34.372083],[-58.44373,-34.372487],[-58.443897,-34.372681],[-58.44411,-34.372951],[-58.444383,-34.373308],[-58.444757,-34.373662],[-58.445072,-34.373863],[-58.445376,-34.373983],[-58.44557,-34.374025],[-58.44639,-34.374286],[-58.44682,-34.374497],[-58.447016,-34.374659],[-58.447371,-34.374207],[-58.463851,-34.353743],[-58.474277,-34.336312],[-58.480685,-34.326893],[-58.479753,-34.326448],[-58.478751,-34.326294]]]}}]}