{"type":"FeatureCollection","features":[{"type":"Feature","properties":{"partida":"357020126","cca":"357000100000000000000065000F00000000000000","tipo":"Rural","sup_m2":995881.5},"geometry":{"type":"Polygon","coordinates":[[[-58.472838,-34.359443],[-58.473398,-34.359012],[-58.47398,-34.358642],[-58.474593,-34.357894],[-58.474949,-34.357428],[-58.474767,-34.357409],[-58.474128,-34.357533],[-58.473325,-34.357758],[-58.472814,-34.35817],[-58.472458,-34.359239],[-58.47199,-34.359949],[-58.471981,-34.360426],[-58.471616,-34.36072],[-58.468586,-34.363844],[-58.467976,-34.364433],[-58.466818,-34.366089],[-58.465336,-34.368456],[-58.464548,-34.3696],[-58.463389,-34.371355],[-58.462402,-34.372834],[-58.461736,-34.37384],[-58.461499,-34.374169],[-58.461367,-34.374384],[-58.461141,-34.374898],[-58.462067,-34.375447],[-58.462216,-34.376443],[-58.462693,-34.376588],[-58.463293,-34.376576],[-58.463676,-34.37664],[-58.463865,-34.376802],[-58.464104,-34.376805],[-58.464344,-34.376529],[-58.465011,-34.37575],[-58.465793,-34.374985],[-58.467034,-34.373986],[-58.468862,-34.372418],[-58.470273,-34.371283],[-58.471487,-34.370462],[-58.472965,-34.369646],[-58.473667,-34.369296],[-58.474353,-34.36851],[-58.474652,-34.367877],[-58.474669,-34.366943],[-58.474315,-34.365288],[-58.474002,-34.364051],[-58.473495,-34.362911],[-58.473022,-34.362527],[-58.472978,-34.360995],[-58.472838,-34.359443]]]}},{"type":"Feature","properties":{"partida":"357019278","cca":"357000100000000000000066400A00000000053000","tipo":"Rural","sup_m2":406620.9},"geometry":{"type":"Polygon","coordinates":[[[-58.484525,-34.361359],[-58.48407,-34.361725],[-58.483153,-34.361791],[-58.482325,-34.362106],[-58.481832,-34.362472],[-58.481817,-34.363324],[-58.482067,-34.363931],[-58.482411,-34.364571],[-58.482795,-34.365056],[-58.483626,-34.366689],[-58.483955,-34.367111],[-58.484248,-34.36762],[-58.484592,-34.368196],[-58.485073,-34.36898],[-58.485418,-34.369933],[-58.485396,-34.371141],[-58.485202,-34.372924],[-58.485421,-34.373938],[-58.485805,-34.376486],[-58.48593,-34.376691],[-58.486301,-34.37667],[-58.486491,-34.376604],[-58.48654,-34.376429],[-58.486457,-34.376001],[-58.48652,-34.375851],[-58.486665,-34.375759],[-58.4869,-34.375857],[-58.486908,-34.375847],[-58.486956,-34.376124],[-58.487098,-34.376213],[-58.487288,-34.376159],[-58.48752,-34.375908],[-58.487526,-34.37495],[-58.487515,-34.374932],[-58.487437,-34.374646],[-58.486729,-34.373565],[-58.486689,-34.373257],[-58.486786,-34.372991],[-58.486988,-34.372705],[-58.488276,-34.371812],[-58.488325,-34.371618],[-58.48836,-34.371336],[-58.488042,-34.370096],[-58.487865,-34.369837],[-58.487815,-34.369228],[-58.487817,-34.368306],[-58.487622,-34.367369],[-58.48749,-34.367129],[-58.48739,-34.366796],[-58.487508,-34.366522],[-58.487624,-34.36641],[-58.488077,-34.366033],[-58.488453,-34.36573],[-58.488859,-34.365491],[-58.485806,-34.365778],[-58.484762,-34.362099],[-58.484694,-34.361898],[-58.484525,-34.361359]]]}},{"type":"Feature","properties":{"partida":"357019508","cca":"357000100000000000000066400A00000000070000","tipo":"Rural","sup_m2":389936.4},"geometry":{"type":"Polygon","coordinates":[[[-58.489626,-34.375412],[-58.490767,-34.370599],[-58.49449,-34.365682],[-58.497358,-34.365098],[-58.497884,-34.364175],[-58.496237,-34.364454],[-58.488859,-34.365491],[-58.488883,-34.365817],[-58.488537,-34.366061],[-58.488385,-34.366118],[-58.488203,-34.366241],[-58.488176,-34.366425],[-58.488218,-34.366439],[-58.489044,-34.366312],[-58.490199,-34.366245],[-58.490761,-34.366115],[-58.491825,-34.365636],[-58.492588,-34.365622],[-58.490152,-34.366487],[-58.489442,-34.366602],[-58.488981,-34.366605],[-58.488271,-34.366697],[-58.488026,-34.366785],[-58.487865,-34.366925],[-58.488088,-34.3681],[-58.488111,-34.369536],[-58.488188,-34.370008],[-58.488301,-34.370515],[-58.488568,-34.371286],[-58.488636,-34.37156],[-58.488607,-34.371823],[-58.488456,-34.372053],[-58.488332,-34.372173],[-58.487641,-34.372619],[-58.487369,-34.372828],[-58.487084,-34.373057],[-58.486995,-34.373248],[-58.487003,-34.373501],[-58.487142,-34.373884],[-58.487443,-34.37413],[-58.48768,-34.374497],[-58.487796,-34.374842],[-58.487852,-34.375116],[-58.488181,-34.375179],[-58.489626,-34.375412]]]}}]}