{"type":"FeatureCollection","features":[{"type":"Feature","properties":{"partida":"357019249","cca":"357000100000000000000066400C00000000078000","tipo":"Rural","sup_m2":1442069.3},"geometry":{"type":"Polygon","coordinates":[[[-58.518857,-34.400784],[-58.516774,-34.400377],[-58.506984,-34.398426],[-58.50442,-34.39784],[-58.504488,-34.398643],[-58.504767,-34.399477],[-58.505026,-34.400017],[-58.505241,-34.400557],[-58.505353,-34.400966],[-58.50549,-34.401522],[-58.505596,-34.402215],[-58.505633,-34.403444],[-58.505614,-34.404497],[-58.505447,-34.405307],[-58.505548,-34.406235],[-58.505197,-34.407404],[-58.50443,-34.408165],[-58.503714,-34.408731],[-58.503593,-34.409007],[-58.503695,-34.40917],[-58.503888,-34.409515],[-58.504082,-34.409883],[-58.50446,-34.410268],[-58.504835,-34.410479],[-58.505213,-34.410546],[-58.505513,-34.4105],[-58.5058,-34.410367],[-58.506097,-34.410317],[-58.506612,-34.410269],[-58.507986,-34.410286],[-58.508717,-34.410403],[-58.510204,-34.410706],[-58.51053,-34.41073],[-58.510633,-34.410755],[-58.511415,-34.410915],[-58.511739,-34.411002],[-58.512876,-34.411212],[-58.513462,-34.411295],[-58.513889,-34.411235],[-58.514334,-34.410926],[-58.515134,-34.409861],[-58.516142,-34.40856],[-58.516686,-34.407504],[-58.517837,-34.40529],[-58.519109,-34.40282],[-58.519103,-34.40253],[-58.519074,-34.402352],[-58.519204,-34.401989],[-58.519527,-34.40103],[-58.519389,-34.400972],[-58.518857,-34.400784]],[[-58.511913,-34.409675],[-58.512044,-34.409641],[-58.512214,-34.409555],[-58.512365,-34.409539],[-58.512556,-34.409476],[-58.512758,-34.409488],[-58.512937,-34.409495],[-58.513116,-34.409478],[-58.513193,-34.409553],[-58.513275,-34.409647],[-58.513438,-34.409649],[-58.513297,-34.409684],[-58.513223,-34.409753],[-58.513127,-34.409803],[-58.513092,-34.409872],[-58.513108,-34.409942],[-58.513208,-34.409971],[-58.513161,-34.410081],[-58.512588,-34.410204],[-58.512358,-34.410234],[-58.512207,-34.410246],[-58.512069,-34.410165],[-58.511862,-34.410064],[-58.511913,-34.409675]]]}},{"type":"Feature","properties":{"partida":"357020131","cca":"357000100000000000000066400C0000000007900D","tipo":"Rural","sup_m2":950510.2},"geometry":{"type":"Polygon","coordinates":[[[-58.505304,-34.402968],[-58.505015,-34.40255],[-58.503573,-34.401439],[-58.502176,-34.401598],[-58.500729,-34.401569],[-58.499438,-34.401565],[-58.49878,-34.401447],[-58.498239,-34.40108],[-58.497895,-34.400693],[-58.497189,-34.400703],[-58.496878,-34.400836],[-58.496685,-34.400837],[-58.496587,-34.400591],[-58.496506,-34.400466],[-58.496084,-34.400308],[-58.49556,-34.400364],[-58.49545,-34.400507],[-58.495342,-34.400687],[-58.495367,-34.400565],[-58.495373,-34.40037],[-58.495503,-34.399955],[-58.49529,-34.400137],[-58.494859,-34.400252],[-58.494436,-34.400249],[-58.493991,-34.400208],[-58.493742,-34.400212],[-58.493482,-34.400315],[-58.493066,-34.400552],[-58.492581,-34.400795],[-58.492161,-34.401259],[-58.491949,-34.401569],[-58.491516,-34.401806],[-58.491394,-34.4021],[-58.490885,-34.404331],[-58.491235,-34.406129],[-58.491654,-34.406873],[-58.495949,-34.407131],[-58.501798,-34.409339],[-58.502751,-34.408794],[-58.503566,-34.408334],[-58.504385,-34.407731],[-58.504771,-34.407105],[-58.505001,-34.406549],[-58.505175,-34.404714],[-58.505296,-34.403377],[-58.505304,-34.402968]]]}},{"type":"Feature","properties":{"partida":"357019571","cca":"357000100000000000000066400C0000000008000A","tipo":"Rural","sup_m2":437948.1},"geometry":{"type":"Polygon","coordinates":[[[-58.495978,-34.409939],[-58.494584,-34.418602],[-58.505033,-34.411107],[-58.503579,-34.410282],[-58.495978,-34.409939]]]}}]}