{"type":"FeatureCollection","features":[{"type":"Feature","properties":{"partida":"357019250","cca":"357000100000000000000066400C0000000007900B","tipo":"Urbano","sup_m2":352718.3},"geometry":{"type":"Polygon","coordinates":[[[-58.502356,-34.416088],[-58.504288,-34.421101],[-58.509102,-34.417784],[-58.509802,-34.416876],[-58.509999,-34.416528],[-58.510157,-34.416192],[-58.5103,-34.415853],[-58.5104,-34.415695],[-58.510482,-34.415528],[-58.510607,-34.415296],[-58.510704,-34.415133],[-58.510771,-34.414962],[-58.511091,-34.414391],[-58.511176,-34.41421],[-58.51125,-34.41403],[-58.51117,-34.413968],[-58.510956,-34.413957],[-58.510676,-34.413982],[-58.510242,-34.414008],[-58.510025,-34.414006],[-58.509302,-34.414067],[-58.508261,-34.414323],[-58.507458,-34.41459],[-58.5072,-34.414618],[-58.506782,-34.414689],[-58.506064,-34.414793],[-58.505842,-34.414654],[-58.506294,-34.414453],[-58.508361,-34.413875],[-58.509724,-34.413648],[-58.511348,-34.41351],[-58.511317,-34.413274],[-58.50834,-34.413676],[-58.504789,-34.414503],[-58.504886,-34.41522],[-58.502356,-34.416088]]]}},{"type":"Feature","properties":{"partida":"357019578","cca":"357000100000000000000066400C0000000008000C","tipo":"Rural","sup_m2":1679851.1},"geometry":{"type":"Polygon","coordinates":[[[-58.505033,-34.411107],[-58.494584,-34.418602],[-58.492299,-34.431404],[-58.494869,-34.431846],[-58.499755,-34.430955],[-58.503344,-34.421659],[-58.504288,-34.421101],[-58.502356,-34.416088],[-58.504886,-34.41522],[-58.504789,-34.414503],[-58.50834,-34.413676],[-58.511317,-34.413274],[-58.511348,-34.41351],[-58.512218,-34.413032],[-58.51346,-34.411553],[-58.508724,-34.410621],[-58.506753,-34.4105],[-58.505033,-34.411107]]]}},{"type":"Feature","properties":{"partida":"357019529","cca":"357000100000000000000071300000000000016000","tipo":"Rural","sup_m2":209619.9},"geometry":{"type":"Polygon","coordinates":[[[-58.509141,-34.430981],[-58.511992,-34.427788],[-58.512775,-34.428214],[-58.51443,-34.427116],[-58.508894,-34.421713],[-58.508819,-34.421814],[-58.508647,-34.422611],[-58.508572,-34.423049],[-58.508756,-34.424354],[-58.508966,-34.424785],[-58.509139,-34.425261],[-58.509214,-34.425714],[-58.509345,-34.426042],[-58.509601,-34.426531],[-58.50989,-34.426887],[-58.509956,-34.427058],[-58.509952,-34.427257],[-58.509922,-34.427382],[-58.50992,-34.427519],[-58.509992,-34.427696],[-58.5101,-34.427834],[-58.510037,-34.427998],[-58.509982,-34.42831],[-58.509883,-34.428689],[-58.509699,-34.429158],[-58.509458,-34.429493],[-58.509267,-34.429749],[-58.509236,-34.429949],[-58.509141,-34.430981]]]}}]}