{"type":"FeatureCollection","features":[{"type":"Feature","properties":{"partida":null,"cca":"357000100000000000000071300000000000017000","tipo":null,"sup_m2":920422.2},"geometry":{"type":"MultiPolygon","coordinates":[[[[-58.502246,-34.435632],[-58.502122,-34.43563],[-58.501803,-34.435718],[-58.501704,-34.435865],[-58.501687,-34.436036],[-58.5013,-34.436111],[-58.50109,-34.436325],[-58.501087,-34.436519],[-58.501098,-34.436645],[-58.501485,-34.436569],[-58.501662,-34.436674],[-58.50166,-34.436822],[-58.501741,-34.436915],[-58.501946,-34.436986],[-58.502097,-34.436999],[-58.502179,-34.437034],[-58.502123,-34.437113],[-58.502024,-34.437215],[-58.501556,-34.437198],[-58.501363,-34.437241],[-58.501207,-34.437467],[-58.501231,-34.437696],[-58.501267,-34.437993],[-58.501298,-34.438586],[-58.501685,-34.439252],[-58.501857,-34.439665],[-58.502045,-34.439918],[-58.502663,-34.440029],[-58.503033,-34.440113],[-58.503461,-34.440061],[-58.50389,-34.439941],[-58.503898,-34.439508],[-58.503802,-34.438719],[-58.503731,-34.438046],[-58.503719,-34.437966],[-58.503577,-34.437428],[-58.503438,-34.436719],[-58.503308,-34.436318],[-58.503175,-34.436054],[-58.502874,-34.435902],[-58.502503,-34.435875],[-58.502246,-34.435632]]],[[[-58.509203,-34.432245],[-58.50888,-34.432461],[-58.508672,-34.432568],[-58.508415,-34.432634],[-58.507803,-34.432626],[-58.507687,-34.432686],[-58.507544,-34.432821],[-58.507343,-34.432976],[-58.507085,-34.433048],[-58.506878,-34.433073],[-58.506623,-34.433015],[-58.506239,-34.432799],[-58.506058,-34.432769],[-58.505923,-34.432925],[-58.505847,-34.433114],[-58.505703,-34.433586],[-58.50529,-34.434111],[-58.505378,-34.434838],[-58.505117,-34.435309],[-58.504623,-34.435596],[-58.504046,-34.435868],[-58.503918,-34.436424],[-58.503929,-34.437354],[-58.504017,-34.437801],[-58.505408,-34.438353],[-58.50672,-34.438637],[-58.507572,-34.438531],[-58.508121,-34.438657],[-58.508063,-34.439231],[-58.508464,-34.439573],[-58.509333,-34.439881],[-58.510164,-34.439833],[-58.510884,-34.439533],[-58.511542,-34.438499],[-58.511753,-34.437325],[-58.512013,-34.436147],[-58.511929,-34.43576],[-58.511582,-34.435174],[-58.510883,-34.434104],[-58.510369,-34.433402],[-58.509625,-34.432682],[-58.509203,-34.432245]]],[[[-58.507831,-34.422945],[-58.507673,-34.422954],[-58.507362,-34.423003],[-58.507159,-34.423084],[-58.506836,-34.423269],[-58.506315,-34.423808],[-58.505698,-34.42458],[-58.505191,-34.425346],[-58.504765,-34.426158],[-58.504411,-34.427138],[-58.504272,-34.427781],[-58.50395,-34.429104],[-58.504227,-34.429261],[-58.50458,-34.429312],[-58.505013,-34.429024],[-58.505501,-34.42886],[-58.505705,-34.428909],[-58.505729,-34.429634],[-58.505836,-34.429914],[-58.506415,-34.430352],[-58.506551,-34.430878],[-58.506498,-34.43142],[-58.506291,-34.431966],[-58.506118,-34.432688],[-58.506421,-34.432866],[-58.50671,-34.433008],[-58.506971,-34.43303],[-58.507285,-34.432961],[-58.507433,-34.432866],[-58.507699,-34.432629],[-58.507809,-34.4326],[-58.508122,-34.432604],[-58.508522,-34.432578],[-58.50875,-34.432479],[-58.509081,-34.43226],[-58.509164,-34.432134],[-58.509087,-34.431958],[-58.509089,-34.431807],[-58.50903,-34.431493],[-58.509049,-34.430788],[-58.509149,-34.429964],[-58.509195,-34.429689],[-58.509652,-34.429109],[-58.509741,-34.428783],[-58.509906,-34.428286],[-58.509965,-34.427899],[-58.509844,-34.427683],[-58.509806,-34.427501],[-58.509768,-34.427269],[-58.509824,-34.427068],[-58.509784,-34.426939],[-58.509601,-34.426738],[-58.509316,-34.426408],[-58.509035,-34.425836],[-58.508967,-34.425543],[-58.508931,-34.425276],[-58.508761,-34.424869],[-58.50852,-34.424384],[-58.508325,-34.423667],[-58.508322,-34.42328],[-58.508273,-34.423081],[-58.508135,-34.423003],[-58.508019,-34.422976],[-58.507831,-34.422945]]],[[[-58.499224,-34.435914],[-58.499004,-34.435912],[-58.498728,-34.435954],[-58.498545,-34.436134],[-58.498413,-34.436589],[-58.498267,-34.437043],[-58.498034,-34.437748],[-58.498137,-34.43816],[-58.498228,-34.438469],[-58.499453,-34.438506],[-58.499801,-34.438328],[-58.500023,-34.43824],[-58.500247,-34.438037],[-58.500212,-34.437672],[-58.500108,-34.437294],[-58.499884,-34.436744],[-58.499749,-34.436594],[-58.499659,-34.43625],[-58.499442,-34.436077],[-58.499224,-34.435914]]]]}}]}