{"type":"FeatureCollection","features":[{"type":"Feature","properties":{"nombre":"Estación Delta","operador":"Trenes Argentinos","fuente":"IGN","ramal":"Tren de la Costa: Maipú - Delta","servicios_2020":58},"geometry":{"type":"Point","coordinates":[-58.576831,-34.418535]}},{"type":"Feature","properties":{"nombre":"Estación Canal San Fernando","operador":"Trenes Argentinos","fuente":"IGN","ramal":"Tren de la Costa: Maipú - Delta","servicios_2020":58},"geometry":{"type":"Point","coordinates":[-58.562987,-34.429974]}},{"type":"Feature","properties":{"nombre":"Estación Vicealmirante E. Montes","operador":"Ferrovías","fuente":"IGN","ramal":"Belgrano Norte: Retiro - Villa Rosa","servicios_2020":null},"geometry":{"type":"Point","coordinates":[-58.61991,-34.504064]}},{"type":"Feature","properties":{"nombre":"Estación General Pacheco","operador":"Trenes Argentinos","fuente":"IGN","ramal":"Mitre: Villa Ballester - Zárate","servicios_2020":20},"geometry":{"type":"Point","coordinates":[-58.620132,-34.455926]}},{"type":"Feature","properties":{"nombre":"Estación Tigre","operador":"Trenes Argentinos","fuente":"IGN","ramal":"Mitre: Retiro - Tigre","servicios_2020":166},"geometry":{"type":"Point","coordinates":[-58.581898,-34.42344]}},{"type":"Feature","properties":{"nombre":"Estación El Talar","operador":"Trenes Argentinos","fuente":"IGN","ramal":"Mitre: Victoria - Capilla del Señor","servicios_2020":25},"geometry":{"type":"Point","coordinates":[-58.64615,-34.462832]}},{"type":"Feature","properties":{"nombre":"Estación Don Torcuato","operador":"Ferrovías","fuente":"IGN","ramal":"Belgrano Norte: Retiro - Villa Rosa","servicios_2020":null},"geometry":{"type":"Point","coordinates":[-58.641942,-34.502612]}},{"type":"Feature","properties":{"nombre":"Estación Benavídez","operador":"Trenes Argentinos","fuente":"IGN","ramal":"Mitre: Villa Ballester - Zárate","servicios_2020":20},"geometry":{"type":"Point","coordinates":[-58.684642,-34.409361]}},{"type":"Feature","properties":{"nombre":"Estación López Camelo","operador":"Trenes Argentinos","fuente":"IGN","ramal":"Mitre: Victoria - Capilla del Señor","servicios_2020":25},"geometry":{"type":"Point","coordinates":[-58.677435,-34.44697]}}]}