{"type":"FeatureCollection","features":[{"type":"Feature","properties":{"partida":"357019167","cca":"35700010000000000000006420000000000000100A","tipo":"Rural","sup_m2":12753.4},"geometry":{"type":"Polygon","coordinates":[[[-58.53881,-34.306755],[-58.539001,-34.306298],[-58.539099,-34.305919],[-58.538732,-34.305731],[-58.537824,-34.305604],[-58.537528,-34.306464],[-58.53881,-34.306755]]]}},{"type":"Feature","properties":{"partida":"357019168","cca":"35700010000000000000006420000000000000100B","tipo":"Rural","sup_m2":3521.5},"geometry":{"type":"Polygon","coordinates":[[[-58.537528,-34.306464],[-58.537824,-34.305604],[-58.537487,-34.305505],[-58.537146,-34.30658],[-58.537528,-34.306464]]]}},{"type":"Feature","properties":{"partida":"357019169","cca":"35700010000000000000006420000000000000100C","tipo":"Rural","sup_m2":4468.0},"geometry":{"type":"Polygon","coordinates":[[[-58.537487,-34.305505],[-58.537084,-34.30551],[-58.536738,-34.306705],[-58.537146,-34.30658],[-58.537487,-34.305505]]]}},{"type":"Feature","properties":{"partida":"357019170","cca":"35700010000000000000006420000000000000100D","tipo":"Rural","sup_m2":5482.5},"geometry":{"type":"Polygon","coordinates":[[[-58.537084,-34.30551],[-58.536691,-34.305356],[-58.536327,-34.306614],[-58.536738,-34.306705],[-58.537084,-34.30551]]]}},{"type":"Feature","properties":{"partida":"357019171","cca":"35700010000000000000006420000000000000100E","tipo":"Rural","sup_m2":5955.5},"geometry":{"type":"Polygon","coordinates":[[[-58.536327,-34.306614],[-58.536691,-34.305356],[-58.536324,-34.305228],[-58.535853,-34.306508],[-58.536327,-34.306614]]]}},{"type":"Feature","properties":{"partida":"357019172","cca":"35700010000000000000006420000000000000100F","tipo":"Rural","sup_m2":6688.9},"geometry":{"type":"Polygon","coordinates":[[[-58.535853,-34.306508],[-58.536324,-34.305228],[-58.535803,-34.30512],[-58.535423,-34.306413],[-58.535853,-34.306508]]]}},{"type":"Feature","properties":{"partida":"357019173","cca":"35700010000000000000006420000000000000100G","tipo":"Rural","sup_m2":4766.2},"geometry":{"type":"Polygon","coordinates":[[[-58.535423,-34.306413],[-58.535803,-34.30512],[-58.53545,-34.305111],[-58.53506,-34.306332],[-58.535423,-34.306413]]]}},{"type":"Feature","properties":{"partida":"357019186","cca":"357000100000000000000064200000000000025000","tipo":"Rural","sup_m2":6839.9},"geometry":{"type":"Polygon","coordinates":[[[-58.538711,-34.307265],[-58.536738,-34.306705],[-58.536484,-34.307012],[-58.538614,-34.30752],[-58.538711,-34.307265]]]}},{"type":"Feature","properties":{"partida":"357019187","cca":"357000100000000000000064200000000000026000","tipo":"Rural","sup_m2":4450.8},"geometry":{"type":"Polygon","coordinates":[[[-58.538752,-34.307029],[-58.537146,-34.30658],[-58.536738,-34.306705],[-58.538711,-34.307265],[-58.538752,-34.307029]]]}},{"type":"Feature","properties":{"partida":"357019188","cca":"357000100000000000000064200000000000027000","tipo":"Rural","sup_m2":3717.3},"geometry":{"type":"Polygon","coordinates":[[[-58.537146,-34.30658],[-58.538752,-34.307029],[-58.53881,-34.306755],[-58.537528,-34.306464],[-58.537146,-34.30658]]]}},{"type":"Feature","properties":{"partida":"357014011","cca":"35700010000000000000006550000000000000300D","tipo":"Urbano","sup_m2":7284.8},"geometry":{"type":"Polygon","coordinates":[[[-58.555195,-34.307423],[-58.555907,-34.307632],[-58.556018,-34.307306],[-58.555633,-34.306848],[-58.555574,-34.306744],[-58.55547,-34.306523],[-58.555388,-34.306452],[-58.55533,-34.306436],[-58.554969,-34.306391],[-58.555195,-34.307423]]]}},{"type":"Feature","properties":{"partida":"357000020","cca":"357000100000000000000065600A00000000001000","tipo":"Rural","sup_m2":147319.4},"geometry":{"type":"Polygon","coordinates":[[[-58.548677,-34.303093],[-58.551186,-34.306859],[-58.555087,-34.304921],[-58.554712,-34.304629],[-58.554467,-34.304505],[-58.553798,-34.304122],[-58.55317,-34.303757],[-58.552573,-34.303304],[-58.552245,-34.302923],[-58.551711,-34.302642],[-58.551404,-34.302514],[-58.551054,-34.302382],[-58.550677,-34.302498],[-58.548677,-34.303093]]]}},{"type":"Feature","properties":{"partida":"357017690","cca":"357000100000000000000065600A0000000002000E","tipo":"Urbano","sup_m2":1884.5},"geometry":{"type":"Polygon","coordinates":[[[-58.553834,-34.307212],[-58.554721,-34.307244],[-58.554901,-34.307241],[-58.554866,-34.307065],[-58.554731,-34.307073],[-58.553845,-34.30703],[-58.553834,-34.307212]]]}},{"type":"Feature","properties":{"partida":"357017691","cca":"357000100000000000000065600A0000000002000F","tipo":"Urbano","sup_m2":1905.1},"geometry":{"type":"Polygon","coordinates":[[[-58.553845,-34.30703],[-58.554731,-34.307073],[-58.554866,-34.307065],[-58.55483,-34.306887],[-58.554743,-34.30688],[-58.553857,-34.306849],[-58.553845,-34.30703]]]}},{"type":"Feature","properties":{"partida":"357017692","cca":"357000100000000000000065600A0000000002000G","tipo":"Urbano","sup_m2":1689.3},"geometry":{"type":"Polygon","coordinates":[[[-58.553857,-34.306849],[-58.554743,-34.30688],[-58.55483,-34.306887],[-58.554721,-34.306698],[-58.553869,-34.306668],[-58.553857,-34.306849]]]}},{"type":"Feature","properties":{"partida":"357017693","cca":"357000100000000000000065600A0000000002000H","tipo":"Urbano","sup_m2":1478.9},"geometry":{"type":"Polygon","coordinates":[[[-58.553869,-34.306668],[-58.554721,-34.306698],[-58.55469,-34.306523],[-58.55388,-34.306494],[-58.553869,-34.306668]]]}},{"type":"Feature","properties":{"partida":"357017694","cca":"357000100000000000000065600A0000000002000K","tipo":"Urbano","sup_m2":1417.8},"geometry":{"type":"Polygon","coordinates":[[[-58.554658,-34.306344],[-58.553891,-34.30632],[-58.55388,-34.306494],[-58.55469,-34.306523],[-58.554658,-34.306344]]]}},{"type":"Feature","properties":{"partida":"357017695","cca":"357000100000000000000065600A0000000002000M","tipo":"Urbano","sup_m2":1386.8},"geometry":{"type":"Polygon","coordinates":[[[-58.553903,-34.306135],[-58.553891,-34.30632],[-58.554658,-34.306344],[-58.554644,-34.306169],[-58.553903,-34.306135]]]}},{"type":"Feature","properties":{"partida":"357017696","cca":"357000100000000000000065600A0000000002000N","tipo":"Urbano","sup_m2":1332.3},"geometry":{"type":"Polygon","coordinates":[[[-58.553903,-34.306135],[-58.554644,-34.306169],[-58.554673,-34.305995],[-58.553914,-34.305964],[-58.553903,-34.306135]]]}},{"type":"Feature","properties":{"partida":"357017697","cca":"357000100000000000000065600A0000000002000P","tipo":"Urbano","sup_m2":1406.6},"geometry":{"type":"Polygon","coordinates":[[[-58.553925,-34.305791],[-58.553914,-34.305964],[-58.554673,-34.305995],[-58.55477,-34.305828],[-58.553925,-34.305791]]]}},{"type":"Feature","properties":{"partida":"357017698","cca":"357000100000000000000065600A0000000002000R","tipo":"Urbano","sup_m2":1681.7},"geometry":{"type":"Polygon","coordinates":[[[-58.554966,-34.305658],[-58.554816,-34.305656],[-58.553937,-34.305617],[-58.553925,-34.305791],[-58.55477,-34.305828],[-58.55493,-34.305701],[-58.554966,-34.305658]]]}},{"type":"Feature","properties":{"partida":"357000163","cca":"357000100000000000000065600A0000000002000S","tipo":"Rural","sup_m2":47036.9},"geometry":{"type":"Polygon","coordinates":[[[-58.554966,-34.305658],[-58.555115,-34.305266],[-58.555087,-34.304921],[-58.551186,-34.306859],[-58.551906,-34.307847],[-58.55379,-34.307888],[-58.553937,-34.305617],[-58.554816,-34.305656],[-58.554966,-34.305658]]]}},{"type":"Feature","properties":{"partida":"357018793","cca":"357000100000000000000065600A00000000051000","tipo":"Urbano","sup_m2":6391.9},"geometry":{"type":"Polygon","coordinates":[[[-58.543054,-34.306178],[-58.5431,-34.306217],[-58.543662,-34.306734],[-58.544308,-34.306193],[-58.543865,-34.305714],[-58.543422,-34.306003],[-58.543054,-34.306178]]]}},{"type":"Feature","properties":{"partida":"357018794","cca":"357000100000000000000065600A00000000052000","tipo":"Urbano","sup_m2":1832.4},"geometry":{"type":"Polygon","coordinates":[[[-58.542846,-34.306304],[-58.54292,-34.306357],[-58.543508,-34.306862],[-58.543662,-34.306734],[-58.5431,-34.306217],[-58.543054,-34.306178],[-58.542846,-34.306304]]]}},{"type":"Feature","properties":{"partida":"357018795","cca":"357000100000000000000065600A00000000053000","tipo":"Urbano","sup_m2":1632.0},"geometry":{"type":"Polygon","coordinates":[[[-58.542846,-34.306304],[-58.54269,-34.306403],[-58.543367,-34.306979],[-58.543508,-34.306862],[-58.54292,-34.306357],[-58.542846,-34.306304]]]}},{"type":"Feature","properties":{"partida":"357018796","cca":"357000100000000000000065600A00000000054000","tipo":"Urbano","sup_m2":1857.2},"geometry":{"type":"Polygon","coordinates":[[[-58.543367,-34.306979],[-58.54269,-34.306403],[-58.54251,-34.30652],[-58.54262,-34.306607],[-58.543209,-34.30711],[-58.543367,-34.306979]]]}},{"type":"Feature","properties":{"partida":"357018797","cca":"357000100000000000000065600A00000000055000","tipo":"Urbano","sup_m2":1864.6},"geometry":{"type":"Polygon","coordinates":[[[-58.54251,-34.30652],[-58.542331,-34.306633],[-58.542471,-34.306731],[-58.54305,-34.307242],[-58.543209,-34.30711],[-58.54262,-34.306607],[-58.54251,-34.30652]]]}},{"type":"Feature","properties":{"partida":"357018798","cca":"357000100000000000000065600A00000000056000","tipo":"Urbano","sup_m2":1916.4},"geometry":{"type":"Polygon","coordinates":[[[-58.542331,-34.306633],[-58.542157,-34.306746],[-58.5423,-34.306873],[-58.542918,-34.307352],[-58.54305,-34.307242],[-58.542471,-34.306731],[-58.542331,-34.306633]]]}},{"type":"Feature","properties":{"partida":"357018817","cca":"357000100000000000000065600A00000000075000","tipo":"Urbano","sup_m2":1309.8},"geometry":{"type":"Polygon","coordinates":[[[-58.543423,-34.306933],[-58.543897,-34.30735],[-58.544076,-34.307242],[-58.543576,-34.306806],[-58.543423,-34.306933]]]}},{"type":"Feature","properties":{"partida":"357018818","cca":"357000100000000000000065600A00000000076000","tipo":"Urbano","sup_m2":1504.6},"geometry":{"type":"Polygon","coordinates":[[[-58.544316,-34.307167],[-58.543732,-34.306676],[-58.543576,-34.306806],[-58.544076,-34.307242],[-58.544316,-34.307167]]]}},{"type":"Feature","properties":{"partida":"357018819","cca":"357000100000000000000065600A00000000077000","tipo":"Urbano","sup_m2":5604.2},"geometry":{"type":"Polygon","coordinates":[[[-58.544316,-34.307167],[-58.544859,-34.306824],[-58.544308,-34.306193],[-58.543732,-34.306676],[-58.544316,-34.307167]]]}}]}