{"type":"FeatureCollection","features":[{"type":"Feature","properties":{"partida":"357019178","cca":"357000100000000000000064200000000000017000","tipo":"Rural","sup_m2":8773.7},"geometry":{"type":"Polygon","coordinates":[[[-58.537427,-34.309542],[-58.537572,-34.309235],[-58.535132,-34.30864],[-58.534891,-34.30893],[-58.537427,-34.309542]]]}},{"type":"Feature","properties":{"partida":"357019179","cca":"357000100000000000000064200000000000018000","tipo":"Rural","sup_m2":7326.1},"geometry":{"type":"Polygon","coordinates":[[[-58.535348,-34.30838],[-58.535132,-34.30864],[-58.537572,-34.309235],[-58.537581,-34.308937],[-58.535348,-34.30838]]]}},{"type":"Feature","properties":{"partida":"357019180","cca":"357000100000000000000064200000000000019000","tipo":"Rural","sup_m2":5701.3},"geometry":{"type":"Polygon","coordinates":[[[-58.535519,-34.308174],[-58.535348,-34.30838],[-58.537581,-34.308937],[-58.537792,-34.308743],[-58.535519,-34.308174]]]}},{"type":"Feature","properties":{"partida":"357019181","cca":"357000100000000000000064200000000000020000","tipo":"Rural","sup_m2":6941.1},"geometry":{"type":"Polygon","coordinates":[[[-58.538071,-34.308507],[-58.535714,-34.307942],[-58.535519,-34.308174],[-58.537792,-34.308743],[-58.538045,-34.308562],[-58.538071,-34.308507]]]}},{"type":"Feature","properties":{"partida":"357019182","cca":"357000100000000000000064200000000000021000","tipo":"Rural","sup_m2":6715.0},"geometry":{"type":"Polygon","coordinates":[[[-58.538071,-34.308507],[-58.538087,-34.308239],[-58.535925,-34.307685],[-58.535714,-34.307942],[-58.538071,-34.308507]]]}},{"type":"Feature","properties":{"partida":"357019183","cca":"357000100000000000000064200000000000022000","tipo":"Rural","sup_m2":6660.3},"geometry":{"type":"Polygon","coordinates":[[[-58.536131,-34.307437],[-58.535925,-34.307685],[-58.538087,-34.308239],[-58.538266,-34.307978],[-58.536131,-34.307437]]]}},{"type":"Feature","properties":{"partida":"357019184","cca":"357000100000000000000064200000000000023000","tipo":"Rural","sup_m2":5695.6},"geometry":{"type":"Polygon","coordinates":[[[-58.536308,-34.307223],[-58.536131,-34.307437],[-58.538266,-34.307978],[-58.538463,-34.307766],[-58.536308,-34.307223]]]}},{"type":"Feature","properties":{"partida":"357019185","cca":"357000100000000000000064200000000000024000","tipo":"Rural","sup_m2":5935.9},"geometry":{"type":"Polygon","coordinates":[[[-58.536484,-34.307012],[-58.536308,-34.307223],[-58.538463,-34.307766],[-58.538561,-34.307664],[-58.538614,-34.30752],[-58.536484,-34.307012]]]}},{"type":"Feature","properties":{"partida":"357014004","cca":"357000100000000000000065500000000000002000","tipo":"Rural","sup_m2":56563.3},"geometry":{"type":"Polygon","coordinates":[[[-58.556719,-34.309341],[-58.555662,-34.312354],[-58.557187,-34.312709],[-58.558426,-34.310379],[-58.557997,-34.310245],[-58.558478,-34.309696],[-58.556826,-34.309409],[-58.556719,-34.309341]]]}},{"type":"Feature","properties":{"partida":"357014005","cca":"35700010000000000000006550000000000000300A","tipo":"Urbano","sup_m2":5994.5},"geometry":{"type":"Polygon","coordinates":[[[-58.556463,-34.307451],[-58.556219,-34.308216],[-58.556999,-34.308397],[-58.557035,-34.308335],[-58.557103,-34.307935],[-58.557078,-34.30775],[-58.557021,-34.30766],[-58.556946,-34.307599],[-58.556774,-34.307523],[-58.556602,-34.307475],[-58.556463,-34.307451]]]}},{"type":"Feature","properties":{"partida":"357014007","cca":"35700010000000000000006550000000000000300B","tipo":"Urbano","sup_m2":1895.6},"geometry":{"type":"Polygon","coordinates":[[[-58.556219,-34.308216],[-58.556463,-34.307451],[-58.556242,-34.307414],[-58.55598,-34.30816],[-58.556219,-34.308216]]]}},{"type":"Feature","properties":{"partida":"357014009","cca":"35700010000000000000006550000000000000300C","tipo":"Urbano","sup_m2":2026.5},"geometry":{"type":"Polygon","coordinates":[[[-58.555747,-34.308106],[-58.55598,-34.30816],[-58.556242,-34.307414],[-58.556018,-34.307306],[-58.555747,-34.308106]]]}},{"type":"Feature","properties":{"partida":"357014013","cca":"35700010000000000000006550000000000000300E","tipo":"Urbano","sup_m2":2175.7},"geometry":{"type":"Polygon","coordinates":[[[-58.555043,-34.307686],[-58.555831,-34.307858],[-58.555907,-34.307632],[-58.555195,-34.307423],[-58.555048,-34.307576],[-58.555043,-34.307686]]]}},{"type":"Feature","properties":{"partida":"357014014","cca":"35700010000000000000006550000000000000300F","tipo":"Rural","sup_m2":2028.5},"geometry":{"type":"Polygon","coordinates":[[[-58.555043,-34.307686],[-58.55504,-34.307901],[-58.555026,-34.307947],[-58.555747,-34.308106],[-58.555831,-34.307858],[-58.555043,-34.307686]]]}},{"type":"Feature","properties":{"partida":"357014015","cca":"35700010000000000000006550000000000000300G","tipo":"Urbano","sup_m2":4409.9},"geometry":{"type":"Polygon","coordinates":[[[-58.556999,-34.308397],[-58.555747,-34.308106],[-58.555026,-34.307947],[-58.554992,-34.308155],[-58.556887,-34.308596],[-58.556999,-34.308397]]]}},{"type":"Feature","properties":{"partida":"357014016","cca":"35700010000000000000006550000000000000300H","tipo":"Rural","sup_m2":4399.6},"geometry":{"type":"Polygon","coordinates":[[[-58.554992,-34.308155],[-58.55491,-34.30837],[-58.556776,-34.308794],[-58.556887,-34.308596],[-58.554992,-34.308155]]]}},{"type":"Feature","properties":{"partida":"357014017","cca":"35700010000000000000006550000000000000300J","tipo":"Rural","sup_m2":4130.5},"geometry":{"type":"Polygon","coordinates":[[[-58.55491,-34.30837],[-58.554867,-34.308576],[-58.556687,-34.308998],[-58.556732,-34.308872],[-58.556776,-34.308794],[-58.55491,-34.30837]]]}},{"type":"Feature","properties":{"partida":"357014018","cca":"35700010000000000000006550000000000000300K","tipo":"Rural","sup_m2":4251.9},"geometry":{"type":"Polygon","coordinates":[[[-58.554867,-34.308576],[-58.554781,-34.308789],[-58.556642,-34.30921],[-58.556652,-34.309096],[-58.556687,-34.308998],[-58.554867,-34.308576]]]}},{"type":"Feature","properties":{"partida":"357014019","cca":"35700010000000000000006550000000000000300M","tipo":"Urbano","sup_m2":4200.1},"geometry":{"type":"Polygon","coordinates":[[[-58.556719,-34.309341],[-58.556677,-34.309305],[-58.556642,-34.30921],[-58.554781,-34.308789],[-58.554706,-34.30889],[-58.554702,-34.308963],[-58.556682,-34.309446],[-58.556719,-34.309341]]]}},{"type":"Feature","properties":{"partida":"357014020","cca":"35700010000000000000006550000000000000300N","tipo":"Urbano","sup_m2":4264.3},"geometry":{"type":"Polygon","coordinates":[[[-58.556682,-34.309446],[-58.554702,-34.308963],[-58.554631,-34.309141],[-58.556609,-34.309654],[-58.556682,-34.309446]]]}},{"type":"Feature","properties":{"partida":"357014021","cca":"35700010000000000000006550000000000000300P","tipo":"Urbano","sup_m2":4554.4},"geometry":{"type":"Polygon","coordinates":[[[-58.554631,-34.309141],[-58.554638,-34.309376],[-58.556536,-34.309862],[-58.556609,-34.309654],[-58.554631,-34.309141]]]}},{"type":"Feature","properties":{"partida":"357014022","cca":"35700010000000000000006550000000000000300R","tipo":"Urbano","sup_m2":3827.3},"geometry":{"type":"Polygon","coordinates":[[[-58.554638,-34.309376],[-58.554588,-34.309533],[-58.556463,-34.31007],[-58.556536,-34.309862],[-58.554638,-34.309376]]]}},{"type":"Feature","properties":{"partida":"357014023","cca":"35700010000000000000006550000000000000300S","tipo":"Urbano","sup_m2":5172.9},"geometry":{"type":"Polygon","coordinates":[[[-58.554588,-34.309533],[-58.554499,-34.309713],[-58.554545,-34.309829],[-58.55639,-34.310277],[-58.556463,-34.31007],[-58.554588,-34.309533]]]}},{"type":"Feature","properties":{"partida":"357014024","cca":"35700010000000000000006550000000000000300T","tipo":"Urbano","sup_m2":4136.9},"geometry":{"type":"Polygon","coordinates":[[[-58.554545,-34.309829],[-58.554495,-34.310033],[-58.556317,-34.310485],[-58.55639,-34.310277],[-58.554545,-34.309829]]]}},{"type":"Feature","properties":{"partida":"357014025","cca":"35700010000000000000006550000000000000300U","tipo":"Urbano","sup_m2":4538.0},"geometry":{"type":"Polygon","coordinates":[[[-58.554495,-34.310033],[-58.55449,-34.310303],[-58.556244,-34.310693],[-58.556317,-34.310485],[-58.554495,-34.310033]]]}},{"type":"Feature","properties":{"partida":"357014026","cca":"35700010000000000000006550000000000000300V","tipo":"Rural","sup_m2":3967.4},"geometry":{"type":"Polygon","coordinates":[[[-58.55449,-34.310303],[-58.554469,-34.310524],[-58.556172,-34.3109],[-58.556244,-34.310693],[-58.55449,-34.310303]]]}},{"type":"Feature","properties":{"partida":"357014027","cca":"35700010000000000000006550000000000000300W","tipo":"Urbano","sup_m2":3725.3},"geometry":{"type":"Polygon","coordinates":[[[-58.554469,-34.310524],[-58.554442,-34.310728],[-58.556099,-34.311108],[-58.556172,-34.3109],[-58.554469,-34.310524]]]}},{"type":"Feature","properties":{"partida":"357014028","cca":"35700010000000000000006550000000000000300Y","tipo":"Urbano","sup_m2":3760.7},"geometry":{"type":"Polygon","coordinates":[[[-58.554442,-34.310728],[-58.554425,-34.310952],[-58.556026,-34.311316],[-58.556099,-34.311108],[-58.554442,-34.310728]]]}},{"type":"Feature","properties":{"partida":"357014029","cca":"35700010000000000000006550000000000000300Z","tipo":"Urbano","sup_m2":3568.3},"geometry":{"type":"Polygon","coordinates":[[[-58.554425,-34.310952],[-58.554391,-34.311162],[-58.555953,-34.311523],[-58.556026,-34.311316],[-58.554425,-34.310952]]]}},{"type":"Feature","properties":{"partida":"357014006","cca":"3570001000000000000000655000000000000030AA","tipo":"Urbano","sup_m2":3422.4},"geometry":{"type":"Polygon","coordinates":[[[-58.554391,-34.311162],[-58.554384,-34.311373],[-58.55588,-34.311731],[-58.555953,-34.311523],[-58.554391,-34.311162]]]}},{"type":"Feature","properties":{"partida":"357014008","cca":"3570001000000000000000655000000000000030BB","tipo":"Urbano","sup_m2":3289.6},"geometry":{"type":"Polygon","coordinates":[[[-58.554384,-34.311373],[-58.554361,-34.31158],[-58.555807,-34.311939],[-58.55588,-34.311731],[-58.554384,-34.311373]]]}},{"type":"Feature","properties":{"partida":"357014010","cca":"3570001000000000000000655000000000000030CC","tipo":"Urbano","sup_m2":3357.3},"geometry":{"type":"Polygon","coordinates":[[[-58.554361,-34.31158],[-58.554316,-34.311802],[-58.555734,-34.312147],[-58.555807,-34.311939],[-58.554361,-34.31158]]]}},{"type":"Feature","properties":{"partida":"357014012","cca":"3570001000000000000000655000000000000030DD","tipo":"Urbano","sup_m2":3279.2},"geometry":{"type":"Polygon","coordinates":[[[-58.555662,-34.312354],[-58.555734,-34.312147],[-58.554316,-34.311802],[-58.554281,-34.312027],[-58.555662,-34.312354]]]}},{"type":"Feature","properties":{"partida":"357014030","cca":"357000100000000000000065500000000000004000","tipo":"Rural","sup_m2":123931.9},"geometry":{"type":"Polygon","coordinates":[[[-58.554281,-34.312027],[-58.554204,-34.312371],[-58.553996,-34.313253],[-58.553785,-34.314269],[-58.55373,-34.314841],[-58.557652,-34.315758],[-58.558547,-34.313025],[-58.555662,-34.312354],[-58.554281,-34.312027]]]}},{"type":"Feature","properties":{"partida":"357014031","cca":"357000100000000000000065500000000000005000","tipo":"Rural","sup_m2":125473.1},"geometry":{"type":"Polygon","coordinates":[[[-58.55323,-34.317788],[-58.557646,-34.318827],[-58.557447,-34.317575],[-58.557364,-34.316637],[-58.557652,-34.315758],[-58.55373,-34.314841],[-58.553656,-34.315624],[-58.553438,-34.316405],[-58.553329,-34.316986],[-58.553315,-34.317482],[-58.55323,-34.317788]]]}},{"type":"Feature","properties":{"partida":"357014032","cca":"357000100000000000000065500000000000006000","tipo":"Rural","sup_m2":169020.9},"geometry":{"type":"Polygon","coordinates":[[[-58.55323,-34.317788],[-58.552985,-34.31846],[-58.552603,-34.319647],[-58.552274,-34.32078],[-58.55817,-34.322128],[-58.557646,-34.318827],[-58.55323,-34.317788]]]}},{"type":"Feature","properties":{"partida":"357014033","cca":"357000100000000000000065500000000000007000","tipo":"Rural","sup_m2":346777.6},"geometry":{"type":"Polygon","coordinates":[[[-58.556415,-34.327523],[-58.558367,-34.32216],[-58.55817,-34.322128],[-58.552274,-34.32078],[-58.55216,-34.321235],[-58.55221,-34.321505],[-58.552325,-34.321675],[-58.552673,-34.321961],[-58.55276,-34.322332],[-58.552548,-34.322548],[-58.552257,-34.322704],[-58.552244,-34.32275],[-58.552254,-34.322795],[-58.552356,-34.322979],[-58.552427,-34.323235],[-58.552395,-34.323631],[-58.552323,-34.324213],[-58.552001,-34.324875],[-58.55151,-34.326251],[-58.5514,-34.326784],[-58.551327,-34.327105],[-58.55128,-34.327248],[-58.551321,-34.327701],[-58.551304,-34.327852],[-58.556415,-34.327523]]]}},{"type":"Feature","properties":{"partida":"357018012","cca":"35700010000000000000006560000000000001000B","tipo":"Rural","sup_m2":495073.7},"geometry":{"type":"Polygon","coordinates":[[[-58.544957,-34.318912],[-58.544727,-34.318861],[-58.544445,-34.318789],[-58.544135,-34.318751],[-58.543771,-34.318584],[-58.543401,-34.318507],[-58.543076,-34.318481],[-58.542922,-34.318428],[-58.542801,-34.318255],[-58.542515,-34.318051],[-58.542258,-34.318005],[-58.54203,-34.317989],[-58.541652,-34.317757],[-58.541498,-34.317652],[-58.54138,-34.317347],[-58.541234,-34.317093],[-58.540986,-34.316801],[-58.540868,-34.31646],[-58.54082,-34.316245],[-58.540811,-34.315868],[-58.540862,-34.315571],[-58.541072,-34.315407],[-58.541256,-34.315182],[-58.541196,-34.31507],[-58.541168,-34.314924],[-58.541178,-34.314716],[-58.536679,-34.313699],[-58.536085,-34.315506],[-58.535968,-34.315691],[-58.535357,-34.317801],[-58.535036,-34.319528],[-58.534373,-34.321757],[-58.53357,-34.323564],[-58.533638,-34.323623],[-58.534253,-34.32329],[-58.534544,-34.323278],[-58.534786,-34.323341],[-58.534952,-34.323529],[-58.5352,-34.323296],[-58.535369,-34.3232],[-58.535654,-34.322993],[-58.53571,-34.32294],[-58.535983,-34.322621],[-58.536179,-34.322415],[-58.53628,-34.322273],[-58.53644,-34.322103],[-58.53676,-34.321818],[-58.537089,-34.321642],[-58.5373,-34.321524],[-58.537557,-34.321329],[-58.537704,-34.321211],[-58.538009,-34.320929],[-58.538153,-34.320848],[-58.538422,-34.320849],[-58.538752,-34.320889],[-58.538999,-34.321002],[-58.539577,-34.321146],[-58.539952,-34.321143],[-58.540415,-34.320998],[-58.540631,-34.320904],[-58.540822,-34.320809],[-58.541019,-34.320633],[-58.541399,-34.320105],[-58.541633,-34.319923],[-58.541913,-34.319689],[-58.542142,-34.319505],[-58.542375,-34.319376],[-58.542698,-34.319273],[-58.543147,-34.319273],[-58.543481,-34.319338],[-58.543843,-34.319631],[-58.543946,-34.319798],[-58.545222,-34.319276],[-58.544957,-34.318912]]]}},{"type":"Feature","properties":{"partida":"357014051","cca":"35700010000000000000006560000000000001000C","tipo":"Rural","sup_m2":101478.1},"geometry":{"type":"Polygon","coordinates":[[[-58.536679,-34.313699],[-58.541178,-34.314716],[-58.541548,-34.314201],[-58.541666,-34.313607],[-58.541259,-34.313292],[-58.54092,-34.31271],[-58.540999,-34.312308],[-58.541286,-34.311804],[-58.541057,-34.311613],[-58.540693,-34.311604],[-58.54027,-34.311498],[-58.540036,-34.311447],[-58.539725,-34.311539],[-58.539264,-34.311755],[-58.53899,-34.311856],[-58.538525,-34.311945],[-58.538318,-34.312164],[-58.537838,-34.312505],[-58.537174,-34.312773],[-58.536952,-34.313163],[-58.536679,-34.313699]]]}},{"type":"Feature","properties":{"partida":"357014409","cca":"357000100000000000000065600000000000374000","tipo":"Urbano","sup_m2":5802.0},"geometry":{"type":"Polygon","coordinates":[[[-58.538481,-34.325528],[-58.535782,-34.324737],[-58.535811,-34.324955],[-58.53851,-34.325747],[-58.538481,-34.325528]]]}},{"type":"Feature","properties":{"partida":"357014411","cca":"35700010000000000000006560000000000037500A","tipo":"Urbano","sup_m2":11878.5},"geometry":{"type":"Polygon","coordinates":[[[-58.538481,-34.325528],[-58.538424,-34.325092],[-58.535619,-34.324253],[-58.535749,-34.32448],[-58.535782,-34.324737],[-58.538481,-34.325528]]]}},{"type":"Feature","properties":{"partida":"357018060","cca":"357000100000000000000065600A00000000003000","tipo":"Rural","sup_m2":384504.7},"geometry":{"type":"Polygon","coordinates":[[[-58.544859,-34.306824],[-58.5449,-34.306899],[-58.545482,-34.307676],[-58.548334,-34.311339],[-58.553057,-34.309427],[-58.551186,-34.306859],[-58.548677,-34.303093],[-58.547933,-34.303364],[-58.547353,-34.303814],[-58.546581,-34.304402],[-58.545402,-34.305081],[-58.543865,-34.305714],[-58.544308,-34.306193],[-58.544859,-34.306824]]]}},{"type":"Feature","properties":{"partida":"357018061","cca":"357000100000000000000065600A0000000000400B","tipo":"Rural","sup_m2":109013.4},"geometry":{"type":"Polygon","coordinates":[[[-58.546643,-34.312024],[-58.548334,-34.311339],[-58.545482,-34.307676],[-58.545159,-34.307958],[-58.543456,-34.309338],[-58.542317,-34.308434],[-58.541914,-34.308795],[-58.54316,-34.309511],[-58.545017,-34.310833],[-58.546643,-34.312024]]]}},{"type":"Feature","properties":{"partida":"357017548","cca":"357000100000000000000065600A0000000000500B","tipo":"Urbano","sup_m2":1899.3},"geometry":{"type":"Polygon","coordinates":[[[-58.54127,-34.308589],[-58.541481,-34.308369],[-58.541067,-34.308158],[-58.540806,-34.308011],[-58.540705,-34.30821],[-58.540892,-34.30834],[-58.54127,-34.308589]]]}},{"type":"Feature","properties":{"partida":"357018980","cca":"357000100000000000000065600A0000000000500C","tipo":"Urbano","sup_m2":1797.2},"geometry":{"type":"Polygon","coordinates":[[[-58.542013,-34.308668],[-58.541481,-34.308369],[-58.54127,-34.308589],[-58.541691,-34.308865],[-58.542013,-34.308668]]]}},{"type":"Feature","properties":{"partida":"357017925","cca":"357000100000000000000065600A0000000000600A","tipo":"Urbano","sup_m2":1548.3},"geometry":{"type":"Polygon","coordinates":[[[-58.541103,-34.308762],[-58.54127,-34.308589],[-58.540892,-34.30834],[-58.540705,-34.30821],[-58.540602,-34.308433],[-58.541103,-34.308762]]]}},{"type":"Feature","properties":{"partida":"357018981","cca":"357000100000000000000065600A0000000000600B","tipo":"Urbano","sup_m2":1184.2},"geometry":{"type":"Polygon","coordinates":[[[-58.541103,-34.308762],[-58.541521,-34.309028],[-58.541691,-34.308865],[-58.54127,-34.308589],[-58.541103,-34.308762]]]}},{"type":"Feature","properties":{"partida":"357018982","cca":"357000100000000000000065600A0000000000600C","tipo":"Urbano","sup_m2":1423.3},"geometry":{"type":"Polygon","coordinates":[[[-58.540944,-34.308928],[-58.541103,-34.308762],[-58.540602,-34.308433],[-58.54041,-34.308589],[-58.540567,-34.308678],[-58.540944,-34.308928]]]}},{"type":"Feature","properties":{"partida":"357018983","cca":"357000100000000000000065600A0000000000600D","tipo":"Urbano","sup_m2":1086.2},"geometry":{"type":"Polygon","coordinates":[[[-58.540944,-34.308928],[-58.541295,-34.309164],[-58.541521,-34.309028],[-58.541103,-34.308762],[-58.540944,-34.308928]]]}},{"type":"Feature","properties":{"partida":"357017926","cca":"357000100000000000000065600A0000000000700A","tipo":"Urbano","sup_m2":1502.8},"geometry":{"type":"Polygon","coordinates":[[[-58.540238,-34.308751],[-58.540402,-34.30885],[-58.540782,-34.309097],[-58.540944,-34.308928],[-58.540567,-34.308678],[-58.54041,-34.308589],[-58.540329,-34.308673],[-58.540238,-34.308751]]]}},{"type":"Feature","properties":{"partida":"357018984","cca":"357000100000000000000065600A0000000000700B","tipo":"Urbano","sup_m2":925.9},"geometry":{"type":"Polygon","coordinates":[[[-58.540944,-34.308928],[-58.540782,-34.309097],[-58.541077,-34.309298],[-58.541295,-34.309164],[-58.540944,-34.308928]]]}},{"type":"Feature","properties":{"partida":"357017927","cca":"357000100000000000000065600A0000000000800A","tipo":"Urbano","sup_m2":1291.4},"geometry":{"type":"Polygon","coordinates":[[[-58.540565,-34.309208],[-58.540782,-34.309097],[-58.540402,-34.30885],[-58.540238,-34.308751],[-58.540097,-34.308896],[-58.540253,-34.309005],[-58.540565,-34.309208]]]}},{"type":"Feature","properties":{"partida":"357018832","cca":"357000100000000000000065600A0000000000800B","tipo":"Urbano","sup_m2":827.8},"geometry":{"type":"Polygon","coordinates":[[[-58.540565,-34.309208],[-58.540905,-34.309435],[-58.541077,-34.309298],[-58.540782,-34.309097],[-58.540565,-34.309208]]]}},{"type":"Feature","properties":{"partida":"357017928","cca":"357000100000000000000065600A0000000000900A","tipo":"Urbano","sup_m2":1122.5},"geometry":{"type":"Polygon","coordinates":[[[-58.540565,-34.309208],[-58.540253,-34.309005],[-58.540097,-34.308896],[-58.539948,-34.309059],[-58.540106,-34.309158],[-58.54035,-34.309319],[-58.540565,-34.309208]]]}},{"type":"Feature","properties":{"partida":"357018833","cca":"357000100000000000000065600A0000000000900B","tipo":"Urbano","sup_m2":877.4},"geometry":{"type":"Polygon","coordinates":[[[-58.54035,-34.309319],[-58.540707,-34.309547],[-58.540905,-34.309435],[-58.540565,-34.309208],[-58.54035,-34.309319]]]}},{"type":"Feature","properties":{"partida":"357018834","cca":"357000100000000000000065600A0000000000900C","tipo":"Urbano","sup_m2":925.9},"geometry":{"type":"Polygon","coordinates":[[[-58.54035,-34.309319],[-58.540106,-34.309158],[-58.539948,-34.309059],[-58.539839,-34.309242],[-58.539948,-34.309322],[-58.540125,-34.309434],[-58.54035,-34.309319]]]}},{"type":"Feature","properties":{"partida":"357018835","cca":"357000100000000000000065600A0000000000900D","tipo":"Urbano","sup_m2":984.5},"geometry":{"type":"Polygon","coordinates":[[[-58.54035,-34.309319],[-58.540125,-34.309434],[-58.540481,-34.309675],[-58.540707,-34.309547],[-58.54035,-34.309319]]]}},{"type":"Feature","properties":{"partida":"357017929","cca":"357000100000000000000065600A0000000001000A","tipo":"Urbano","sup_m2":614.9},"geometry":{"type":"Polygon","coordinates":[[[-58.539902,-34.309549],[-58.540125,-34.309434],[-58.539948,-34.309322],[-58.539839,-34.309242],[-58.539727,-34.30943],[-58.539902,-34.309549]]]}},{"type":"Feature","properties":{"partida":"357018836","cca":"357000100000000000000065600A0000000001000B","tipo":"Urbano","sup_m2":257886.8},"geometry":{"type":"MultiPolygon","coordinates":[[[[-58.539902,-34.309549],[-58.540281,-34.309809],[-58.540481,-34.309675],[-58.540125,-34.309434],[-58.539902,-34.309549]]],[[[-58.543505,-34.317647],[-58.543494,-34.31598],[-58.543604,-34.315614],[-58.543769,-34.315122],[-58.544759,-34.313762],[-58.545021,-34.31319],[-58.545605,-34.312445],[-58.546643,-34.312024],[-58.545017,-34.310833],[-58.54316,-34.309511],[-58.541896,-34.311063],[-58.541365,-34.311741],[-58.541365,-34.311833],[-58.541035,-34.312482],[-58.541049,-34.312804],[-58.541332,-34.313223],[-58.541735,-34.313517],[-58.541651,-34.314201],[-58.541546,-34.314476],[-58.541431,-34.314563],[-58.541357,-34.314645],[-58.541335,-34.314755],[-58.54129,-34.314944],[-58.541304,-34.315098],[-58.541342,-34.315285],[-58.540979,-34.315647],[-58.540947,-34.316029],[-58.540897,-34.316223],[-58.541087,-34.316663],[-58.541246,-34.316993],[-58.541421,-34.31719],[-58.541533,-34.317424],[-58.541664,-34.317631],[-58.541838,-34.317757],[-58.541955,-34.31783],[-58.542109,-34.31794],[-58.542266,-34.317939],[-58.542479,-34.31797],[-58.542684,-34.318041],[-58.542846,-34.31816],[-58.54294,-34.318288],[-58.543043,-34.318394],[-58.543126,-34.318448],[-58.543223,-34.318444],[-58.543268,-34.31842],[-58.543392,-34.318432],[-58.543456,-34.318448],[-58.543513,-34.318493],[-58.543803,-34.318524],[-58.543902,-34.318556],[-58.543954,-34.318615],[-58.544086,-34.318665],[-58.544314,-34.318706],[-58.544568,-34.318761],[-58.544683,-34.318764],[-58.544911,-34.31885],[-58.544837,-34.318749],[-58.544649,-34.318633],[-58.544555,-34.318544],[-58.544479,-34.318462],[-58.544451,-34.318379],[-58.544426,-34.318325],[-58.544265,-34.318179],[-58.54415,-34.318114],[-58.543915,-34.318073],[-58.543771,-34.318023],[-58.543616,-34.317957],[-58.543563,-34.317838],[-58.543543,-34.317756],[-58.543505,-34.317647]]]]}},{"type":"Feature","properties":{"partida":"357017930","cca":"357000100000000000000065600A00000000011000","tipo":"Urbano","sup_m2":2073.9},"geometry":{"type":"Polygon","coordinates":[[[-58.539727,-34.30943],[-58.539435,-34.30961],[-58.539585,-34.3097],[-58.540032,-34.309984],[-58.540281,-34.309809],[-58.539727,-34.30943]]]}},{"type":"Feature","properties":{"partida":"357017931","cca":"357000100000000000000065600A00000000012000","tipo":"Urbano","sup_m2":1822.4},"geometry":{"type":"Polygon","coordinates":[[[-58.539435,-34.30961],[-58.539296,-34.309807],[-58.539253,-34.309913],[-58.53934,-34.309896],[-58.539438,-34.309903],[-58.539542,-34.30999],[-58.539719,-34.31015],[-58.540032,-34.309984],[-58.539585,-34.3097],[-58.539435,-34.30961]]]}},{"type":"Feature","properties":{"partida":"357017932","cca":"357000100000000000000065600A00000000013000","tipo":"Urbano","sup_m2":2754.9},"geometry":{"type":"Polygon","coordinates":[[[-58.538997,-34.310183],[-58.539146,-34.310282],[-58.539741,-34.310674],[-58.53976,-34.31021],[-58.539619,-34.310217],[-58.539369,-34.309957],[-58.539127,-34.309995],[-58.538997,-34.310183]]]}},{"type":"Feature","properties":{"partida":"357017933","cca":"357000100000000000000065600A00000000014000","tipo":"Urbano","sup_m2":2102.3},"geometry":{"type":"Polygon","coordinates":[[[-58.538997,-34.310183],[-58.538864,-34.310391],[-58.539503,-34.310816],[-58.539741,-34.310674],[-58.538997,-34.310183]]]}},{"type":"Feature","properties":{"partida":"357017934","cca":"357000100000000000000065600A00000000015000","tipo":"Urbano","sup_m2":1638.5},"geometry":{"type":"Polygon","coordinates":[[[-58.538864,-34.310391],[-58.538745,-34.310578],[-58.539286,-34.310946],[-58.539503,-34.310816],[-58.538864,-34.310391]]]}},{"type":"Feature","properties":{"partida":"357017935","cca":"357000100000000000000065600A00000000016000","tipo":"Urbano","sup_m2":1442.8},"geometry":{"type":"Polygon","coordinates":[[[-58.538619,-34.310775],[-58.539058,-34.311082],[-58.539286,-34.310946],[-58.538745,-34.310578],[-58.538619,-34.310775]]]}},{"type":"Feature","properties":{"partida":"357017936","cca":"357000100000000000000065600A00000000017000","tipo":"Urbano","sup_m2":1248.3},"geometry":{"type":"Polygon","coordinates":[[[-58.538619,-34.310775],[-58.538441,-34.31096],[-58.538837,-34.311214],[-58.539058,-34.311082],[-58.538619,-34.310775]]]}},{"type":"Feature","properties":{"partida":"357017937","cca":"357000100000000000000065600A00000000018000","tipo":"Urbano","sup_m2":1072.6},"geometry":{"type":"Polygon","coordinates":[[[-58.538277,-34.311131],[-58.538597,-34.311358],[-58.538837,-34.311214],[-58.538441,-34.31096],[-58.538277,-34.311131]]]}},{"type":"Feature","properties":{"partida":"357017938","cca":"357000100000000000000065600A00000000019000","tipo":"Urbano","sup_m2":853.7},"geometry":{"type":"Polygon","coordinates":[[[-58.538277,-34.311131],[-58.538115,-34.311298],[-58.538376,-34.31149],[-58.538597,-34.311358],[-58.538277,-34.311131]]]}},{"type":"Feature","properties":{"partida":"357017686","cca":"357000100000000000000065600A0000000002000A","tipo":"Urbano","sup_m2":1322.1},"geometry":{"type":"Polygon","coordinates":[[[-58.554754,-34.307781],[-58.553799,-34.307747],[-58.55379,-34.307888],[-58.554679,-34.307916],[-58.554754,-34.307781]]]}},{"type":"Feature","properties":{"partida":"357017687","cca":"357000100000000000000065600A0000000002000B","tipo":"Urbano","sup_m2":1824.7},"geometry":{"type":"Polygon","coordinates":[[[-58.554754,-34.307781],[-58.554856,-34.307622],[-58.554699,-34.3076],[-58.553811,-34.307567],[-58.553799,-34.307747],[-58.554754,-34.307781]]]}},{"type":"Feature","properties":{"partida":"357017688","cca":"357000100000000000000065600A0000000002000C","tipo":"Urbano","sup_m2":1947.0},"geometry":{"type":"Polygon","coordinates":[[[-58.554856,-34.307622],[-58.554885,-34.307444],[-58.55471,-34.307422],[-58.553822,-34.307384],[-58.553811,-34.307567],[-58.554699,-34.3076],[-58.554856,-34.307622]]]}},{"type":"Feature","properties":{"partida":"357017689","cca":"357000100000000000000065600A0000000002000D","tipo":"Urbano","sup_m2":1940.7},"geometry":{"type":"Polygon","coordinates":[[[-58.554885,-34.307444],[-58.554895,-34.307355],[-58.554901,-34.307241],[-58.554721,-34.307244],[-58.553834,-34.307212],[-58.553822,-34.307384],[-58.55471,-34.307422],[-58.554885,-34.307444]]]}},{"type":"Feature","properties":{"partida":"357017939","cca":"357000100000000000000065600A00000000021000","tipo":"Urbano","sup_m2":6869.2},"geometry":{"type":"Polygon","coordinates":[[[-58.538115,-34.311298],[-58.537782,-34.311751],[-58.537345,-34.312446],[-58.537447,-34.312603],[-58.537807,-34.312476],[-58.538501,-34.311839],[-58.538376,-34.31149],[-58.538115,-34.311298]]]}},{"type":"Feature","properties":{"partida":"357017940","cca":"357000100000000000000065600A00000000022000","tipo":"Urbano","sup_m2":1070.4},"geometry":{"type":"Polygon","coordinates":[[[-58.538597,-34.311358],[-58.538376,-34.31149],[-58.538501,-34.311839],[-58.538751,-34.311793],[-58.538597,-34.311358]]]}},{"type":"Feature","properties":{"partida":"357017941","cca":"357000100000000000000065600A00000000023000","tipo":"Urbano","sup_m2":1407.7},"geometry":{"type":"Polygon","coordinates":[[[-58.539011,-34.311763],[-58.538837,-34.311214],[-58.538597,-34.311358],[-58.538751,-34.311793],[-58.538822,-34.311788],[-58.539011,-34.311763]]]}},{"type":"Feature","properties":{"partida":"357017942","cca":"357000100000000000000065600A00000000024000","tipo":"Urbano","sup_m2":1580.6},"geometry":{"type":"Polygon","coordinates":[[[-58.539058,-34.311082],[-58.538837,-34.311214],[-58.539011,-34.311763],[-58.53926,-34.311663],[-58.539058,-34.311082]]]}},{"type":"Feature","properties":{"partida":"357017943","cca":"357000100000000000000065600A00000000025000","tipo":"Urbano","sup_m2":1655.3},"geometry":{"type":"Polygon","coordinates":[[[-58.53926,-34.311663],[-58.539495,-34.31152],[-58.539286,-34.310946],[-58.539058,-34.311082],[-58.53926,-34.311663]]]}},{"type":"Feature","properties":{"partida":"357017944","cca":"357000100000000000000065600A00000000026000","tipo":"Urbano","sup_m2":2631.4},"geometry":{"type":"Polygon","coordinates":[[[-58.539743,-34.311478],[-58.539743,-34.311469],[-58.539741,-34.310674],[-58.539286,-34.310946],[-58.539495,-34.31152],[-58.539558,-34.311499],[-58.539743,-34.311478]]]}},{"type":"Feature","properties":{"partida":"357017945","cca":"357000100000000000000065600A00000000027000","tipo":"Urbano","sup_m2":3052.6},"geometry":{"type":"Polygon","coordinates":[[[-58.539743,-34.311478],[-58.540076,-34.31132],[-58.540302,-34.310775],[-58.539741,-34.310674],[-58.539743,-34.311478]]]}},{"type":"Feature","properties":{"partida":"357017946","cca":"357000100000000000000065600A00000000028000","tipo":"Urbano","sup_m2":1666.5},"geometry":{"type":"Polygon","coordinates":[[[-58.540076,-34.31132],[-58.540333,-34.311398],[-58.540575,-34.310824],[-58.540302,-34.310775],[-58.540076,-34.31132]]]}},{"type":"Feature","properties":{"partida":"357017947","cca":"357000100000000000000065600A00000000029000","tipo":"Urbano","sup_m2":1633.9},"geometry":{"type":"Polygon","coordinates":[[[-58.540333,-34.311398],[-58.54058,-34.311478],[-58.540818,-34.310868],[-58.540575,-34.310824],[-58.540333,-34.311398]]]}},{"type":"Feature","properties":{"partida":"357017948","cca":"357000100000000000000065600A00000000030000","tipo":"Urbano","sup_m2":1786.6},"geometry":{"type":"Polygon","coordinates":[[[-58.540838,-34.311523],[-58.541093,-34.310918],[-58.540818,-34.310868],[-58.54058,-34.311478],[-58.540726,-34.311515],[-58.540838,-34.311523]]]}},{"type":"Feature","properties":{"partida":"357017949","cca":"357000100000000000000065600A00000000031000","tipo":"Urbano","sup_m2":1721.4},"geometry":{"type":"Polygon","coordinates":[[[-58.541093,-34.310918],[-58.540838,-34.311523],[-58.541087,-34.311574],[-58.541357,-34.310965],[-58.541093,-34.310918]]]}},{"type":"Feature","properties":{"partida":"357017950","cca":"357000100000000000000065600A00000000032000","tipo":"Urbano","sup_m2":3235.0},"geometry":{"type":"Polygon","coordinates":[[[-58.541365,-34.311741],[-58.541896,-34.311063],[-58.541357,-34.310965],[-58.541087,-34.311574],[-58.541222,-34.31166],[-58.541365,-34.311741]]]}},{"type":"Feature","properties":{"partida":"357017951","cca":"357000100000000000000065600A00000000033000","tipo":"Urbano","sup_m2":2519.4},"geometry":{"type":"Polygon","coordinates":[[[-58.539741,-34.310674],[-58.540302,-34.310775],[-58.540015,-34.31005],[-58.53976,-34.31021],[-58.539741,-34.310674]]]}},{"type":"Feature","properties":{"partida":"357017952","cca":"357000100000000000000065600A00000000034000","tipo":"Urbano","sup_m2":4876.1},"geometry":{"type":"Polygon","coordinates":[[[-58.540302,-34.310775],[-58.541093,-34.310918],[-58.540299,-34.309887],[-58.540015,-34.31005],[-58.540302,-34.310775]]]}},{"type":"Feature","properties":{"partida":"357017953","cca":"357000100000000000000065600A00000000035000","tipo":"Urbano","sup_m2":6275.6},"geometry":{"type":"Polygon","coordinates":[[[-58.541896,-34.311063],[-58.540548,-34.309747],[-58.540299,-34.309887],[-58.541093,-34.310918],[-58.541896,-34.311063]]]}},{"type":"Feature","properties":{"partida":"357017954","cca":"357000100000000000000065600A00000000036000","tipo":"Urbano","sup_m2":8025.3},"geometry":{"type":"Polygon","coordinates":[[[-58.540548,-34.309747],[-58.541896,-34.311063],[-58.542265,-34.310609],[-58.540764,-34.30958],[-58.540548,-34.309747]]]}},{"type":"Feature","properties":{"partida":"357017955","cca":"357000100000000000000065600A00000000037000","tipo":"Urbano","sup_m2":4802.8},"geometry":{"type":"Polygon","coordinates":[[[-58.541002,-34.309445],[-58.540764,-34.30958],[-58.542265,-34.310609],[-58.542447,-34.310386],[-58.541002,-34.309445]]]}},{"type":"Feature","properties":{"partida":"357017956","cca":"357000100000000000000065600A00000000038000","tipo":"Urbano","sup_m2":5225.8},"geometry":{"type":"Polygon","coordinates":[[[-58.541002,-34.309445],[-58.542447,-34.310386],[-58.542629,-34.310163],[-58.541286,-34.309245],[-58.541002,-34.309445]]]}},{"type":"Feature","properties":{"partida":"357017957","cca":"357000100000000000000065600A00000000039000","tipo":"Urbano","sup_m2":4917.8},"geometry":{"type":"Polygon","coordinates":[[[-58.541286,-34.309245],[-58.542629,-34.310163],[-58.542807,-34.309944],[-58.541591,-34.309053],[-58.541286,-34.309245]]]}},{"type":"Feature","properties":{"partida":"357017958","cca":"357000100000000000000065600A00000000040000","tipo":"Urbano","sup_m2":7115.8},"geometry":{"type":"Polygon","coordinates":[[[-58.541914,-34.308795],[-58.541591,-34.309053],[-58.542807,-34.309944],[-58.54316,-34.309511],[-58.541914,-34.308795]]]}},{"type":"Feature","properties":{"partida":"357018799","cca":"357000100000000000000065600A00000000057000","tipo":"Urbano","sup_m2":1555.6},"geometry":{"type":"Polygon","coordinates":[[[-58.541828,-34.306967],[-58.542058,-34.307122],[-58.542535,-34.307457],[-58.542643,-34.307343],[-58.542012,-34.306841],[-58.541908,-34.3069],[-58.541828,-34.306967]]]}},{"type":"Feature","properties":{"partida":"357018800","cca":"357000100000000000000065600A00000000058000","tipo":"Urbano","sup_m2":1769.6},"geometry":{"type":"Polygon","coordinates":[[[-58.5424,-34.307601],[-58.542535,-34.307457],[-58.542058,-34.307122],[-58.541828,-34.306967],[-58.541674,-34.307098],[-58.541916,-34.30727],[-58.5424,-34.307601]]]}},{"type":"Feature","properties":{"partida":"357018801","cca":"357000100000000000000065600A00000000059000","tipo":"Urbano","sup_m2":1731.7},"geometry":{"type":"Polygon","coordinates":[[[-58.542272,-34.307736],[-58.5424,-34.307601],[-58.541916,-34.30727],[-58.541674,-34.307098],[-58.54153,-34.307247],[-58.541782,-34.30741],[-58.542272,-34.307736]]]}},{"type":"Feature","properties":{"partida":"357018802","cca":"357000100000000000000065600A00000000060000","tipo":"Urbano","sup_m2":1800.7},"geometry":{"type":"Polygon","coordinates":[[[-58.542137,-34.307879],[-58.542272,-34.307736],[-58.541782,-34.30741],[-58.54153,-34.307247],[-58.541375,-34.307385],[-58.541643,-34.307555],[-58.542137,-34.307879]]]}},{"type":"Feature","properties":{"partida":"357018803","cca":"357000100000000000000065600A00000000061000","tipo":"Urbano","sup_m2":1708.6},"geometry":{"type":"Polygon","coordinates":[[[-58.542002,-34.308023],[-58.542137,-34.307879],[-58.541643,-34.307555],[-58.541375,-34.307385],[-58.541283,-34.307535],[-58.541511,-34.307693],[-58.542002,-34.308023]]]}},{"type":"Feature","properties":{"partida":"357018804","cca":"357000100000000000000065600A00000000062000","tipo":"Urbano","sup_m2":1726.3},"geometry":{"type":"Polygon","coordinates":[[[-58.54114,-34.307688],[-58.541869,-34.308163],[-58.542002,-34.308023],[-58.541511,-34.307693],[-58.541283,-34.307535],[-58.541226,-34.307622],[-58.54114,-34.307688]]]}},{"type":"Feature","properties":{"partida":"357018805","cca":"357000100000000000000065600A00000000063000","tipo":"Urbano","sup_m2":1652.0},"geometry":{"type":"Polygon","coordinates":[[[-58.541738,-34.308303],[-58.541869,-34.308163],[-58.54114,-34.307688],[-58.541002,-34.307819],[-58.541245,-34.307972],[-58.541738,-34.308303]]]}},{"type":"Feature","properties":{"partida":"357018806","cca":"357000100000000000000065600A00000000064000","tipo":"Urbano","sup_m2":2094.9},"geometry":{"type":"Polygon","coordinates":[[[-58.541738,-34.308303],[-58.541245,-34.307972],[-58.541002,-34.307819],[-58.540806,-34.308011],[-58.541067,-34.308158],[-58.541481,-34.308369],[-58.541608,-34.308441],[-58.541738,-34.308303]]]}},{"type":"Feature","properties":{"partida":"357018807","cca":"357000100000000000000065600A00000000065000","tipo":"Urbano","sup_m2":1173.0},"geometry":{"type":"Polygon","coordinates":[[[-58.541813,-34.308223],[-58.541608,-34.308441],[-58.542013,-34.308668],[-58.542136,-34.308465],[-58.541813,-34.308223]]]}},{"type":"Feature","properties":{"partida":"357018808","cca":"357000100000000000000065600A00000000066000","tipo":"Urbano","sup_m2":824.7},"geometry":{"type":"Polygon","coordinates":[[[-58.541946,-34.308083],[-58.541813,-34.308223],[-58.542136,-34.308465],[-58.542289,-34.308334],[-58.541946,-34.308083]]]}},{"type":"Feature","properties":{"partida":"357018809","cca":"357000100000000000000065600A00000000067000","tipo":"Urbano","sup_m2":899.2},"geometry":{"type":"Polygon","coordinates":[[[-58.542083,-34.307937],[-58.541946,-34.308083],[-58.542289,-34.308334],[-58.542461,-34.308221],[-58.542083,-34.307937]]]}},{"type":"Feature","properties":{"partida":"357018810","cca":"357000100000000000000065600A00000000068000","tipo":"Urbano","sup_m2":1071.8},"geometry":{"type":"Polygon","coordinates":[[[-58.542214,-34.307798],[-58.542083,-34.307937],[-58.542461,-34.308221],[-58.542724,-34.308185],[-58.542214,-34.307798]]]}},{"type":"Feature","properties":{"partida":"357018811","cca":"357000100000000000000065600A00000000069000","tipo":"Urbano","sup_m2":1291.5},"geometry":{"type":"Polygon","coordinates":[[[-58.542345,-34.307659],[-58.542214,-34.307798],[-58.542724,-34.308185],[-58.542899,-34.308083],[-58.542345,-34.307659]]]}},{"type":"Feature","properties":{"partida":"357018812","cca":"357000100000000000000065600A00000000070000","tipo":"Urbano","sup_m2":1502.4},"geometry":{"type":"Polygon","coordinates":[[[-58.542476,-34.307521],[-58.542345,-34.307659],[-58.542899,-34.308083],[-58.54313,-34.308006],[-58.542476,-34.307521]]]}},{"type":"Feature","properties":{"partida":"357018813","cca":"357000100000000000000065600A00000000071000","tipo":"Urbano","sup_m2":2135.8},"geometry":{"type":"Polygon","coordinates":[[[-58.542643,-34.307343],[-58.542476,-34.307521],[-58.54313,-34.308006],[-58.543336,-34.307833],[-58.542643,-34.307343]]]}},{"type":"Feature","properties":{"partida":"357018814","cca":"357000100000000000000065600A00000000072000","tipo":"Urbano","sup_m2":1519.9},"geometry":{"type":"Polygon","coordinates":[[[-58.543621,-34.307618],[-58.543112,-34.30719],[-58.542918,-34.307352],[-58.543458,-34.307744],[-58.543621,-34.307618]]]}},{"type":"Feature","properties":{"partida":"357018815","cca":"357000100000000000000065600A00000000073000","tipo":"Urbano","sup_m2":1337.9},"geometry":{"type":"Polygon","coordinates":[[[-58.543762,-34.307477],[-58.54327,-34.30706],[-58.543112,-34.30719],[-58.543621,-34.307618],[-58.543762,-34.307477]]]}},{"type":"Feature","properties":{"partida":"357018816","cca":"357000100000000000000065600A00000000074000","tipo":"Urbano","sup_m2":1241.9},"geometry":{"type":"Polygon","coordinates":[[[-58.543897,-34.30735],[-58.543423,-34.306933],[-58.54327,-34.30706],[-58.543762,-34.307477],[-58.543897,-34.30735]]]}},{"type":"Feature","properties":{"partida":"357018820","cca":"357000100000000000000065600A00000000078000","tipo":"Urbano","sup_m2":5557.9},"geometry":{"type":"Polygon","coordinates":[[[-58.544342,-34.307213],[-58.545159,-34.307958],[-58.545482,-34.307676],[-58.5449,-34.306899],[-58.544342,-34.307213]]]}},{"type":"Feature","properties":{"partida":"357018821","cca":"357000100000000000000065600A00000000079000","tipo":"Urbano","sup_m2":2768.9},"geometry":{"type":"Polygon","coordinates":[[[-58.545004,-34.308084],[-58.545159,-34.307958],[-58.544342,-34.307213],[-58.544052,-34.307321],[-58.545004,-34.308084]]]}},{"type":"Feature","properties":{"partida":"357018822","cca":"357000100000000000000065600A00000000080000","tipo":"Urbano","sup_m2":2385.2},"geometry":{"type":"Polygon","coordinates":[[[-58.544858,-34.308202],[-58.545004,-34.308084],[-58.544052,-34.307321],[-58.543896,-34.307452],[-58.544858,-34.308202]]]}},{"type":"Feature","properties":{"partida":"357018823","cca":"357000100000000000000065600A00000000081000","tipo":"Urbano","sup_m2":2466.2},"geometry":{"type":"Polygon","coordinates":[[[-58.543769,-34.307604],[-58.544695,-34.308334],[-58.544858,-34.308202],[-58.543896,-34.307452],[-58.543769,-34.307604]]]}},{"type":"Feature","properties":{"partida":"357018824","cca":"357000100000000000000065600A00000000082000","tipo":"Urbano","sup_m2":2282.1},"geometry":{"type":"Polygon","coordinates":[[[-58.543626,-34.307733],[-58.544543,-34.308457],[-58.544695,-34.308334],[-58.543769,-34.307604],[-58.543626,-34.307733]]]}},{"type":"Feature","properties":{"partida":"357018825","cca":"357000100000000000000065600A00000000083000","tipo":"Urbano","sup_m2":2322.5},"geometry":{"type":"Polygon","coordinates":[[[-58.543458,-34.307842],[-58.544387,-34.308583],[-58.544543,-34.308457],[-58.543626,-34.307733],[-58.543458,-34.307842]]]}},{"type":"Feature","properties":{"partida":"357018826","cca":"357000100000000000000065600A00000000084000","tipo":"Urbano","sup_m2":2340.7},"geometry":{"type":"Polygon","coordinates":[[[-58.544243,-34.308701],[-58.544387,-34.308583],[-58.543458,-34.307842],[-58.543293,-34.30797],[-58.544243,-34.308701]]]}},{"type":"Feature","properties":{"partida":"357018827","cca":"357000100000000000000065600A00000000085000","tipo":"Urbano","sup_m2":2332.7},"geometry":{"type":"Polygon","coordinates":[[[-58.544081,-34.308831],[-58.544243,-34.308701],[-58.543293,-34.30797],[-58.543147,-34.308082],[-58.544081,-34.308831]]]}},{"type":"Feature","properties":{"partida":"357018828","cca":"357000100000000000000065600A00000000086000","tipo":"Urbano","sup_m2":2561.0},"geometry":{"type":"Polygon","coordinates":[[[-58.542898,-34.308159],[-58.543932,-34.308952],[-58.544081,-34.308831],[-58.543147,-34.308082],[-58.542898,-34.308159]]]}},{"type":"Feature","properties":{"partida":"357018829","cca":"357000100000000000000065600A00000000087000","tipo":"Urbano","sup_m2":2414.0},"geometry":{"type":"Polygon","coordinates":[[[-58.542733,-34.308228],[-58.543772,-34.309082],[-58.543932,-34.308952],[-58.542898,-34.308159],[-58.542733,-34.308228]]]}},{"type":"Feature","properties":{"partida":"357018830","cca":"357000100000000000000065600A00000000088000","tipo":"Urbano","sup_m2":2951.1},"geometry":{"type":"Polygon","coordinates":[[[-58.543618,-34.309206],[-58.543772,-34.309082],[-58.542733,-34.308228],[-58.542461,-34.308284],[-58.543618,-34.309206]]]}},{"type":"Feature","properties":{"partida":"357018831","cca":"357000100000000000000065600A00000000089000","tipo":"Urbano","sup_m2":3076.9},"geometry":{"type":"Polygon","coordinates":[[[-58.543618,-34.309206],[-58.542461,-34.308284],[-58.542317,-34.308434],[-58.543456,-34.309338],[-58.543618,-34.309206]]]}},{"type":"Feature","properties":{"partida":"357018992","cca":"357000100000000000000065600B00000000009000","tipo":"Urbano","sup_m2":4608.4},"geometry":{"type":"Polygon","coordinates":[[[-58.552869,-34.318111],[-58.552884,-34.317937],[-58.552546,-34.317919],[-58.551187,-34.317834],[-58.551116,-34.318196],[-58.552529,-34.318116],[-58.552869,-34.318111]]]}},{"type":"Feature","properties":{"partida":"357018993","cca":"357000100000000000000065600B00000000010000","tipo":"Urbano","sup_m2":3410.2},"geometry":{"type":"Polygon","coordinates":[[[-58.551116,-34.318196],[-58.551077,-34.318392],[-58.552492,-34.318305],[-58.552844,-34.318302],[-58.552869,-34.318111],[-58.552529,-34.318116],[-58.551116,-34.318196]]]}},{"type":"Feature","properties":{"partida":"357018994","cca":"357000100000000000000065600B00000000011000","tipo":"Urbano","sup_m2":3211.3},"geometry":{"type":"Polygon","coordinates":[[[-58.551077,-34.318392],[-58.551043,-34.318569],[-58.552456,-34.318489],[-58.552773,-34.318488],[-58.552844,-34.318302],[-58.552492,-34.318305],[-58.551077,-34.318392]]]}},{"type":"Feature","properties":{"partida":"357018995","cca":"357000100000000000000065600B00000000012000","tipo":"Urbano","sup_m2":3213.8},"geometry":{"type":"Polygon","coordinates":[[[-58.551043,-34.318569],[-58.551005,-34.318758],[-58.552733,-34.318654],[-58.552773,-34.318488],[-58.552456,-34.318489],[-58.551043,-34.318569]]]}},{"type":"Feature","properties":{"partida":"357014050","cca":"357000100000000000000065600B00000000013000","tipo":"Rural","sup_m2":162507.9},"geometry":{"type":"MultiPolygon","coordinates":[[[[-58.544911,-34.31885],[-58.544931,-34.318858],[-58.545221,-34.318897],[-58.545367,-34.318943],[-58.545584,-34.319001],[-58.546069,-34.319076],[-58.546214,-34.319084],[-58.546367,-34.319105],[-58.546453,-34.319198],[-58.546544,-34.319313],[-58.546556,-34.319457],[-58.546574,-34.319563],[-58.546819,-34.31971],[-58.54684,-34.319767],[-58.547003,-34.319804],[-58.547102,-34.319878],[-58.547159,-34.319895],[-58.547398,-34.320079],[-58.550697,-34.320327],[-58.550915,-34.319216],[-58.552332,-34.31913],[-58.552597,-34.319119],[-58.552733,-34.318654],[-58.551005,-34.318758],[-58.551187,-34.317834],[-58.544177,-34.317668],[-58.543505,-34.317647],[-58.543543,-34.317756],[-58.543563,-34.317838],[-58.543616,-34.317957],[-58.543771,-34.318023],[-58.543915,-34.318073],[-58.54415,-34.318114],[-58.544265,-34.318179],[-58.544426,-34.318325],[-58.544451,-34.318379],[-58.544479,-34.318462],[-58.544555,-34.318544],[-58.544649,-34.318633],[-58.544837,-34.318749],[-58.544911,-34.31885]]],[[[-58.544957,-34.318912],[-58.545222,-34.319276],[-58.543946,-34.319798],[-58.543961,-34.319822],[-58.547337,-34.320075],[-58.547307,-34.320044],[-58.547209,-34.319957],[-58.547106,-34.319918],[-58.546971,-34.319831],[-58.546815,-34.319784],[-58.546729,-34.319708],[-58.5467,-34.319668],[-58.546569,-34.319591],[-58.546526,-34.319477],[-58.546528,-34.319347],[-58.546475,-34.319295],[-58.546418,-34.319222],[-58.546366,-34.319142],[-58.546246,-34.31911],[-58.546043,-34.319104],[-58.545518,-34.319015],[-58.545291,-34.318988],[-58.54523,-34.31895],[-58.545052,-34.318937],[-58.544957,-34.318912]]]]}},{"type":"Feature","properties":{"partida":"357018996","cca":"357000100000000000000065600B00000000014000","tipo":"Urbano","sup_m2":3429.8},"geometry":{"type":"Polygon","coordinates":[[[-58.550877,-34.319408],[-58.552526,-34.319331],[-58.552597,-34.319119],[-58.552332,-34.31913],[-58.550915,-34.319216],[-58.550877,-34.319408]]]}},{"type":"Feature","properties":{"partida":"357018997","cca":"357000100000000000000065600B00000000015000","tipo":"Urbano","sup_m2":2854.8},"geometry":{"type":"Polygon","coordinates":[[[-58.550841,-34.319594],[-58.552258,-34.319506],[-58.552441,-34.319503],[-58.552526,-34.319331],[-58.550877,-34.319408],[-58.550841,-34.319594]]]}},{"type":"Feature","properties":{"partida":"357018998","cca":"357000100000000000000065600B00000000016000","tipo":"Urbano","sup_m2":2945.1},"geometry":{"type":"Polygon","coordinates":[[[-58.550804,-34.319779],[-58.552223,-34.319688],[-58.552384,-34.319688],[-58.552441,-34.319503],[-58.552258,-34.319506],[-58.550841,-34.319594],[-58.550804,-34.319779]]]}},{"type":"Feature","properties":{"partida":"357018999","cca":"357000100000000000000065600B00000000017000","tipo":"Urbano","sup_m2":2891.8},"geometry":{"type":"Polygon","coordinates":[[[-58.550804,-34.319779],[-58.550771,-34.319951],[-58.552186,-34.319877],[-58.552339,-34.319875],[-58.552384,-34.319688],[-58.552223,-34.319688],[-58.550804,-34.319779]]]}},{"type":"Feature","properties":{"partida":"357019000","cca":"357000100000000000000065600B00000000018000","tipo":"Urbano","sup_m2":3000.4},"geometry":{"type":"Polygon","coordinates":[[[-58.550731,-34.32015],[-58.552151,-34.320059],[-58.55231,-34.320047],[-58.552339,-34.319875],[-58.552186,-34.319877],[-58.550771,-34.319951],[-58.550731,-34.32015]]]}},{"type":"Feature","properties":{"partida":"357019001","cca":"357000100000000000000065600B00000000019000","tipo":"Urbano","sup_m2":2936.4},"geometry":{"type":"Polygon","coordinates":[[[-58.550731,-34.32015],[-58.550697,-34.320327],[-58.552274,-34.32024],[-58.55231,-34.320047],[-58.552151,-34.320059],[-58.550731,-34.32015]]]}},{"type":"Feature","properties":{"partida":"357019002","cca":"357000100000000000000065600B00000000020000","tipo":"Urbano","sup_m2":2966.8},"geometry":{"type":"Polygon","coordinates":[[[-58.550658,-34.320524],[-58.552209,-34.320421],[-58.552274,-34.32024],[-58.550697,-34.320327],[-58.550658,-34.320524]]]}},{"type":"Feature","properties":{"partida":"357019003","cca":"357000100000000000000065600B00000000021000","tipo":"Urbano","sup_m2":3051.0},"geometry":{"type":"Polygon","coordinates":[[[-58.55062,-34.320715],[-58.552171,-34.32062],[-58.552209,-34.320421],[-58.550658,-34.320524],[-58.55062,-34.320715]]]}},{"type":"Feature","properties":{"partida":"357019004","cca":"357000100000000000000065600B00000000022000","tipo":"Urbano","sup_m2":3043.3},"geometry":{"type":"Polygon","coordinates":[[[-58.550643,-34.320922],[-58.552003,-34.320817],[-58.552121,-34.320817],[-58.552171,-34.32062],[-58.55062,-34.320715],[-58.550643,-34.320922]]]}},{"type":"Feature","properties":{"partida":"357019005","cca":"357000100000000000000065600B00000000023000","tipo":"Urbano","sup_m2":2613.3},"geometry":{"type":"Polygon","coordinates":[[[-58.550643,-34.320922],[-58.550662,-34.321098],[-58.552025,-34.320997],[-58.552121,-34.320817],[-58.552003,-34.320817],[-58.550643,-34.320922]]]}},{"type":"Feature","properties":{"partida":"357014052","cca":"357000100000000000000065600B00000000024000","tipo":"Rural","sup_m2":199162.2},"geometry":{"type":"MultiPolygon","coordinates":[[[[-58.547398,-34.320079],[-58.547484,-34.320164],[-58.547528,-34.320195],[-58.547664,-34.320226],[-58.547767,-34.320273],[-58.547858,-34.320324],[-58.547979,-34.320383],[-58.548036,-34.320435],[-58.548092,-34.320479],[-58.548127,-34.320549],[-58.548137,-34.320603],[-58.548146,-34.32068],[-58.548136,-34.320745],[-58.548081,-34.320791],[-58.548001,-34.320829],[-58.547949,-34.320835],[-58.547796,-34.320809],[-58.547707,-34.320772],[-58.547644,-34.320765],[-58.547606,-34.320771],[-58.547588,-34.320796],[-58.547526,-34.320864],[-58.547358,-34.321021],[-58.547306,-34.321096],[-58.547282,-34.321152],[-58.547288,-34.321233],[-58.547283,-34.321281],[-58.547293,-34.321343],[-58.547371,-34.321517],[-58.547379,-34.321571],[-58.547355,-34.321683],[-58.547311,-34.321721],[-58.547163,-34.32181],[-58.547142,-34.321885],[-58.547013,-34.322062],[-58.547043,-34.322169],[-58.546947,-34.322233],[-58.546918,-34.322259],[-58.546865,-34.322289],[-58.546548,-34.32238],[-58.546399,-34.322364],[-58.546293,-34.322336],[-58.546208,-34.322346],[-58.546137,-34.322344],[-58.546065,-34.322362],[-58.546036,-34.322409],[-58.545987,-34.322447],[-58.54593,-34.322631],[-58.545875,-34.322701],[-58.550879,-34.323095],[-58.550715,-34.321585],[-58.552017,-34.32146],[-58.55197,-34.321295],[-58.55199,-34.321201],[-58.551997,-34.32108],[-58.552025,-34.320997],[-58.550662,-34.321098],[-58.55062,-34.320715],[-58.550697,-34.320327],[-58.547398,-34.320079]]],[[[-58.545857,-34.3227],[-58.545912,-34.322631],[-58.545973,-34.322439],[-58.546019,-34.322399],[-58.546053,-34.322348],[-58.546137,-34.322325],[-58.546199,-34.322325],[-58.546277,-34.322316],[-58.546394,-34.322341],[-58.546538,-34.322359],[-58.546688,-34.32233],[-58.546884,-34.322264],[-58.546926,-34.322223],[-58.547022,-34.322163],[-58.546991,-34.322056],[-58.547042,-34.321977],[-58.547127,-34.321865],[-58.54714,-34.3218],[-58.547182,-34.321777],[-58.547253,-34.321743],[-58.547312,-34.321703],[-58.547359,-34.321607],[-58.547348,-34.321516],[-58.547272,-34.321367],[-58.547265,-34.321274],[-58.547243,-34.321137],[-58.54729,-34.321051],[-58.547341,-34.320994],[-58.547412,-34.320933],[-58.547475,-34.320872],[-58.547547,-34.320818],[-58.547589,-34.320763],[-58.547622,-34.320743],[-58.547685,-34.320744],[-58.5478,-34.32079],[-58.547953,-34.320809],[-58.547978,-34.320809],[-58.548073,-34.320779],[-58.54812,-34.320721],[-58.54813,-34.320625],[-58.548102,-34.320532],[-58.54805,-34.320467],[-58.547968,-34.320414],[-58.547775,-34.320305],[-58.547721,-34.320279],[-58.547623,-34.320244],[-58.547511,-34.320211],[-58.547405,-34.320145],[-58.547337,-34.320075],[-58.543961,-34.319822],[-58.543663,-34.322527],[-58.545857,-34.3227]]]]}},{"type":"Feature","properties":{"partida":"357019006","cca":"357000100000000000000065600B00000000025000","tipo":"Urbano","sup_m2":2699.3},"geometry":{"type":"Polygon","coordinates":[[[-58.550736,-34.321777],[-58.552174,-34.321638],[-58.552017,-34.32146],[-58.550715,-34.321585],[-58.550736,-34.321777]]]}},{"type":"Feature","properties":{"partida":"357019007","cca":"357000100000000000000065600B00000000026000","tipo":"Urbano","sup_m2":3036.3},"geometry":{"type":"Polygon","coordinates":[[[-58.552174,-34.321638],[-58.550736,-34.321777],[-58.550757,-34.321971],[-58.552332,-34.321821],[-58.552174,-34.321638]]]}},{"type":"Feature","properties":{"partida":"357019008","cca":"357000100000000000000065600B00000000027000","tipo":"Urbano","sup_m2":3074.2},"geometry":{"type":"Polygon","coordinates":[[[-58.550777,-34.322155],[-58.552576,-34.321966],[-58.552332,-34.321821],[-58.550757,-34.321971],[-58.550777,-34.322155]]]}},{"type":"Feature","properties":{"partida":"357019009","cca":"357000100000000000000065600B00000000028000","tipo":"Urbano","sup_m2":4176.6},"geometry":{"type":"Polygon","coordinates":[[[-58.552648,-34.322226],[-58.552576,-34.321966],[-58.550777,-34.322155],[-58.550797,-34.322337],[-58.552648,-34.322226]]]}},{"type":"Feature","properties":{"partida":"357019010","cca":"357000100000000000000065600B00000000029000","tipo":"Urbano","sup_m2":3402.3},"geometry":{"type":"Polygon","coordinates":[[[-58.552601,-34.322405],[-58.552648,-34.322226],[-58.550797,-34.322337],[-58.550817,-34.322528],[-58.552332,-34.322421],[-58.552601,-34.322405]]]}},{"type":"Feature","properties":{"partida":"357019011","cca":"357000100000000000000065600B00000000030000","tipo":"Urbano","sup_m2":2815.6},"geometry":{"type":"Polygon","coordinates":[[[-58.552139,-34.322612],[-58.552601,-34.322405],[-58.552332,-34.322421],[-58.550817,-34.322528],[-58.550837,-34.322706],[-58.552139,-34.322612]]]}},{"type":"Feature","properties":{"partida":"357019012","cca":"357000100000000000000065600B00000000031000","tipo":"Urbano","sup_m2":2656.9},"geometry":{"type":"Polygon","coordinates":[[[-58.550858,-34.3229],[-58.552113,-34.322826],[-58.552139,-34.322612],[-58.550837,-34.322706],[-58.550858,-34.3229]]]}},{"type":"Feature","properties":{"partida":"357019013","cca":"357000100000000000000065600B00000000032000","tipo":"Urbano","sup_m2":2552.7},"geometry":{"type":"Polygon","coordinates":[[[-58.552189,-34.323017],[-58.552131,-34.322918],[-58.552113,-34.322826],[-58.550858,-34.3229],[-58.550879,-34.323095],[-58.552189,-34.323017]]]}},{"type":"Feature","properties":{"partida":"357019014","cca":"357000100000000000000065600B00000000033000","tipo":"Urbano","sup_m2":2611.4},"geometry":{"type":"Polygon","coordinates":[[[-58.550879,-34.323095],[-58.5509,-34.323287],[-58.552255,-34.323204],[-58.552189,-34.323017],[-58.550879,-34.323095]]]}},{"type":"Feature","properties":{"partida":"357019015","cca":"357000100000000000000065600B00000000034000","tipo":"Urbano","sup_m2":2602.4},"geometry":{"type":"Polygon","coordinates":[[[-58.5509,-34.323287],[-58.55092,-34.323475],[-58.552244,-34.323396],[-58.552255,-34.323204],[-58.5509,-34.323287]]]}},{"type":"Feature","properties":{"partida":"357019016","cca":"357000100000000000000065600B00000000035000","tipo":"Urbano","sup_m2":2409.2},"geometry":{"type":"Polygon","coordinates":[[[-58.550939,-34.323652],[-58.552222,-34.323581],[-58.552244,-34.323396],[-58.55092,-34.323475],[-58.550939,-34.323652]]]}},{"type":"Feature","properties":{"partida":"357019017","cca":"357000100000000000000065600B00000000036000","tipo":"Urbano","sup_m2":2141.3},"geometry":{"type":"Polygon","coordinates":[[[-58.550961,-34.323746],[-58.552204,-34.323818],[-58.552222,-34.323581],[-58.550939,-34.323652],[-58.550948,-34.323729],[-58.550961,-34.323746]]]}},{"type":"Feature","properties":{"partida":"357019018","cca":"357000100000000000000065600B00000000037000","tipo":"Urbano","sup_m2":2960.9},"geometry":{"type":"Polygon","coordinates":[[[-58.550921,-34.323875],[-58.552189,-34.324143],[-58.552204,-34.323818],[-58.550961,-34.323746],[-58.550921,-34.323875]]]}},{"type":"Feature","properties":{"partida":"357019019","cca":"357000100000000000000065600B00000000038000","tipo":"Urbano","sup_m2":2511.5},"geometry":{"type":"Polygon","coordinates":[[[-58.552096,-34.324332],[-58.552126,-34.324262],[-58.552189,-34.324143],[-58.550921,-34.323875],[-58.550865,-34.324061],[-58.552041,-34.324308],[-58.552096,-34.324332]]]}},{"type":"Feature","properties":{"partida":"357019020","cca":"357000100000000000000065600B00000000039000","tipo":"Urbano","sup_m2":2592.9},"geometry":{"type":"Polygon","coordinates":[[[-58.550865,-34.324061],[-58.550809,-34.324246],[-58.551941,-34.324503],[-58.552028,-34.324513],[-58.552096,-34.324332],[-58.552041,-34.324308],[-58.550865,-34.324061]]]}},{"type":"Feature","properties":{"partida":"357014053","cca":"357000100000000000000065600B00000000040000","tipo":"Rural","sup_m2":201946.2},"geometry":{"type":"Polygon","coordinates":[[[-58.545857,-34.3227],[-58.543663,-34.322527],[-58.543368,-34.325213],[-58.55036,-34.325721],[-58.550699,-34.324605],[-58.551828,-34.324844],[-58.551883,-34.324853],[-58.552028,-34.324513],[-58.551941,-34.324503],[-58.550809,-34.324246],[-58.550961,-34.323746],[-58.550948,-34.323729],[-58.550879,-34.323095],[-58.545875,-34.322701],[-58.54582,-34.322771],[-58.545682,-34.323081],[-58.545648,-34.323124],[-58.545555,-34.323201],[-58.545524,-34.323276],[-58.545451,-34.323275],[-58.545406,-34.323316],[-58.545375,-34.323382],[-58.54536,-34.323475],[-58.545304,-34.323506],[-58.545261,-34.32355],[-58.545155,-34.323619],[-58.545154,-34.323663],[-58.54509,-34.323713],[-58.545006,-34.323735],[-58.544819,-34.323896],[-58.544734,-34.323932],[-58.544603,-34.324039],[-58.544536,-34.32408],[-58.544478,-34.324155],[-58.54443,-34.324235],[-58.544456,-34.324365],[-58.544433,-34.324438],[-58.544455,-34.324484],[-58.544414,-34.324449],[-58.54444,-34.324364],[-58.544413,-34.324233],[-58.544456,-34.324158],[-58.544528,-34.324069],[-58.544591,-34.324029],[-58.544729,-34.323921],[-58.544809,-34.323887],[-58.544998,-34.323725],[-58.545073,-34.323707],[-58.54514,-34.323656],[-58.545141,-34.323612],[-58.54525,-34.323541],[-58.545296,-34.323493],[-58.545347,-34.32346],[-58.545356,-34.323384],[-58.545391,-34.323309],[-58.545441,-34.323262],[-58.545511,-34.323266],[-58.545546,-34.323187],[-58.54563,-34.323123],[-58.545668,-34.323076],[-58.545732,-34.322936],[-58.545806,-34.322763],[-58.545857,-34.3227]]]}},{"type":"Feature","properties":{"partida":"357019021","cca":"357000100000000000000065600B00000000041000","tipo":"Urbano","sup_m2":2341.9},"geometry":{"type":"Polygon","coordinates":[[[-58.550641,-34.324798],[-58.55177,-34.325019],[-58.551806,-34.325034],[-58.551883,-34.324853],[-58.551828,-34.324844],[-58.550699,-34.324605],[-58.550641,-34.324798]]]}},{"type":"Feature","properties":{"partida":"357019022","cca":"357000100000000000000065600B00000000042000","tipo":"Urbano","sup_m2":2383.3},"geometry":{"type":"Polygon","coordinates":[[[-58.551719,-34.325216],[-58.551806,-34.325034],[-58.55177,-34.325019],[-58.550641,-34.324798],[-58.550584,-34.324984],[-58.551719,-34.325216]]]}},{"type":"Feature","properties":{"partida":"357019023","cca":"357000100000000000000065600B00000000043000","tipo":"Urbano","sup_m2":2404.1},"geometry":{"type":"Polygon","coordinates":[[[-58.550584,-34.324984],[-58.550528,-34.32517],[-58.551652,-34.32542],[-58.551719,-34.325216],[-58.550584,-34.324984]]]}},{"type":"Feature","properties":{"partida":"357019097","cca":"357000100000000000000065600B00000000124000","tipo":"Rural","sup_m2":381902.8},"geometry":{"type":"Polygon","coordinates":[[[-58.54323,-34.326515],[-58.543374,-34.325156],[-58.543961,-34.319822],[-58.543843,-34.319631],[-58.543481,-34.319338],[-58.543147,-34.319273],[-58.542698,-34.319273],[-58.542375,-34.319376],[-58.542142,-34.319505],[-58.541913,-34.319689],[-58.541633,-34.319923],[-58.541399,-34.320105],[-58.541019,-34.320633],[-58.540822,-34.320809],[-58.540631,-34.320904],[-58.540415,-34.320998],[-58.539952,-34.321143],[-58.539577,-34.321146],[-58.538999,-34.321002],[-58.538752,-34.320889],[-58.538422,-34.320849],[-58.538153,-34.320848],[-58.538009,-34.320929],[-58.537704,-34.321211],[-58.537557,-34.321329],[-58.5373,-34.321524],[-58.537089,-34.321642],[-58.53676,-34.321818],[-58.53644,-34.322103],[-58.53628,-34.322273],[-58.536179,-34.322415],[-58.535983,-34.322621],[-58.53571,-34.32294],[-58.535654,-34.322993],[-58.535369,-34.3232],[-58.5352,-34.323296],[-58.534952,-34.323529],[-58.535149,-34.323755],[-58.535405,-34.323995],[-58.535619,-34.324253],[-58.538424,-34.325092],[-58.54323,-34.326515]]]}}]}