{"type":"FeatureCollection","features":[{"type":"Feature","properties":{"partida":"357000137","cca":"35700010000000000000006980000000000000300C","tipo":"Rural","sup_m2":233030.4},"geometry":{"type":"Polygon","coordinates":[[[-58.538651,-34.415259],[-58.538368,-34.415551],[-58.538117,-34.415882],[-58.537969,-34.416115],[-58.537885,-34.416405],[-58.537825,-34.416928],[-58.537877,-34.417159],[-58.537905,-34.417394],[-58.537994,-34.417606],[-58.537977,-34.417798],[-58.543738,-34.418756],[-58.543989,-34.418415],[-58.545621,-34.416166],[-58.543993,-34.415097],[-58.546102,-34.413651],[-58.539415,-34.415654],[-58.538651,-34.415259]]]}},{"type":"Feature","properties":{"partida":"357017073","cca":"35700010000000000000006980000000000000300D","tipo":"Rural","sup_m2":147080.6},"geometry":{"type":"Polygon","coordinates":[[[-58.537977,-34.417798],[-58.53809,-34.417964],[-58.538147,-34.418153],[-58.538223,-34.418325],[-58.538284,-34.418817],[-58.538668,-34.418883],[-58.538795,-34.419042],[-58.538787,-34.419226],[-58.538908,-34.419419],[-58.538763,-34.419525],[-58.538942,-34.419627],[-58.539101,-34.419541],[-58.539177,-34.419672],[-58.539111,-34.419775],[-58.539306,-34.419911],[-58.53903,-34.420072],[-58.538972,-34.420203],[-58.538966,-34.420331],[-58.539098,-34.420403],[-58.539118,-34.420303],[-58.539394,-34.420104],[-58.539483,-34.420133],[-58.539431,-34.420343],[-58.539573,-34.420467],[-58.539761,-34.420264],[-58.539852,-34.420345],[-58.539963,-34.420496],[-58.540031,-34.420653],[-58.539938,-34.420704],[-58.539918,-34.420765],[-58.539969,-34.42082],[-58.540069,-34.420788],[-58.540167,-34.42089],[-58.54014,-34.420951],[-58.540087,-34.421014],[-58.539936,-34.421031],[-58.539949,-34.421138],[-58.539955,-34.421224],[-58.540024,-34.421286],[-58.540097,-34.42129],[-58.540219,-34.421319],[-58.540344,-34.421299],[-58.540426,-34.421304],[-58.540447,-34.421383],[-58.540357,-34.421486],[-58.540389,-34.421551],[-58.540439,-34.421616],[-58.540588,-34.421575],[-58.540637,-34.421713],[-58.54077,-34.421795],[-58.540639,-34.42191],[-58.540556,-34.422012],[-58.540757,-34.422321],[-58.540967,-34.422351],[-58.54094,-34.422402],[-58.540693,-34.422589],[-58.540728,-34.422703],[-58.541029,-34.422783],[-58.541057,-34.422893],[-58.54131,-34.423015],[-58.541538,-34.423067],[-58.541695,-34.422907],[-58.541824,-34.422927],[-58.541965,-34.422892],[-58.542114,-34.422826],[-58.54223,-34.422727],[-58.542412,-34.422691],[-58.542896,-34.422658],[-58.542956,-34.422576],[-58.543009,-34.422289],[-58.542934,-34.422019],[-58.542808,-34.421777],[-58.542651,-34.421608],[-58.542416,-34.421455],[-58.542069,-34.421351],[-58.541893,-34.42119],[-58.541914,-34.420965],[-58.541884,-34.420579],[-58.541961,-34.420395],[-58.542074,-34.420104],[-58.542184,-34.419746],[-58.542327,-34.419466],[-58.542466,-34.419164],[-58.542266,-34.418564],[-58.542351,-34.418569],[-58.54257,-34.419172],[-58.54228,-34.41975],[-58.542078,-34.420315],[-58.542034,-34.42043],[-58.542036,-34.421065],[-58.542433,-34.420533],[-58.543738,-34.418756],[-58.537977,-34.417798]]]}},{"type":"Feature","properties":{"partida":"357017101","cca":"35700010000000000000007080000000000003000A","tipo":"Urbano","sup_m2":2682.5},"geometry":{"type":"Polygon","coordinates":[[[-58.557825,-34.418649],[-58.556325,-34.417307],[-58.556281,-34.417347],[-58.556248,-34.417423],[-58.557643,-34.418663],[-58.557825,-34.418649]]]}},{"type":"Feature","properties":{"partida":"357017102","cca":"357000100000000000000070800000000000032000","tipo":"Urbano","sup_m2":2491.5},"geometry":{"type":"Polygon","coordinates":[[[-58.557461,-34.418712],[-58.557496,-34.418671],[-58.557643,-34.418663],[-58.556248,-34.417423],[-58.556154,-34.417489],[-58.557461,-34.418712]]]}},{"type":"Feature","properties":{"partida":"357017103","cca":"357000100000000000000070800000000000033000","tipo":"Urbano","sup_m2":3396.5},"geometry":{"type":"Polygon","coordinates":[[[-58.557154,-34.418751],[-58.557461,-34.418712],[-58.556154,-34.417489],[-58.556093,-34.417651],[-58.557154,-34.418751]]]}},{"type":"Feature","properties":{"partida":"357017104","cca":"357000100000000000000070800000000000034000","tipo":"Urbano","sup_m2":1583.5},"geometry":{"type":"Polygon","coordinates":[[[-58.557154,-34.418751],[-58.556093,-34.417651],[-58.556026,-34.417695],[-58.557006,-34.41878],[-58.557154,-34.418751]]]}},{"type":"Feature","properties":{"partida":"357017105","cca":"35700010000000000000007080000000000003500A","tipo":"Urbano","sup_m2":3517.8},"geometry":{"type":"Polygon","coordinates":[[[-58.55589,-34.417871],[-58.555871,-34.417939],[-58.555916,-34.417982],[-58.556049,-34.418125],[-58.556139,-34.418199],[-58.556235,-34.41827],[-58.556293,-34.418336],[-58.556316,-34.418377],[-58.556402,-34.418483],[-58.556509,-34.418594],[-58.556669,-34.418781],[-58.556765,-34.418868],[-58.5568,-34.418835],[-58.557006,-34.41878],[-58.556026,-34.417695],[-58.555987,-34.417764],[-58.55589,-34.417871]]]}},{"type":"Feature","properties":{"partida":"357017248","cca":"357000100000000000000071000000000000042000","tipo":"Urbano","sup_m2":13906.0},"geometry":{"type":"Polygon","coordinates":[[[-58.556777,-34.422153],[-58.556299,-34.422526],[-58.556209,-34.422669],[-58.556023,-34.422835],[-58.555897,-34.422932],[-58.555799,-34.422999],[-58.555676,-34.423074],[-58.555581,-34.423159],[-58.555473,-34.42322],[-58.555436,-34.423311],[-58.555431,-34.423385],[-58.555512,-34.423401],[-58.555609,-34.423383],[-58.555681,-34.423389],[-58.555978,-34.423369],[-58.556128,-34.423355],[-58.556262,-34.42337],[-58.556398,-34.423392],[-58.556647,-34.423425],[-58.556755,-34.423448],[-58.55715,-34.42313],[-58.557531,-34.422876],[-58.556777,-34.422153]]]}},{"type":"Feature","properties":{"partida":"357017249","cca":"357000100000000000000071000000000000043000","tipo":"Urbano","sup_m2":5501.9},"geometry":{"type":"Polygon","coordinates":[[[-58.556174,-34.42343],[-58.555957,-34.423619],[-58.556872,-34.4243],[-58.556885,-34.42426],[-58.556852,-34.424156],[-58.556855,-34.424127],[-58.556932,-34.424059],[-58.556993,-34.424033],[-58.55703,-34.424004],[-58.55703,-34.423965],[-58.557061,-34.423944],[-58.557138,-34.42392],[-58.557173,-34.423851],[-58.557149,-34.423835],[-58.557117,-34.42379],[-58.557085,-34.423753],[-58.557059,-34.423729],[-58.557052,-34.423699],[-58.557057,-34.423666],[-58.557034,-34.423608],[-58.557012,-34.423581],[-58.556931,-34.423558],[-58.55685,-34.423516],[-58.556772,-34.423503],[-58.556655,-34.423478],[-58.556585,-34.423475],[-58.556473,-34.423464],[-58.556373,-34.423438],[-58.556243,-34.423428],[-58.556174,-34.42343]]]}},{"type":"Feature","properties":{"partida":"357017250","cca":"35700010000000000000007100000000000004400A","tipo":"Urbano","sup_m2":2002.4},"geometry":{"type":"Polygon","coordinates":[[[-58.556664,-34.424363],[-58.556592,-34.424292],[-58.556737,-34.424357],[-58.556805,-34.42437],[-58.556834,-34.424362],[-58.556867,-34.424319],[-58.556872,-34.4243],[-58.555957,-34.423619],[-58.555817,-34.423739],[-58.556664,-34.424363]]]}},{"type":"Feature","properties":{"partida":"357017251","cca":"35700010000000000000007100000000000004400B","tipo":"Urbano","sup_m2":6648.5},"geometry":{"type":"Polygon","coordinates":[[[-58.556664,-34.424363],[-58.555817,-34.423739],[-58.555381,-34.424107],[-58.556231,-34.424717],[-58.556275,-34.424717],[-58.556296,-34.424753],[-58.556328,-34.424781],[-58.556438,-34.424728],[-58.556482,-34.424711],[-58.556537,-34.424675],[-58.556581,-34.42464],[-58.556581,-34.424613],[-58.556538,-34.424576],[-58.556524,-34.42456],[-58.55662,-34.424497],[-58.55666,-34.424525],[-58.556695,-34.424563],[-58.556715,-34.424575],[-58.556832,-34.424509],[-58.556765,-34.424453],[-58.556664,-34.424363]]]}},{"type":"Feature","properties":{"partida":"357017252","cca":"357000100000000000000071000000000000045000","tipo":"Urbano","sup_m2":2295.4},"geometry":{"type":"Polygon","coordinates":[[[-58.556174,-34.42343],[-58.555821,-34.423442],[-58.555165,-34.423944],[-58.555381,-34.424107],[-58.555817,-34.423739],[-58.556174,-34.42343]]]}},{"type":"Feature","properties":{"partida":"357017253","cca":"357000100000000000000071000000000000046000","tipo":"Urbano","sup_m2":1867.7},"geometry":{"type":"Polygon","coordinates":[[[-58.555359,-34.423454],[-58.554936,-34.423789],[-58.555165,-34.423944],[-58.555821,-34.423442],[-58.555626,-34.42345],[-58.555481,-34.423446],[-58.555359,-34.423454]]]}},{"type":"Feature","properties":{"partida":"357017254","cca":"357000100000000000000071000000000000047000","tipo":"Urbano","sup_m2":1760.1},"geometry":{"type":"Polygon","coordinates":[[[-58.554634,-34.423355],[-58.554502,-34.423487],[-58.554936,-34.423789],[-58.555359,-34.423454],[-58.555111,-34.423468],[-58.555046,-34.423459],[-58.554905,-34.423421],[-58.554634,-34.423355]]]}},{"type":"Feature","properties":{"partida":"357017255","cca":"35700010000000000000007100000000000004800A","tipo":"Urbano","sup_m2":7817.6},"geometry":{"type":"Polygon","coordinates":[[[-58.554232,-34.423717],[-58.555936,-34.424947],[-58.555955,-34.424948],[-58.55601,-34.424957],[-58.556042,-34.424949],[-58.556086,-34.424931],[-58.55613,-34.424896],[-58.556153,-34.424851],[-58.556165,-34.424797],[-58.556176,-34.42477],[-58.556231,-34.424717],[-58.555381,-34.424107],[-58.555165,-34.423944],[-58.554936,-34.423789],[-58.554502,-34.423487],[-58.554433,-34.423556],[-58.554334,-34.423643],[-58.554232,-34.423717]]]}},{"type":"Feature","properties":{"partida":"357017256","cca":"35700010000000000000007100000000000005100A","tipo":"Urbano","sup_m2":4033.1},"geometry":{"type":"Polygon","coordinates":[[[-58.55409,-34.423851],[-58.554187,-34.42391],[-58.555629,-34.42498],[-58.555705,-34.424945],[-58.555759,-34.424963],[-58.555792,-34.424982],[-58.555867,-34.42501],[-58.555932,-34.425056],[-58.555922,-34.42501],[-58.555901,-34.424974],[-58.555923,-34.424947],[-58.555936,-34.424947],[-58.554232,-34.423717],[-58.554149,-34.423792],[-58.55409,-34.423851]]]}},{"type":"Feature","properties":{"partida":"357017257","cca":"357000100000000000000071000000000000053000","tipo":"Urbano","sup_m2":3740.8},"geometry":{"type":"Polygon","coordinates":[[[-58.555515,-34.425125],[-58.555561,-34.425087],[-58.555573,-34.425051],[-58.555595,-34.425007],[-58.555629,-34.42498],[-58.554187,-34.42391],[-58.554025,-34.424065],[-58.555515,-34.425125]]]}},{"type":"Feature","properties":{"partida":"357017258","cca":"357000100000000000000071000000000000054000","tipo":"Urbano","sup_m2":3963.7},"geometry":{"type":"Polygon","coordinates":[[[-58.555371,-34.425282],[-58.555439,-34.425239],[-58.555451,-34.425194],[-58.555473,-34.425158],[-58.555515,-34.425125],[-58.554025,-34.424065],[-58.553872,-34.424215],[-58.555371,-34.425282]]]}},{"type":"Feature","properties":{"partida":"357017259","cca":"357000100000000000000071000000000000055000","tipo":"Urbano","sup_m2":3480.9},"geometry":{"type":"Polygon","coordinates":[[[-58.555186,-34.425373],[-58.555198,-34.425353],[-58.555253,-34.425336],[-58.555318,-34.42531],[-58.555371,-34.425282],[-58.553872,-34.424215],[-58.553728,-34.424353],[-58.555186,-34.425373]]]}},{"type":"Feature","properties":{"partida":"357017260","cca":"35700010000000000000007100000000000005600B","tipo":"Urbano","sup_m2":11868.1},"geometry":{"type":"Polygon","coordinates":[[[-58.555186,-34.425373],[-58.553728,-34.424353],[-58.552585,-34.423548],[-58.552477,-34.423748],[-58.552494,-34.423791],[-58.552417,-34.42386],[-58.552395,-34.423905],[-58.552362,-34.423941],[-58.552327,-34.424039],[-58.552759,-34.42433],[-58.553194,-34.424636],[-58.554757,-34.425718],[-58.554926,-34.425642],[-58.554969,-34.425614],[-58.555047,-34.425577],[-58.555092,-34.425541],[-58.554878,-34.425349],[-58.554833,-34.425328],[-58.554641,-34.425493],[-58.553489,-34.424715],[-58.553704,-34.424481],[-58.554723,-34.425131],[-58.555046,-34.425355],[-58.555126,-34.425416],[-58.555186,-34.425373]]]}},{"type":"Feature","properties":{"partida":"357017261","cca":"35700010000000000000007100000000000005700D","tipo":"Urbano","sup_m2":3424.8},"geometry":{"type":"Polygon","coordinates":[[[-58.553194,-34.424636],[-58.55307,-34.424825],[-58.55329,-34.424961],[-58.553369,-34.424897],[-58.55352,-34.425022],[-58.553789,-34.425235],[-58.554086,-34.42542],[-58.554258,-34.425588],[-58.554295,-34.425667],[-58.554235,-34.425725],[-58.554236,-34.425768],[-58.554264,-34.425819],[-58.554328,-34.425839],[-58.554397,-34.425846],[-58.554484,-34.425828],[-58.554521,-34.425797],[-58.554588,-34.425766],[-58.554668,-34.425739],[-58.554757,-34.425718],[-58.553194,-34.424636]]]}},{"type":"Feature","properties":{"partida":"357017262","cca":"35700010000000000000007100000000000005700E","tipo":"Urbano","sup_m2":824.5},"geometry":{"type":"Polygon","coordinates":[[[-58.553565,-34.425406],[-58.553168,-34.425095],[-58.55329,-34.424961],[-58.55307,-34.424825],[-58.552927,-34.425044],[-58.553565,-34.425406]]]}},{"type":"Feature","properties":{"partida":"357017263","cca":"35700010000000000000007100000000000005700F","tipo":"Urbano","sup_m2":4256.8},"geometry":{"type":"Polygon","coordinates":[[[-58.553953,-34.426017],[-58.554095,-34.425964],[-58.554112,-34.425915],[-58.554113,-34.425878],[-58.554094,-34.425841],[-58.553994,-34.425794],[-58.553973,-34.425726],[-58.553985,-34.425692],[-58.553933,-34.425631],[-58.553565,-34.425406],[-58.552927,-34.425044],[-58.552824,-34.425317],[-58.553953,-34.426017]]]}},{"type":"Feature","properties":{"partida":"357017264","cca":"35700010000000000000007100000000000005800A","tipo":"Urbano","sup_m2":2880.5},"geometry":{"type":"Polygon","coordinates":[[[-58.553639,-34.42618],[-58.553824,-34.42608],[-58.553953,-34.426017],[-58.552824,-34.425317],[-58.552765,-34.425441],[-58.552846,-34.425476],[-58.552891,-34.42551],[-58.55307,-34.425617],[-58.553006,-34.425701],[-58.553639,-34.42618]]]}},{"type":"Feature","properties":{"partida":"357017265","cca":"35700010000000000000007100000000000005800B","tipo":"Urbano","sup_m2":1546.4},"geometry":{"type":"Polygon","coordinates":[[[-58.553461,-34.426329],[-58.553562,-34.426302],[-58.553639,-34.42618],[-58.553006,-34.425701],[-58.552925,-34.425745],[-58.552884,-34.425778],[-58.553461,-34.426329]]]}},{"type":"Feature","properties":{"partida":"357017266","cca":"35700010000000000000007100000000000005900A","tipo":"Urbano","sup_m2":2074.7},"geometry":{"type":"Polygon","coordinates":[[[-58.552925,-34.425745],[-58.55284,-34.425689],[-58.552675,-34.425594],[-58.552589,-34.425779],[-58.553246,-34.426393],[-58.553461,-34.426329],[-58.552884,-34.425778],[-58.552925,-34.425745]]]}},{"type":"Feature","properties":{"partida":"357017267","cca":"35700010000000000000007100000000000005900B","tipo":"Urbano","sup_m2":1717.4},"geometry":{"type":"Polygon","coordinates":[[[-58.553317,-34.426373],[-58.553246,-34.426393],[-58.552589,-34.425779],[-58.552505,-34.425935],[-58.553072,-34.4265],[-58.553127,-34.426466],[-58.553158,-34.426433],[-58.553234,-34.426496],[-58.553319,-34.426449],[-58.553353,-34.426424],[-58.553317,-34.426373]]]}},{"type":"Feature","properties":{"partida":"357017924","cca":"35700010000000000000007100000000000006200A","tipo":"Urbano","sup_m2":250.4},"geometry":{"type":"Polygon","coordinates":[[[-58.55589,-34.418265],[-58.555991,-34.418159],[-58.55589,-34.418042],[-58.55577,-34.41813],[-58.55589,-34.418265]]]}},{"type":"Feature","properties":{"partida":"357017269","cca":"35700010000000000000007100000000000006200C","tipo":"Urbano","sup_m2":17234.7},"geometry":{"type":"Polygon","coordinates":[[[-58.55589,-34.418042],[-58.555824,-34.418031],[-58.555756,-34.418051],[-58.55569,-34.41813],[-58.555559,-34.41821],[-58.555498,-34.418328],[-58.555437,-34.418418],[-58.555426,-34.418476],[-58.557029,-34.419982],[-58.558191,-34.420985],[-58.558486,-34.420756],[-58.55589,-34.418265],[-58.55577,-34.41813],[-58.55589,-34.418042]]]}},{"type":"Feature","properties":{"partida":"357017271","cca":"35700010000000000000007100000000000006500A","tipo":"Urbano","sup_m2":19752.0},"geometry":{"type":"Polygon","coordinates":[[[-58.555101,-34.419251],[-58.556445,-34.420516],[-58.556221,-34.420719],[-58.556372,-34.420867],[-58.556367,-34.420992],[-58.556413,-34.421084],[-58.556524,-34.421112],[-58.556656,-34.421183],[-58.556748,-34.421269],[-58.556884,-34.421345],[-58.556844,-34.421388],[-58.556771,-34.421439],[-58.556666,-34.421538],[-58.556523,-34.421697],[-58.556482,-34.421779],[-58.55635,-34.421848],[-58.556357,-34.422013],[-58.556323,-34.422074],[-58.556269,-34.422235],[-58.556275,-34.422322],[-58.556221,-34.422413],[-58.556223,-34.422468],[-58.556403,-34.422335],[-58.556511,-34.422245],[-58.556659,-34.422142],[-58.557363,-34.421603],[-58.557739,-34.42133],[-58.55783,-34.421261],[-58.556717,-34.420345],[-58.555194,-34.419003],[-58.555179,-34.41907],[-58.555156,-34.419098],[-58.555151,-34.419129],[-58.555278,-34.419208],[-58.555371,-34.419302],[-58.555457,-34.419356],[-58.555555,-34.419427],[-58.555608,-34.419497],[-58.555658,-34.419549],[-58.555692,-34.419624],[-58.555251,-34.419245],[-58.555152,-34.419184],[-58.555101,-34.419251]]]}},{"type":"Feature","properties":{"partida":"357017274","cca":"357000100000000000000071000000000000066000","tipo":"Urbano","sup_m2":11107.4},"geometry":{"type":"Polygon","coordinates":[[[-58.555194,-34.419003],[-58.556717,-34.420345],[-58.557029,-34.419982],[-58.555426,-34.418476],[-58.555326,-34.418607],[-58.555305,-34.418739],[-58.555285,-34.418801],[-58.555241,-34.41891],[-58.555194,-34.419003]]]}},{"type":"Feature","properties":{"partida":"357017275","cca":"357000100000000000000071000000000000068000","tipo":"Urbano","sup_m2":13682.9},"geometry":{"type":"Polygon","coordinates":[[[-58.555101,-34.419251],[-58.55509,-34.419301],[-58.555059,-34.419348],[-58.555036,-34.419352],[-58.555,-34.419421],[-58.555037,-34.419467],[-58.555029,-34.419575],[-58.554985,-34.419622],[-58.554974,-34.419683],[-58.554923,-34.419729],[-58.554896,-34.419787],[-58.554856,-34.419813],[-58.554802,-34.419818],[-58.554779,-34.419871],[-58.554769,-34.419921],[-58.554757,-34.41996],[-58.554739,-34.419984],[-58.554728,-34.420033],[-58.554707,-34.420093],[-58.55471,-34.420128],[-58.554737,-34.420172],[-58.554812,-34.420217],[-58.554859,-34.420269],[-58.554901,-34.420291],[-58.554995,-34.42036],[-58.555026,-34.420367],[-58.555087,-34.420403],[-58.555155,-34.420473],[-58.55524,-34.420509],[-58.555404,-34.420663],[-58.555512,-34.42072],[-58.555623,-34.420813],[-58.555874,-34.420974],[-58.555959,-34.420962],[-58.555985,-34.420919],[-58.556039,-34.420765],[-58.556026,-34.420696],[-58.556037,-34.420611],[-58.556097,-34.42064],[-58.556127,-34.420664],[-58.556221,-34.420719],[-58.556445,-34.420516],[-58.555101,-34.419251]]]}},{"type":"Feature","properties":{"partida":"357017276","cca":"357000100000000000000071000000000000069000","tipo":"Urbano","sup_m2":4161.8},"geometry":{"type":"Polygon","coordinates":[[[-58.555696,-34.420987],[-58.555622,-34.420919],[-58.55555,-34.420875],[-58.555442,-34.420745],[-58.555386,-34.420714],[-58.555326,-34.420668],[-58.555219,-34.420595],[-58.55519,-34.420561],[-58.555089,-34.420478],[-58.555042,-34.420451],[-58.554912,-34.420344],[-58.55488,-34.420337],[-58.554769,-34.420264],[-58.554724,-34.420212],[-58.554678,-34.420191],[-58.554646,-34.420209],[-58.554636,-34.42022],[-58.554629,-34.42025],[-58.554606,-34.420287],[-58.554582,-34.420319],[-58.554584,-34.42035],[-58.554554,-34.420415],[-58.55451,-34.420583],[-58.555465,-34.421075],[-58.555573,-34.421156],[-58.555696,-34.420987]]]}},{"type":"Feature","properties":{"partida":"357017281","cca":"35700010000000000000007100000000000007100A","tipo":"Urbano","sup_m2":10123.5},"geometry":{"type":"Polygon","coordinates":[[[-58.555658,-34.422093],[-58.554379,-34.423173],[-58.554408,-34.423207],[-58.554484,-34.423217],[-58.554554,-34.42325],[-58.554602,-34.42326],[-58.554673,-34.423259],[-58.554878,-34.423373],[-58.554984,-34.423394],[-58.555101,-34.423381],[-58.555145,-34.423398],[-58.555297,-34.423394],[-58.555346,-34.423256],[-58.555416,-34.423164],[-58.555501,-34.423094],[-58.555578,-34.423034],[-58.555656,-34.422987],[-58.555742,-34.42297],[-58.555833,-34.422908],[-58.555891,-34.422874],[-58.555937,-34.42279],[-58.556003,-34.42274],[-58.556033,-34.422683],[-58.556006,-34.422633],[-58.555953,-34.422611],[-58.555864,-34.422628],[-58.555818,-34.422606],[-58.555802,-34.42251],[-58.555802,-34.422467],[-58.555825,-34.42244],[-58.555874,-34.422411],[-58.555917,-34.422351],[-58.555922,-34.422309],[-58.555874,-34.422287],[-58.555821,-34.422221],[-58.555774,-34.422198],[-58.555678,-34.42213],[-58.555658,-34.422093]]]}},{"type":"Feature","properties":{"partida":"357017282","cca":"35700010000000000000007100000000000007200A","tipo":"Urbano","sup_m2":4669.4},"geometry":{"type":"Polygon","coordinates":[[[-58.555641,-34.421751],[-58.554185,-34.423016],[-58.554154,-34.423072],[-58.554205,-34.423107],[-58.554267,-34.423116],[-58.554379,-34.423173],[-58.555658,-34.422093],[-58.555657,-34.422042],[-58.555647,-34.422019],[-58.555609,-34.422001],[-58.555567,-34.421938],[-58.555545,-34.421884],[-58.55556,-34.421845],[-58.555623,-34.421799],[-58.555641,-34.421751]]]}},{"type":"Feature","properties":{"partida":"357017283","cca":"35700010000000000000007100000000000007300A","tipo":"Urbano","sup_m2":9661.7},"geometry":{"type":"Polygon","coordinates":[[[-58.555696,-34.420987],[-58.555573,-34.421156],[-58.555465,-34.421075],[-58.5552,-34.421388],[-58.554767,-34.421934],[-58.554555,-34.421974],[-58.55453,-34.422357],[-58.554357,-34.422611],[-58.554294,-34.42257],[-58.554162,-34.422774],[-58.554011,-34.422873],[-58.55395,-34.422932],[-58.553859,-34.423033],[-58.554061,-34.423177],[-58.554154,-34.423072],[-58.554185,-34.423016],[-58.555641,-34.421751],[-58.555588,-34.421635],[-58.555578,-34.421572],[-58.555579,-34.421509],[-58.555565,-34.421407],[-58.555566,-34.421365],[-58.555608,-34.421301],[-58.555672,-34.421231],[-58.555734,-34.421135],[-58.555767,-34.421052],[-58.555696,-34.420987]]]}},{"type":"Feature","properties":{"partida":"357017284","cca":"357000100000000000000071000000000000074000","tipo":"Urbano","sup_m2":1652.9},"geometry":{"type":"Polygon","coordinates":[[[-58.554457,-34.420813],[-58.55541,-34.42114],[-58.555465,-34.421075],[-58.55451,-34.420583],[-58.554497,-34.420664],[-58.554457,-34.420813]]]}},{"type":"Feature","properties":{"partida":"357017285","cca":"357000100000000000000071000000000000075000","tipo":"Urbano","sup_m2":755.4},"geometry":{"type":"Polygon","coordinates":[[[-58.554457,-34.420813],[-58.555308,-34.42126],[-58.55541,-34.42114],[-58.554457,-34.420813]]]}},{"type":"Feature","properties":{"partida":"357017286","cca":"357000100000000000000071000000000000076000","tipo":"Urbano","sup_m2":1582.6},"geometry":{"type":"Polygon","coordinates":[[[-58.555308,-34.42126],[-58.554457,-34.420813],[-58.554375,-34.420956],[-58.5552,-34.421388],[-58.555308,-34.42126]]]}},{"type":"Feature","properties":{"partida":"357017287","cca":"357000100000000000000071000000000000077000","tipo":"Urbano","sup_m2":813.5},"geometry":{"type":"Polygon","coordinates":[[[-58.555148,-34.421453],[-58.5552,-34.421388],[-58.554375,-34.420956],[-58.554354,-34.421051],[-58.555148,-34.421453]]]}},{"type":"Feature","properties":{"partida":"357017288","cca":"357000100000000000000071000000000000078000","tipo":"Urbano","sup_m2":737.2},"geometry":{"type":"Polygon","coordinates":[[[-58.555096,-34.421518],[-58.555148,-34.421453],[-58.554354,-34.421051],[-58.554309,-34.421119],[-58.555096,-34.421518]]]}},{"type":"Feature","properties":{"partida":"357017289","cca":"357000100000000000000071000000000000079000","tipo":"Urbano","sup_m2":975.1},"geometry":{"type":"Polygon","coordinates":[[[-58.555096,-34.421518],[-58.554309,-34.421119],[-58.554252,-34.421245],[-58.555045,-34.421583],[-58.555096,-34.421518]]]}},{"type":"Feature","properties":{"partida":"357017290","cca":"357000100000000000000071000000000000080000","tipo":"Urbano","sup_m2":677.7},"geometry":{"type":"Polygon","coordinates":[[[-58.554993,-34.421649],[-58.555045,-34.421583],[-58.554252,-34.421245],[-58.554213,-34.421309],[-58.554993,-34.421649]]]}},{"type":"Feature","properties":{"partida":"357017291","cca":"357000100000000000000071000000000000081000","tipo":"Urbano","sup_m2":943.9},"geometry":{"type":"Polygon","coordinates":[[[-58.554938,-34.421718],[-58.554993,-34.421649],[-58.554213,-34.421309],[-58.554151,-34.421429],[-58.554938,-34.421718]]]}},{"type":"Feature","properties":{"partida":"357017292","cca":"357000100000000000000071000000000000082000","tipo":"Urbano","sup_m2":695.4},"geometry":{"type":"Polygon","coordinates":[[[-58.554883,-34.421788],[-58.554938,-34.421718],[-58.554151,-34.421429],[-58.554121,-34.421504],[-58.554883,-34.421788]]]}},{"type":"Feature","properties":{"partida":"357017293","cca":"357000100000000000000071000000000000083000","tipo":"Urbano","sup_m2":1239.4},"geometry":{"type":"Polygon","coordinates":[[[-58.554883,-34.421788],[-58.554121,-34.421504],[-58.554078,-34.421628],[-58.554767,-34.421934],[-58.554883,-34.421788]]]}},{"type":"Feature","properties":{"partida":"357017294","cca":"35700010000000000000007100000000000008400A","tipo":"Urbano","sup_m2":928.2},"geometry":{"type":"Polygon","coordinates":[[[-58.554767,-34.421934],[-58.554078,-34.421628],[-58.554045,-34.421689],[-58.554085,-34.421719],[-58.554166,-34.42176],[-58.55423,-34.421816],[-58.554225,-34.421854],[-58.554238,-34.421935],[-58.554392,-34.421963],[-58.554486,-34.421954],[-58.554535,-34.421963],[-58.554555,-34.421974],[-58.554767,-34.421934]]]}},{"type":"Feature","properties":{"partida":"357017294","cca":"35700010000000000000007100000000000008400A","tipo":"Urbano","sup_m2":2349.9},"geometry":{"type":"Polygon","coordinates":[[[-58.554357,-34.422611],[-58.55453,-34.422357],[-58.554552,-34.422018],[-58.554526,-34.422003],[-58.554456,-34.422004],[-58.554387,-34.422012],[-58.554292,-34.421984],[-58.554252,-34.421997],[-58.554238,-34.422009],[-58.554239,-34.422033],[-58.554206,-34.42207],[-58.554134,-34.422096],[-58.554078,-34.42214],[-58.554045,-34.422184],[-58.554046,-34.422264],[-58.554024,-34.422296],[-58.554007,-34.422387],[-58.554357,-34.422611]]]}},{"type":"Feature","properties":{"partida":"357020237","cca":"35700010000000000000007100000000000008400B","tipo":"Urbano","sup_m2":1505.9},"geometry":{"type":"Polygon","coordinates":[[[-58.554161,-34.421899],[-58.554115,-34.421828],[-58.554006,-34.421764],[-58.553927,-34.421804],[-58.553899,-34.421848],[-58.553821,-34.421912],[-58.553775,-34.421986],[-58.55371,-34.422055],[-58.553708,-34.422101],[-58.553666,-34.42217],[-58.553953,-34.422353],[-58.55399,-34.422168],[-58.554025,-34.422104],[-58.554091,-34.422041],[-58.554132,-34.421991],[-58.55414,-34.421941],[-58.554161,-34.421899]]]}},{"type":"Feature","properties":{"partida":"357017298","cca":"35700010000000000000007100000000000008800A","tipo":"Urbano","sup_m2":616.4},"geometry":{"type":"Polygon","coordinates":[[[-58.554249,-34.422639],[-58.554294,-34.42257],[-58.553666,-34.42217],[-58.553629,-34.422242],[-58.554249,-34.422639]]]}},{"type":"Feature","properties":{"partida":"357017299","cca":"357000100000000000000071000000000000089000","tipo":"Urbano","sup_m2":1192.9},"geometry":{"type":"Polygon","coordinates":[[[-58.554162,-34.422774],[-58.554249,-34.422639],[-58.553629,-34.422242],[-58.553555,-34.422386],[-58.554162,-34.422774]]]}},{"type":"Feature","properties":{"partida":"357017300","cca":"357000100000000000000071000000000000090000","tipo":"Urbano","sup_m2":1191.4},"geometry":{"type":"Polygon","coordinates":[[[-58.554011,-34.422873],[-58.554162,-34.422774],[-58.553555,-34.422386],[-58.553419,-34.422494],[-58.554011,-34.422873]]]}},{"type":"Feature","properties":{"partida":"357017301","cca":"357000100000000000000071000000000000091000","tipo":"Urbano","sup_m2":592.1},"geometry":{"type":"Polygon","coordinates":[[[-58.55395,-34.422932],[-58.554011,-34.422873],[-58.553419,-34.422494],[-58.553365,-34.422557],[-58.55395,-34.422932]]]}},{"type":"Feature","properties":{"partida":"357017302","cca":"35700010000000000000007100000000000009200A","tipo":"Urbano","sup_m2":948.3},"geometry":{"type":"Polygon","coordinates":[[[-58.553859,-34.423033],[-58.55395,-34.422932],[-58.553365,-34.422557],[-58.553277,-34.42266],[-58.553859,-34.423033]]]}},{"type":"Feature","properties":{"partida":null,"cca":"357000100000000000000071000000000000093000","tipo":null,"sup_m2":3250.1},"geometry":{"type":"Polygon","coordinates":[[[-58.554232,-34.423717],[-58.554334,-34.423643],[-58.554433,-34.423556],[-58.554634,-34.423355],[-58.554569,-34.423336],[-58.554504,-34.423308],[-58.554353,-34.423234],[-58.554224,-34.423188],[-58.554169,-34.423178],[-58.554104,-34.423195],[-58.554082,-34.423195],[-58.554061,-34.423177],[-58.553891,-34.423384],[-58.553736,-34.423564],[-58.55409,-34.423851],[-58.554149,-34.423792],[-58.554232,-34.423717]]]}},{"type":"Feature","properties":{"partida":"357017303","cca":"35700010000000000000007100000000000009400A","tipo":"Urbano","sup_m2":2590.6},"geometry":{"type":"Polygon","coordinates":[[[-58.553153,-34.422895],[-58.553891,-34.423384],[-58.554061,-34.423177],[-58.553859,-34.423033],[-58.553277,-34.42266],[-58.553189,-34.422732],[-58.553153,-34.4228],[-58.553153,-34.422895]]]}},{"type":"Feature","properties":{"partida":"357018153","cca":"35700010000000000000007100000000000009400B","tipo":"Urbano","sup_m2":2027.0},"geometry":{"type":"Polygon","coordinates":[[[-58.552988,-34.42305],[-58.553736,-34.423564],[-58.553891,-34.423384],[-58.553153,-34.422895],[-58.553103,-34.422992],[-58.553061,-34.423047],[-58.552988,-34.42305]]]}},{"type":"Feature","properties":{"partida":"357017304","cca":"357000100000000000000071000000000000095000","tipo":"Urbano","sup_m2":3346.9},"geometry":{"type":"Polygon","coordinates":[[[-58.552988,-34.42305],[-58.552915,-34.423114],[-58.552867,-34.423172],[-58.552821,-34.423189],[-58.554025,-34.424065],[-58.554187,-34.42391],[-58.55409,-34.423851],[-58.553736,-34.423564],[-58.552988,-34.42305]]]}},{"type":"Feature","properties":{"partida":"357017305","cca":"357000100000000000000071000000000000096000","tipo":"Urbano","sup_m2":3247.3},"geometry":{"type":"Polygon","coordinates":[[[-58.552694,-34.423374],[-58.553872,-34.424215],[-58.554025,-34.424065],[-58.552821,-34.423189],[-58.552807,-34.423229],[-58.552754,-34.423294],[-58.552694,-34.423374]]]}},{"type":"Feature","properties":{"partida":"357017306","cca":"357000100000000000000071000000000000097000","tipo":"Urbano","sup_m2":2919.9},"geometry":{"type":"Polygon","coordinates":[[[-58.552694,-34.423374],[-58.552671,-34.423401],[-58.552626,-34.423472],[-58.552585,-34.423548],[-58.553728,-34.424353],[-58.553872,-34.424215],[-58.552694,-34.423374]]]}},{"type":"Feature","properties":{"partida":"357017309","cca":"35700010000000000000007100000000000009900C","tipo":"Urbano","sup_m2":585.6},"geometry":{"type":"Polygon","coordinates":[[[-58.552327,-34.424039],[-58.552327,-34.424067],[-58.552337,-34.424085],[-58.552369,-34.424112],[-58.552369,-34.424148],[-58.552354,-34.424203],[-58.552279,-34.424317],[-58.552759,-34.42433],[-58.552327,-34.424039]]]}},{"type":"Feature","properties":{"partida":"357017310","cca":"35700010000000000000007100000000000009900D","tipo":"Urbano","sup_m2":3320.6},"geometry":{"type":"Polygon","coordinates":[[[-58.552174,-34.424636],[-58.552574,-34.424635],[-58.553006,-34.42492],[-58.553194,-34.424636],[-58.552759,-34.42433],[-58.552279,-34.424317],[-58.552243,-34.42437],[-58.552189,-34.424498],[-58.552197,-34.424588],[-58.552174,-34.424636]]]}},{"type":"Feature","properties":{"partida":"357017311","cca":"35700010000000000000007100000000000009900E","tipo":"Urbano","sup_m2":2905.5},"geometry":{"type":"Polygon","coordinates":[[[-58.552636,-34.425208],[-58.552694,-34.425239],[-58.552824,-34.425317],[-58.552927,-34.425044],[-58.553006,-34.42492],[-58.552574,-34.424635],[-58.552174,-34.424636],[-58.552142,-34.424704],[-58.552151,-34.424786],[-58.552214,-34.424881],[-58.552269,-34.42494],[-58.552716,-34.425033],[-58.552636,-34.425208]]]}},{"type":"Feature","properties":{"partida":"357017313","cca":"35700010000000000000007100000000000010000A","tipo":"Urbano","sup_m2":334.3},"geometry":{"type":"Polygon","coordinates":[[[-58.552636,-34.425208],[-58.552588,-34.425241],[-58.552573,-34.425295],[-58.552592,-34.425341],[-58.552689,-34.425404],[-58.552765,-34.425441],[-58.552824,-34.425317],[-58.552694,-34.425239],[-58.552636,-34.425208]]]}},{"type":"Feature","properties":{"partida":"357017314","cca":"35700010000000000000007100000000000010100A","tipo":"Urbano","sup_m2":943.4},"geometry":{"type":"Polygon","coordinates":[[[-58.552144,-34.425376],[-58.552675,-34.425594],[-58.552616,-34.425557],[-58.552505,-34.425478],[-58.552455,-34.425428],[-58.552357,-34.425365],[-58.552377,-34.425255],[-58.55238,-34.425202],[-58.552335,-34.425114],[-58.552155,-34.425062],[-58.552116,-34.425129],[-58.552119,-34.425219],[-58.552139,-34.425277],[-58.552134,-34.425349],[-58.552144,-34.425376]]]}},{"type":"Feature","properties":{"partida":"357017315","cca":"35700010000000000000007100000000000010100B","tipo":"Urbano","sup_m2":1557.0},"geometry":{"type":"Polygon","coordinates":[[[-58.552152,-34.425607],[-58.552505,-34.425935],[-58.552589,-34.425779],[-58.552675,-34.425594],[-58.552144,-34.425376],[-58.552122,-34.4255],[-58.552152,-34.425607]]]}},{"type":"Feature","properties":{"partida":"357017316","cca":"357000100000000000000071000000000000102000","tipo":"Urbano","sup_m2":1467.8},"geometry":{"type":"Polygon","coordinates":[[[-58.55207,-34.426051],[-58.552218,-34.426268],[-58.552505,-34.425935],[-58.552152,-34.425607],[-58.552163,-34.425659],[-58.552137,-34.425784],[-58.552106,-34.425872],[-58.552078,-34.42599],[-58.55207,-34.426051]]]}},{"type":"Feature","properties":{"partida":"357017317","cca":"35700010000000000000007100000000000010300A","tipo":"Urbano","sup_m2":4654.1},"geometry":{"type":"Polygon","coordinates":[[[-58.55207,-34.426051],[-58.552078,-34.426118],[-58.552072,-34.426185],[-58.552075,-34.426237],[-58.552067,-34.426282],[-58.552115,-34.426365],[-58.552128,-34.42643],[-58.552088,-34.426453],[-58.552091,-34.426502],[-58.552117,-34.426555],[-58.552119,-34.426622],[-58.552079,-34.426675],[-58.552034,-34.426801],[-58.552017,-34.426828],[-58.552024,-34.426866],[-58.552046,-34.426892],[-58.55206,-34.426929],[-58.552119,-34.42694],[-58.552218,-34.426925],[-58.55229,-34.426894],[-58.552276,-34.426827],[-58.552281,-34.426792],[-58.552364,-34.426744],[-58.552386,-34.426696],[-58.552351,-34.426642],[-58.55244,-34.426611],[-58.552506,-34.426537],[-58.552563,-34.426493],[-58.552651,-34.426502],[-58.552717,-34.426462],[-58.552753,-34.426488],[-58.552884,-34.426536],[-58.553026,-34.426559],[-58.553095,-34.426576],[-58.553132,-34.42656],[-58.552505,-34.425935],[-58.552218,-34.426268],[-58.55207,-34.426051]]]}},{"type":"Feature","properties":{"partida":"357017319","cca":"35700010000000000000007110000000000000100E","tipo":"Urbano","sup_m2":4712.9},"geometry":{"type":"Polygon","coordinates":[[[-58.555766,-34.417249],[-58.55595,-34.417053],[-58.556033,-34.416917],[-58.556043,-34.416855],[-58.555957,-34.416784],[-58.556032,-34.416716],[-58.555985,-34.416632],[-58.555737,-34.416538],[-58.55571,-34.416442],[-58.555495,-34.416362],[-58.555111,-34.416817],[-58.555766,-34.417249]]]}},{"type":"Feature","properties":{"partida":"357000118","cca":"35700010000000000000007110000000000000100H","tipo":"Urbano","sup_m2":1244.9},"geometry":{"type":"Polygon","coordinates":[[[-58.555982,-34.415815],[-58.555795,-34.415723],[-58.555406,-34.41618],[-58.555591,-34.416275],[-58.555982,-34.415815]]]}},{"type":"Feature","properties":{"partida":"357000205","cca":"35700010000000000000007110000000000000100K","tipo":"Urbano","sup_m2":1274.8},"geometry":{"type":"Polygon","coordinates":[[[-58.55617,-34.415907],[-58.555982,-34.415815],[-58.555591,-34.416275],[-58.555634,-34.416297],[-58.555673,-34.416341],[-58.55577,-34.416378],[-58.55617,-34.415907]]]}},{"type":"Feature","properties":{"partida":"357000196","cca":"35700010000000000000007110000000000000100M","tipo":"Urbano","sup_m2":1253.0},"geometry":{"type":"Polygon","coordinates":[[[-58.555968,-34.416452],[-58.556359,-34.416001],[-58.55617,-34.415907],[-58.55577,-34.416378],[-58.555968,-34.416452]]]}},{"type":"Feature","properties":{"partida":null,"cca":"35700010000000000000007110000000000000100N","tipo":null,"sup_m2":617.5},"geometry":{"type":"Polygon","coordinates":[[[-58.556104,-34.416297],[-58.555968,-34.416452],[-58.556266,-34.416565],[-58.556338,-34.416476],[-58.556426,-34.416446],[-58.55643,-34.416438],[-58.556104,-34.416297]]]}},{"type":"Feature","properties":{"partida":null,"cca":"35700010000000000000007110000000000000100P","tipo":null,"sup_m2":629.4},"geometry":{"type":"Polygon","coordinates":[[[-58.556104,-34.416297],[-58.55643,-34.416438],[-58.556491,-34.416316],[-58.556525,-34.416281],[-58.556231,-34.416148],[-58.556104,-34.416297]]]}},{"type":"Feature","properties":{"partida":null,"cca":"35700010000000000000007110000000000000100R","tipo":null,"sup_m2":624.3},"geometry":{"type":"Polygon","coordinates":[[[-58.556231,-34.416148],[-58.556525,-34.416281],[-58.55655,-34.416255],[-58.556675,-34.416156],[-58.556359,-34.416001],[-58.556231,-34.416148]]]}},{"type":"Feature","properties":{"partida":"357019230","cca":"35700010000000000000007110000000000000100U","tipo":"Rural","sup_m2":73067.1},"geometry":{"type":"Polygon","coordinates":[[[-58.552864,-34.419309],[-58.553594,-34.41891],[-58.553847,-34.418835],[-58.554022,-34.418722],[-58.554045,-34.41875],[-58.554229,-34.418623],[-58.554166,-34.418617],[-58.554139,-34.418588],[-58.554085,-34.418553],[-58.55414,-34.418536],[-58.554217,-34.418486],[-58.554294,-34.418446],[-58.554377,-34.418453],[-58.554432,-34.418505],[-58.554514,-34.418541],[-58.554597,-34.418536],[-58.554659,-34.418542],[-58.554735,-34.418555],[-58.554847,-34.418499],[-58.554959,-34.418431],[-58.555003,-34.4183],[-58.555095,-34.418186],[-58.555202,-34.418009],[-58.555246,-34.417861],[-58.555234,-34.417723],[-58.555284,-34.417666],[-58.555368,-34.417604],[-58.555383,-34.417564],[-58.555411,-34.41753],[-58.555432,-34.417518],[-58.555558,-34.417428],[-58.555621,-34.417389],[-58.55563,-34.417291],[-58.555685,-34.417253],[-58.555766,-34.417249],[-58.555111,-34.416817],[-58.555495,-34.416362],[-58.555256,-34.416273],[-58.554998,-34.416227],[-58.5547,-34.416211],[-58.554254,-34.41621],[-58.554036,-34.416243],[-58.553799,-34.41633],[-58.553608,-34.416432],[-58.553496,-34.416495],[-58.553134,-34.416893],[-58.553034,-34.417015],[-58.552982,-34.417104],[-58.552887,-34.417225],[-58.552731,-34.417507],[-58.552586,-34.41769],[-58.552358,-34.417946],[-58.552264,-34.418023],[-58.551699,-34.418384],[-58.551579,-34.418489],[-58.55147,-34.418575],[-58.552426,-34.419361],[-58.552634,-34.419301],[-58.552864,-34.419309]]]}},{"type":"Feature","properties":{"partida":null,"cca":"35700010000000000000007110000000000000100V","tipo":null,"sup_m2":566217.8},"geometry":{"type":"MultiPolygon","coordinates":[[[[-58.547466,-34.420146],[-58.547029,-34.42015],[-58.546813,-34.420168],[-58.546646,-34.420176],[-58.546586,-34.420188],[-58.546388,-34.420267],[-58.546165,-34.420304],[-58.546141,-34.420317],[-58.546051,-34.4204],[-58.546009,-34.420406],[-58.545864,-34.42046],[-58.545695,-34.420483],[-58.545545,-34.420495],[-58.545407,-34.420489],[-58.545289,-34.420457],[-58.545162,-34.420268],[-58.545082,-34.420271],[-58.544914,-34.420296],[-58.544766,-34.420256],[-58.544478,-34.420269],[-58.544189,-34.420331],[-58.54399,-34.420428],[-58.543873,-34.420501],[-58.543826,-34.420567],[-58.543721,-34.420744],[-58.543705,-34.42095],[-58.543746,-34.421283],[-58.543728,-34.42141],[-58.543673,-34.421511],[-58.543596,-34.421618],[-58.543473,-34.421683],[-58.543215,-34.421791],[-58.543194,-34.42194],[-58.543186,-34.422111],[-58.543229,-34.422311],[-58.543205,-34.422503],[-58.543236,-34.422664],[-58.543325,-34.422808],[-58.543403,-34.422895],[-58.543729,-34.423137],[-58.543895,-34.423177],[-58.544028,-34.423201],[-58.544068,-34.423184],[-58.54411,-34.423192],[-58.544179,-34.423213],[-58.544294,-34.423234],[-58.544388,-34.42326],[-58.544484,-34.423282],[-58.544596,-34.423313],[-58.544804,-34.423348],[-58.544952,-34.423393],[-58.54507,-34.423414],[-58.545185,-34.423446],[-58.545284,-34.423526],[-58.545335,-34.423516],[-58.54545,-34.423562],[-58.545583,-34.423589],[-58.545746,-34.423643],[-58.545834,-34.423662],[-58.545927,-34.423691],[-58.546024,-34.423694],[-58.546224,-34.423719],[-58.546504,-34.423824],[-58.546656,-34.423833],[-58.546757,-34.423824],[-58.546898,-34.423776],[-58.54694,-34.423745],[-58.546963,-34.423641],[-58.546969,-34.423302],[-58.546987,-34.423235],[-58.546985,-34.423116],[-58.547017,-34.422987],[-58.54708,-34.422918],[-58.547191,-34.422817],[-58.54741,-34.422642],[-58.547663,-34.422501],[-58.54792,-34.422318],[-58.547977,-34.422329],[-58.548031,-34.422404],[-58.548122,-34.422509],[-58.548157,-34.422502],[-58.548271,-34.422437],[-58.548424,-34.422341],[-58.54847,-34.422286],[-58.548564,-34.422237],[-58.548614,-34.422152],[-58.548678,-34.421964],[-58.548711,-34.421925],[-58.548804,-34.42191],[-58.548884,-34.421913],[-58.549156,-34.42197],[-58.54961,-34.422018],[-58.550037,-34.422052],[-58.550398,-34.421956],[-58.550659,-34.421917],[-58.551118,-34.42255],[-58.551783,-34.421663],[-58.551878,-34.421543],[-58.551966,-34.421417],[-58.552247,-34.42105],[-58.552569,-34.421046],[-58.55257,-34.420824],[-58.552664,-34.420662],[-58.552773,-34.420488],[-58.552047,-34.419519],[-58.552233,-34.419417],[-58.552426,-34.419361],[-58.55147,-34.418575],[-58.550946,-34.418899],[-58.550662,-34.419041],[-58.550281,-34.419255],[-58.550048,-34.419424],[-58.549684,-34.419576],[-58.54943,-34.4197],[-58.549216,-34.419822],[-58.548907,-34.41997],[-58.54861,-34.420096],[-58.548448,-34.420207],[-58.548335,-34.420279],[-58.548166,-34.420284],[-58.548416,-34.420313],[-58.548717,-34.42026],[-58.549298,-34.420237],[-58.549062,-34.420292],[-58.548894,-34.420301],[-58.548596,-34.420341],[-58.548281,-34.420358],[-58.548023,-34.420319],[-58.547789,-34.420288],[-58.547649,-34.42025],[-58.5476,-34.420234],[-58.547538,-34.420205],[-58.547566,-34.420137],[-58.547466,-34.420146]]],[[[-58.547755,-34.413833],[-58.547116,-34.414142],[-58.545804,-34.415913],[-58.544456,-34.417771],[-58.546337,-34.418719],[-58.546156,-34.418531],[-58.546111,-34.418447],[-58.54611,-34.418382],[-58.546206,-34.418304],[-58.5462,-34.418249],[-58.546081,-34.418147],[-58.545983,-34.418095],[-58.545948,-34.418028],[-58.545949,-34.417943],[-58.546024,-34.417859],[-58.546113,-34.417799],[-58.546175,-34.417594],[-58.546208,-34.41737],[-58.546283,-34.417286],[-58.546314,-34.417189],[-58.546384,-34.417153],[-58.546349,-34.417293],[-58.546252,-34.417389],[-58.546211,-34.417606],[-58.546186,-34.41777],[-58.546118,-34.417897],[-58.546029,-34.41798],[-58.546064,-34.418078],[-58.547828,-34.418503],[-58.547991,-34.42016],[-58.548732,-34.419892],[-58.54912,-34.419745],[-58.5497,-34.419431],[-58.550021,-34.419252],[-58.550359,-34.419101],[-58.55082,-34.418874],[-58.551155,-34.418669],[-58.551146,-34.41854],[-58.55151,-34.418327],[-58.551688,-34.418233],[-58.551875,-34.418142],[-58.55205,-34.418012],[-58.552207,-34.41791],[-58.552324,-34.417807],[-58.55243,-34.417704],[-58.552548,-34.417553],[-58.552627,-34.417411],[-58.552703,-34.417203],[-58.552867,-34.417001],[-58.553076,-34.416819],[-58.553148,-34.416654],[-58.553305,-34.416543],[-58.553441,-34.416383],[-58.553841,-34.416179],[-58.554232,-34.416121],[-58.554599,-34.416146],[-58.554884,-34.416138],[-58.555106,-34.416124],[-58.555182,-34.416131],[-58.555607,-34.41563],[-58.554278,-34.414973],[-58.553846,-34.414867],[-58.553507,-34.414861],[-58.553256,-34.414829],[-58.551477,-34.414859],[-58.551104,-34.414906],[-58.55073,-34.415047],[-58.550779,-34.415193],[-58.550828,-34.415322],[-58.550735,-34.415355],[-58.550278,-34.415453],[-58.549983,-34.415615],[-58.549724,-34.416004],[-58.549276,-34.416364],[-58.54896,-34.416413],[-58.547755,-34.413833]]]]}},{"type":"Feature","properties":{"partida":"357017358","cca":"357000100000000000000071100C00000000008000","tipo":"Urbano","sup_m2":3725.8},"geometry":{"type":"Polygon","coordinates":[[[-58.546249,-34.418354],[-58.54785,-34.418725],[-58.547828,-34.418503],[-58.546064,-34.418078],[-58.546237,-34.418211],[-58.546263,-34.418301],[-58.546249,-34.418354]]]}},{"type":"Feature","properties":{"partida":"357017359","cca":"357000100000000000000071100C00000000009000","tipo":"Urbano","sup_m2":5241.9},"geometry":{"type":"Polygon","coordinates":[[[-58.546375,-34.418737],[-58.547361,-34.419015],[-58.54785,-34.418725],[-58.546249,-34.418354],[-58.546153,-34.418425],[-58.546217,-34.418541],[-58.546333,-34.418609],[-58.546375,-34.418737]]]}},{"type":"Feature","properties":{"partida":"357017360","cca":"357000100000000000000071100C00000000010000","tipo":"Urbano","sup_m2":2998.2},"geometry":{"type":"Polygon","coordinates":[[[-58.546375,-34.418737],[-58.546325,-34.418862],[-58.546162,-34.418994],[-58.546944,-34.419249],[-58.547361,-34.419015],[-58.546375,-34.418737]]]}},{"type":"Feature","properties":{"partida":"357017361","cca":"357000100000000000000071100C00000000011000","tipo":"Urbano","sup_m2":1464.3},"geometry":{"type":"Polygon","coordinates":[[[-58.546944,-34.419249],[-58.546162,-34.418994],[-58.54615,-34.419013],[-58.545994,-34.419129],[-58.546737,-34.419371],[-58.546944,-34.419249]]]}},{"type":"Feature","properties":{"partida":"357017362","cca":"357000100000000000000071100C00000000012000","tipo":"Urbano","sup_m2":1380.9},"geometry":{"type":"Polygon","coordinates":[[[-58.545848,-34.419273],[-58.546531,-34.419487],[-58.546737,-34.419371],[-58.545994,-34.419129],[-58.545876,-34.419216],[-58.545848,-34.419273]]]}},{"type":"Feature","properties":{"partida":"357017363","cca":"357000100000000000000071100C00000000013000","tipo":"Urbano","sup_m2":1121.2},"geometry":{"type":"Polygon","coordinates":[[[-58.546326,-34.419603],[-58.546531,-34.419487],[-58.545848,-34.419273],[-58.545704,-34.419377],[-58.546326,-34.419603]]]}},{"type":"Feature","properties":{"partida":"357017364","cca":"357000100000000000000071100C00000000014000","tipo":"Urbano","sup_m2":1145.3},"geometry":{"type":"Polygon","coordinates":[[[-58.545585,-34.419528],[-58.546114,-34.419718],[-58.546326,-34.419603],[-58.545704,-34.419377],[-58.545652,-34.419416],[-58.545585,-34.419528]]]}},{"type":"Feature","properties":{"partida":"357017365","cca":"357000100000000000000071100C00000000015000","tipo":"Urbano","sup_m2":1091.4},"geometry":{"type":"Polygon","coordinates":[[[-58.545585,-34.419528],[-58.545427,-34.419565],[-58.54536,-34.41963],[-58.545904,-34.419838],[-58.546114,-34.419718],[-58.545585,-34.419528]]]}},{"type":"Feature","properties":{"partida":"357017366","cca":"357000100000000000000071100C00000000016000","tipo":"Urbano","sup_m2":1012.0},"geometry":{"type":"Polygon","coordinates":[[[-58.545904,-34.419838],[-58.54536,-34.41963],[-58.545277,-34.41971],[-58.545248,-34.419786],[-58.5457,-34.419953],[-58.545904,-34.419838]]]}},{"type":"Feature","properties":{"partida":"357017367","cca":"357000100000000000000071100C00000000017000","tipo":"Urbano","sup_m2":755.1},"geometry":{"type":"Polygon","coordinates":[[[-58.545197,-34.419976],[-58.54549,-34.420075],[-58.5457,-34.419953],[-58.545248,-34.419786],[-58.54524,-34.419873],[-58.545197,-34.419976]]]}},{"type":"Feature","properties":{"partida":"357017368","cca":"357000100000000000000071100C00000000018000","tipo":"Urbano","sup_m2":1143.0},"geometry":{"type":"Polygon","coordinates":[[[-58.545517,-34.420434],[-58.54549,-34.420075],[-58.545197,-34.419976],[-58.545193,-34.420249],[-58.545337,-34.420431],[-58.545517,-34.420434]]]}},{"type":"Feature","properties":{"partida":"357017369","cca":"357000100000000000000071100C00000000019000","tipo":"Urbano","sup_m2":889.9},"geometry":{"type":"Polygon","coordinates":[[[-58.5457,-34.419953],[-58.54549,-34.420075],[-58.545517,-34.420434],[-58.545715,-34.420436],[-58.5457,-34.419953]]]}},{"type":"Feature","properties":{"partida":"357017370","cca":"357000100000000000000071100C00000000020000","tipo":"Urbano","sup_m2":1157.3},"geometry":{"type":"Polygon","coordinates":[[[-58.545904,-34.419838],[-58.5457,-34.419953],[-58.545715,-34.420436],[-58.545951,-34.420361],[-58.545904,-34.419838]]]}},{"type":"Feature","properties":{"partida":"357017371","cca":"357000100000000000000071100C00000000021000","tipo":"Urbano","sup_m2":1239.8},"geometry":{"type":"Polygon","coordinates":[[[-58.546165,-34.420304],[-58.546114,-34.419718],[-58.545904,-34.419838],[-58.545951,-34.420361],[-58.546096,-34.420315],[-58.546141,-34.420317],[-58.546165,-34.420304]]]}},{"type":"Feature","properties":{"partida":"357017372","cca":"357000100000000000000071100C00000000022000","tipo":"Urbano","sup_m2":1429.4},"geometry":{"type":"Polygon","coordinates":[[[-58.546114,-34.419718],[-58.546165,-34.420304],[-58.546388,-34.420267],[-58.546326,-34.419603],[-58.546114,-34.419718]]]}},{"type":"Feature","properties":{"partida":"357017373","cca":"357000100000000000000071100C00000000023000","tipo":"Urbano","sup_m2":1463.6},"geometry":{"type":"Polygon","coordinates":[[[-58.546531,-34.419487],[-58.546326,-34.419603],[-58.546388,-34.420267],[-58.546586,-34.420188],[-58.546531,-34.419487]]]}},{"type":"Feature","properties":{"partida":"357017374","cca":"357000100000000000000071100C00000000024000","tipo":"Urbano","sup_m2":1692.8},"geometry":{"type":"Polygon","coordinates":[[[-58.546586,-34.420188],[-58.546646,-34.420176],[-58.546813,-34.420168],[-58.546737,-34.419371],[-58.546531,-34.419487],[-58.546586,-34.420188]]]}},{"type":"Feature","properties":{"partida":"357017375","cca":"357000100000000000000071100C00000000025000","tipo":"Urbano","sup_m2":1886.2},"geometry":{"type":"Polygon","coordinates":[[[-58.546944,-34.419249],[-58.546737,-34.419371],[-58.546813,-34.420168],[-58.547029,-34.42015],[-58.546944,-34.419249]]]}},{"type":"Feature","properties":{"partida":"357017376","cca":"357000100000000000000071100C00000000026000","tipo":"Urbano","sup_m2":4545.7},"geometry":{"type":"Polygon","coordinates":[[[-58.547466,-34.420146],[-58.547361,-34.419015],[-58.546944,-34.419249],[-58.547029,-34.42015],[-58.547466,-34.420146]]]}},{"type":"Feature","properties":{"partida":"357017377","cca":"357000100000000000000071100C00000000027000","tipo":"Urbano","sup_m2":6759.0},"geometry":{"type":"Polygon","coordinates":[[[-58.547466,-34.420146],[-58.547566,-34.420137],[-58.547637,-34.420135],[-58.547991,-34.42016],[-58.54785,-34.418725],[-58.547361,-34.419015],[-58.547466,-34.420146]]]}},{"type":"Feature","properties":{"partida":"357017378","cca":"357000100000000000000071100D00000000021000","tipo":"Urbano","sup_m2":6599.6},"geometry":{"type":"Polygon","coordinates":[[[-58.544283,-34.41801],[-58.546123,-34.418974],[-58.546242,-34.418851],[-58.546337,-34.418719],[-58.544456,-34.417771],[-58.544283,-34.41801]]]}},{"type":"Feature","properties":{"partida":"357017379","cca":"357000100000000000000071100D00000000022000","tipo":"Urbano","sup_m2":3869.9},"geometry":{"type":"Polygon","coordinates":[[[-58.544283,-34.41801],[-58.544173,-34.418162],[-58.545949,-34.419093],[-58.546123,-34.418974],[-58.544283,-34.41801]]]}},{"type":"Feature","properties":{"partida":"357017380","cca":"357000100000000000000071100D00000000023000","tipo":"Urbano","sup_m2":3643.8},"geometry":{"type":"Polygon","coordinates":[[[-58.545809,-34.419224],[-58.545949,-34.419093],[-58.544173,-34.418162],[-58.544067,-34.418307],[-58.545809,-34.419224]]]}},{"type":"Feature","properties":{"partida":"357017381","cca":"357000100000000000000071100D00000000024000","tipo":"Urbano","sup_m2":3722.1},"geometry":{"type":"Polygon","coordinates":[[[-58.543955,-34.418462],[-58.545637,-34.419347],[-58.545809,-34.419224],[-58.544067,-34.418307],[-58.543955,-34.418462]]]}},{"type":"Feature","properties":{"partida":"357017382","cca":"357000100000000000000071100D00000000025000","tipo":"Urbano","sup_m2":3444.2},"geometry":{"type":"Polygon","coordinates":[[[-58.545527,-34.41948],[-58.545573,-34.419454],[-58.545617,-34.419389],[-58.545637,-34.419347],[-58.543955,-34.418462],[-58.543844,-34.418612],[-58.545527,-34.41948]]]}},{"type":"Feature","properties":{"partida":"357017383","cca":"357000100000000000000071100D00000000026000","tipo":"Urbano","sup_m2":3162.1},"geometry":{"type":"Polygon","coordinates":[[[-58.545527,-34.41948],[-58.543844,-34.418612],[-58.543738,-34.418756],[-58.545354,-34.419571],[-58.545527,-34.41948]]]}},{"type":"Feature","properties":{"partida":"357017384","cca":"357000100000000000000071100D00000000027000","tipo":"Urbano","sup_m2":3368.7},"geometry":{"type":"Polygon","coordinates":[[[-58.545232,-34.419721],[-58.545288,-34.419634],[-58.545354,-34.419571],[-58.543738,-34.418756],[-58.543632,-34.418902],[-58.545232,-34.419721]]]}},{"type":"Feature","properties":{"partida":"357017385","cca":"357000100000000000000071100D00000000028000","tipo":"Urbano","sup_m2":3472.9},"geometry":{"type":"Polygon","coordinates":[[[-58.545162,-34.419894],[-58.545232,-34.419721],[-58.543632,-34.418902],[-58.543519,-34.419054],[-58.545162,-34.419894]]]}},{"type":"Feature","properties":{"partida":"357017386","cca":"357000100000000000000071100D00000000029000","tipo":"Urbano","sup_m2":3645.6},"geometry":{"type":"Polygon","coordinates":[[[-58.543405,-34.419209],[-58.545134,-34.420091],[-58.545162,-34.419894],[-58.543519,-34.419054],[-58.543405,-34.419209]]]}},{"type":"Feature","properties":{"partida":"357017387","cca":"357000100000000000000071100D00000000030000","tipo":"Urbano","sup_m2":3940.7},"geometry":{"type":"Polygon","coordinates":[[[-58.544914,-34.420215],[-58.545068,-34.420217],[-58.54512,-34.420167],[-58.545134,-34.420091],[-58.543405,-34.419209],[-58.543294,-34.419361],[-58.544914,-34.420215]]]}},{"type":"Feature","properties":{"partida":"357017388","cca":"357000100000000000000071100D00000000031000","tipo":"Urbano","sup_m2":3014.4},"geometry":{"type":"Polygon","coordinates":[[[-58.544516,-34.420203],[-58.544609,-34.420198],[-58.544758,-34.420213],[-58.544914,-34.420215],[-58.543294,-34.419361],[-58.543185,-34.419509],[-58.544516,-34.420203]]]}},{"type":"Feature","properties":{"partida":"357017389","cca":"357000100000000000000071100D00000000032000","tipo":"Urbano","sup_m2":2703.5},"geometry":{"type":"Polygon","coordinates":[[[-58.544194,-34.420258],[-58.544259,-34.420237],[-58.544516,-34.420203],[-58.543185,-34.419509],[-58.543074,-34.419661],[-58.544194,-34.420258]]]}},{"type":"Feature","properties":{"partida":"357017390","cca":"357000100000000000000071100D00000000033000","tipo":"Urbano","sup_m2":2142.3},"geometry":{"type":"Polygon","coordinates":[[[-58.543948,-34.420324],[-58.544046,-34.420286],[-58.544194,-34.420258],[-58.543074,-34.419661],[-58.542965,-34.419809],[-58.543948,-34.420324]]]}},{"type":"Feature","properties":{"partida":"357017391","cca":"357000100000000000000071100D00000000034000","tipo":"Urbano","sup_m2":2015.2},"geometry":{"type":"Polygon","coordinates":[[[-58.543748,-34.420439],[-58.543866,-34.420361],[-58.543948,-34.420324],[-58.542965,-34.419809],[-58.542858,-34.419955],[-58.543748,-34.420439]]]}},{"type":"Feature","properties":{"partida":"357017392","cca":"357000100000000000000071100D00000000035000","tipo":"Urbano","sup_m2":1768.3},"geometry":{"type":"Polygon","coordinates":[[[-58.543748,-34.420439],[-58.542858,-34.419955],[-58.542747,-34.420105],[-58.543578,-34.42054],[-58.543656,-34.420501],[-58.543748,-34.420439]]]}},{"type":"Feature","properties":{"partida":"357017393","cca":"357000100000000000000071100D00000000036000","tipo":"Urbano","sup_m2":1753.9},"geometry":{"type":"Polygon","coordinates":[[[-58.543496,-34.420701],[-58.54354,-34.420593],[-58.543578,-34.42054],[-58.542747,-34.420105],[-58.542638,-34.420254],[-58.543496,-34.420701]]]}},{"type":"Feature","properties":{"partida":"357017394","cca":"357000100000000000000071100D00000000037000","tipo":"Urbano","sup_m2":1868.3},"geometry":{"type":"Polygon","coordinates":[[[-58.543489,-34.420894],[-58.54348,-34.42081],[-58.543496,-34.420701],[-58.542638,-34.420254],[-58.542527,-34.420405],[-58.543489,-34.420894]]]}},{"type":"Feature","properties":{"partida":"357017395","cca":"357000100000000000000071100D00000000038000","tipo":"Urbano","sup_m2":1913.5},"geometry":{"type":"Polygon","coordinates":[[[-58.54357,-34.421123],[-58.543556,-34.421084],[-58.543506,-34.420989],[-58.543489,-34.420894],[-58.542527,-34.420405],[-58.542433,-34.420533],[-58.542658,-34.420647],[-58.54357,-34.421123]]]}},{"type":"Feature","properties":{"partida":"357017396","cca":"357000100000000000000071100D00000000039000","tipo":"Urbano","sup_m2":1869.1},"geometry":{"type":"Polygon","coordinates":[[[-58.542203,-34.42125],[-58.542658,-34.420647],[-58.542433,-34.420533],[-58.542036,-34.421065],[-58.54208,-34.421208],[-58.542203,-34.42125]]]}},{"type":"Feature","properties":{"partida":"357017397","cca":"357000100000000000000071100D00000000040000","tipo":"Urbano","sup_m2":1214.1},"geometry":{"type":"Polygon","coordinates":[[[-58.542749,-34.420864],[-58.542568,-34.420769],[-58.542203,-34.42125],[-58.542407,-34.421318],[-58.542749,-34.420864]]]}},{"type":"Feature","properties":{"partida":"357017398","cca":"357000100000000000000071100D00000000041000","tipo":"Urbano","sup_m2":893.0},"geometry":{"type":"Polygon","coordinates":[[[-58.542607,-34.421438],[-58.542838,-34.421122],[-58.542635,-34.421015],[-58.542407,-34.421318],[-58.542436,-34.421328],[-58.542607,-34.421438]]]}},{"type":"Feature","properties":{"partida":"357017399","cca":"357000100000000000000071100D00000000042000","tipo":"Urbano","sup_m2":2843.6},"geometry":{"type":"Polygon","coordinates":[[[-58.543491,-34.42147],[-58.542838,-34.421122],[-58.542607,-34.421438],[-58.542704,-34.421501],[-58.542837,-34.421614],[-58.542999,-34.421662],[-58.543192,-34.421665],[-58.543333,-34.421652],[-58.543429,-34.421593],[-58.543491,-34.42147]]]}},{"type":"Feature","properties":{"partida":"357017400","cca":"357000100000000000000071100D00000000043000","tipo":"Urbano","sup_m2":1776.2},"geometry":{"type":"Polygon","coordinates":[[[-58.543545,-34.421292],[-58.542749,-34.420864],[-58.542635,-34.421015],[-58.543491,-34.42147],[-58.543528,-34.42143],[-58.543529,-34.421333],[-58.543545,-34.421292]]]}},{"type":"Feature","properties":{"partida":"357017401","cca":"357000100000000000000071100D00000000044000","tipo":"Urbano","sup_m2":1711.9},"geometry":{"type":"Polygon","coordinates":[[[-58.543545,-34.421292],[-58.543591,-34.421176],[-58.54357,-34.421123],[-58.542658,-34.420647],[-58.542568,-34.420769],[-58.543545,-34.421292]]]}},{"type":"Feature","properties":{"partida":"357017402","cca":"357000100000000000000071100F0000000000200A","tipo":"Urbano","sup_m2":987.0},"geometry":{"type":"Polygon","coordinates":[[[-58.554357,-34.419137],[-58.55444,-34.419068],[-58.554325,-34.418676],[-58.554229,-34.418623],[-58.554045,-34.41875],[-58.554357,-34.419137]]]}},{"type":"Feature","properties":{"partida":"357017403","cca":"357000100000000000000071100F0000000000300A","tipo":"Urbano","sup_m2":926.3},"geometry":{"type":"Polygon","coordinates":[[[-58.55424,-34.419207],[-58.554357,-34.419137],[-58.554022,-34.418722],[-58.553847,-34.418835],[-58.55424,-34.419207]]]}},{"type":"Feature","properties":{"partida":"357017404","cca":"357000100000000000000071100F00000000004000","tipo":"Urbano","sup_m2":1383.7},"geometry":{"type":"Polygon","coordinates":[[[-58.55424,-34.419207],[-58.553847,-34.418835],[-58.553594,-34.41891],[-58.554018,-34.419333],[-58.55424,-34.419207]]]}},{"type":"Feature","properties":{"partida":"357017405","cca":"357000100000000000000071100F00000000005000","tipo":"Urbano","sup_m2":1415.1},"geometry":{"type":"Polygon","coordinates":[[[-58.553397,-34.419017],[-58.553807,-34.419465],[-58.554018,-34.419333],[-58.553594,-34.41891],[-58.553397,-34.419017]]]}},{"type":"Feature","properties":{"partida":"357017406","cca":"357000100000000000000071100F00000000006000","tipo":"Urbano","sup_m2":1450.5},"geometry":{"type":"Polygon","coordinates":[[[-58.553807,-34.419465],[-58.553397,-34.419017],[-58.553193,-34.41913],[-58.553629,-34.419607],[-58.553807,-34.419465]]]}},{"type":"Feature","properties":{"partida":"357017407","cca":"357000100000000000000071100F00000000007000","tipo":"Urbano","sup_m2":1255.1},"geometry":{"type":"Polygon","coordinates":[[[-58.553629,-34.419607],[-58.553193,-34.41913],[-58.55304,-34.419214],[-58.553471,-34.419734],[-58.553629,-34.419607]]]}},{"type":"Feature","properties":{"partida":"357017408","cca":"357000100000000000000071100F00000000008000","tipo":"Urbano","sup_m2":1460.8},"geometry":{"type":"Polygon","coordinates":[[[-58.553471,-34.419734],[-58.55304,-34.419214],[-58.552864,-34.419309],[-58.553323,-34.419883],[-58.553471,-34.419734]]]}},{"type":"Feature","properties":{"partida":"357017409","cca":"357000100000000000000071100F00000000009000","tipo":"Urbano","sup_m2":1575.6},"geometry":{"type":"Polygon","coordinates":[[[-58.553185,-34.420028],[-58.553323,-34.419883],[-58.552864,-34.419309],[-58.552634,-34.419301],[-58.553185,-34.420028]]]}},{"type":"Feature","properties":{"partida":"357017410","cca":"357000100000000000000071100F00000000010000","tipo":"Urbano","sup_m2":1981.7},"geometry":{"type":"Polygon","coordinates":[[[-58.553045,-34.420175],[-58.553185,-34.420028],[-58.552634,-34.419301],[-58.552426,-34.419361],[-58.553045,-34.420175]]]}},{"type":"Feature","properties":{"partida":"357017411","cca":"357000100000000000000071100F00000000011000","tipo":"Urbano","sup_m2":2161.0},"geometry":{"type":"Polygon","coordinates":[[[-58.552899,-34.420324],[-58.553045,-34.420175],[-58.552426,-34.419361],[-58.552233,-34.419417],[-58.552899,-34.420324]]]}},{"type":"Feature","properties":{"partida":"357017412","cca":"357000100000000000000071100F00000000012000","tipo":"Urbano","sup_m2":2438.6},"geometry":{"type":"Polygon","coordinates":[[[-58.552899,-34.420324],[-58.552233,-34.419417],[-58.552047,-34.419519],[-58.552773,-34.420488],[-58.552899,-34.420324]]]}},{"type":"Feature","properties":{"partida":"357017413","cca":"357000100000000000000071100F00000000013000","tipo":"Urbano","sup_m2":5002.3},"geometry":{"type":"Polygon","coordinates":[[[-58.551058,-34.422563],[-58.551118,-34.42255],[-58.550659,-34.421917],[-58.550041,-34.422104],[-58.550326,-34.422687],[-58.550908,-34.422591],[-58.551058,-34.422563]]]}},{"type":"Feature","properties":{"partida":"357017414","cca":"357000100000000000000071100F00000000014000","tipo":"Urbano","sup_m2":4606.2},"geometry":{"type":"Polygon","coordinates":[[[-58.549696,-34.422791],[-58.550114,-34.422724],[-58.550326,-34.422687],[-58.550041,-34.422104],[-58.549345,-34.422028],[-58.549696,-34.422791]]]}},{"type":"Feature","properties":{"partida":"357017415","cca":"357000100000000000000071100F00000000015000","tipo":"Urbano","sup_m2":1951.1},"geometry":{"type":"Polygon","coordinates":[[[-58.549483,-34.422829],[-58.549696,-34.422791],[-58.549345,-34.422028],[-58.54908,-34.421991],[-58.549483,-34.422829]]]}},{"type":"Feature","properties":{"partida":"357017416","cca":"357000100000000000000071100F00000000016000","tipo":"Urbano","sup_m2":2433.3},"geometry":{"type":"Polygon","coordinates":[[[-58.549483,-34.422829],[-58.54908,-34.421991],[-58.548755,-34.421949],[-58.549266,-34.422871],[-58.549483,-34.422829]]]}},{"type":"Feature","properties":{"partida":"357017417","cca":"357000100000000000000071100F00000000017000","tipo":"Urbano","sup_m2":2277.9},"geometry":{"type":"Polygon","coordinates":[[[-58.549048,-34.42291],[-58.549266,-34.422871],[-58.548755,-34.421949],[-58.548611,-34.422244],[-58.549048,-34.42291]]]}},{"type":"Feature","properties":{"partida":"357017418","cca":"357000100000000000000071100F00000000018000","tipo":"Urbano","sup_m2":1576.6},"geometry":{"type":"Polygon","coordinates":[[[-58.548611,-34.422244],[-58.548464,-34.422361],[-58.548862,-34.423008],[-58.54889,-34.422996],[-58.549048,-34.42291],[-58.548611,-34.422244]]]}},{"type":"Feature","properties":{"partida":"357017419","cca":"357000100000000000000071100F00000000019000","tipo":"Urbano","sup_m2":1492.3},"geometry":{"type":"Polygon","coordinates":[[[-58.548748,-34.423072],[-58.548862,-34.423008],[-58.548464,-34.422361],[-58.548246,-34.422494],[-58.548748,-34.423072]]]}},{"type":"Feature","properties":{"partida":"357017420","cca":"357000100000000000000071100F00000000020000","tipo":"Urbano","sup_m2":262.8},"geometry":{"type":"Polygon","coordinates":[[[-58.548058,-34.422601],[-58.54811,-34.422568],[-58.547939,-34.422339],[-58.547843,-34.422411],[-58.548058,-34.422601]]]}},{"type":"Feature","properties":{"partida":"357017421","cca":"357000100000000000000071100F00000000021000","tipo":"Urbano","sup_m2":1298.2},"geometry":{"type":"Polygon","coordinates":[[[-58.548058,-34.422601],[-58.548638,-34.423131],[-58.548748,-34.423072],[-58.548246,-34.422494],[-58.54811,-34.422568],[-58.548058,-34.422601]]]}},{"type":"Feature","properties":{"partida":"357017422","cca":"357000100000000000000071100F00000000022000","tipo":"Urbano","sup_m2":1740.4},"geometry":{"type":"Polygon","coordinates":[[[-58.548529,-34.423194],[-58.548638,-34.423131],[-58.548058,-34.422601],[-58.547843,-34.422411],[-58.547673,-34.422521],[-58.548529,-34.423194]]]}},{"type":"Feature","properties":{"partida":"357017423","cca":"357000100000000000000071100F00000000023000","tipo":"Urbano","sup_m2":1868.3},"geometry":{"type":"Polygon","coordinates":[[[-58.548529,-34.423194],[-58.547673,-34.422521],[-58.54747,-34.422637],[-58.548413,-34.423256],[-58.548529,-34.423194]]]}},{"type":"Feature","properties":{"partida":"357017424","cca":"357000100000000000000071100F00000000024000","tipo":"Urbano","sup_m2":2113.5},"geometry":{"type":"Polygon","coordinates":[[[-58.548306,-34.423318],[-58.548413,-34.423256],[-58.54747,-34.422637],[-58.547253,-34.422807],[-58.548306,-34.423318]]]}},{"type":"Feature","properties":{"partida":"357017425","cca":"357000100000000000000071100F00000000025000","tipo":"Urbano","sup_m2":1976.6},"geometry":{"type":"Polygon","coordinates":[[[-58.548306,-34.423318],[-58.547253,-34.422807],[-58.547059,-34.422967],[-58.547059,-34.422971],[-58.548192,-34.423379],[-58.548306,-34.423318]]]}},{"type":"Feature","properties":{"partida":"357017426","cca":"357000100000000000000071100F00000000026000","tipo":"Urbano","sup_m2":1538.2},"geometry":{"type":"Polygon","coordinates":[[[-58.548086,-34.423436],[-58.548192,-34.423379],[-58.547059,-34.422971],[-58.547052,-34.423156],[-58.548086,-34.423436]]]}},{"type":"Feature","properties":{"partida":"357017427","cca":"357000100000000000000071100F00000000027000","tipo":"Urbano","sup_m2":1392.3},"geometry":{"type":"Polygon","coordinates":[[[-58.548086,-34.423436],[-58.547052,-34.423156],[-58.547029,-34.423278],[-58.547029,-34.423336],[-58.547971,-34.423499],[-58.548086,-34.423436]]]}},{"type":"Feature","properties":{"partida":"357017428","cca":"357000100000000000000071100F00000000028000","tipo":"Urbano","sup_m2":1171.2},"geometry":{"type":"Polygon","coordinates":[[[-58.547029,-34.423505],[-58.547847,-34.423575],[-58.547971,-34.423499],[-58.547029,-34.423336],[-58.547029,-34.423505]]]}},{"type":"Feature","properties":{"partida":"357017429","cca":"357000100000000000000071100F00000000029000","tipo":"Urbano","sup_m2":1102.8},"geometry":{"type":"Polygon","coordinates":[[[-58.547643,-34.423558],[-58.547029,-34.423505],[-58.547062,-34.423575],[-58.547068,-34.423666],[-58.547059,-34.423698],[-58.547636,-34.423738],[-58.547643,-34.423558]]]}},{"type":"Feature","properties":{"partida":"357017430","cca":"357000100000000000000071100F0000000003000A","tipo":"Urbano","sup_m2":514.5},"geometry":{"type":"Polygon","coordinates":[[[-58.55424,-34.419207],[-58.554543,-34.4193],[-58.554627,-34.419081],[-58.55444,-34.419068],[-58.554357,-34.419137],[-58.55424,-34.419207]]]}},{"type":"Feature","properties":{"partida":"357017431","cca":"357000100000000000000071100F0000000003000B","tipo":"Urbano","sup_m2":924.6},"geometry":{"type":"Polygon","coordinates":[[[-58.554325,-34.418676],[-58.55444,-34.419068],[-58.554553,-34.419075],[-58.554631,-34.419001],[-58.55466,-34.418933],[-58.554668,-34.41887],[-58.554648,-34.418806],[-58.554573,-34.418719],[-58.554325,-34.418676]]]}},{"type":"Feature","properties":{"partida":"357017432","cca":"357000100000000000000071100F00000000031000","tipo":"Urbano","sup_m2":746.3},"geometry":{"type":"Polygon","coordinates":[[[-58.55424,-34.419207],[-58.554018,-34.419333],[-58.554457,-34.419471],[-58.554507,-34.419382],[-58.554543,-34.4193],[-58.55424,-34.419207]]]}},{"type":"Feature","properties":{"partida":"357017433","cca":"357000100000000000000071100F00000000032000","tipo":"Urbano","sup_m2":975.2},"geometry":{"type":"Polygon","coordinates":[[[-58.554457,-34.419471],[-58.554018,-34.419333],[-58.553807,-34.419465],[-58.554391,-34.419635],[-58.554399,-34.419572],[-58.554457,-34.419471]]]}},{"type":"Feature","properties":{"partida":"357017434","cca":"357000100000000000000071100F00000000033000","tipo":"Urbano","sup_m2":1259.3},"geometry":{"type":"Polygon","coordinates":[[[-58.553807,-34.419465],[-58.553629,-34.419607],[-58.554348,-34.419812],[-58.554363,-34.419687],[-58.554391,-34.419635],[-58.553807,-34.419465]]]}},{"type":"Feature","properties":{"partida":"357017435","cca":"357000100000000000000071100F00000000034000","tipo":"Urbano","sup_m2":1386.7},"geometry":{"type":"Polygon","coordinates":[[[-58.554348,-34.419812],[-58.553629,-34.419607],[-58.553471,-34.419734],[-58.554269,-34.419975],[-58.554278,-34.419936],[-58.554346,-34.41983],[-58.554348,-34.419812]]]}},{"type":"Feature","properties":{"partida":"357017436","cca":"357000100000000000000071100F00000000035000","tipo":"Urbano","sup_m2":1644.0},"geometry":{"type":"Polygon","coordinates":[[[-58.553471,-34.419734],[-58.553323,-34.419883],[-58.554191,-34.420143],[-58.5542,-34.420072],[-58.554246,-34.420075],[-58.554269,-34.419975],[-58.553471,-34.419734]]]}},{"type":"Feature","properties":{"partida":"357017437","cca":"357000100000000000000071100F00000000036000","tipo":"Urbano","sup_m2":1832.1},"geometry":{"type":"Polygon","coordinates":[[[-58.553185,-34.420028],[-58.554167,-34.420337],[-58.554191,-34.420143],[-58.553323,-34.419883],[-58.553185,-34.420028]]]}},{"type":"Feature","properties":{"partida":"357017438","cca":"357000100000000000000071100F00000000037000","tipo":"Urbano","sup_m2":1961.0},"geometry":{"type":"Polygon","coordinates":[[[-58.553045,-34.420175],[-58.554098,-34.420503],[-58.554167,-34.420337],[-58.553185,-34.420028],[-58.553045,-34.420175]]]}},{"type":"Feature","properties":{"partida":"357017439","cca":"357000100000000000000071100F00000000038000","tipo":"Urbano","sup_m2":2116.4},"geometry":{"type":"Polygon","coordinates":[[[-58.552899,-34.420324],[-58.553998,-34.420661],[-58.554063,-34.42058],[-58.554098,-34.420503],[-58.553045,-34.420175],[-58.552899,-34.420324]]]}},{"type":"Feature","properties":{"partida":"357017440","cca":"357000100000000000000071100F00000000039000","tipo":"Urbano","sup_m2":2187.1},"geometry":{"type":"Polygon","coordinates":[[[-58.552773,-34.420488],[-58.553929,-34.42082],[-58.553979,-34.420684],[-58.553998,-34.420661],[-58.552899,-34.420324],[-58.552773,-34.420488]]]}},{"type":"Feature","properties":{"partida":"357017441","cca":"357000100000000000000071100F00000000040000","tipo":"Urbano","sup_m2":2253.5},"geometry":{"type":"Polygon","coordinates":[[[-58.552664,-34.420662],[-58.553832,-34.42097],[-58.553841,-34.42094],[-58.553912,-34.420868],[-58.553929,-34.42082],[-58.552773,-34.420488],[-58.552664,-34.420662]]]}},{"type":"Feature","properties":{"partida":"357017442","cca":"357000100000000000000071100F00000000041000","tipo":"Urbano","sup_m2":2311.9},"geometry":{"type":"Polygon","coordinates":[[[-58.553832,-34.42097],[-58.552664,-34.420662],[-58.55257,-34.420824],[-58.553758,-34.421147],[-58.55377,-34.421114],[-58.553813,-34.421035],[-58.553832,-34.42097]]]}},{"type":"Feature","properties":{"partida":"357017443","cca":"357000100000000000000071100F00000000042000","tipo":"Urbano","sup_m2":2617.6},"geometry":{"type":"Polygon","coordinates":[[[-58.552569,-34.421046],[-58.553635,-34.421342],[-58.553727,-34.421229],[-58.553758,-34.421147],[-58.55257,-34.420824],[-58.552569,-34.421046]]]}},{"type":"Feature","properties":{"partida":"357017444","cca":"357000100000000000000071100F00000000043000","tipo":"Urbano","sup_m2":2429.5},"geometry":{"type":"Polygon","coordinates":[[[-58.552247,-34.42105],[-58.553568,-34.4216],[-58.553635,-34.421342],[-58.552569,-34.421046],[-58.552247,-34.42105]]]}},{"type":"Feature","properties":{"partida":"357017445","cca":"357000100000000000000071100F00000000044000","tipo":"Urbano","sup_m2":2415.8},"geometry":{"type":"Polygon","coordinates":[[[-58.553439,-34.421739],[-58.553568,-34.4216],[-58.552247,-34.42105],[-58.552149,-34.421176],[-58.553439,-34.421739]]]}},{"type":"Feature","properties":{"partida":"357017446","cca":"357000100000000000000071100F00000000045000","tipo":"Urbano","sup_m2":2535.2},"geometry":{"type":"Polygon","coordinates":[[[-58.55329,-34.421899],[-58.553439,-34.421739],[-58.552149,-34.421176],[-58.552057,-34.4213],[-58.55329,-34.421899]]]}},{"type":"Feature","properties":{"partida":"357017447","cca":"357000100000000000000071100F00000000046000","tipo":"Urbano","sup_m2":2257.8},"geometry":{"type":"Polygon","coordinates":[[[-58.55329,-34.421899],[-58.552057,-34.4213],[-58.551966,-34.421417],[-58.55316,-34.422035],[-58.553215,-34.42198],[-58.55329,-34.421899]]]}},{"type":"Feature","properties":{"partida":"357017448","cca":"357000100000000000000071100F00000000047000","tipo":"Urbano","sup_m2":2372.8},"geometry":{"type":"Polygon","coordinates":[[[-58.551878,-34.421543],[-58.553032,-34.42219],[-58.553088,-34.422105],[-58.55316,-34.422035],[-58.551966,-34.421417],[-58.551878,-34.421543]]]}},{"type":"Feature","properties":{"partida":"357017449","cca":"357000100000000000000071100F00000000048000","tipo":"Urbano","sup_m2":2360.8},"geometry":{"type":"Polygon","coordinates":[[[-58.551783,-34.421663],[-58.552966,-34.422373],[-58.553032,-34.42219],[-58.551878,-34.421543],[-58.551783,-34.421663]]]}},{"type":"Feature","properties":{"partida":"357017450","cca":"357000100000000000000071100F00000000049000","tipo":"Urbano","sup_m2":2609.5},"geometry":{"type":"Polygon","coordinates":[[[-58.552823,-34.422499],[-58.552966,-34.422373],[-58.551783,-34.421663],[-58.551665,-34.42182],[-58.552823,-34.422499]]]}},{"type":"Feature","properties":{"partida":"357017451","cca":"357000100000000000000071100F00000000050000","tipo":"Urbano","sup_m2":2648.5},"geometry":{"type":"Polygon","coordinates":[[[-58.551551,-34.421973],[-58.552696,-34.422653],[-58.552762,-34.422583],[-58.552804,-34.422515],[-58.552823,-34.422499],[-58.551665,-34.42182],[-58.551551,-34.421973]]]}},{"type":"Feature","properties":{"partida":"357017452","cca":"357000100000000000000071100F00000000051000","tipo":"Urbano","sup_m2":2001.7},"geometry":{"type":"Polygon","coordinates":[[[-58.551483,-34.422065],[-58.55258,-34.422803],[-58.552586,-34.422719],[-58.552649,-34.422691],[-58.552696,-34.422653],[-58.551551,-34.421973],[-58.551483,-34.422065]]]}},{"type":"Feature","properties":{"partida":"357017453","cca":"357000100000000000000071100F00000000052000","tipo":"Urbano","sup_m2":2395.2},"geometry":{"type":"Polygon","coordinates":[[[-58.551483,-34.422065],[-58.551389,-34.422187],[-58.552464,-34.422964],[-58.552577,-34.422839],[-58.55258,-34.422803],[-58.551483,-34.422065]]]}},{"type":"Feature","properties":{"partida":"357017454","cca":"357000100000000000000071100F00000000053000","tipo":"Urbano","sup_m2":2260.0},"geometry":{"type":"Polygon","coordinates":[[[-58.552328,-34.423095],[-58.552464,-34.422964],[-58.551389,-34.422187],[-58.5513,-34.422309],[-58.552328,-34.423095]]]}},{"type":"Feature","properties":{"partida":"357017455","cca":"357000100000000000000071100F00000000054000","tipo":"Urbano","sup_m2":2131.6},"geometry":{"type":"Polygon","coordinates":[[[-58.552189,-34.423229],[-58.552328,-34.423095],[-58.5513,-34.422309],[-58.551219,-34.422418],[-58.552189,-34.423229]]]}},{"type":"Feature","properties":{"partida":"357017456","cca":"357000100000000000000071100F00000000055000","tipo":"Urbano","sup_m2":1992.2},"geometry":{"type":"Polygon","coordinates":[[[-58.551146,-34.422513],[-58.552032,-34.42335],[-58.552176,-34.423242],[-58.552189,-34.423229],[-58.551219,-34.422418],[-58.551146,-34.422513]]]}},{"type":"Feature","properties":{"partida":"357017457","cca":"357000100000000000000071100F00000000056000","tipo":"Urbano","sup_m2":2969.6},"geometry":{"type":"Polygon","coordinates":[[[-58.551058,-34.422563],[-58.551683,-34.423534],[-58.551707,-34.423529],[-58.551874,-34.423468],[-58.552032,-34.42335],[-58.551146,-34.422513],[-58.551118,-34.42255],[-58.551058,-34.422563]]]}},{"type":"Feature","properties":{"partida":"357017458","cca":"357000100000000000000071100F00000000057000","tipo":"Urbano","sup_m2":2002.3},"geometry":{"type":"Polygon","coordinates":[[[-58.550908,-34.422591],[-58.551475,-34.423577],[-58.551683,-34.423534],[-58.551058,-34.422563],[-58.550908,-34.422591]]]}},{"type":"Feature","properties":{"partida":"357017459","cca":"357000100000000000000071100F00000000058000","tipo":"Urbano","sup_m2":1970.0},"geometry":{"type":"Polygon","coordinates":[[[-58.550765,-34.422614],[-58.551268,-34.423622],[-58.551475,-34.423577],[-58.550908,-34.422591],[-58.550765,-34.422614]]]}},{"type":"Feature","properties":{"partida":null,"cca":"357000100000000000000071100F00000000059000","tipo":null,"sup_m2":2047.6},"geometry":{"type":"Polygon","coordinates":[[[-58.550616,-34.422639],[-58.551062,-34.423678],[-58.551081,-34.423677],[-58.551268,-34.423622],[-58.550765,-34.422614],[-58.550616,-34.422639]]]}},{"type":"Feature","properties":{"partida":"357017461","cca":"357000100000000000000071100F00000000060000","tipo":"Urbano","sup_m2":1967.5},"geometry":{"type":"Polygon","coordinates":[[[-58.550471,-34.422661],[-58.550851,-34.423697],[-58.550866,-34.423691],[-58.551062,-34.423678],[-58.550616,-34.422639],[-58.550471,-34.422661]]]}},{"type":"Feature","properties":{"partida":"357017462","cca":"357000100000000000000071100F00000000061000","tipo":"Urbano","sup_m2":2036.4},"geometry":{"type":"Polygon","coordinates":[[[-58.550326,-34.422687],[-58.550651,-34.423767],[-58.550726,-34.423747],[-58.550851,-34.423697],[-58.550471,-34.422661],[-58.550326,-34.422687]]]}},{"type":"Feature","properties":{"partida":"357017463","cca":"357000100000000000000071100F00000000062000","tipo":"Urbano","sup_m2":2459.3},"geometry":{"type":"Polygon","coordinates":[[[-58.550114,-34.422724],[-58.550439,-34.4238],[-58.550559,-34.423791],[-58.550651,-34.423767],[-58.550326,-34.422687],[-58.550114,-34.422724]]]}},{"type":"Feature","properties":{"partida":"357017464","cca":"357000100000000000000071100F00000000063000","tipo":"Urbano","sup_m2":2352.3},"geometry":{"type":"Polygon","coordinates":[[[-58.549903,-34.422757],[-58.550233,-34.423816],[-58.550439,-34.4238],[-58.550114,-34.422724],[-58.549903,-34.422757]]]}},{"type":"Feature","properties":{"partida":"357017465","cca":"357000100000000000000071100F00000000064000","tipo":"Urbano","sup_m2":2484.1},"geometry":{"type":"Polygon","coordinates":[[[-58.549696,-34.422791],[-58.549997,-34.423846],[-58.550109,-34.423826],[-58.550233,-34.423816],[-58.549903,-34.422757],[-58.549696,-34.422791]]]}},{"type":"Feature","properties":{"partida":"357017466","cca":"357000100000000000000071100F00000000065000","tipo":"Urbano","sup_m2":2350.6},"geometry":{"type":"Polygon","coordinates":[[[-58.549483,-34.422829],[-58.549795,-34.423884],[-58.549997,-34.423846],[-58.549696,-34.422791],[-58.549483,-34.422829]]]}},{"type":"Feature","properties":{"partida":"357017467","cca":"357000100000000000000071100F00000000066000","tipo":"Urbano","sup_m2":2461.2},"geometry":{"type":"Polygon","coordinates":[[[-58.549266,-34.422871],[-58.54958,-34.423929],[-58.549671,-34.423907],[-58.549795,-34.423884],[-58.549483,-34.422829],[-58.549266,-34.422871]]]}},{"type":"Feature","properties":{"partida":"357017468","cca":"357000100000000000000071100F00000000067000","tipo":"Urbano","sup_m2":2499.7},"geometry":{"type":"Polygon","coordinates":[[[-58.549048,-34.42291],[-58.549365,-34.42398],[-58.54958,-34.423929],[-58.549266,-34.422871],[-58.549048,-34.42291]]]}},{"type":"Feature","properties":{"partida":"357017469","cca":"357000100000000000000071100F00000000068000","tipo":"Urbano","sup_m2":2097.9},"geometry":{"type":"Polygon","coordinates":[[[-58.549168,-34.424025],[-58.549365,-34.42398],[-58.549048,-34.42291],[-58.54889,-34.422996],[-58.549168,-34.424025]]]}},{"type":"Feature","properties":{"partida":"357017470","cca":"357000100000000000000071100F00000000069000","tipo":"Urbano","sup_m2":2151.5},"geometry":{"type":"Polygon","coordinates":[[[-58.548711,-34.423091],[-58.548964,-34.424072],[-58.549168,-34.424025],[-58.54889,-34.422996],[-58.548862,-34.423008],[-58.548711,-34.423091]]]}},{"type":"Feature","properties":{"partida":"357017471","cca":"357000100000000000000071100F00000000070000","tipo":"Urbano","sup_m2":2024.4},"geometry":{"type":"Polygon","coordinates":[[[-58.548753,-34.42412],[-58.548964,-34.424072],[-58.548711,-34.423091],[-58.548543,-34.423186],[-58.548753,-34.42412]]]}},{"type":"Feature","properties":{"partida":"357017472","cca":"357000100000000000000071100F00000000071000","tipo":"Urbano","sup_m2":1912.5},"geometry":{"type":"Polygon","coordinates":[[[-58.548365,-34.423283],[-58.548544,-34.424151],[-58.548701,-34.424132],[-58.548753,-34.42412],[-58.548543,-34.423186],[-58.548365,-34.423283]]]}},{"type":"Feature","properties":{"partida":"357017473","cca":"357000100000000000000071100F00000000072000","tipo":"Urbano","sup_m2":1909.1},"geometry":{"type":"Polygon","coordinates":[[[-58.548365,-34.423283],[-58.548192,-34.423379],[-58.548289,-34.424181],[-58.548544,-34.424151],[-58.548365,-34.423283]]]}},{"type":"Feature","properties":{"partida":"357017474","cca":"357000100000000000000071100F00000000073000","tipo":"Urbano","sup_m2":1562.9},"geometry":{"type":"Polygon","coordinates":[[[-58.548192,-34.423379],[-58.54802,-34.423474],[-58.548074,-34.424207],[-58.548289,-34.424181],[-58.548192,-34.423379]]]}},{"type":"Feature","properties":{"partida":"357017475","cca":"357000100000000000000071100F00000000074000","tipo":"Urbano","sup_m2":1513.6},"geometry":{"type":"Polygon","coordinates":[[[-58.54802,-34.423474],[-58.547971,-34.423499],[-58.547847,-34.423575],[-58.547824,-34.424236],[-58.548074,-34.424207],[-58.54802,-34.423474]]]}},{"type":"Feature","properties":{"partida":"357017476","cca":"357000100000000000000071100F00000000075000","tipo":"Urbano","sup_m2":1442.4},"geometry":{"type":"Polygon","coordinates":[[[-58.547643,-34.423558],[-58.547613,-34.424254],[-58.54768,-34.424253],[-58.547824,-34.424236],[-58.547847,-34.423575],[-58.547643,-34.423558]]]}},{"type":"Feature","properties":{"partida":"357017477","cca":"357000100000000000000071100F00000000076000","tipo":"Urbano","sup_m2":2375.8},"geometry":{"type":"Polygon","coordinates":[[[-58.547636,-34.423738],[-58.547059,-34.423698],[-58.547042,-34.423754],[-58.547021,-34.423763],[-58.547241,-34.424177],[-58.547616,-34.424185],[-58.547636,-34.423738]]]}},{"type":"Feature","properties":{"partida":"357017478","cca":"357000100000000000000071100F00000000077000","tipo":"Urbano","sup_m2":286.8},"geometry":{"type":"Polygon","coordinates":[[[-58.547247,-34.424259],[-58.547613,-34.424254],[-58.547616,-34.424185],[-58.547241,-34.424177],[-58.547247,-34.424259]]]}},{"type":"Feature","properties":{"partida":"357017479","cca":"357000100000000000000071100F00000000078000","tipo":"Urbano","sup_m2":846.4},"geometry":{"type":"Polygon","coordinates":[[[-58.547241,-34.424177],[-58.547021,-34.423763],[-58.546969,-34.423788],[-58.546931,-34.423791],[-58.546922,-34.423797],[-58.547045,-34.424262],[-58.547247,-34.424259],[-58.547241,-34.424177]]]}},{"type":"Feature","properties":{"partida":"357017480","cca":"357000100000000000000071100F00000000079000","tipo":"Urbano","sup_m2":717.5},"geometry":{"type":"Polygon","coordinates":[[[-58.546847,-34.424238],[-58.547045,-34.424262],[-58.546922,-34.423797],[-58.546901,-34.423811],[-58.546829,-34.423845],[-58.546793,-34.423853],[-58.546847,-34.424238]]]}},{"type":"Feature","properties":{"partida":"357017481","cca":"357000100000000000000071100F00000000080000","tipo":"Urbano","sup_m2":735.8},"geometry":{"type":"Polygon","coordinates":[[[-58.546623,-34.42421],[-58.546847,-34.424238],[-58.546793,-34.423853],[-58.546706,-34.423872],[-58.546612,-34.423871],[-58.546623,-34.42421]]]}},{"type":"Feature","properties":{"partida":"357017482","cca":"357000100000000000000071100F0000000008100A","tipo":"Urbano","sup_m2":1512.4},"geometry":{"type":"Polygon","coordinates":[[[-58.546623,-34.42421],[-58.546612,-34.423871],[-58.546554,-34.42387],[-58.546478,-34.423859],[-58.546314,-34.423781],[-58.54627,-34.423771],[-58.546132,-34.424128],[-58.546466,-34.42419],[-58.546623,-34.42421]]]}},{"type":"Feature","properties":{"partida":"357017484","cca":"357000100000000000000071100F00000000083000","tipo":"Urbano","sup_m2":857.0},"geometry":{"type":"Polygon","coordinates":[[[-58.545892,-34.424083],[-58.546132,-34.424128],[-58.54627,-34.423771],[-58.546142,-34.423741],[-58.546072,-34.423737],[-58.545892,-34.424083]]]}},{"type":"Feature","properties":{"partida":"357017485","cca":"357000100000000000000071100F00000000084000","tipo":"Urbano","sup_m2":812.3},"geometry":{"type":"Polygon","coordinates":[[[-58.545667,-34.424034],[-58.545718,-34.42405],[-58.545892,-34.424083],[-58.546072,-34.423737],[-58.545924,-34.423728],[-58.545858,-34.423712],[-58.545667,-34.424034]]]}},{"type":"Feature","properties":{"partida":"357017486","cca":"357000100000000000000071100F00000000085000","tipo":"Urbano","sup_m2":810.5},"geometry":{"type":"Polygon","coordinates":[[[-58.545455,-34.423969],[-58.545667,-34.424034],[-58.545858,-34.423712],[-58.545794,-34.423697],[-58.545644,-34.423654],[-58.545455,-34.423969]]]}},{"type":"Feature","properties":{"partida":"357017487","cca":"357000100000000000000071100F00000000086000","tipo":"Urbano","sup_m2":767.0},"geometry":{"type":"Polygon","coordinates":[[[-58.545249,-34.423906],[-58.545455,-34.423969],[-58.545644,-34.423654],[-58.545553,-34.423627],[-58.545434,-34.423604],[-58.545249,-34.423906]]]}},{"type":"Feature","properties":{"partida":"357017488","cca":"357000100000000000000071100F00000000087000","tipo":"Urbano","sup_m2":730.7},"geometry":{"type":"Polygon","coordinates":[[[-58.545249,-34.423906],[-58.545434,-34.423604],[-58.545322,-34.423579],[-58.545236,-34.423536],[-58.545049,-34.423841],[-58.545096,-34.423859],[-58.545249,-34.423906]]]}},{"type":"Feature","properties":{"partida":"357017489","cca":"357000100000000000000071100F00000000088000","tipo":"Urbano","sup_m2":771.0},"geometry":{"type":"Polygon","coordinates":[[[-58.544873,-34.423774],[-58.545049,-34.423841],[-58.545236,-34.423536],[-58.5452,-34.423518],[-58.545136,-34.423465],[-58.545037,-34.423445],[-58.544873,-34.423774]]]}},{"type":"Feature","properties":{"partida":"357017490","cca":"357000100000000000000071100F00000000089000","tipo":"Urbano","sup_m2":728.9},"geometry":{"type":"Polygon","coordinates":[[[-58.544873,-34.423774],[-58.545037,-34.423445],[-58.544994,-34.423436],[-58.544839,-34.423387],[-58.544691,-34.423689],[-58.544795,-34.423745],[-58.544873,-34.423774]]]}},{"type":"Feature","properties":{"partida":"357017491","cca":"357000100000000000000071100F00000000090000","tipo":"Urbano","sup_m2":631.5},"geometry":{"type":"Polygon","coordinates":[[[-58.544632,-34.423346],[-58.544517,-34.423597],[-58.544691,-34.423689],[-58.544839,-34.423387],[-58.544795,-34.423373],[-58.544632,-34.423346]]]}},{"type":"Feature","properties":{"partida":"357017492","cca":"357000100000000000000071100F00000000091000","tipo":"Urbano","sup_m2":1159.8},"geometry":{"type":"Polygon","coordinates":[[[-58.544517,-34.423597],[-58.544632,-34.423346],[-58.544475,-34.423314],[-58.544342,-34.423275],[-58.544224,-34.423246],[-58.544106,-34.423239],[-58.544066,-34.423269],[-58.544062,-34.423319],[-58.544088,-34.42338],[-58.544124,-34.423428],[-58.544209,-34.423452],[-58.544278,-34.423477],[-58.544517,-34.423597]]]}},{"type":"Feature","properties":{"partida":"357017493","cca":"357000100000000000000071200000000000000000","tipo":"Rural","sup_m2":178984.2},"geometry":{"type":"Polygon","coordinates":[[[-58.544198,-34.423683],[-58.543823,-34.423917],[-58.543245,-34.42419],[-58.542951,-34.424217],[-58.543237,-34.424398],[-58.543505,-34.424613],[-58.543692,-34.424893],[-58.544297,-34.42545],[-58.544661,-34.425653],[-58.545945,-34.426014],[-58.546725,-34.426139],[-58.547283,-34.426247],[-58.547891,-34.426406],[-58.548429,-34.42653],[-58.549067,-34.426698],[-58.549585,-34.426797],[-58.550072,-34.426912],[-58.550508,-34.427036],[-58.551104,-34.427239],[-58.551322,-34.427192],[-58.551379,-34.427164],[-58.551417,-34.427074],[-58.551453,-34.427033],[-58.551519,-34.426977],[-58.551547,-34.426984],[-58.551604,-34.427043],[-58.551627,-34.427013],[-58.551595,-34.426983],[-58.551584,-34.42695],[-58.551587,-34.426743],[-58.551609,-34.42665],[-58.551611,-34.42654],[-58.55168,-34.426517],[-58.551685,-34.426471],[-58.551681,-34.426439],[-58.551592,-34.426364],[-58.551636,-34.426043],[-58.55176,-34.42603],[-58.551789,-34.425989],[-58.551762,-34.425963],[-58.551734,-34.425909],[-58.551711,-34.425852],[-58.551701,-34.425775],[-58.551642,-34.425655],[-58.551642,-34.425215],[-58.551655,-34.425141],[-58.551625,-34.425069],[-58.551661,-34.425015],[-58.551691,-34.424945],[-58.55166,-34.424803],[-58.551709,-34.424704],[-58.551647,-34.424584],[-58.551717,-34.424503],[-58.551766,-34.424326],[-58.551796,-34.424252],[-58.551811,-34.424162],[-58.55181,-34.424066],[-58.551897,-34.423964],[-58.551955,-34.423907],[-58.551847,-34.423805],[-58.551786,-34.42375],[-58.551708,-34.42376],[-58.551661,-34.423788],[-58.551621,-34.423818],[-58.551541,-34.423836],[-58.551439,-34.423835],[-58.551335,-34.423854],[-58.551214,-34.423869],[-58.551117,-34.423878],[-58.551049,-34.423907],[-58.550936,-34.423916],[-58.550843,-34.423918],[-58.55071,-34.42394],[-58.550585,-34.423948],[-58.550537,-34.423968],[-58.550471,-34.424017],[-58.550423,-34.424033],[-58.550346,-34.424032],[-58.550274,-34.424038],[-58.550185,-34.424067],[-58.550088,-34.424076],[-58.549938,-34.424151],[-58.549813,-34.424152],[-58.549657,-34.424118],[-58.548725,-34.424303],[-58.54874,-34.424371],[-58.548266,-34.424428],[-58.547663,-34.424492],[-58.547177,-34.424488],[-58.546189,-34.424398],[-58.545528,-34.424219],[-58.544807,-34.424034],[-58.544198,-34.423683]]]}},{"type":"Feature","properties":{"partida":null,"cca":"357000100000000000000071200A00000000001000","tipo":null,"sup_m2":16437.8},"geometry":{"type":"Polygon","coordinates":[[[-58.541786,-34.423138],[-58.542951,-34.424217],[-58.543245,-34.42419],[-58.543823,-34.423917],[-58.544198,-34.423683],[-58.543481,-34.42328],[-58.54322,-34.423082],[-58.542891,-34.422987],[-58.542714,-34.423033],[-58.542436,-34.422981],[-58.542238,-34.423024],[-58.542162,-34.423082],[-58.541868,-34.42306],[-58.541786,-34.423138]]]}},{"type":"Feature","properties":{"partida":"357017494","cca":"357000100000000000000071200A0000000000200A","tipo":"Rural","sup_m2":78926.4},"geometry":{"type":"Polygon","coordinates":[[[-58.542531,-34.43041],[-58.542045,-34.425485],[-58.542065,-34.424918],[-58.542032,-34.42462],[-58.542225,-34.424543],[-58.542951,-34.424217],[-58.541786,-34.423138],[-58.54136,-34.423429],[-58.541293,-34.423687],[-58.541374,-34.423914],[-58.541482,-34.42424],[-58.541561,-34.4247],[-58.541606,-34.425043],[-58.541387,-34.42523],[-58.541325,-34.426536],[-58.541521,-34.426571],[-58.541592,-34.427028],[-58.541222,-34.42717],[-58.541185,-34.427693],[-58.541044,-34.428658],[-58.541097,-34.429644],[-58.54092,-34.429988],[-58.540961,-34.430198],[-58.540899,-34.430772],[-58.540991,-34.431033],[-58.541261,-34.430974],[-58.541378,-34.430786],[-58.541612,-34.43077],[-58.542084,-34.430488],[-58.542531,-34.43041]]]}},{"type":"Feature","properties":{"partida":"357017495","cca":"357000100000000000000071200A0000000000300A","tipo":"Rural","sup_m2":131332.9},"geometry":{"type":"Polygon","coordinates":[[[-58.542951,-34.424217],[-58.542225,-34.424543],[-58.542032,-34.42462],[-58.542065,-34.424918],[-58.542045,-34.425485],[-58.542531,-34.43041],[-58.542848,-34.430316],[-58.543096,-34.430193],[-58.54376,-34.43012],[-58.544306,-34.429917],[-58.544535,-34.429919],[-58.54456,-34.429842],[-58.544495,-34.429645],[-58.544415,-34.429594],[-58.54426,-34.429578],[-58.544196,-34.429388],[-58.543935,-34.429469],[-58.543793,-34.429089],[-58.544009,-34.429027],[-58.544137,-34.428982],[-58.544296,-34.428934],[-58.544407,-34.429242],[-58.544569,-34.429599],[-58.54467,-34.429705],[-58.544862,-34.42977],[-58.54544,-34.429634],[-58.546148,-34.429453],[-58.546876,-34.429247],[-58.547665,-34.429001],[-58.548382,-34.428756],[-58.548383,-34.428687],[-58.54761,-34.428475],[-58.547349,-34.428578],[-58.546749,-34.428747],[-58.546194,-34.4289],[-58.545663,-34.429033],[-58.545269,-34.429141],[-58.544984,-34.429211],[-58.544868,-34.428967],[-58.544826,-34.428818],[-58.544967,-34.42877],[-58.545296,-34.428666],[-58.545655,-34.428587],[-58.546094,-34.428448],[-58.546116,-34.42831],[-58.545333,-34.427999],[-58.545104,-34.428039],[-58.544995,-34.428111],[-58.544957,-34.428226],[-58.544649,-34.42831],[-58.544373,-34.428343],[-58.544197,-34.428393],[-58.544111,-34.428365],[-58.544098,-34.428228],[-58.544127,-34.428023],[-58.543934,-34.427965],[-58.543824,-34.42801],[-58.543547,-34.428078],[-58.54347,-34.428111],[-58.543317,-34.428135],[-58.543246,-34.427925],[-58.54315,-34.427702],[-58.543068,-34.42754],[-58.543038,-34.427426],[-58.542855,-34.4271],[-58.542719,-34.426832],[-58.542639,-34.426658],[-58.542507,-34.426301],[-58.542978,-34.426122],[-58.543779,-34.425904],[-58.544375,-34.425752],[-58.544605,-34.425968],[-58.545264,-34.426676],[-58.545598,-34.427155],[-58.545923,-34.427475],[-58.546428,-34.427653],[-58.545945,-34.426014],[-58.544661,-34.425653],[-58.544297,-34.42545],[-58.543692,-34.424893],[-58.543505,-34.424613],[-58.543237,-34.424398],[-58.542951,-34.424217]]]}},{"type":"Feature","properties":{"partida":null,"cca":"357000100000000000000071200A0000000000400A","tipo":null,"sup_m2":73140.7},"geometry":{"type":"Polygon","coordinates":[[[-58.545945,-34.426014],[-58.546428,-34.427653],[-58.546819,-34.427853],[-58.547135,-34.427971],[-58.547437,-34.428093],[-58.547959,-34.428179],[-58.548433,-34.428345],[-58.548694,-34.428442],[-58.548889,-34.428489],[-58.548983,-34.428538],[-58.549094,-34.428533],[-58.549207,-34.428505],[-58.549256,-34.428459],[-58.549309,-34.4284],[-58.549255,-34.428335],[-58.549299,-34.42829],[-58.549256,-34.428225],[-58.549188,-34.428161],[-58.549442,-34.42804],[-58.549566,-34.428195],[-58.549808,-34.428154],[-58.549894,-34.428098],[-58.549967,-34.428056],[-58.550194,-34.427968],[-58.550283,-34.427938],[-58.550348,-34.427904],[-58.550433,-34.427838],[-58.550478,-34.427822],[-58.550531,-34.427809],[-58.550583,-34.427803],[-58.550661,-34.427737],[-58.550778,-34.427715],[-58.550871,-34.427683],[-58.550929,-34.427655],[-58.550929,-34.427597],[-58.550958,-34.427514],[-58.551024,-34.427438],[-58.551112,-34.427436],[-58.551157,-34.427411],[-58.551199,-34.427317],[-58.551099,-34.427272],[-58.551104,-34.427239],[-58.550508,-34.427036],[-58.550072,-34.426912],[-58.549585,-34.426797],[-58.549067,-34.426698],[-58.548429,-34.42653],[-58.547891,-34.426406],[-58.547283,-34.426247],[-58.546725,-34.426139],[-58.545945,-34.426014]]]}},{"type":"Feature","properties":{"partida":"357017498","cca":"35700010000000000000007130000000000000300A","tipo":"Rural","sup_m2":8623.5},"geometry":{"type":"Polygon","coordinates":[[[-58.536766,-34.416397],[-58.536373,-34.416803],[-58.536435,-34.41686],[-58.536439,-34.417113],[-58.536514,-34.41724],[-58.536703,-34.417313],[-58.536862,-34.417399],[-58.536953,-34.417561],[-58.537126,-34.4176],[-58.537298,-34.417651],[-58.537381,-34.417615],[-58.537428,-34.417485],[-58.53741,-34.417237],[-58.537369,-34.417031],[-58.537297,-34.416769],[-58.537144,-34.416549],[-58.536766,-34.416397]]]}},{"type":"Feature","properties":{"partida":"357019740","cca":"357000100000000000000071300M0000000000600A","tipo":"Rural","sup_m2":64347.4},"geometry":{"type":"Polygon","coordinates":[[[-58.532853,-34.430727],[-58.533206,-34.430943],[-58.533694,-34.431086],[-58.534341,-34.43107],[-58.535215,-34.430883],[-58.535457,-34.430898],[-58.53578,-34.430816],[-58.536155,-34.430712],[-58.536328,-34.430729],[-58.536625,-34.430646],[-58.53714,-34.43048],[-58.537672,-34.43035],[-58.537796,-34.430265],[-58.53797,-34.430238],[-58.538046,-34.430368],[-58.53819,-34.430528],[-58.538561,-34.430684],[-58.538888,-34.430853],[-58.538978,-34.430843],[-58.53919,-34.430725],[-58.539351,-34.430286],[-58.539365,-34.429919],[-58.53935,-34.429405],[-58.539573,-34.429074],[-58.539651,-34.428794],[-58.532853,-34.430727]]]}}]}