{"type":"FeatureCollection","features":[{"type":"Feature","properties":{"partida":"357000840","cca":"357000100000000000000008500B000000000030UU","tipo":"Urbano","sup_m2":849.1},"geometry":{"type":"Polygon","coordinates":[[[-58.651898,-34.27046],[-58.651891,-34.270503],[-58.651856,-34.270622],[-58.652241,-34.270974],[-58.652332,-34.270849],[-58.651898,-34.27046]]]}},{"type":"Feature","properties":{"partida":"357000845","cca":"357000100000000000000008500B000000000030XX","tipo":"Urbano","sup_m2":753.4},"geometry":{"type":"Polygon","coordinates":[[[-58.652332,-34.270849],[-58.652562,-34.270534],[-58.652416,-34.270419],[-58.652184,-34.270717],[-58.652332,-34.270849]]]}},{"type":"Feature","properties":{"partida":"357000838","cca":"357000100000000000000008500B000000000030YY","tipo":"Urbano","sup_m2":1039.3},"geometry":{"type":"Polygon","coordinates":[[[-58.651898,-34.27046],[-58.652035,-34.270583],[-58.652273,-34.270269],[-58.65225,-34.270244],[-58.652223,-34.270204],[-58.652168,-34.270152],[-58.652148,-34.27014],[-58.65203,-34.270133],[-58.65203,-34.270139],[-58.65196,-34.270207],[-58.651944,-34.270226],[-58.651918,-34.270316],[-58.651898,-34.27046]]]}},{"type":"Feature","properties":{"partida":"357017533","cca":"357000100000000000000008500B000000000030ZZ","tipo":"Urbano","sup_m2":795.9},"geometry":{"type":"Polygon","coordinates":[[[-58.652035,-34.270583],[-58.652184,-34.270717],[-58.652416,-34.270419],[-58.652273,-34.270269],[-58.652035,-34.270583]]]}},{"type":"Feature","properties":{"partida":"357001065","cca":"35700010000000000000002660000000000000100A","tipo":"Urbano","sup_m2":776.0},"geometry":{"type":"Polygon","coordinates":[[[-58.650221,-34.26859],[-58.650049,-34.268996],[-58.650288,-34.268979],[-58.650389,-34.268741],[-58.650328,-34.26867],[-58.650221,-34.26859]]]}},{"type":"Feature","properties":{"partida":"357001066","cca":"35700010000000000000002660000000000000100B","tipo":"Urbano","sup_m2":1141.9},"geometry":{"type":"Polygon","coordinates":[[[-58.650039,-34.268464],[-58.649812,-34.269014],[-58.650049,-34.268996],[-58.650221,-34.26859],[-58.650058,-34.268468],[-58.650039,-34.268464]]]}},{"type":"Feature","properties":{"partida":"357001067","cca":"35700010000000000000002660000000000000100C","tipo":"Urbano","sup_m2":1319.3},"geometry":{"type":"Polygon","coordinates":[[[-58.64983,-34.268426],[-58.649583,-34.269031],[-58.649812,-34.269014],[-58.650039,-34.268464],[-58.64983,-34.268426]]]}},{"type":"Feature","properties":{"partida":"357001068","cca":"35700010000000000000002660000000000000100D","tipo":"Urbano","sup_m2":1425.7},"geometry":{"type":"Polygon","coordinates":[[[-58.649594,-34.268447],[-58.649346,-34.269049],[-58.649583,-34.269031],[-58.64983,-34.268426],[-58.64978,-34.268417],[-58.649594,-34.268447]]]}},{"type":"Feature","properties":{"partida":"357001069","cca":"35700010000000000000002660000000000000100E","tipo":"Urbano","sup_m2":1430.5},"geometry":{"type":"Polygon","coordinates":[[[-58.649086,-34.269068],[-58.649346,-34.269049],[-58.649594,-34.268447],[-58.649511,-34.26846],[-58.649328,-34.268526],[-58.649086,-34.269068]]]}},{"type":"Feature","properties":{"partida":"357001070","cca":"35700010000000000000002660000000000000100F","tipo":"Urbano","sup_m2":2000.7},"geometry":{"type":"Polygon","coordinates":[[[-58.648942,-34.268667],[-58.64872,-34.269246],[-58.649017,-34.269222],[-58.649328,-34.268526],[-58.648942,-34.268667]]]}},{"type":"Feature","properties":{"partida":"357001071","cca":"35700010000000000000002660000000000000100G","tipo":"Urbano","sup_m2":1447.7},"geometry":{"type":"Polygon","coordinates":[[[-58.6484,-34.269011],[-58.648296,-34.26928],[-58.64872,-34.269246],[-58.648942,-34.268667],[-58.648876,-34.26869],[-58.648772,-34.268917],[-58.6484,-34.269011]]]}},{"type":"Feature","properties":{"partida":"357001072","cca":"35700010000000000000002660000000000000100H","tipo":"Urbano","sup_m2":1421.2},"geometry":{"type":"Polygon","coordinates":[[[-58.64817,-34.269606],[-58.648692,-34.269563],[-58.648657,-34.269251],[-58.648296,-34.26928],[-58.64817,-34.269606]]]}},{"type":"Feature","properties":{"partida":"357001073","cca":"35700010000000000000002660000000000000100J","tipo":"Urbano","sup_m2":1155.0},"geometry":{"type":"Polygon","coordinates":[[[-58.649017,-34.269222],[-58.648657,-34.269251],[-58.648692,-34.269563],[-58.649051,-34.269533],[-58.649017,-34.269222]]]}},{"type":"Feature","properties":{"partida":"357001074","cca":"35700010000000000000002660000000000000100K","tipo":"Urbano","sup_m2":982.1},"geometry":{"type":"Polygon","coordinates":[[[-58.649272,-34.269515],[-58.649224,-34.269058],[-58.649086,-34.269068],[-58.649017,-34.269222],[-58.649051,-34.269533],[-58.649272,-34.269515]]]}},{"type":"Feature","properties":{"partida":"357001075","cca":"35700010000000000000002660000000000000100M","tipo":"Urbano","sup_m2":1039.1},"geometry":{"type":"Polygon","coordinates":[[[-58.649493,-34.269497],[-58.649445,-34.269041],[-58.649224,-34.269058],[-58.649272,-34.269515],[-58.649493,-34.269497]]]}},{"type":"Feature","properties":{"partida":"357001076","cca":"35700010000000000000002660000000000000100N","tipo":"Urbano","sup_m2":1041.1},"geometry":{"type":"Polygon","coordinates":[[[-58.649714,-34.269478],[-58.649669,-34.269025],[-58.649445,-34.269041],[-58.649493,-34.269497],[-58.649714,-34.269478]]]}},{"type":"Feature","properties":{"partida":"357001077","cca":"35700010000000000000002660000000000000100P","tipo":"Urbano","sup_m2":1040.7},"geometry":{"type":"Polygon","coordinates":[[[-58.649938,-34.26946],[-58.649891,-34.269008],[-58.649669,-34.269025],[-58.649714,-34.269478],[-58.649938,-34.26946]]]}},{"type":"Feature","properties":{"partida":"357001078","cca":"35700010000000000000002660000000000000100Q","tipo":"Urbano","sup_m2":1008.1},"geometry":{"type":"Polygon","coordinates":[[[-58.650108,-34.268992],[-58.649891,-34.269008],[-58.649938,-34.26946],[-58.650155,-34.269442],[-58.650108,-34.268992]]]}},{"type":"Feature","properties":{"partida":"357001079","cca":"35700010000000000000002660000000000000100R","tipo":"Urbano","sup_m2":1026.0},"geometry":{"type":"Polygon","coordinates":[[[-58.650341,-34.269066],[-58.650288,-34.268979],[-58.650108,-34.268992],[-58.650155,-34.269442],[-58.650385,-34.269423],[-58.650341,-34.269066]]]}},{"type":"Feature","properties":{"partida":"357001080","cca":"35700010000000000000002660000000000000100S","tipo":"Urbano","sup_m2":991.3},"geometry":{"type":"Polygon","coordinates":[[[-58.65061,-34.269043],[-58.650341,-34.269066],[-58.650385,-34.269423],[-58.650653,-34.269401],[-58.65061,-34.269043]]]}},{"type":"Feature","properties":{"partida":"357001081","cca":"35700010000000000000002660000000000000100T","tipo":"Urbano","sup_m2":714.4},"geometry":{"type":"Polygon","coordinates":[[[-58.650632,-34.269226],[-58.650653,-34.269401],[-58.651126,-34.269362],[-58.651038,-34.269276],[-58.650932,-34.269199],[-58.650632,-34.269226]]]}},{"type":"Feature","properties":{"partida":"357001082","cca":"35700010000000000000002660000000000000100U","tipo":"Urbano","sup_m2":372.5},"geometry":{"type":"Polygon","coordinates":[[[-58.650706,-34.269036],[-58.65061,-34.269043],[-58.650632,-34.269226],[-58.650932,-34.269199],[-58.650706,-34.269036]]]}},{"type":"Feature","properties":{"partida":"357001083","cca":"35700010000000000000002660000000000000100V","tipo":"Urbano","sup_m2":349.9},"geometry":{"type":"Polygon","coordinates":[[[-58.65052,-34.268895],[-58.650314,-34.269022],[-58.650341,-34.269066],[-58.650706,-34.269036],[-58.650531,-34.268907],[-58.65052,-34.268895]]]}},{"type":"Feature","properties":{"partida":"357001084","cca":"35700010000000000000002660000000000000100Y","tipo":"Urbano","sup_m2":301.8},"geometry":{"type":"Polygon","coordinates":[[[-58.650314,-34.269022],[-58.65052,-34.268895],[-58.650389,-34.268741],[-58.650288,-34.268979],[-58.650314,-34.269022]]]}},{"type":"Feature","properties":{"partida":"357001085","cca":"35700010000000000000002660000000000000200A","tipo":"Urbano","sup_m2":613.6},"geometry":{"type":"Polygon","coordinates":[[[-58.651036,-34.269552],[-58.651057,-34.269738],[-58.65143,-34.269706],[-58.651331,-34.269564],[-58.651297,-34.269531],[-58.651036,-34.269552]]]}},{"type":"Feature","properties":{"partida":"357001086","cca":"35700010000000000000002660000000000000200B","tipo":"Urbano","sup_m2":1041.1},"geometry":{"type":"Polygon","coordinates":[[[-58.651077,-34.269924],[-58.651036,-34.269552],[-58.650765,-34.269574],[-58.650804,-34.269946],[-58.651077,-34.269924]]]}},{"type":"Feature","properties":{"partida":"357001087","cca":"35700010000000000000002660000000000000200C","tipo":"Urbano","sup_m2":1035.8},"geometry":{"type":"Polygon","coordinates":[[[-58.650493,-34.269596],[-58.650535,-34.269967],[-58.650804,-34.269946],[-58.650765,-34.269574],[-58.650493,-34.269596]]]}},{"type":"Feature","properties":{"partida":"357001088","cca":"35700010000000000000002660000000000000200D","tipo":"Urbano","sup_m2":1044.9},"geometry":{"type":"Polygon","coordinates":[[[-58.650216,-34.269619],[-58.650266,-34.269989],[-58.650535,-34.269967],[-58.650493,-34.269596],[-58.650216,-34.269619]]]}},{"type":"Feature","properties":{"partida":"357001089","cca":"35700010000000000000002660000000000000200E","tipo":"Urbano","sup_m2":1036.9},"geometry":{"type":"Polygon","coordinates":[[[-58.649993,-34.270011],[-58.650266,-34.269989],[-58.650216,-34.269619],[-58.649946,-34.269641],[-58.649993,-34.270011]]]}},{"type":"Feature","properties":{"partida":"357001090","cca":"35700010000000000000002660000000000000200F","tipo":"Urbano","sup_m2":1056.1},"geometry":{"type":"Polygon","coordinates":[[[-58.649673,-34.269663],[-58.649712,-34.270033],[-58.649993,-34.270011],[-58.649946,-34.269641],[-58.649673,-34.269663]]]}},{"type":"Feature","properties":{"partida":"357001091","cca":"35700010000000000000002660000000000000200G","tipo":"Urbano","sup_m2":1027.3},"geometry":{"type":"Polygon","coordinates":[[[-58.649403,-34.269685],[-58.649444,-34.270054],[-58.649712,-34.270033],[-58.649673,-34.269663],[-58.649403,-34.269685]]]}},{"type":"Feature","properties":{"partida":"357001092","cca":"35700010000000000000002660000000000000200H","tipo":"Urbano","sup_m2":1036.9},"geometry":{"type":"Polygon","coordinates":[[[-58.649123,-34.269708],[-58.649179,-34.270075],[-58.649444,-34.270054],[-58.649403,-34.269685],[-58.649123,-34.269708]]]}},{"type":"Feature","properties":{"partida":"357001093","cca":"35700010000000000000002660000000000000200J","tipo":"Urbano","sup_m2":1037.0},"geometry":{"type":"Polygon","coordinates":[[[-58.648855,-34.269729],[-58.648902,-34.270098],[-58.649179,-34.270075],[-58.649123,-34.269708],[-58.648855,-34.269729]]]}},{"type":"Feature","properties":{"partida":"357001094","cca":"35700010000000000000002660000000000000200K","tipo":"Urbano","sup_m2":1016.1},"geometry":{"type":"Polygon","coordinates":[[[-58.648586,-34.269751],[-58.648636,-34.270119],[-58.648902,-34.270098],[-58.648855,-34.269729],[-58.648586,-34.269751]]]}},{"type":"Feature","properties":{"partida":"357001095","cca":"35700010000000000000002660000000000000200M","tipo":"Urbano","sup_m2":1034.7},"geometry":{"type":"Polygon","coordinates":[[[-58.648315,-34.269773],[-58.648362,-34.270141],[-58.648636,-34.270119],[-58.648586,-34.269751],[-58.648315,-34.269773]]]}},{"type":"Feature","properties":{"partida":"357001096","cca":"35700010000000000000002660000000000000200N","tipo":"Urbano","sup_m2":1189.5},"geometry":{"type":"Polygon","coordinates":[[[-58.647951,-34.270174],[-58.648362,-34.270141],[-58.648315,-34.269773],[-58.648099,-34.269791],[-58.647951,-34.270174]]]}},{"type":"Feature","properties":{"partida":"357001097","cca":"35700010000000000000002660000000000000200P","tipo":"Urbano","sup_m2":791.4},"geometry":{"type":"Polygon","coordinates":[[[-58.651527,-34.269881],[-58.65149,-34.269793],[-58.65143,-34.269706],[-58.651057,-34.269738],[-58.651077,-34.269924],[-58.651527,-34.269881]]]}},{"type":"Feature","properties":{"partida":"357001098","cca":"357000100000000000000026600000000000003000","tipo":"Rural","sup_m2":735.4},"geometry":{"type":"Polygon","coordinates":[[[-58.64848,-34.268802],[-58.6484,-34.269011],[-58.648772,-34.268917],[-58.648876,-34.26869],[-58.648744,-34.268738],[-58.64848,-34.268802]]]}},{"type":"Feature","properties":{"partida":"357001099","cca":"35700010000000000000002660000000000000400A","tipo":"Urbano","sup_m2":5191.5},"geometry":{"type":"Polygon","coordinates":[[[-58.647317,-34.271814],[-58.64848,-34.268802],[-58.648291,-34.268848],[-58.647109,-34.271935],[-58.647317,-34.271814]]]}},{"type":"Feature","properties":{"partida":"357001100","cca":"35700010000000000000002660000000000000400B","tipo":"Urbano","sup_m2":5551.8},"geometry":{"type":"Polygon","coordinates":[[[-58.648291,-34.268848],[-58.648258,-34.268857],[-58.648084,-34.268881],[-58.646916,-34.272038],[-58.647109,-34.271935],[-58.648291,-34.268848]]]}},{"type":"Feature","properties":{"partida":"357001101","cca":"35700010000000000000002660000000000000400C","tipo":"Urbano","sup_m2":8590.5},"geometry":{"type":"Polygon","coordinates":[[[-58.647791,-34.268921],[-58.646614,-34.2722],[-58.646916,-34.272038],[-58.648084,-34.268881],[-58.647791,-34.268921]]]}},{"type":"Feature","properties":{"partida":"357001102","cca":"35700010000000000000002660000000000000400D","tipo":"Urbano","sup_m2":9584.2},"geometry":{"type":"Polygon","coordinates":[[[-58.646614,-34.2722],[-58.647791,-34.268921],[-58.647469,-34.268961],[-58.646297,-34.272384],[-58.646614,-34.2722]]]}},{"type":"Feature","properties":{"partida":"357001103","cca":"357000100000000000000026600000000000005000","tipo":"Urbano","sup_m2":31893.2},"geometry":{"type":"Polygon","coordinates":[[[-58.647469,-34.268961],[-58.646795,-34.269137],[-58.646448,-34.269261],[-58.645299,-34.272674],[-58.646297,-34.272384],[-58.647469,-34.268961]]]}},{"type":"Feature","properties":{"partida":"357001106","cca":"357000100000000000000026600000000000008000","tipo":"Rural","sup_m2":20203.4},"geometry":{"type":"Polygon","coordinates":[[[-58.647951,-34.270174],[-58.64775,-34.270695],[-58.65163,-34.270426],[-58.65164,-34.270339],[-58.651615,-34.270093],[-58.651527,-34.269881],[-58.651077,-34.269924],[-58.647951,-34.270174]]]}}]}