{"type":"FeatureCollection","features":[{"type":"Feature","properties":{"partida":"357000778","cca":"357000100000000000000008500B0000000000100A","tipo":"Urbano","sup_m2":11561.2},"geometry":{"type":"Polygon","coordinates":[[[-58.653391,-34.275972],[-58.653216,-34.276821],[-58.655341,-34.276941],[-58.655268,-34.276658],[-58.654525,-34.276413],[-58.654357,-34.276341],[-58.653391,-34.275972]]]}},{"type":"Feature","properties":{"partida":"357000780","cca":"357000100000000000000008500B0000000000100B","tipo":"Urbano","sup_m2":5114.4},"geometry":{"type":"Polygon","coordinates":[[[-58.655341,-34.276941],[-58.653216,-34.276821],[-58.653169,-34.277049],[-58.655393,-34.277173],[-58.655361,-34.277016],[-58.655341,-34.276941]]]}},{"type":"Feature","properties":{"partida":"357000781","cca":"357000100000000000000008500B0000000000100C","tipo":"Urbano","sup_m2":5071.2},"geometry":{"type":"Polygon","coordinates":[[[-58.653169,-34.277049],[-58.653125,-34.277263],[-58.65544,-34.277396],[-58.655393,-34.277173],[-58.653169,-34.277049]]]}},{"type":"Feature","properties":{"partida":"357000782","cca":"357000100000000000000008500B0000000000100D","tipo":"Urbano","sup_m2":5912.0},"geometry":{"type":"Polygon","coordinates":[[[-58.65544,-34.277396],[-58.653125,-34.277263],[-58.653074,-34.277506],[-58.655509,-34.277642],[-58.655471,-34.277546],[-58.65544,-34.277396]]]}},{"type":"Feature","properties":{"partida":"357000783","cca":"357000100000000000000008500B0000000000100E","tipo":"Urbano","sup_m2":6230.6},"geometry":{"type":"Polygon","coordinates":[[[-58.653074,-34.277506],[-58.653025,-34.277747],[-58.655605,-34.277891],[-58.655509,-34.277642],[-58.653074,-34.277506]]]}},{"type":"Feature","properties":{"partida":"357000784","cca":"357000100000000000000008500B0000000000100F","tipo":"Urbano","sup_m2":6632.7},"geometry":{"type":"Polygon","coordinates":[[[-58.655605,-34.277891],[-58.653025,-34.277747],[-58.652975,-34.277986],[-58.655702,-34.278143],[-58.655605,-34.277891]]]}},{"type":"Feature","properties":{"partida":"357000785","cca":"357000100000000000000008500B0000000000100G","tipo":"Urbano","sup_m2":7170.6},"geometry":{"type":"Polygon","coordinates":[[[-58.655702,-34.278143],[-58.652975,-34.277986],[-58.652944,-34.278138],[-58.653163,-34.27813],[-58.653301,-34.27829],[-58.655603,-34.278381],[-58.655784,-34.278392],[-58.655763,-34.278322],[-58.655702,-34.278143]]]}},{"type":"Feature","properties":{"partida":"357000786","cca":"357000100000000000000008500B0000000000100H","tipo":"Urbano","sup_m2":6192.3},"geometry":{"type":"Polygon","coordinates":[[[-58.653265,-34.278503],[-58.655702,-34.278647],[-58.655861,-34.278656],[-58.655784,-34.278392],[-58.655603,-34.278381],[-58.653301,-34.27829],[-58.653265,-34.278503]]]}},{"type":"Feature","properties":{"partida":"357000787","cca":"357000100000000000000008500B0000000000100I","tipo":"Urbano","sup_m2":6940.4},"geometry":{"type":"Polygon","coordinates":[[[-58.653223,-34.278756],[-58.655801,-34.278909],[-58.655938,-34.278917],[-58.655861,-34.278656],[-58.653265,-34.278503],[-58.653223,-34.278756]]]}},{"type":"Feature","properties":{"partida":"357000788","cca":"357000100000000000000008500B0000000000100J","tipo":"Urbano","sup_m2":7213.0},"geometry":{"type":"Polygon","coordinates":[[[-58.656028,-34.279172],[-58.65596,-34.278992],[-58.655938,-34.278917],[-58.653223,-34.278756],[-58.65318,-34.279011],[-58.656028,-34.279172]]]}},{"type":"Feature","properties":{"partida":"357000789","cca":"357000100000000000000008500B0000000000100K","tipo":"Urbano","sup_m2":8044.3},"geometry":{"type":"Polygon","coordinates":[[[-58.653135,-34.279279],[-58.656048,-34.279441],[-58.65613,-34.279446],[-58.656028,-34.279172],[-58.65318,-34.279011],[-58.653135,-34.279279]]]}},{"type":"Feature","properties":{"partida":"357000790","cca":"357000100000000000000008500B0000000000100M","tipo":"Urbano","sup_m2":8316.4},"geometry":{"type":"Polygon","coordinates":[[[-58.656247,-34.279717],[-58.65613,-34.279446],[-58.653135,-34.279279],[-58.653091,-34.279542],[-58.656247,-34.279717]]]}},{"type":"Feature","properties":{"partida":"357000791","cca":"357000100000000000000008500B0000000000100N","tipo":"Urbano","sup_m2":8923.0},"geometry":{"type":"Polygon","coordinates":[[[-58.653046,-34.279814],[-58.656308,-34.279985],[-58.656365,-34.279988],[-58.656247,-34.279717],[-58.653091,-34.279542],[-58.653046,-34.279814]]]}},{"type":"Feature","properties":{"partida":"357000792","cca":"357000100000000000000008500B0000000000100P","tipo":"Urbano","sup_m2":9033.0},"geometry":{"type":"Polygon","coordinates":[[[-58.656462,-34.280257],[-58.656434,-34.280147],[-58.656365,-34.279988],[-58.653046,-34.279814],[-58.653003,-34.280069],[-58.656462,-34.280257]]]}},{"type":"Feature","properties":{"partida":"357000793","cca":"357000100000000000000008500B0000000000100R","tipo":"Urbano","sup_m2":9761.1},"geometry":{"type":"Polygon","coordinates":[[[-58.656462,-34.280257],[-58.653003,-34.280069],[-58.652958,-34.280336],[-58.656533,-34.280534],[-58.656462,-34.280257]]]}},{"type":"Feature","properties":{"partida":"357000794","cca":"357000100000000000000008500B0000000000100S","tipo":"Urbano","sup_m2":9295.2},"geometry":{"type":"Polygon","coordinates":[[[-58.656587,-34.280788],[-58.656554,-34.280685],[-58.656561,-34.280644],[-58.656537,-34.28055],[-58.652956,-34.280352],[-58.652912,-34.280616],[-58.656587,-34.280788]]]}},{"type":"Feature","properties":{"partida":"357000795","cca":"357000100000000000000008500B0000000000100T","tipo":"Urbano","sup_m2":10020.4},"geometry":{"type":"Polygon","coordinates":[[[-58.656587,-34.280788],[-58.652912,-34.280616],[-58.652866,-34.280889],[-58.656652,-34.281042],[-58.656593,-34.280834],[-58.656587,-34.280788]]]}},{"type":"Feature","properties":{"partida":"357000796","cca":"357000100000000000000008500B0000000000100U","tipo":"Urbano","sup_m2":9693.1},"geometry":{"type":"Polygon","coordinates":[[[-58.656652,-34.281042],[-58.652866,-34.280889],[-58.652821,-34.281159],[-58.656759,-34.281266],[-58.656698,-34.281157],[-58.656658,-34.281064],[-58.656652,-34.281042]]]}},{"type":"Feature","properties":{"partida":"357000777","cca":"357000100000000000000008500B0000000000100V","tipo":"Urbano","sup_m2":7878.3},"geometry":{"type":"Polygon","coordinates":[[[-58.656881,-34.281499],[-58.656873,-34.28148],[-58.656792,-34.281341],[-58.656768,-34.281287],[-58.652818,-34.281177],[-58.652788,-34.281352],[-58.656881,-34.281499]]]}},{"type":"Feature","properties":{"partida":"357000797","cca":"357000100000000000000008500B0000000000100X","tipo":"Urbano","sup_m2":8727.1},"geometry":{"type":"Polygon","coordinates":[[[-58.656984,-34.281732],[-58.656975,-34.281699],[-58.656881,-34.281499],[-58.652788,-34.281352],[-58.652758,-34.281532],[-58.656984,-34.281732]]]}},{"type":"Feature","properties":{"partida":"357000798","cca":"357000100000000000000008500B0000000000100Y","tipo":"Urbano","sup_m2":9918.5},"geometry":{"type":"Polygon","coordinates":[[[-58.653604,-34.281784],[-58.65705,-34.28199],[-58.657031,-34.281932],[-58.657025,-34.281887],[-58.656984,-34.281732],[-58.652758,-34.281532],[-58.652726,-34.281722],[-58.653604,-34.281784]]]}},{"type":"Feature","properties":{"partida":"357000799","cca":"357000100000000000000008500B0000000000100Z","tipo":"Urbano","sup_m2":9394.7},"geometry":{"type":"Polygon","coordinates":[[[-58.653604,-34.281784],[-58.652726,-34.281722],[-58.652689,-34.281942],[-58.657075,-34.282232],[-58.657084,-34.282097],[-58.657056,-34.28201],[-58.653653,-34.28181],[-58.653604,-34.281784]]]}},{"type":"Feature","properties":{"partida":"357000779","cca":"357000100000000000000008500B000000000010AA","tipo":"Urbano","sup_m2":10714.6},"geometry":{"type":"Polygon","coordinates":[[[-58.657075,-34.282232],[-58.652689,-34.281942],[-58.652646,-34.282202],[-58.65706,-34.282445],[-58.657075,-34.282232]]]}},{"type":"Feature","properties":{"partida":"357000800","cca":"357000100000000000000008500B0000000000200A","tipo":"Urbano","sup_m2":8560.0},"geometry":{"type":"Polygon","coordinates":[[[-58.649482,-34.279444],[-58.649398,-34.279322],[-58.649307,-34.279201],[-58.649185,-34.27899],[-58.649142,-34.278851],[-58.649114,-34.278728],[-58.6491,-34.27865],[-58.649087,-34.278618],[-58.64907,-34.27846],[-58.649033,-34.278374],[-58.649001,-34.278329],[-58.648958,-34.278314],[-58.648876,-34.278337],[-58.648677,-34.278425],[-58.648587,-34.278462],[-58.648501,-34.278507],[-58.648237,-34.27856],[-58.648263,-34.278724],[-58.648269,-34.278955],[-58.648154,-34.279203],[-58.649376,-34.279427],[-58.649482,-34.279444]]]}},{"type":"Feature","properties":{"partida":"357000801","cca":"357000100000000000000008500B0000000000200B","tipo":"Urbano","sup_m2":4863.0},"geometry":{"type":"Polygon","coordinates":[[[-58.648154,-34.279203],[-58.647998,-34.279364],[-58.647896,-34.279484],[-58.649613,-34.27975],[-58.6497,-34.279755],[-58.649482,-34.279444],[-58.649376,-34.279427],[-58.648154,-34.279203]]]}},{"type":"Feature","properties":{"partida":"357000802","cca":"357000100000000000000008500B0000000000200C","tipo":"Urbano","sup_m2":4681.6},"geometry":{"type":"Polygon","coordinates":[[[-58.64781,-34.279713],[-58.649781,-34.280001],[-58.64989,-34.280019],[-58.6497,-34.279755],[-58.649613,-34.27975],[-58.647896,-34.279484],[-58.647842,-34.279546],[-58.64781,-34.279713]]]}},{"type":"Feature","properties":{"partida":"357000803","cca":"357000100000000000000008500B0000000000200D","tipo":"Urbano","sup_m2":5025.8},"geometry":{"type":"Polygon","coordinates":[[[-58.64989,-34.280019],[-58.649781,-34.280001],[-58.64781,-34.279713],[-58.647807,-34.27993],[-58.650058,-34.280269],[-58.650092,-34.280143],[-58.650039,-34.280118],[-58.64994,-34.280081],[-58.64991,-34.280061],[-58.64989,-34.280019]]]}},{"type":"Feature","properties":{"partida":"357000804","cca":"357000100000000000000008500B0000000000200E","tipo":"Urbano","sup_m2":5157.8},"geometry":{"type":"Polygon","coordinates":[[[-58.647807,-34.27993],[-58.647805,-34.280054],[-58.647788,-34.280154],[-58.650007,-34.280486],[-58.650058,-34.280269],[-58.647807,-34.27993]]]}},{"type":"Feature","properties":{"partida":"357000805","cca":"357000100000000000000008500B0000000000200F","tipo":"Urbano","sup_m2":5035.6},"geometry":{"type":"Polygon","coordinates":[[[-58.647788,-34.280154],[-58.647768,-34.280273],[-58.64773,-34.280362],[-58.649955,-34.280706],[-58.650007,-34.280486],[-58.647788,-34.280154]]]}},{"type":"Feature","properties":{"partida":"357000806","cca":"357000100000000000000008500B0000000000200G","tipo":"Urbano","sup_m2":4996.4},"geometry":{"type":"Polygon","coordinates":[[[-58.64773,-34.280362],[-58.647673,-34.280495],[-58.647653,-34.280572],[-58.649906,-34.280914],[-58.649955,-34.280706],[-58.64773,-34.280362]]]}},{"type":"Feature","properties":{"partida":"357000807","cca":"357000100000000000000008500B0000000000200H","tipo":"Urbano","sup_m2":4926.0},"geometry":{"type":"Polygon","coordinates":[[[-58.647653,-34.280572],[-58.647632,-34.28065],[-58.647627,-34.280782],[-58.649857,-34.281121],[-58.649906,-34.280914],[-58.647653,-34.280572]]]}},{"type":"Feature","properties":{"partida":"357000808","cca":"357000100000000000000008500B0000000000200I","tipo":"Urbano","sup_m2":4937.1},"geometry":{"type":"Polygon","coordinates":[[[-58.647602,-34.281],[-58.649808,-34.281328],[-58.649857,-34.281121],[-58.647627,-34.280782],[-58.647624,-34.280851],[-58.647602,-34.281]]]}},{"type":"Feature","properties":{"partida":"357000809","cca":"357000100000000000000008500B0000000000200J","tipo":"Urbano","sup_m2":5673.5},"geometry":{"type":"Polygon","coordinates":[[[-58.647602,-34.281],[-58.647576,-34.281173],[-58.647553,-34.28123],[-58.649747,-34.281587],[-58.649808,-34.281328],[-58.647602,-34.281]]]}},{"type":"Feature","properties":{"partida":"357000811","cca":"357000100000000000000008500B0000000000300B","tipo":"Urbano","sup_m2":3031.1},"geometry":{"type":"Polygon","coordinates":[[[-58.651731,-34.270982],[-58.651612,-34.271183],[-58.651592,-34.271206],[-58.652786,-34.272098],[-58.652861,-34.271984],[-58.651731,-34.270982]]]}},{"type":"Feature","properties":{"partida":"357000813","cca":"357000100000000000000008500B0000000000300C","tipo":"Urbano","sup_m2":3046.6},"geometry":{"type":"Polygon","coordinates":[[[-58.652717,-34.272202],[-58.652786,-34.272098],[-58.651592,-34.271206],[-58.651416,-34.271414],[-58.652717,-34.272202]]]}},{"type":"Feature","properties":{"partida":"357000815","cca":"357000100000000000000008500B0000000000300D","tipo":"Rural","sup_m2":3104.8},"geometry":{"type":"Polygon","coordinates":[[[-58.651416,-34.271414],[-58.651244,-34.271636],[-58.652652,-34.272302],[-58.652717,-34.272202],[-58.651416,-34.271414]]]}},{"type":"Feature","properties":{"partida":"357000817","cca":"357000100000000000000008500B0000000000300E","tipo":"Urbano","sup_m2":4371.0},"geometry":{"type":"Polygon","coordinates":[[[-58.652586,-34.272401],[-58.652652,-34.272302],[-58.651244,-34.271636],[-58.6511,-34.271825],[-58.65149,-34.272183],[-58.652586,-34.272401]]]}},{"type":"Feature","properties":{"partida":"357000819","cca":"357000100000000000000008500B0000000000300F","tipo":"Urbano","sup_m2":4665.3},"geometry":{"type":"Polygon","coordinates":[[[-58.652379,-34.272715],[-58.652586,-34.272401],[-58.65149,-34.272183],[-58.6511,-34.271825],[-58.650853,-34.272149],[-58.652379,-34.272715]]]}},{"type":"Feature","properties":{"partida":"357000821","cca":"357000100000000000000008500B0000000000300G","tipo":"Urbano","sup_m2":6522.7},"geometry":{"type":"Polygon","coordinates":[[[-58.650853,-34.272149],[-58.650838,-34.272169],[-58.650708,-34.272378],[-58.652965,-34.273216],[-58.653107,-34.272985],[-58.650853,-34.272149]]]}},{"type":"Feature","properties":{"partida":"357000823","cca":"357000100000000000000008500B0000000000300H","tipo":"Urbano","sup_m2":6404.6},"geometry":{"type":"Polygon","coordinates":[[[-58.650578,-34.272609],[-58.652827,-34.273441],[-58.652965,-34.273216],[-58.650708,-34.272378],[-58.650612,-34.272534],[-58.650578,-34.272609]]]}},{"type":"Feature","properties":{"partida":"357000825","cca":"357000100000000000000008500B0000000000300J","tipo":"Urbano","sup_m2":6368.7},"geometry":{"type":"Polygon","coordinates":[[[-58.650578,-34.272609],[-58.650536,-34.2727],[-58.650437,-34.272834],[-58.652688,-34.273668],[-58.652827,-34.273441],[-58.650578,-34.272609]]]}},{"type":"Feature","properties":{"partida":"357000827","cca":"357000100000000000000008500B0000000000300K","tipo":"Urbano","sup_m2":6127.2},"geometry":{"type":"Polygon","coordinates":[[[-58.652688,-34.273668],[-58.650437,-34.272834],[-58.650291,-34.273031],[-58.652548,-34.273895],[-58.652688,-34.273668]]]}},{"type":"Feature","properties":{"partida":"357000830","cca":"357000100000000000000008500B0000000000300M","tipo":"Urbano","sup_m2":5878.5},"geometry":{"type":"Polygon","coordinates":[[[-58.650232,-34.273547],[-58.652258,-34.274368],[-58.652406,-34.274118],[-58.651368,-34.273723],[-58.651335,-34.273725],[-58.650231,-34.273306],[-58.650232,-34.273547]]]}},{"type":"Feature","properties":{"partida":"357000831","cca":"357000100000000000000008500B0000000000300N","tipo":"Urbano","sup_m2":6228.9},"geometry":{"type":"Polygon","coordinates":[[[-58.650291,-34.273031],[-58.650231,-34.273111],[-58.650231,-34.273276],[-58.651349,-34.273702],[-58.651368,-34.273723],[-58.652406,-34.274118],[-58.652447,-34.274059],[-58.652548,-34.273895],[-58.650291,-34.273031]]]}},{"type":"Feature","properties":{"partida":"357000833","cca":"357000100000000000000008500B0000000000300P","tipo":"Urbano","sup_m2":5454.4},"geometry":{"type":"Polygon","coordinates":[[[-58.650232,-34.273547],[-58.650232,-34.273643],[-58.650219,-34.273802],[-58.650956,-34.274101],[-58.650987,-34.274129],[-58.652123,-34.274594],[-58.652258,-34.274368],[-58.650232,-34.273547]]]}},{"type":"Feature","properties":{"partida":"357000835","cca":"357000100000000000000008500B0000000000300R","tipo":"Urbano","sup_m2":6808.1},"geometry":{"type":"Polygon","coordinates":[[[-58.650164,-34.274151],[-58.650282,-34.274198],[-58.651928,-34.274894],[-58.652123,-34.274594],[-58.650987,-34.274129],[-58.650944,-34.274123],[-58.650214,-34.27383],[-58.650164,-34.274151]]]}},{"type":"Feature","properties":{"partida":"357000839","cca":"357000100000000000000008500B0000000000300U","tipo":"Urbano","sup_m2":142390.2},"geometry":{"type":"MultiPolygon","coordinates":[[[[-58.648394,-34.276923],[-58.64838,-34.276943],[-58.648243,-34.277229],[-58.64812,-34.277606],[-58.648152,-34.277785],[-58.648129,-34.278094],[-58.648172,-34.278388],[-58.648217,-34.278506],[-58.648566,-34.27841],[-58.648652,-34.278364],[-58.648742,-34.278327],[-58.648941,-34.27824],[-58.649024,-34.278216],[-58.649066,-34.278231],[-58.649098,-34.278276],[-58.649135,-34.278362],[-58.649153,-34.27852],[-58.649165,-34.278553],[-58.649179,-34.27863],[-58.649207,-34.278754],[-58.64925,-34.278893],[-58.649373,-34.279103],[-58.649463,-34.279224],[-58.649559,-34.279392],[-58.649776,-34.279703],[-58.649967,-34.279967],[-58.649987,-34.280009],[-58.650017,-34.280029],[-58.650115,-34.280066],[-58.650169,-34.280091],[-58.650409,-34.280257],[-58.65076,-34.280374],[-58.651066,-34.280623],[-58.651458,-34.280879],[-58.651722,-34.281061],[-58.651778,-34.281181],[-58.652006,-34.281375],[-58.652183,-34.281539],[-58.65221,-34.281641],[-58.652331,-34.281744],[-58.652435,-34.281924],[-58.652512,-34.282028],[-58.652551,-34.282101],[-58.652646,-34.282202],[-58.653301,-34.27829],[-58.653163,-34.27813],[-58.652944,-34.278138],[-58.650145,-34.278144],[-58.649525,-34.277427],[-58.648394,-34.276923]]],[[[-58.650092,-34.280143],[-58.650058,-34.280269],[-58.64974,-34.281611],[-58.652476,-34.282059],[-58.652362,-34.281919],[-58.652255,-34.281796],[-58.652157,-34.281697],[-58.652107,-34.281591],[-58.651929,-34.281427],[-58.651701,-34.281234],[-58.651646,-34.281113],[-58.651382,-34.280931],[-58.650989,-34.280675],[-58.650683,-34.280427],[-58.650332,-34.280309],[-58.650092,-34.280143]]]]}},{"type":"Feature","properties":{"partida":"357000841","cca":"357000100000000000000008500B0000000000300V","tipo":"Urbano","sup_m2":2112.1},"geometry":{"type":"Polygon","coordinates":[[[-58.652562,-34.270534],[-58.652037,-34.271254],[-58.652219,-34.271415],[-58.652698,-34.270752],[-58.652596,-34.27056],[-58.652562,-34.270534]]]}},{"type":"Feature","properties":{"partida":"357000843","cca":"357000100000000000000008500B0000000000300W","tipo":"Urbano","sup_m2":1898.2},"geometry":{"type":"Polygon","coordinates":[[[-58.652817,-34.270994],[-58.652787,-34.270917],[-58.652698,-34.270752],[-58.652219,-34.271415],[-58.652403,-34.271578],[-58.652817,-34.270994]]]}},{"type":"Feature","properties":{"partida":"357000846","cca":"357000100000000000000008500B0000000000300Y","tipo":"Urbano","sup_m2":1925.2},"geometry":{"type":"Polygon","coordinates":[[[-58.652951,-34.27131],[-58.65293,-34.271278],[-58.652817,-34.270994],[-58.652403,-34.271578],[-58.652628,-34.271778],[-58.652951,-34.27131]]]}},{"type":"Feature","properties":{"partida":"357000847","cca":"357000100000000000000008500B0000000000300Z","tipo":"Urbano","sup_m2":1748.3},"geometry":{"type":"Polygon","coordinates":[[[-58.652951,-34.27131],[-58.652628,-34.271778],[-58.652861,-34.271984],[-58.653171,-34.27158],[-58.65307,-34.271484],[-58.652951,-34.27131]]]}},{"type":"Feature","properties":{"partida":"357000810","cca":"357000100000000000000008500B000000000030AA","tipo":"Urbano","sup_m2":2841.2},"geometry":{"type":"Polygon","coordinates":[[[-58.653386,-34.271785],[-58.653171,-34.27158],[-58.652861,-34.271984],[-58.652379,-34.272715],[-58.652558,-34.272782],[-58.652989,-34.272124],[-58.653386,-34.271785]]]}},{"type":"Feature","properties":{"partida":"357000837","cca":"357000100000000000000008500B000000000030AF","tipo":"Urbano","sup_m2":114196.4},"geometry":{"type":"Polygon","coordinates":[[[-58.649523,-34.276391],[-58.649525,-34.277427],[-58.650145,-34.278144],[-58.652944,-34.278138],[-58.653391,-34.275972],[-58.651762,-34.275164],[-58.651928,-34.274894],[-58.650282,-34.274198],[-58.650164,-34.274151],[-58.650078,-34.274405],[-58.650085,-34.27452],[-58.649958,-34.274723],[-58.649835,-34.274881],[-58.649601,-34.275123],[-58.649566,-34.275146],[-58.649522,-34.275189],[-58.650036,-34.275522],[-58.649523,-34.276391]]]}},{"type":"Feature","properties":{"partida":"357000812","cca":"357000100000000000000008500B000000000030BB","tipo":"Urbano","sup_m2":2843.3},"geometry":{"type":"Polygon","coordinates":[[[-58.653386,-34.271785],[-58.652989,-34.272124],[-58.652558,-34.272782],[-58.652737,-34.272848],[-58.65311,-34.272288],[-58.653599,-34.272015],[-58.653543,-34.271936],[-58.653386,-34.271785]]]}},{"type":"Feature","properties":{"partida":"357000814","cca":"357000100000000000000008500B000000000030CC","tipo":"Urbano","sup_m2":2613.6},"geometry":{"type":"Polygon","coordinates":[[[-58.653599,-34.272015],[-58.65311,-34.272288],[-58.652737,-34.272848],[-58.652918,-34.272915],[-58.653238,-34.272432],[-58.653785,-34.272277],[-58.653599,-34.272015]]]}},{"type":"Feature","properties":{"partida":"357000816","cca":"357000100000000000000008500B000000000030DD","tipo":"Urbano","sup_m2":2622.1},"geometry":{"type":"Polygon","coordinates":[[[-58.653903,-34.272563],[-58.653899,-34.272435],[-58.653785,-34.272277],[-58.653238,-34.272432],[-58.652918,-34.272915],[-58.653107,-34.272985],[-58.653289,-34.27267],[-58.653903,-34.272563]]]}},{"type":"Feature","properties":{"partida":"357000818","cca":"357000100000000000000008500B000000000030EE","tipo":"Urbano","sup_m2":2139.1},"geometry":{"type":"Polygon","coordinates":[[[-58.653903,-34.272563],[-58.653289,-34.27267],[-58.653107,-34.272985],[-58.653912,-34.272866],[-58.653903,-34.272563]]]}},{"type":"Feature","properties":{"partida":"357000820","cca":"357000100000000000000008500B000000000030FF","tipo":"Urbano","sup_m2":2078.5},"geometry":{"type":"Polygon","coordinates":[[[-58.653912,-34.272866],[-58.653107,-34.272985],[-58.652965,-34.273216],[-58.65395,-34.273105],[-58.653913,-34.272927],[-58.653912,-34.272866]]]}},{"type":"Feature","properties":{"partida":"357000822","cca":"357000100000000000000008500B000000000030GG","tipo":"Urbano","sup_m2":2008.1},"geometry":{"type":"Polygon","coordinates":[[[-58.652965,-34.273216],[-58.652867,-34.273376],[-58.653994,-34.273321],[-58.65395,-34.273105],[-58.652965,-34.273216]]]}},{"type":"Feature","properties":{"partida":"357000824","cca":"357000100000000000000008500B000000000030HH","tipo":"Urbano","sup_m2":2286.3},"geometry":{"type":"Polygon","coordinates":[[[-58.652867,-34.273376],[-58.652767,-34.273539],[-58.654038,-34.273533],[-58.653994,-34.273321],[-58.652867,-34.273376]]]}},{"type":"Feature","properties":{"partida":"357000826","cca":"357000100000000000000008500B000000000030JJ","tipo":"Urbano","sup_m2":2605.6},"geometry":{"type":"Polygon","coordinates":[[[-58.652767,-34.273539],[-58.652664,-34.273706],[-58.654115,-34.273741],[-58.654038,-34.273533],[-58.652767,-34.273539]]]}},{"type":"Feature","properties":{"partida":"357000828","cca":"357000100000000000000008500B000000000030KK","tipo":"Urbano","sup_m2":2928.4},"geometry":{"type":"Polygon","coordinates":[[[-58.652664,-34.273706],[-58.652567,-34.273864],[-58.654194,-34.273955],[-58.654115,-34.273741],[-58.652664,-34.273706]]]}},{"type":"Feature","properties":{"partida":"357000829","cca":"357000100000000000000008500B000000000030MM","tipo":"Urbano","sup_m2":5435.2},"geometry":{"type":"Polygon","coordinates":[[[-58.654278,-34.274182],[-58.65371,-34.274103],[-58.652447,-34.274059],[-58.6524,-34.274128],[-58.653204,-34.274595],[-58.653355,-34.274403],[-58.65341,-34.274314],[-58.653511,-34.274255],[-58.653644,-34.27423],[-58.653807,-34.274283],[-58.654151,-34.274514],[-58.654424,-34.274573],[-58.654278,-34.274182]]]}},{"type":"Feature","properties":{"partida":"357019784","cca":"357000100000000000000008500B000000000030NN","tipo":"Urbano","sup_m2":3365.1},"geometry":{"type":"Polygon","coordinates":[[[-58.652567,-34.273864],[-58.652447,-34.274059],[-58.65371,-34.274103],[-58.654278,-34.274182],[-58.654194,-34.273955],[-58.652567,-34.273864]]]}},{"type":"Feature","properties":{"partida":"357000834","cca":"357000100000000000000008500B000000000030RR","tipo":"Urbano","sup_m2":21043.6},"geometry":{"type":"Polygon","coordinates":[[[-58.65414,-34.274547],[-58.653832,-34.274349],[-58.653764,-34.274314],[-58.653644,-34.27428],[-58.653625,-34.27427],[-58.653562,-34.274298],[-58.653474,-34.274349],[-58.653385,-34.274431],[-58.653232,-34.27459],[-58.653187,-34.27461],[-58.652392,-34.274141],[-58.652123,-34.274594],[-58.651928,-34.274894],[-58.651762,-34.275164],[-58.653391,-34.275972],[-58.653514,-34.27538],[-58.653563,-34.275181],[-58.653708,-34.27444],[-58.653764,-34.274482],[-58.65414,-34.274547]]]}},{"type":"Feature","properties":{"partida":"357000842","cca":"357000100000000000000008500B000000000030VV","tipo":"Urbano","sup_m2":869.9},"geometry":{"type":"Polygon","coordinates":[[[-58.651856,-34.270622],[-58.651831,-34.270705],[-58.651796,-34.270802],[-58.652139,-34.271115],[-58.652241,-34.270974],[-58.651856,-34.270622]]]}},{"type":"Feature","properties":{"partida":"357000844","cca":"357000100000000000000008500B000000000030WW","tipo":"Urbano","sup_m2":774.5},"geometry":{"type":"Polygon","coordinates":[[[-58.651796,-34.270802],[-58.651731,-34.270982],[-58.652037,-34.271254],[-58.652139,-34.271115],[-58.651796,-34.270802]]]}},{"type":"Feature","properties":{"partida":"357000849","cca":"357000100000000000000008500B0000000000400B","tipo":"Rural","sup_m2":42869.5},"geometry":{"type":"Polygon","coordinates":[[[-58.65285,-34.282976],[-58.653316,-34.283927],[-58.657925,-34.284851],[-58.657733,-34.284361],[-58.657548,-34.283835],[-58.65285,-34.282976]]]}},{"type":"Feature","properties":{"partida":"357018131","cca":"357000100000000000000008500B0000000000400C","tipo":"Rural","sup_m2":26011.6},"geometry":{"type":"Polygon","coordinates":[[[-58.65735,-34.283321],[-58.657168,-34.282943],[-58.657057,-34.282486],[-58.65706,-34.282445],[-58.652646,-34.282202],[-58.652656,-34.282309],[-58.652775,-34.282517],[-58.65735,-34.283321]]]}},{"type":"Feature","properties":{"partida":"357000848","cca":"357000100000000000000008500B0000000000400D","tipo":"Rural","sup_m2":20394.7},"geometry":{"type":"Polygon","coordinates":[[[-58.65735,-34.283321],[-58.652927,-34.282544],[-58.652775,-34.282517],[-58.652813,-34.282605],[-58.652893,-34.282731],[-58.652938,-34.282848],[-58.65297,-34.282898],[-58.652992,-34.282975],[-58.65754,-34.283812],[-58.657388,-34.2834],[-58.65735,-34.283321]]]}},{"type":"Feature","properties":{"partida":"357000850","cca":"357000100000000000000008500B0000000000500A","tipo":"Rural","sup_m2":41051.1},"geometry":{"type":"Polygon","coordinates":[[[-58.652476,-34.282059],[-58.647544,-34.281251],[-58.647476,-34.281419],[-58.64747,-34.281798],[-58.64746,-34.281948],[-58.652921,-34.282964],[-58.652881,-34.282842],[-58.65282,-34.282706],[-58.652726,-34.282542],[-58.652654,-34.282432],[-58.65257,-34.282284],[-58.652476,-34.282059]]]}},{"type":"Feature","properties":{"partida":"357000851","cca":"357000100000000000000008500B0000000000500B","tipo":"Rural","sup_m2":47037.7},"geometry":{"type":"Polygon","coordinates":[[[-58.653316,-34.283927],[-58.65285,-34.282976],[-58.647458,-34.281973],[-58.647454,-34.282029],[-58.647507,-34.282547],[-58.647398,-34.28274],[-58.653316,-34.283927]]]}},{"type":"Feature","properties":{"partida":"357000852","cca":"357000100000000000000008500B00000000006000","tipo":"Rural","sup_m2":22267.5},"geometry":{"type":"Polygon","coordinates":[[[-58.657925,-34.284851],[-58.652956,-34.283855],[-58.652783,-34.284217],[-58.658117,-34.285339],[-58.657925,-34.284851]]]}},{"type":"Feature","properties":{"partida":"357000853","cca":"357000100000000000000008500B00000000007000","tipo":"Rural","sup_m2":26238.2},"geometry":{"type":"Polygon","coordinates":[[[-58.658327,-34.285901],[-58.658117,-34.285339],[-58.652783,-34.284217],[-58.652598,-34.284589],[-58.658327,-34.285901]]]}},{"type":"Feature","properties":{"partida":"357000854","cca":"357000100000000000000008500B00000000008000","tipo":"Rural","sup_m2":26292.2},"geometry":{"type":"Polygon","coordinates":[[[-58.658514,-34.286406],[-58.658477,-34.28635],[-58.658367,-34.286007],[-58.658327,-34.285901],[-58.652598,-34.284589],[-58.652418,-34.284956],[-58.658514,-34.286406]]]}},{"type":"Feature","properties":{"partida":"357000855","cca":"357000100000000000000008500B00000000009000","tipo":"Rural","sup_m2":42130.1},"geometry":{"type":"Polygon","coordinates":[[[-58.658514,-34.286406],[-58.652418,-34.284956],[-58.652243,-34.28532],[-58.654158,-34.285896],[-58.657406,-34.286922],[-58.658946,-34.287381],[-58.658945,-34.287196],[-58.658864,-34.286956],[-58.65881,-34.286851],[-58.658514,-34.286406]]]}},{"type":"Feature","properties":{"partida":"357000856","cca":"357000100000000000000008500B00000000010000","tipo":"Rural","sup_m2":41418.1},"geometry":{"type":"Polygon","coordinates":[[[-58.652598,-34.284589],[-58.652783,-34.284217],[-58.652956,-34.283855],[-58.647398,-34.28274],[-58.647072,-34.283322],[-58.652598,-34.284589]]]}},{"type":"Feature","properties":{"partida":"357000857","cca":"357000100000000000000008500B00000000011000","tipo":"Rural","sup_m2":44211.7},"geometry":{"type":"Polygon","coordinates":[[[-58.652241,-34.285325],[-58.652598,-34.284589],[-58.647072,-34.283322],[-58.646707,-34.28398],[-58.652241,-34.285325]]]}},{"type":"Feature","properties":{"partida":null,"cca":"357000100000000000000008500B00000000012000","tipo":null,"sup_m2":41232.2},"geometry":{"type":"Polygon","coordinates":[[[-58.657406,-34.286922],[-58.654158,-34.285896],[-58.653844,-34.28728],[-58.656422,-34.28797],[-58.656816,-34.287426],[-58.657406,-34.286922]]]}},{"type":"Feature","properties":{"partida":"357000859","cca":"357000100000000000000008500B0000000001300A","tipo":"Rural","sup_m2":77520.6},"geometry":{"type":"Polygon","coordinates":[[[-58.651368,-34.286622],[-58.651288,-34.285094],[-58.646707,-34.28398],[-58.646519,-34.28432],[-58.646291,-34.285486],[-58.651368,-34.286622]]]}},{"type":"Feature","properties":{"partida":"357000860","cca":"357000100000000000000008500B0000000001300B","tipo":"Rural","sup_m2":41202.6},"geometry":{"type":"Polygon","coordinates":[[[-58.652243,-34.28532],[-58.652241,-34.285325],[-58.651288,-34.285094],[-58.651368,-34.286622],[-58.653844,-34.28728],[-58.654158,-34.285896],[-58.652243,-34.28532]]]}},{"type":"Feature","properties":{"partida":"357000861","cca":"357000100000000000000008500B00000000014000","tipo":"Rural","sup_m2":36262.3},"geometry":{"type":"Polygon","coordinates":[[[-58.653844,-34.28728],[-58.653463,-34.288758],[-58.655505,-34.289236],[-58.656422,-34.28797],[-58.653844,-34.28728]]]}},{"type":"Feature","properties":{"partida":"357000862","cca":"357000100000000000000008500B00000000015000","tipo":"Rural","sup_m2":120840.9},"geometry":{"type":"Polygon","coordinates":[[[-58.646152,-34.287013],[-58.653463,-34.288758],[-58.653844,-34.28728],[-58.651368,-34.286622],[-58.646291,-34.285486],[-58.646246,-34.285715],[-58.646302,-34.286676],[-58.646152,-34.287013]]]}},{"type":"Feature","properties":{"partida":"357000869","cca":"357000100000000000000008500B0000000002000B","tipo":"Urbano","sup_m2":1297.8},"geometry":{"type":"Polygon","coordinates":[[[-58.649385,-34.275323],[-58.649929,-34.275704],[-58.650036,-34.275522],[-58.649522,-34.275189],[-58.649385,-34.275323]]]}},{"type":"Feature","properties":{"partida":"357000867","cca":"357000100000000000000008500B00000000021000","tipo":"Urbano","sup_m2":1423.9},"geometry":{"type":"Polygon","coordinates":[[[-58.649829,-34.275873],[-58.649929,-34.275704],[-58.649385,-34.275323],[-58.649272,-34.275433],[-58.649246,-34.275481],[-58.649829,-34.275873]]]}},{"type":"Feature","properties":{"partida":"357000868","cca":"357000100000000000000008500B00000000022000","tipo":"Urbano","sup_m2":1328.8},"geometry":{"type":"Polygon","coordinates":[[[-58.649139,-34.27564],[-58.649739,-34.276026],[-58.649829,-34.275873],[-58.649246,-34.275481],[-58.649203,-34.275559],[-58.649139,-34.27564]]]}},{"type":"Feature","properties":{"partida":"357000870","cca":"357000100000000000000008500B00000000023000","tipo":"Urbano","sup_m2":1557.5},"geometry":{"type":"Polygon","coordinates":[[[-58.649002,-34.275809],[-58.649014,-34.275816],[-58.649636,-34.2762],[-58.649739,-34.276026],[-58.649139,-34.27564],[-58.649002,-34.275809]]]}},{"type":"Feature","properties":{"partida":"357000871","cca":"357000100000000000000008500B00000000024000","tipo":"Urbano","sup_m2":1584.7},"geometry":{"type":"Polygon","coordinates":[[[-58.649523,-34.276391],[-58.649636,-34.2762],[-58.649002,-34.275809],[-58.648876,-34.275948],[-58.649523,-34.276391]]]}},{"type":"Feature","properties":{"partida":"357000872","cca":"357000100000000000000008500B00000000025000","tipo":"Urbano","sup_m2":1618.3},"geometry":{"type":"Polygon","coordinates":[[[-58.649524,-34.276598],[-58.649523,-34.276391],[-58.648876,-34.275948],[-58.648742,-34.276096],[-58.649524,-34.276598]]]}},{"type":"Feature","properties":{"partida":"357000873","cca":"357000100000000000000008500B00000000026000","tipo":"Urbano","sup_m2":1710.5},"geometry":{"type":"Polygon","coordinates":[[[-58.648742,-34.276096],[-58.648643,-34.276204],[-58.648626,-34.276247],[-58.649524,-34.276772],[-58.649524,-34.276598],[-58.648742,-34.276096]]]}},{"type":"Feature","properties":{"partida":"357000874","cca":"357000100000000000000008500B00000000027000","tipo":"Urbano","sup_m2":1878.7},"geometry":{"type":"Polygon","coordinates":[[[-58.649524,-34.276947],[-58.649524,-34.276772],[-58.648626,-34.276247],[-58.648556,-34.276426],[-58.649524,-34.276947]]]}},{"type":"Feature","properties":{"partida":"357000875","cca":"357000100000000000000008500B00000000028000","tipo":"Urbano","sup_m2":1755.3},"geometry":{"type":"Polygon","coordinates":[[[-58.649524,-34.276947],[-58.648718,-34.276513],[-58.648556,-34.276426],[-58.648499,-34.27657],[-58.649525,-34.277118],[-58.649524,-34.276947]]]}},{"type":"Feature","properties":{"partida":"357000876","cca":"357000100000000000000008500B0000000002900A","tipo":"Urbano","sup_m2":3960.6},"geometry":{"type":"Polygon","coordinates":[[[-58.648394,-34.276923],[-58.648662,-34.277042],[-58.649525,-34.277427],[-58.649525,-34.277118],[-58.648499,-34.27657],[-58.648409,-34.2768],[-58.648404,-34.276909],[-58.648394,-34.276923]]]}},{"type":"Feature","properties":{"partida":"357000878","cca":"357000100000000000000008500C00000000001000","tipo":"Urbano","sup_m2":4336.9},"geometry":{"type":"Polygon","coordinates":[[[-58.654436,-34.274597],[-58.653764,-34.274482],[-58.653708,-34.27444],[-58.653563,-34.275181],[-58.654577,-34.274856],[-58.654436,-34.274597]]]}},{"type":"Feature","properties":{"partida":"357000879","cca":"357000100000000000000008500C00000000002000","tipo":"Urbano","sup_m2":2053.9},"geometry":{"type":"Polygon","coordinates":[[[-58.653514,-34.27538],[-58.654655,-34.275021],[-58.654577,-34.274856],[-58.653563,-34.275181],[-58.653514,-34.27538]]]}},{"type":"Feature","properties":{"partida":"357000880","cca":"357000100000000000000008500C00000000003000","tipo":"Urbano","sup_m2":2277.3},"geometry":{"type":"Polygon","coordinates":[[[-58.653472,-34.275579],[-58.654737,-34.275179],[-58.654655,-34.275021],[-58.653514,-34.27538],[-58.653472,-34.275579]]]}},{"type":"Feature","properties":{"partida":"357000881","cca":"357000100000000000000008500C00000000004000","tipo":"Urbano","sup_m2":6158.6},"geometry":{"type":"Polygon","coordinates":[[[-58.654357,-34.276341],[-58.654032,-34.275585],[-58.654819,-34.275337],[-58.654737,-34.275179],[-58.653472,-34.275579],[-58.653391,-34.275972],[-58.654357,-34.276341]]]}},{"type":"Feature","properties":{"partida":"357000776","cca":"357000100000000000000008500C00000000005000","tipo":"Urbano","sup_m2":1496.5},"geometry":{"type":"Polygon","coordinates":[[[-58.654101,-34.275746],[-58.654902,-34.275497],[-58.654819,-34.275337],[-58.654032,-34.275585],[-58.654101,-34.275746]]]}},{"type":"Feature","properties":{"partida":"357000882","cca":"357000100000000000000008500C00000000006000","tipo":"Urbano","sup_m2":1516.8},"geometry":{"type":"Polygon","coordinates":[[[-58.654902,-34.275497],[-58.654101,-34.275746],[-58.654172,-34.275911],[-58.654973,-34.275657],[-58.654947,-34.275585],[-58.654902,-34.275497]]]}},{"type":"Feature","properties":{"partida":"357000883","cca":"357000100000000000000008500C00000000007000","tipo":"Urbano","sup_m2":1451.7},"geometry":{"type":"Polygon","coordinates":[[[-58.654239,-34.276067],[-58.655031,-34.275818],[-58.654973,-34.275657],[-58.654172,-34.275911],[-58.654239,-34.276067]]]}},{"type":"Feature","properties":{"partida":"357000884","cca":"357000100000000000000008500C00000000008000","tipo":"Urbano","sup_m2":1406.1},"geometry":{"type":"Polygon","coordinates":[[[-58.654299,-34.276205],[-58.655089,-34.275994],[-58.655031,-34.275818],[-58.654239,-34.276067],[-58.654299,-34.276205]]]}},{"type":"Feature","properties":{"partida":"357000885","cca":"357000100000000000000008500C00000000009000","tipo":"Urbano","sup_m2":1328.5},"geometry":{"type":"Polygon","coordinates":[[[-58.655089,-34.275994],[-58.654299,-34.276205],[-58.654357,-34.276341],[-58.65513,-34.276164],[-58.655104,-34.276019],[-58.655089,-34.275994]]]}},{"type":"Feature","properties":{"partida":"357000886","cca":"357000100000000000000008500C00000000010000","tipo":"Urbano","sup_m2":1033.5},"geometry":{"type":"Polygon","coordinates":[[[-58.654357,-34.276341],[-58.654525,-34.276413],[-58.655185,-34.276334],[-58.65513,-34.276164],[-58.654357,-34.276341]]]}},{"type":"Feature","properties":{"partida":"357019960","cca":"357000100000000000000008500C00000000011000","tipo":"Urbano","sup_m2":1125.9},"geometry":{"type":"Polygon","coordinates":[[[-58.654525,-34.276413],[-58.655268,-34.276658],[-58.655185,-34.276334],[-58.654525,-34.276413]]]}},{"type":"Feature","properties":{"partida":"357000893","cca":"357000100000000000000022700A0000000000100A","tipo":"Rural","sup_m2":61122.3},"geometry":{"type":"Polygon","coordinates":[[[-58.657166,-34.288941],[-58.657162,-34.288565],[-58.657426,-34.288528],[-58.659332,-34.288058],[-58.659277,-34.287953],[-58.658959,-34.287471],[-58.658946,-34.287381],[-58.657406,-34.286922],[-58.656816,-34.287426],[-58.655499,-34.289245],[-58.655129,-34.290524],[-58.657139,-34.289994],[-58.657066,-34.288965],[-58.657166,-34.288941]]]}},{"type":"Feature","properties":{"partida":"357000894","cca":"357000100000000000000022700A0000000000200A","tipo":"Rural","sup_m2":8338.9},"geometry":{"type":"Polygon","coordinates":[[[-58.659332,-34.288058],[-58.657426,-34.288528],[-58.657162,-34.288565],[-58.657166,-34.288941],[-58.659537,-34.288376],[-58.659354,-34.288099],[-58.659332,-34.288058]]]}},{"type":"Feature","properties":{"partida":"357001104","cca":"357000100000000000000026600000000000006000","tipo":"Rural","sup_m2":30995.3},"geometry":{"type":"Polygon","coordinates":[[[-58.646448,-34.269261],[-58.646172,-34.26938],[-58.645941,-34.269457],[-58.645597,-34.269509],[-58.645336,-34.269488],[-58.644461,-34.272927],[-58.645299,-34.272674],[-58.646448,-34.269261]]]}},{"type":"Feature","properties":{"partida":"357001107","cca":"357000100000000000000026600000000000009000","tipo":"Rural","sup_m2":38666.7},"geometry":{"type":"Polygon","coordinates":[[[-58.651253,-34.271291],[-58.651575,-34.27087],[-58.651575,-34.270623],[-58.651623,-34.270494],[-58.65163,-34.270426],[-58.64775,-34.270695],[-58.647315,-34.27182],[-58.651253,-34.271291]]]}},{"type":"Feature","properties":{"partida":"357001108","cca":"357000100000000000000026600000000000010000","tipo":"Rural","sup_m2":26180.2},"geometry":{"type":"Polygon","coordinates":[[[-58.651253,-34.271291],[-58.647315,-34.27182],[-58.647317,-34.271814],[-58.647109,-34.271935],[-58.646614,-34.2722],[-58.646291,-34.272386],[-58.650673,-34.272114],[-58.650999,-34.271624],[-58.651253,-34.271291]]]}},{"type":"Feature","properties":{"partida":"357001109","cca":"35700010000000000000002660000000000001100A","tipo":"Rural","sup_m2":18418.4},"geometry":{"type":"Polygon","coordinates":[[[-58.645299,-34.272674],[-58.646947,-34.272781],[-58.64707,-34.27258],[-58.650313,-34.272654],[-58.650673,-34.272114],[-58.646291,-34.272386],[-58.645299,-34.272674]]]}},{"type":"Feature","properties":{"partida":"357020118","cca":"35700010000000000000002660000000000001100B","tipo":"Rural","sup_m2":8989.1},"geometry":{"type":"Polygon","coordinates":[[[-58.650313,-34.272654],[-58.64707,-34.27258],[-58.646947,-34.272781],[-58.650129,-34.272987],[-58.650313,-34.272654]]]}},{"type":"Feature","properties":{"partida":"357001110","cca":"357000100000000000000026600000000000012000","tipo":"Rural","sup_m2":30294.4},"geometry":{"type":"Polygon","coordinates":[[[-58.649837,-34.273777],[-58.649885,-34.273558],[-58.649991,-34.273232],[-58.650129,-34.272987],[-58.645299,-34.272674],[-58.644461,-34.272927],[-58.649837,-34.273777]]]}},{"type":"Feature","properties":{"partida":"357001111","cca":"357000100000000000000026600000000000013000","tipo":"Rural","sup_m2":31966.9},"geometry":{"type":"Polygon","coordinates":[[[-58.643814,-34.273144],[-58.646662,-34.273809],[-58.649683,-34.274514],[-58.649756,-34.274148],[-58.649837,-34.273777],[-58.644461,-34.272927],[-58.643814,-34.273144]]]}},{"type":"Feature","properties":{"partida":"357001112","cca":"35700010000000000000002660000000000001400A","tipo":"Rural","sup_m2":11424.8},"geometry":{"type":"Polygon","coordinates":[[[-58.646662,-34.273809],[-58.646501,-34.274146],[-58.649438,-34.274832],[-58.649594,-34.274648],[-58.649683,-34.274514],[-58.646662,-34.273809]]]}},{"type":"Feature","properties":{"partida":"357019983","cca":"35700010000000000000002660000000000001400B","tipo":"Rural","sup_m2":43116.1},"geometry":{"type":"Polygon","coordinates":[[[-58.643618,-34.274109],[-58.649002,-34.275241],[-58.64934,-34.274947],[-58.649438,-34.274832],[-58.646501,-34.274146],[-58.646662,-34.273809],[-58.643814,-34.273144],[-58.643618,-34.274109]]]}},{"type":"Feature","properties":{"partida":"357001113","cca":"357000100000000000000026600000000000015000","tipo":"Rural","sup_m2":2590.6},"geometry":{"type":"Polygon","coordinates":[[[-58.648378,-34.275111],[-58.64817,-34.275461],[-58.648682,-34.275676],[-58.64881,-34.275407],[-58.649002,-34.275241],[-58.648378,-34.275111]]]}},{"type":"Feature","properties":{"partida":"357001114","cca":"357000100000000000000026600000000000016000","tipo":"Rural","sup_m2":47687.2},"geometry":{"type":"Polygon","coordinates":[[[-58.648682,-34.275676],[-58.64817,-34.275461],[-58.648378,-34.275111],[-58.643618,-34.274109],[-58.643439,-34.275004],[-58.648482,-34.276101],[-58.648682,-34.275676]]]}},{"type":"Feature","properties":{"partida":"357001115","cca":"357000100000000000000026600000000000017000","tipo":"Rural","sup_m2":46808.8},"geometry":{"type":"Polygon","coordinates":[[[-58.648082,-34.276925],[-58.648294,-34.276502],[-58.648482,-34.276101],[-58.643439,-34.275004],[-58.64335,-34.275447],[-58.643199,-34.275892],[-58.648082,-34.276925]]]}},{"type":"Feature","properties":{"partida":"357001116","cca":"35700010000000000000002660000000000001800A","tipo":"Rural","sup_m2":15083.2},"geometry":{"type":"Polygon","coordinates":[[[-58.647966,-34.277194],[-58.64802,-34.277048],[-58.648082,-34.276925],[-58.643199,-34.275892],[-58.643099,-34.276185],[-58.647966,-34.277194]]]}},{"type":"Feature","properties":{"partida":"357001117","cca":"35700010000000000000002660000000000001800B","tipo":"Rural","sup_m2":15332.0},"geometry":{"type":"Polygon","coordinates":[[[-58.647966,-34.277194],[-58.643099,-34.276185],[-58.643006,-34.276459],[-58.647857,-34.277495],[-58.647911,-34.277339],[-58.647966,-34.277194]]]}},{"type":"Feature","properties":{"partida":"357001118","cca":"35700010000000000000002660000000000001800C","tipo":"Rural","sup_m2":17252.2},"geometry":{"type":"Polygon","coordinates":[[[-58.647816,-34.277828],[-58.64784,-34.277543],[-58.647857,-34.277495],[-58.643006,-34.276459],[-58.642896,-34.276785],[-58.647816,-34.277828]]]}},{"type":"Feature","properties":{"partida":"357001205","cca":"35700010000000000000002660000000000001800D","tipo":"Rural","sup_m2":17451.7},"geometry":{"type":"Polygon","coordinates":[[[-58.647827,-34.278165],[-58.647811,-34.277886],[-58.647816,-34.277828],[-58.642896,-34.276785],[-58.642784,-34.277113],[-58.647827,-34.278165]]]}},{"type":"Feature","properties":{"partida":"357001119","cca":"35700010000000000000002660000000000001900A","tipo":"Rural","sup_m2":20646.5},"geometry":{"type":"Polygon","coordinates":[[[-58.647883,-34.278626],[-58.647834,-34.278269],[-58.647827,-34.278165],[-58.642784,-34.277113],[-58.642677,-34.277431],[-58.647883,-34.278626]]]}},{"type":"Feature","properties":{"partida":"357001120","cca":"35700010000000000000002660000000000001900B","tipo":"Rural","sup_m2":19422.2},"geometry":{"type":"Polygon","coordinates":[[[-58.64786,-34.278996],[-58.647875,-34.278957],[-58.647894,-34.278702],[-58.647883,-34.278626],[-58.642677,-34.277431],[-58.642567,-34.277752],[-58.64786,-34.278996]]]}},{"type":"Feature","properties":{"partida":"357001121","cca":"35700010000000000000002660000000000001900C","tipo":"Rural","sup_m2":37990.2},"geometry":{"type":"Polygon","coordinates":[[[-58.647726,-34.279322],[-58.647785,-34.279199],[-58.64786,-34.278996],[-58.642567,-34.277752],[-58.642391,-34.278272],[-58.642358,-34.278533],[-58.646165,-34.279442],[-58.64633,-34.278969],[-58.647726,-34.279322]]]}},{"type":"Feature","properties":{"partida":"357001122","cca":"35700010000000000000002660000000000001900D","tipo":"Rural","sup_m2":3641.1},"geometry":{"type":"Polygon","coordinates":[[[-58.647726,-34.279322],[-58.64633,-34.278969],[-58.646247,-34.279205],[-58.647578,-34.279549],[-58.647716,-34.279343],[-58.647726,-34.279322]]]}},{"type":"Feature","properties":{"partida":"357001123","cca":"35700010000000000000002660000000000001900E","tipo":"Rural","sup_m2":3293.0},"geometry":{"type":"Polygon","coordinates":[[[-58.646247,-34.279205],[-58.646165,-34.279442],[-58.647476,-34.279755],[-58.647578,-34.279549],[-58.646247,-34.279205]]]}},{"type":"Feature","properties":{"partida":"357001129","cca":"357000100000000000000026600000000000026000","tipo":"Urbano","sup_m2":3106.8},"geometry":{"type":"Polygon","coordinates":[[[-58.64611,-34.284498],[-58.644487,-34.284174],[-58.644475,-34.284357],[-58.646082,-34.284683],[-58.64611,-34.284498]]]}},{"type":"Feature","properties":{"partida":"357001130","cca":"357000100000000000000026600000000000027000","tipo":"Urbano","sup_m2":3062.8},"geometry":{"type":"Polygon","coordinates":[[[-58.644462,-34.284544],[-58.64599,-34.28485],[-58.64606,-34.284864],[-58.64608,-34.284698],[-58.646005,-34.284689],[-58.64608,-34.284697],[-58.646082,-34.284683],[-58.644475,-34.284357],[-58.644462,-34.284544]]]}},{"type":"Feature","properties":{"partida":"357001132","cca":"357000100000000000000026600000000000029000","tipo":"Urbano","sup_m2":3002.7},"geometry":{"type":"Polygon","coordinates":[[[-58.64445,-34.28473],[-58.645973,-34.285028],[-58.646036,-34.28504],[-58.64606,-34.284864],[-58.644462,-34.284544],[-58.64445,-34.28473]]]}},{"type":"Feature","properties":{"partida":"357001133","cca":"357000100000000000000026600000000000030000","tipo":"Urbano","sup_m2":3147.2},"geometry":{"type":"Polygon","coordinates":[[[-58.644437,-34.284924],[-58.645955,-34.285217],[-58.646015,-34.285229],[-58.646036,-34.28504],[-58.64445,-34.28473],[-58.644437,-34.284924]]]}},{"type":"Feature","properties":{"partida":"357001134","cca":"357000100000000000000026600000000000031000","tipo":"Urbano","sup_m2":2978.9},"geometry":{"type":"Polygon","coordinates":[[[-58.644425,-34.285104],[-58.645937,-34.2854],[-58.646003,-34.285413],[-58.646015,-34.285229],[-58.644437,-34.284924],[-58.644425,-34.285104]]]}},{"type":"Feature","properties":{"partida":"357001135","cca":"357000100000000000000026600000000000032000","tipo":"Urbano","sup_m2":3015.0},"geometry":{"type":"Polygon","coordinates":[[[-58.644412,-34.285291],[-58.645963,-34.285593],[-58.646003,-34.285413],[-58.644425,-34.285104],[-58.644412,-34.285291]]]}},{"type":"Feature","properties":{"partida":"357001137","cca":"357000100000000000000026600000000000034000","tipo":"Urbano","sup_m2":2866.8},"geometry":{"type":"Polygon","coordinates":[[[-58.6444,-34.28547],[-58.645988,-34.285776],[-58.645961,-34.285662],[-58.645913,-34.285654],[-58.64596,-34.28566],[-58.645963,-34.285593],[-58.644412,-34.285291],[-58.6444,-34.28547]]]}},{"type":"Feature","properties":{"partida":"357001138","cca":"357000100000000000000026600000000000035000","tipo":"Urbano","sup_m2":2965.2},"geometry":{"type":"Polygon","coordinates":[[[-58.644389,-34.285646],[-58.645956,-34.285943],[-58.646102,-34.285971],[-58.645988,-34.285776],[-58.6444,-34.28547],[-58.644389,-34.285646]]]}},{"type":"Feature","properties":{"partida":"357001139","cca":"357000100000000000000026600000000000036000","tipo":"Urbano","sup_m2":3275.0},"geometry":{"type":"Polygon","coordinates":[[[-58.644389,-34.285646],[-58.644376,-34.285829],[-58.646158,-34.286164],[-58.646102,-34.285971],[-58.644389,-34.285646]]]}},{"type":"Feature","properties":{"partida":"357001140","cca":"357000100000000000000026600000000000037000","tipo":"Urbano","sup_m2":3249.7},"geometry":{"type":"Polygon","coordinates":[[[-58.644365,-34.286001],[-58.646011,-34.286315],[-58.646182,-34.286347],[-58.646158,-34.286164],[-58.644376,-34.285829],[-58.644365,-34.286001]]]}},{"type":"Feature","properties":{"partida":"357001143","cca":"357000100000000000000026600000000000040000","tipo":"Urbano","sup_m2":3363.8},"geometry":{"type":"Polygon","coordinates":[[[-58.644353,-34.286178],[-58.64434,-34.28637],[-58.645987,-34.286684],[-58.646101,-34.286512],[-58.644353,-34.286178]]]}},{"type":"Feature","properties":{"partida":"357001144","cca":"357000100000000000000026600000000000041000","tipo":"Urbano","sup_m2":3054.0},"geometry":{"type":"Polygon","coordinates":[[[-58.64434,-34.28637],[-58.644328,-34.286556],[-58.645902,-34.286851],[-58.645987,-34.286684],[-58.64434,-34.28637]]]}},{"type":"Feature","properties":{"partida":"357001145","cca":"357000100000000000000026600000000000042000","tipo":"Urbano","sup_m2":2887.5},"geometry":{"type":"Polygon","coordinates":[[[-58.644328,-34.286556],[-58.644315,-34.286741],[-58.645834,-34.287016],[-58.645902,-34.286851],[-58.644328,-34.286556]]]}},{"type":"Feature","properties":{"partida":"357001147","cca":"357000100000000000000026600000000000044000","tipo":"Urbano","sup_m2":2815.1},"geometry":{"type":"Polygon","coordinates":[[[-58.644315,-34.286741],[-58.644303,-34.286927],[-58.645738,-34.287185],[-58.645834,-34.287016],[-58.644315,-34.286741]]]}}]}