{"type":"FeatureCollection","features":[{"type":"Feature","properties":{"partida":"357000863","cca":"357000100000000000000008500B00000000016000","tipo":"Rural","sup_m2":171966.6},"geometry":{"type":"Polygon","coordinates":[[[-58.655505,-34.289236],[-58.653463,-34.288758],[-58.646152,-34.287013],[-58.646083,-34.287167],[-58.646,-34.287409],[-58.645863,-34.287716],[-58.645864,-34.288391],[-58.645829,-34.288578],[-58.654969,-34.291079],[-58.655499,-34.289245],[-58.655505,-34.289236]]]}},{"type":"Feature","properties":{"partida":"357000864","cca":"357000100000000000000008500B00000000017000","tipo":"Rural","sup_m2":172192.7},"geometry":{"type":"Polygon","coordinates":[[[-58.653945,-34.292774],[-58.654924,-34.291235],[-58.654969,-34.291079],[-58.645829,-34.288578],[-58.6457,-34.289272],[-58.64533,-34.290255],[-58.653945,-34.292774]]]}},{"type":"Feature","properties":{"partida":"357000865","cca":"357000100000000000000008500B00000000018000","tipo":"Rural","sup_m2":198833.9},"geometry":{"type":"Polygon","coordinates":[[[-58.644663,-34.291109],[-58.644716,-34.291136],[-58.645401,-34.29124],[-58.644811,-34.292265],[-58.652246,-34.294972],[-58.652879,-34.293626],[-58.653716,-34.293134],[-58.653945,-34.292774],[-58.64533,-34.290255],[-58.644754,-34.29101],[-58.644663,-34.291109]]]}},{"type":"Feature","properties":{"partida":"357000895","cca":"357000100000000000000022700A00000000003000","tipo":"Rural","sup_m2":26160.7},"geometry":{"type":"Polygon","coordinates":[[[-58.659836,-34.289432],[-58.659758,-34.288927],[-58.65964,-34.288531],[-58.659537,-34.288376],[-58.657066,-34.288965],[-58.657139,-34.289994],[-58.657335,-34.289942],[-58.65814,-34.289561],[-58.659836,-34.289432]]]}},{"type":"Feature","properties":{"partida":"357000896","cca":"357000100000000000000022700A00000000004000","tipo":"Rural","sup_m2":35750.2},"geometry":{"type":"Polygon","coordinates":[[[-58.659836,-34.289432],[-58.65814,-34.289561],[-58.657335,-34.289942],[-58.655129,-34.290524],[-58.654924,-34.291235],[-58.654913,-34.291252],[-58.66004,-34.289955],[-58.659933,-34.289712],[-58.659836,-34.289432]]]}},{"type":"Feature","properties":{"partida":"357000897","cca":"357000100000000000000022700A00000000005000","tipo":"Rural","sup_m2":41714.4},"geometry":{"type":"Polygon","coordinates":[[[-58.660409,-34.291],[-58.660354,-34.290671],[-58.660262,-34.290451],[-58.66004,-34.289955],[-58.654913,-34.291252],[-58.654437,-34.292],[-58.657279,-34.291234],[-58.660409,-34.291]]]}},{"type":"Feature","properties":{"partida":"357000898","cca":"357000100000000000000022700A00000000006000","tipo":"Rural","sup_m2":38988.6},"geometry":{"type":"Polygon","coordinates":[[[-58.660535,-34.291503],[-58.660496,-34.2914],[-58.660409,-34.291],[-58.657279,-34.291234],[-58.654437,-34.292],[-58.654006,-34.292678],[-58.658941,-34.291615],[-58.660535,-34.291503]]]}},{"type":"Feature","properties":{"partida":"357000899","cca":"357000100000000000000022700A00000000007000","tipo":"Rural","sup_m2":51753.4},"geometry":{"type":"Polygon","coordinates":[[[-58.660535,-34.291503],[-58.658941,-34.291615],[-58.654006,-34.292678],[-58.653716,-34.293134],[-58.652879,-34.293626],[-58.652836,-34.293715],[-58.660701,-34.291945],[-58.660535,-34.291503]]]}},{"type":"Feature","properties":{"partida":"357000900","cca":"357000100000000000000022700A00000000008000","tipo":"Rural","sup_m2":47089.8},"geometry":{"type":"Polygon","coordinates":[[[-58.660701,-34.291945],[-58.652836,-34.293715],[-58.652533,-34.294362],[-58.66076,-34.292496],[-58.660784,-34.292257],[-58.660701,-34.291945]]]}},{"type":"Feature","properties":{"partida":"357000901","cca":"357000100000000000000022700A00000000009000","tipo":"Rural","sup_m2":47477.7},"geometry":{"type":"Polygon","coordinates":[[[-58.66076,-34.292496],[-58.652533,-34.294362],[-58.652246,-34.294972],[-58.66088,-34.293028],[-58.660752,-34.29257],[-58.66076,-34.292496]]]}},{"type":"Feature","properties":{"partida":"357000902","cca":"357000100000000000000022700A00000000010000","tipo":"Rural","sup_m2":42006.8},"geometry":{"type":"Polygon","coordinates":[[[-58.66088,-34.293028],[-58.652246,-34.294972],[-58.653083,-34.295277],[-58.661104,-34.293473],[-58.660918,-34.293165],[-58.66088,-34.293028]]]}},{"type":"Feature","properties":{"partida":"357000903","cca":"357000100000000000000022700A00000000011000","tipo":"Rural","sup_m2":36785.0},"geometry":{"type":"Polygon","coordinates":[[[-58.653865,-34.295562],[-58.661306,-34.293898],[-58.661207,-34.293645],[-58.661104,-34.293473],[-58.653083,-34.295277],[-58.653865,-34.295562]]]}},{"type":"Feature","properties":{"partida":"357000904","cca":"357000100000000000000022700A0000000001200A","tipo":"Urbano","sup_m2":1556.1},"geometry":{"type":"Polygon","coordinates":[[[-58.660438,-34.294092],[-58.660519,-34.294259],[-58.661367,-34.294053],[-58.661306,-34.293898],[-58.660438,-34.294092]]]}},{"type":"Feature","properties":{"partida":"357000905","cca":"357000100000000000000022700A0000000001200B","tipo":"Urbano","sup_m2":1528.3},"geometry":{"type":"Polygon","coordinates":[[[-58.661367,-34.294053],[-58.660519,-34.294259],[-58.660592,-34.294414],[-58.661404,-34.29423],[-58.661386,-34.294102],[-58.661367,-34.294053]]]}},{"type":"Feature","properties":{"partida":"357019838","cca":"357000100000000000000022700A0000000001200C","tipo":"Urbano","sup_m2":1570.1},"geometry":{"type":"Polygon","coordinates":[[[-58.660682,-34.294596],[-58.661429,-34.294416],[-58.661404,-34.29423],[-58.660592,-34.294414],[-58.660682,-34.294596]]]}},{"type":"Feature","properties":{"partida":"357000907","cca":"357000100000000000000022700A0000000001200D","tipo":"Urbano","sup_m2":1345.2},"geometry":{"type":"Polygon","coordinates":[[[-58.660682,-34.294596],[-58.660778,-34.294756],[-58.661454,-34.294597],[-58.661429,-34.294416],[-58.660682,-34.294596]]]}},{"type":"Feature","properties":{"partida":"357000908","cca":"357000100000000000000022700A0000000001200E","tipo":"Urbano","sup_m2":1655.5},"geometry":{"type":"Polygon","coordinates":[[[-58.661454,-34.294597],[-58.660778,-34.294756],[-58.660881,-34.294934],[-58.661524,-34.294888],[-58.661469,-34.294708],[-58.661454,-34.294597]]]}},{"type":"Feature","properties":{"partida":"357000909","cca":"357000100000000000000022700A0000000001300A","tipo":"Urbano","sup_m2":2548.8},"geometry":{"type":"Polygon","coordinates":[[[-58.660136,-34.294159],[-58.660599,-34.294953],[-58.660881,-34.294934],[-58.660682,-34.294596],[-58.660438,-34.294092],[-58.660136,-34.294159]]]}},{"type":"Feature","properties":{"partida":"357000910","cca":"357000100000000000000022700A0000000001300B","tipo":"Urbano","sup_m2":2154.7},"geometry":{"type":"Polygon","coordinates":[[[-58.660136,-34.294159],[-58.659932,-34.294205],[-58.660324,-34.295002],[-58.660599,-34.294953],[-58.660136,-34.294159]]]}},{"type":"Feature","properties":{"partida":"357000890","cca":"357000100000000000000022700A0000000001300C","tipo":"Urbano","sup_m2":1848.8},"geometry":{"type":"Polygon","coordinates":[[[-58.659932,-34.294205],[-58.659718,-34.294253],[-58.660113,-34.295026],[-58.660324,-34.295002],[-58.659932,-34.294205]]]}},{"type":"Feature","properties":{"partida":"357000891","cca":"357000100000000000000022700A0000000001300D","tipo":"Urbano","sup_m2":1955.5},"geometry":{"type":"Polygon","coordinates":[[[-58.659718,-34.294253],[-58.65951,-34.294299],[-58.659922,-34.295134],[-58.660113,-34.295026],[-58.659718,-34.294253]]]}},{"type":"Feature","properties":{"partida":"357000892","cca":"357000100000000000000022700A0000000001300E","tipo":"Urbano","sup_m2":2046.0},"geometry":{"type":"Polygon","coordinates":[[[-58.65951,-34.294299],[-58.659309,-34.294344],[-58.659749,-34.295262],[-58.659922,-34.295134],[-58.65951,-34.294299]]]}},{"type":"Feature","properties":{"partida":"357000911","cca":"357000100000000000000022700A0000000001300F","tipo":"Urbano","sup_m2":2387.4},"geometry":{"type":"Polygon","coordinates":[[[-58.659309,-34.294344],[-58.659093,-34.294393],[-58.659575,-34.295409],[-58.659749,-34.295262],[-58.659309,-34.294344]]]}},{"type":"Feature","properties":{"partida":"357000912","cca":"357000100000000000000022700A0000000001300G","tipo":"Urbano","sup_m2":2741.6},"geometry":{"type":"Polygon","coordinates":[[[-58.659575,-34.295409],[-58.659093,-34.294393],[-58.658878,-34.294441],[-58.659395,-34.295583],[-58.659575,-34.295409]]]}},{"type":"Feature","properties":{"partida":"357000913","cca":"357000100000000000000022700A0000000001300H","tipo":"Urbano","sup_m2":2518.3},"geometry":{"type":"Polygon","coordinates":[[[-58.658669,-34.294488],[-58.659282,-34.295728],[-58.659395,-34.295583],[-58.658878,-34.294441],[-58.658669,-34.294488]]]}},{"type":"Feature","properties":{"partida":"357000914","cca":"357000100000000000000022700A0000000001300J","tipo":"Urbano","sup_m2":3082.1},"geometry":{"type":"Polygon","coordinates":[[[-58.658669,-34.294488],[-58.658466,-34.294533],[-58.659137,-34.295913],[-58.659282,-34.295728],[-58.658669,-34.294488]]]}},{"type":"Feature","properties":{"partida":"357000915","cca":"357000100000000000000022700A0000000001300K","tipo":"Urbano","sup_m2":2998.0},"geometry":{"type":"Polygon","coordinates":[[[-58.659027,-34.296054],[-58.659137,-34.295913],[-58.658466,-34.294533],[-58.658259,-34.294579],[-58.659027,-34.296054]]]}},{"type":"Feature","properties":{"partida":"357000916","cca":"357000100000000000000022700A0000000001300M","tipo":"Urbano","sup_m2":3200.2},"geometry":{"type":"Polygon","coordinates":[[[-58.658259,-34.294579],[-58.658042,-34.294628],[-58.658927,-34.296182],[-58.659027,-34.296054],[-58.658259,-34.294579]]]}},{"type":"Feature","properties":{"partida":"357000917","cca":"357000100000000000000022700A0000000001300N","tipo":"Urbano","sup_m2":3833.2},"geometry":{"type":"Polygon","coordinates":[[[-58.657839,-34.294673],[-58.658791,-34.296356],[-58.658927,-34.296182],[-58.658042,-34.294628],[-58.657839,-34.294673]]]}},{"type":"Feature","properties":{"partida":"357000918","cca":"357000100000000000000022700A0000000001300P","tipo":"Rural","sup_m2":48248.4},"geometry":{"type":"Polygon","coordinates":[[[-58.658485,-34.296695],[-58.658791,-34.296356],[-58.657839,-34.294673],[-58.653865,-34.295562],[-58.658485,-34.296695]]]}},{"type":"Feature","properties":{"partida":"357000920","cca":"357000100000000000000023300A00000000002000","tipo":"Urbano","sup_m2":1687.5},"geometry":{"type":"Polygon","coordinates":[[[-58.662487,-34.298232],[-58.662308,-34.297841],[-58.661931,-34.297979],[-58.662118,-34.298348],[-58.662487,-34.298232]]]}},{"type":"Feature","properties":{"partida":"357019953","cca":"357000100000000000000023300A00000000004000","tipo":"Urbano","sup_m2":2576.0},"geometry":{"type":"Polygon","coordinates":[[[-58.6627,-34.298165],[-58.661585,-34.298519],[-58.661673,-34.298678],[-58.66279,-34.298406],[-58.6627,-34.298165]]]}},{"type":"Feature","properties":{"partida":"357000923","cca":"357000100000000000000023300A00000000005000","tipo":"Urbano","sup_m2":2064.9},"geometry":{"type":"Polygon","coordinates":[[[-58.661765,-34.298845],[-58.662833,-34.298575],[-58.66279,-34.298406],[-58.661673,-34.298678],[-58.661765,-34.298845]]]}},{"type":"Feature","properties":{"partida":"357019954","cca":"357000100000000000000023300A00000000006000","tipo":"Urbano","sup_m2":2196.4},"geometry":{"type":"Polygon","coordinates":[[[-58.661863,-34.299022],[-58.662903,-34.298765],[-58.662833,-34.298575],[-58.661765,-34.298845],[-58.661863,-34.299022]]]}},{"type":"Feature","properties":{"partida":"357000925","cca":"357000100000000000000023300A00000000007000","tipo":"Urbano","sup_m2":1971.7},"geometry":{"type":"Polygon","coordinates":[[[-58.663084,-34.298911],[-58.663051,-34.298893],[-58.662999,-34.298916],[-58.662958,-34.298915],[-58.662932,-34.298901],[-58.662903,-34.298765],[-58.661863,-34.299022],[-58.661952,-34.299184],[-58.663084,-34.298911]]]}},{"type":"Feature","properties":{"partida":"357000926","cca":"357000100000000000000023300A00000000008000","tipo":"Urbano","sup_m2":1965.6},"geometry":{"type":"Polygon","coordinates":[[[-58.663069,-34.299099],[-58.663002,-34.29897],[-58.662982,-34.298954],[-58.663023,-34.298945],[-58.663084,-34.298911],[-58.661952,-34.299184],[-58.662044,-34.29935],[-58.663069,-34.299099]]]}},{"type":"Feature","properties":{"partida":"357000927","cca":"357000100000000000000023300A00000000009000","tipo":"Urbano","sup_m2":1840.6},"geometry":{"type":"Polygon","coordinates":[[[-58.662132,-34.29951],[-58.663135,-34.299255],[-58.663069,-34.299099],[-58.662044,-34.29935],[-58.662132,-34.29951]]]}},{"type":"Feature","properties":{"partida":"357000928","cca":"357000100000000000000023300A00000000010000","tipo":"Urbano","sup_m2":1643.3},"geometry":{"type":"Polygon","coordinates":[[[-58.662213,-34.299656],[-58.663161,-34.299426],[-58.663118,-34.299396],[-58.663089,-34.299371],[-58.663093,-34.299333],[-58.663135,-34.299255],[-58.662132,-34.29951],[-58.662213,-34.299656]]]}},{"type":"Feature","properties":{"partida":"357000929","cca":"357000100000000000000023300A00000000011000","tipo":"Urbano","sup_m2":1857.0},"geometry":{"type":"Polygon","coordinates":[[[-58.662312,-34.299836],[-58.663144,-34.299635],[-58.663161,-34.299426],[-58.662213,-34.299656],[-58.662312,-34.299836]]]}},{"type":"Feature","properties":{"partida":"357000930","cca":"357000100000000000000023300A00000000012000","tipo":"Urbano","sup_m2":1427.7},"geometry":{"type":"Polygon","coordinates":[[[-58.662395,-34.299986],[-58.663233,-34.299785],[-58.663179,-34.299766],[-58.663144,-34.299635],[-58.662312,-34.299836],[-58.662395,-34.299986]]]}},{"type":"Feature","properties":{"partida":"357000931","cca":"357000100000000000000023300A00000000013000","tipo":"Urbano","sup_m2":1608.0},"geometry":{"type":"Polygon","coordinates":[[[-58.662481,-34.300143],[-58.663304,-34.299954],[-58.663337,-34.299858],[-58.663316,-34.299841],[-58.663296,-34.299816],[-58.663272,-34.299791],[-58.663233,-34.299785],[-58.662395,-34.299986],[-58.662481,-34.300143]]]}},{"type":"Feature","properties":{"partida":"357000941","cca":"357000100000000000000023300A00000000014000","tipo":"Urbano","sup_m2":1537.5},"geometry":{"type":"Polygon","coordinates":[[[-58.662567,-34.300298],[-58.66341,-34.300117],[-58.663304,-34.299954],[-58.662481,-34.300143],[-58.662567,-34.300298]]]}},{"type":"Feature","properties":{"partida":"357000932","cca":"357000100000000000000023300A00000000015000","tipo":"Urbano","sup_m2":1600.1},"geometry":{"type":"Polygon","coordinates":[[[-58.662665,-34.300475],[-58.663444,-34.300297],[-58.66341,-34.300117],[-58.662567,-34.300298],[-58.662665,-34.300475]]]}},{"type":"Feature","properties":{"partida":"357000933","cca":"357000100000000000000023300A00000000016000","tipo":"Urbano","sup_m2":1413.4},"geometry":{"type":"Polygon","coordinates":[[[-58.662758,-34.300643],[-58.663555,-34.300429],[-58.663444,-34.300297],[-58.662665,-34.300475],[-58.662758,-34.300643]]]}},{"type":"Feature","properties":{"partida":"357000934","cca":"357000100000000000000023300A00000000017000","tipo":"Urbano","sup_m2":1375.5},"geometry":{"type":"Polygon","coordinates":[[[-58.662842,-34.300796],[-58.663482,-34.300648],[-58.663555,-34.300429],[-58.662758,-34.300643],[-58.662842,-34.300796]]]}},{"type":"Feature","properties":{"partida":"357000935","cca":"357000100000000000000023300A00000000018000","tipo":"Urbano","sup_m2":2752.8},"geometry":{"type":"Polygon","coordinates":[[[-58.66311,-34.301282],[-58.663602,-34.300949],[-58.663482,-34.300648],[-58.662842,-34.300796],[-58.66311,-34.301282]]]}},{"type":"Feature","properties":{"partida":"357000936","cca":"357000100000000000000023300A00000000019000","tipo":"Urbano","sup_m2":472.3},"geometry":{"type":"Polygon","coordinates":[[[-58.66311,-34.301282],[-58.663691,-34.301077],[-58.663602,-34.300949],[-58.66311,-34.301282]]]}},{"type":"Feature","properties":{"partida":"357000937","cca":"357000100000000000000023300A00000000020000","tipo":"Urbano","sup_m2":1014.8},"geometry":{"type":"Polygon","coordinates":[[[-58.6632,-34.301445],[-58.663688,-34.301253],[-58.663691,-34.301077],[-58.66311,-34.301282],[-58.6632,-34.301445]]]}},{"type":"Feature","properties":{"partida":"357019955","cca":"357000100000000000000023300A00000000021000","tipo":"Urbano","sup_m2":1080.5},"geometry":{"type":"Polygon","coordinates":[[[-58.663919,-34.301364],[-58.663819,-34.301274],[-58.663731,-34.30133],[-58.663703,-34.301384],[-58.663622,-34.301402],[-58.663596,-34.301366],[-58.663652,-34.301316],[-58.663688,-34.301253],[-58.6632,-34.301445],[-58.663295,-34.301618],[-58.663919,-34.301364]]]}},{"type":"Feature","properties":{"partida":"357019956","cca":"357000100000000000000023300A00000000022000","tipo":"Urbano","sup_m2":1193.5},"geometry":{"type":"Polygon","coordinates":[[[-58.663386,-34.301783],[-58.663973,-34.301524],[-58.663919,-34.301364],[-58.663295,-34.301618],[-58.663386,-34.301783]]]}},{"type":"Feature","properties":{"partida":"357000939","cca":"357000100000000000000023300A00000000023000","tipo":"Urbano","sup_m2":1232.0},"geometry":{"type":"Polygon","coordinates":[[[-58.663479,-34.30195],[-58.664033,-34.301714],[-58.663973,-34.301524],[-58.663386,-34.301783],[-58.663479,-34.30195]]]}},{"type":"Feature","properties":{"partida":"357000940","cca":"357000100000000000000023300A00000000024000","tipo":"Urbano","sup_m2":1135.2},"geometry":{"type":"Polygon","coordinates":[[[-58.663479,-34.30195],[-58.663597,-34.302163],[-58.663962,-34.302014],[-58.663902,-34.301922],[-58.663897,-34.301879],[-58.663907,-34.301856],[-58.663967,-34.301832],[-58.663999,-34.301826],[-58.664015,-34.301787],[-58.664033,-34.301714],[-58.663479,-34.30195]]]}},{"type":"Feature","properties":{"partida":"357002207","cca":"357000100000000000000023300B00000000000000","tipo":"Rural","sup_m2":1056585.6},"geometry":{"type":"Polygon","coordinates":[[[-58.649591,-34.312014],[-58.660995,-34.307856],[-58.660977,-34.307779],[-58.659198,-34.303937],[-58.663597,-34.302163],[-58.661585,-34.298519],[-58.662118,-34.298348],[-58.661931,-34.297979],[-58.662308,-34.297841],[-58.662064,-34.297096],[-58.661415,-34.295154],[-58.660329,-34.29528],[-58.659875,-34.295526],[-58.659677,-34.295624],[-58.659629,-34.295658],[-58.659328,-34.296504],[-58.659301,-34.297396],[-58.659096,-34.298037],[-58.658616,-34.298712],[-58.658203,-34.298941],[-58.657902,-34.298999],[-58.657668,-34.299021],[-58.657008,-34.299101],[-58.656142,-34.299273],[-58.655377,-34.30022],[-58.655129,-34.300944],[-58.654854,-34.301308],[-58.654254,-34.302162],[-58.65396,-34.302625],[-58.65384,-34.302919],[-58.653767,-34.303401],[-58.653983,-34.304121],[-58.654146,-34.304577],[-58.65397,-34.305454],[-58.653635,-34.306205],[-58.653357,-34.306928],[-58.653034,-34.307522],[-58.652661,-34.307732],[-58.652228,-34.30775],[-58.651721,-34.307804],[-58.651043,-34.307658],[-58.650517,-34.307491],[-58.649796,-34.307315],[-58.649245,-34.307194],[-58.648803,-34.307123],[-58.648477,-34.307101],[-58.648119,-34.307122],[-58.647565,-34.307284],[-58.647292,-34.307522],[-58.646805,-34.308052],[-58.646123,-34.308432],[-58.645944,-34.308499],[-58.646051,-34.308556],[-58.646074,-34.30862],[-58.646162,-34.308606],[-58.646239,-34.308622],[-58.646296,-34.30868],[-58.646347,-34.308724],[-58.646385,-34.308765],[-58.647462,-34.308282],[-58.649405,-34.311697],[-58.649591,-34.312014]]]}},{"type":"Feature","properties":{"partida":"357000942","cca":"357000100000000000000023500A00000000001000","tipo":"Rural","sup_m2":69667.2},"geometry":{"type":"Polygon","coordinates":[[[-58.664508,-34.303179],[-58.664186,-34.302736],[-58.66418,-34.30227],[-58.663962,-34.302014],[-58.659198,-34.303937],[-58.659777,-34.305188],[-58.664508,-34.303179]]]}},{"type":"Feature","properties":{"partida":"357000943","cca":"357000100000000000000023500A00000000002000","tipo":"Rural","sup_m2":71375.6},"geometry":{"type":"Polygon","coordinates":[[[-58.664928,-34.304479],[-58.664948,-34.304354],[-58.664945,-34.304254],[-58.664927,-34.304123],[-58.664893,-34.30401],[-58.664845,-34.303914],[-58.6648,-34.303903],[-58.664666,-34.303946],[-58.664593,-34.303899],[-58.664663,-34.303798],[-58.66468,-34.303732],[-58.664475,-34.303332],[-58.664508,-34.303179],[-58.659777,-34.305188],[-58.660365,-34.306458],[-58.664928,-34.304479]]]}},{"type":"Feature","properties":{"partida":"357000944","cca":"357000100000000000000023500A00000000003000","tipo":"Rural","sup_m2":34786.1},"geometry":{"type":"Polygon","coordinates":[[[-58.664928,-34.304479],[-58.660365,-34.306458],[-58.660639,-34.30705],[-58.665169,-34.305164],[-58.665019,-34.304691],[-58.664928,-34.304479]]]}},{"type":"Feature","properties":{"partida":"357000945","cca":"357000100000000000000023500A00000000004000","tipo":"Rural","sup_m2":44163.8},"geometry":{"type":"Polygon","coordinates":[[[-58.665169,-34.305164],[-58.660639,-34.30705],[-58.660977,-34.307779],[-58.660995,-34.307856],[-58.665377,-34.30604],[-58.665351,-34.305965],[-58.665409,-34.305905],[-58.665468,-34.305913],[-58.665517,-34.305869],[-58.665569,-34.305813],[-58.66546,-34.305749],[-58.665425,-34.305672],[-58.665311,-34.305573],[-58.665169,-34.305164]]]}},{"type":"Feature","properties":{"partida":"357001268","cca":"357000100000000000000027700A00000000000000","tipo":"Rural","sup_m2":143581.8},"geometry":{"type":"MultiPolygon","coordinates":[[[[-58.652246,-34.294972],[-58.652207,-34.295055],[-58.651762,-34.29666],[-58.652007,-34.296756],[-58.652507,-34.296933],[-58.656044,-34.298409],[-58.65728,-34.29888],[-58.657375,-34.298305],[-58.657518,-34.298119],[-58.657667,-34.297836],[-58.658059,-34.297339],[-58.658485,-34.296695],[-58.654006,-34.295615],[-58.653865,-34.295562],[-58.652246,-34.294972]]],[[[-58.657447,-34.298357],[-58.657362,-34.298874],[-58.657937,-34.298833],[-58.658349,-34.298604],[-58.658828,-34.297931],[-58.659011,-34.29736],[-58.658542,-34.296768],[-58.658131,-34.29739],[-58.65774,-34.297887],[-58.65759,-34.29817],[-58.657447,-34.298357]]]]}},{"type":"Feature","properties":{"partida":"357001602","cca":"357000100000000000000028300000000000000000","tipo":"Rural","sup_m2":145475.1},"geometry":{"type":"Polygon","coordinates":[[[-58.643594,-34.293585],[-58.645719,-34.294074],[-58.646818,-34.294097],[-58.647134,-34.294165],[-58.646505,-34.294592],[-58.651424,-34.296566],[-58.651762,-34.29666],[-58.652207,-34.295055],[-58.652246,-34.294972],[-58.643909,-34.291936],[-58.643491,-34.292394],[-58.643615,-34.293321],[-58.643594,-34.293585]]]}},{"type":"Feature","properties":{"partida":"357020376","cca":"357000100000000000000028500000000000000000","tipo":"Rural","sup_m2":22668.8},"geometry":{"type":"Polygon","coordinates":[[[-58.65728,-34.29888],[-58.656044,-34.298409],[-58.6536,-34.299145],[-58.655038,-34.300017],[-58.655755,-34.299132],[-58.65662,-34.29896],[-58.65728,-34.29888]]]}},{"type":"Feature","properties":{"partida":"357001622","cca":"35700010000000000000002860000000000000100A","tipo":"Rural","sup_m2":129032.9},"geometry":{"type":"Polygon","coordinates":[[[-58.640563,-34.295959],[-58.64045,-34.296378],[-58.640428,-34.296434],[-58.640948,-34.296606],[-58.64092,-34.296565],[-58.640931,-34.296484],[-58.640953,-34.296436],[-58.64099,-34.2964],[-58.641007,-34.296366],[-58.641001,-34.296305],[-58.640992,-34.29626],[-58.641038,-34.296258],[-58.641055,-34.296297],[-58.641036,-34.296323],[-58.641017,-34.296394],[-58.640963,-34.296479],[-58.640958,-34.296543],[-58.640962,-34.296582],[-58.641058,-34.29663],[-58.641125,-34.296642],[-58.641194,-34.296659],[-58.641246,-34.296678],[-58.641379,-34.296705],[-58.64143,-34.296724],[-58.641541,-34.296773],[-58.641694,-34.296831],[-58.641874,-34.296893],[-58.641901,-34.296893],[-58.641924,-34.296908],[-58.641988,-34.296933],[-58.642018,-34.296937],[-58.642074,-34.296955],[-58.642154,-34.296987],[-58.642185,-34.296992],[-58.642301,-34.297035],[-58.642357,-34.297045],[-58.642376,-34.29706],[-58.642433,-34.297068],[-58.642447,-34.297077],[-58.642909,-34.297229],[-58.643049,-34.297243],[-58.643518,-34.297325],[-58.643631,-34.297343],[-58.644108,-34.297437],[-58.644301,-34.29744],[-58.644829,-34.297534],[-58.645178,-34.297587],[-58.645208,-34.297602],[-58.645323,-34.297634],[-58.645412,-34.29764],[-58.645739,-34.297699],[-58.645825,-34.297694],[-58.645839,-34.297709],[-58.645921,-34.297721],[-58.645996,-34.297728],[-58.646142,-34.297754],[-58.649233,-34.298209],[-58.648859,-34.298548],[-58.648532,-34.298881],[-58.653888,-34.29932],[-58.656416,-34.298564],[-58.652507,-34.296933],[-58.650759,-34.29828],[-58.643243,-34.296868],[-58.640563,-34.295959]]]}},{"type":"Feature","properties":{"partida":"357001623","cca":"357000100000000000000028600000000000002000","tipo":"Rural","sup_m2":78879.8},"geometry":{"type":"Polygon","coordinates":[[[-58.643428,-34.294099],[-58.644179,-34.294807],[-58.648224,-34.296195],[-58.649169,-34.296507],[-58.650667,-34.29714],[-58.651424,-34.296566],[-58.646505,-34.294592],[-58.647134,-34.294165],[-58.646818,-34.294097],[-58.645719,-34.294074],[-58.643594,-34.293585],[-58.643561,-34.293984],[-58.643428,-34.294099]]]}},{"type":"Feature","properties":{"partida":"357001635","cca":"35700010000000000000002860000000000001500A","tipo":"Rural","sup_m2":33392.9},"geometry":{"type":"Polygon","coordinates":[[[-58.641914,-34.294986],[-58.641885,-34.295002],[-58.641223,-34.295302],[-58.643496,-34.296329],[-58.649823,-34.29778],[-58.650032,-34.297622],[-58.64364,-34.295906],[-58.641914,-34.294986]]]}},{"type":"Feature","properties":{"partida":"357001637","cca":"35700010000000000000002860000000000001500C","tipo":"Rural","sup_m2":30449.9},"geometry":{"type":"Polygon","coordinates":[[[-58.640563,-34.295959],[-58.643243,-34.296868],[-58.650759,-34.29828],[-58.652507,-34.296933],[-58.652007,-34.296756],[-58.650308,-34.298052],[-58.643318,-34.296658],[-58.640636,-34.295712],[-58.640582,-34.295883],[-58.640563,-34.295959]]]}},{"type":"Feature","properties":{"partida":"357001648","cca":"357000100000000000000028700000000000004000","tipo":"Rural","sup_m2":89657.5},"geometry":{"type":"Polygon","coordinates":[[[-58.64195,-34.30314],[-58.643211,-34.302827],[-58.650552,-34.301427],[-58.650068,-34.300809],[-58.644943,-34.301104],[-58.642723,-34.302098],[-58.641593,-34.3026],[-58.641658,-34.302641],[-58.641706,-34.302739],[-58.641667,-34.302822],[-58.641655,-34.302873],[-58.641706,-34.302941],[-58.641736,-34.303],[-58.641794,-34.303067],[-58.641897,-34.303067],[-58.64195,-34.30314]]]}},{"type":"Feature","properties":{"partida":"357001649","cca":"357000100000000000000028700A00000000000000","tipo":"Rural","sup_m2":648373.7},"geometry":{"type":"Polygon","coordinates":[[[-58.655038,-34.300017],[-58.653888,-34.29932],[-58.648532,-34.298881],[-58.6486,-34.298975],[-58.648958,-34.299393],[-58.650552,-34.301427],[-58.643211,-34.302827],[-58.64428,-34.304323],[-58.645109,-34.305963],[-58.644095,-34.306451],[-58.644113,-34.30648],[-58.644089,-34.306497],[-58.644078,-34.30651],[-58.644096,-34.306562],[-58.644161,-34.306572],[-58.644162,-34.306591],[-58.644142,-34.306622],[-58.644193,-34.306671],[-58.644233,-34.30667],[-58.644245,-34.306712],[-58.644223,-34.306748],[-58.644328,-34.306907],[-58.644366,-34.306938],[-58.644329,-34.306971],[-58.644406,-34.307112],[-58.644475,-34.307167],[-58.644488,-34.307234],[-58.644407,-34.307309],[-58.644426,-34.307362],[-58.644475,-34.307454],[-58.64449,-34.307513],[-58.644546,-34.307619],[-58.644724,-34.307699],[-58.644726,-34.307796],[-58.644772,-34.307862],[-58.644815,-34.30791],[-58.64487,-34.307962],[-58.645006,-34.308056],[-58.645555,-34.308415],[-58.645734,-34.308348],[-58.646416,-34.307968],[-58.646903,-34.307438],[-58.647176,-34.3072],[-58.64773,-34.307038],[-58.64811,-34.306957],[-58.64839,-34.306944],[-58.648923,-34.306999],[-58.649431,-34.3071],[-58.650142,-34.307266],[-58.651296,-34.307583],[-58.651839,-34.307666],[-58.652562,-34.307358],[-58.652968,-34.306844],[-58.653246,-34.306121],[-58.653581,-34.30537],[-58.653757,-34.304493],[-58.653378,-34.303317],[-58.653451,-34.302835],[-58.653571,-34.302541],[-58.653865,-34.302078],[-58.654465,-34.301224],[-58.65474,-34.30086],[-58.655038,-34.300017]]]}}]}