{"type":"FeatureCollection","features":[{"type":"Feature","properties":{"partida":null,"cca":"057150C0254000000000000050000000000008400A","tipo":null,"sup_m2":345.8},"geometry":{"type":"Polygon","coordinates":[[[-61.876454,-37.554945],[-61.876286,-37.554913],[-61.876237,-37.555119],[-61.876402,-37.555146],[-61.876454,-37.554945]]]}},{"type":"Feature","properties":{"partida":null,"cca":"057150C02540000000000000500000000000084RTE","tipo":null,"sup_m2":2496.6},"geometry":{"type":"Polygon","coordinates":[[[-61.876393,-37.554465],[-61.876286,-37.554913],[-61.876454,-37.554945],[-61.876402,-37.555146],[-61.876237,-37.555119],[-61.876126,-37.555586],[-61.876376,-37.555623],[-61.876642,-37.554502],[-61.876393,-37.554465]]]}}]}