{"type":"FeatureCollection","features":[{"type":"Feature","properties":{"partida":"357001105","cca":"357000100000000000000026600000000000007000","tipo":"Rural","sup_m2":23422.6},"geometry":{"type":"Polygon","coordinates":[[[-58.645336,-34.269488],[-58.644663,-34.269786],[-58.644491,-34.269826],[-58.643814,-34.273144],[-58.644461,-34.272927],[-58.645336,-34.269488]]]}},{"type":"Feature","properties":{"partida":"357001124","cca":"357000100000000000000026600000000000020000","tipo":"Rural","sup_m2":74174.9},"geometry":{"type":"Polygon","coordinates":[[[-58.647317,-34.281136],[-58.647331,-34.28088],[-58.647354,-34.280649],[-58.647416,-34.28039],[-58.647441,-34.279982],[-58.647476,-34.279755],[-58.642358,-34.278533],[-58.642185,-34.279907],[-58.647317,-34.281136]]]}},{"type":"Feature","properties":{"partida":"357001125","cca":"357000100000000000000026600000000000021000","tipo":"Rural","sup_m2":77347.3},"geometry":{"type":"Polygon","coordinates":[[[-58.642007,-34.281296],[-58.647135,-34.282609],[-58.647172,-34.28213],[-58.647271,-34.281642],[-58.647304,-34.281372],[-58.647317,-34.281136],[-58.642185,-34.279907],[-58.642007,-34.281296]]]}},{"type":"Feature","properties":{"partida":"357001126","cca":"357000100000000000000026600000000000022000","tipo":"Rural","sup_m2":89841.6},"geometry":{"type":"Polygon","coordinates":[[[-58.641625,-34.283021],[-58.646091,-34.28413],[-58.646675,-34.2836],[-58.647135,-34.282609],[-58.642007,-34.281296],[-58.641968,-34.2816],[-58.641625,-34.283021]]]}},{"type":"Feature","properties":{"partida":"357001127","cca":"35700010000000000000002660000000000002300A","tipo":"Urbano","sup_m2":6732.8},"geometry":{"type":"Polygon","coordinates":[[[-58.644487,-34.284174],[-58.64611,-34.284498],[-58.646143,-34.284317],[-58.646179,-34.284152],[-58.644516,-34.283739],[-58.644487,-34.284174]]]}},{"type":"Feature","properties":{"partida":"357001128","cca":"357000100000000000000026600000000000024000","tipo":"Rural","sup_m2":21404.3},"geometry":{"type":"Polygon","coordinates":[[[-58.644516,-34.283739],[-58.641625,-34.283021],[-58.641493,-34.283792],[-58.644475,-34.284357],[-58.644516,-34.283739]]]}},{"type":"Feature","properties":{"partida":"357001131","cca":"357000100000000000000026600000000000028000","tipo":"Rural","sup_m2":22687.6},"geometry":{"type":"Polygon","coordinates":[[[-58.644425,-34.285104],[-58.644475,-34.284357],[-58.641493,-34.283792],[-58.641375,-34.284484],[-58.644425,-34.285104]]]}},{"type":"Feature","properties":{"partida":"357001136","cca":"357000100000000000000026600000000000033000","tipo":"Rural","sup_m2":22805.9},"geometry":{"type":"Polygon","coordinates":[[[-58.644376,-34.285829],[-58.644425,-34.285104],[-58.641375,-34.284484],[-58.641257,-34.285173],[-58.644376,-34.285829]]]}},{"type":"Feature","properties":{"partida":null,"cca":"35700010000000000000002660000000000003800A","tipo":null,"sup_m2":26669.4},"geometry":{"type":"Polygon","coordinates":[[[-58.646182,-34.286347],[-58.644365,-34.286001],[-58.644376,-34.285829],[-58.641257,-34.285173],[-58.641139,-34.285862],[-58.644328,-34.286556],[-58.644353,-34.286178],[-58.646101,-34.286512],[-58.646182,-34.286347]]]}},{"type":"Feature","properties":{"partida":"357001146","cca":"357000100000000000000026600000000000043000","tipo":"Rural","sup_m2":23929.1},"geometry":{"type":"Polygon","coordinates":[[[-58.644279,-34.287287],[-58.644328,-34.286556],[-58.641139,-34.285862],[-58.641022,-34.286546],[-58.644279,-34.287287]]]}},{"type":"Feature","properties":{"partida":"357001148","cca":"357000100000000000000026600000000000045000","tipo":"Urbano","sup_m2":2618.2},"geometry":{"type":"Polygon","coordinates":[[[-58.644291,-34.287104],[-58.645697,-34.287358],[-58.645738,-34.287185],[-58.644303,-34.286927],[-58.644291,-34.287104]]]}},{"type":"Feature","properties":{"partida":"357001149","cca":"357000100000000000000026600000000000046000","tipo":"Urbano","sup_m2":2621.7},"geometry":{"type":"Polygon","coordinates":[[[-58.644291,-34.287104],[-58.644279,-34.287287],[-58.645637,-34.287534],[-58.645697,-34.287358],[-58.644291,-34.287104]]]}},{"type":"Feature","properties":{"partida":"357001150","cca":"357000100000000000000026600000000000047000","tipo":"Urbano","sup_m2":2573.2},"geometry":{"type":"Polygon","coordinates":[[[-58.644266,-34.287475],[-58.645593,-34.28771],[-58.645637,-34.287534],[-58.644279,-34.287287],[-58.644266,-34.287475]]]}},{"type":"Feature","properties":{"partida":null,"cca":"357000100000000000000026600000000000048000","tipo":null,"sup_m2":24217.0},"geometry":{"type":"Polygon","coordinates":[[[-58.644279,-34.287287],[-58.641022,-34.286546],[-58.640904,-34.287234],[-58.644231,-34.288002],[-58.644279,-34.287287]]]}},{"type":"Feature","properties":{"partida":"357001152","cca":"357000100000000000000026600000000000049000","tipo":"Urbano","sup_m2":2465.1},"geometry":{"type":"Polygon","coordinates":[[[-58.644254,-34.287656],[-58.645522,-34.287879],[-58.645578,-34.287889],[-58.645593,-34.28771],[-58.644266,-34.287475],[-58.644254,-34.287656]]]}},{"type":"Feature","properties":{"partida":"357001153","cca":"357000100000000000000026600000000000050000","tipo":"Urbano","sup_m2":2382.0},"geometry":{"type":"Polygon","coordinates":[[[-58.644243,-34.28783],[-58.6455,-34.288052],[-58.645574,-34.288065],[-58.645564,-34.28799],[-58.645493,-34.287977],[-58.645564,-34.287989],[-58.645578,-34.287889],[-58.644254,-34.287656],[-58.644243,-34.28783]]]}},{"type":"Feature","properties":{"partida":"357001154","cca":"357000100000000000000026600000000000051000","tipo":"Urbano","sup_m2":2340.2},"geometry":{"type":"Polygon","coordinates":[[[-58.644243,-34.28783],[-58.644231,-34.288002],[-58.645579,-34.288234],[-58.645574,-34.288065],[-58.644243,-34.28783]]]}},{"type":"Feature","properties":{"partida":"357001155","cca":"357000100000000000000026600000000000052000","tipo":"Urbano","sup_m2":2479.6},"geometry":{"type":"Polygon","coordinates":[[[-58.644221,-34.288184],[-58.64554,-34.288408],[-58.645579,-34.288234],[-58.644231,-34.288002],[-58.644227,-34.288135],[-58.644221,-34.288184]]]}},{"type":"Feature","properties":{"partida":"357001156","cca":"357000100000000000000026600000000000053000","tipo":"Urbano","sup_m2":2449.4},"geometry":{"type":"Polygon","coordinates":[[[-58.644197,-34.288356],[-58.645545,-34.28859],[-58.645566,-34.288593],[-58.64554,-34.288408],[-58.645529,-34.288406],[-58.644221,-34.288184],[-58.644197,-34.288356]]]}},{"type":"Feature","properties":{"partida":"357001157","cca":"357000100000000000000026600000000000054000","tipo":"Urbano","sup_m2":2496.2},"geometry":{"type":"Polygon","coordinates":[[[-58.644174,-34.288527],[-58.64558,-34.288771],[-58.645585,-34.288682],[-58.645552,-34.288678],[-58.645585,-34.288681],[-58.645566,-34.288593],[-58.644197,-34.288356],[-58.644174,-34.288527]]]}},{"type":"Feature","properties":{"partida":"357001159","cca":"35700010000000000000002670000000000000200B","tipo":"Rural","sup_m2":38907.1},"geometry":{"type":"Polygon","coordinates":[[[-58.642361,-34.270327],[-58.641641,-34.270496],[-58.641092,-34.270553],[-58.640597,-34.270565],[-58.639787,-34.270908],[-58.63976,-34.271183],[-58.639925,-34.272006],[-58.640805,-34.272154],[-58.640818,-34.272051],[-58.640956,-34.271983],[-58.641079,-34.272074],[-58.641121,-34.272257],[-58.641574,-34.272406],[-58.641561,-34.272509],[-58.641906,-34.272554],[-58.642361,-34.270327]]]}},{"type":"Feature","properties":{"partida":"357001158","cca":"35700010000000000000002670000000000000200C","tipo":"Urbano","sup_m2":5727.3},"geometry":{"type":"Polygon","coordinates":[[[-58.644292,-34.269873],[-58.643697,-34.272789],[-58.643882,-34.272813],[-58.644491,-34.269826],[-58.644292,-34.269873]]]}},{"type":"Feature","properties":{"partida":"357000138","cca":"35700010000000000000002670000000000000200D","tipo":"Urbano","sup_m2":5854.5},"geometry":{"type":"Polygon","coordinates":[[[-58.644083,-34.269922],[-58.643503,-34.272763],[-58.643697,-34.272789],[-58.644292,-34.269873],[-58.644083,-34.269922]]]}},{"type":"Feature","properties":{"partida":"357000143","cca":"35700010000000000000002670000000000000200E","tipo":"Urbano","sup_m2":5924.2},"geometry":{"type":"Polygon","coordinates":[[[-58.643866,-34.269973],[-58.643301,-34.272737],[-58.643503,-34.272763],[-58.644083,-34.269922],[-58.643866,-34.269973]]]}},{"type":"Feature","properties":{"partida":"357000140","cca":"35700010000000000000002670000000000000200F","tipo":"Urbano","sup_m2":5747.2},"geometry":{"type":"Polygon","coordinates":[[[-58.643649,-34.270024],[-58.6431,-34.272711],[-58.643301,-34.272737],[-58.643866,-34.269973],[-58.643649,-34.270024]]]}},{"type":"Feature","properties":{"partida":"357000128","cca":"35700010000000000000002670000000000000200G","tipo":"Urbano","sup_m2":5387.8},"geometry":{"type":"Polygon","coordinates":[[[-58.64344,-34.270073],[-58.642906,-34.272685],[-58.6431,-34.272711],[-58.643649,-34.270024],[-58.64344,-34.270073]]]}},{"type":"Feature","properties":{"partida":"357000126","cca":"35700010000000000000002670000000000000200H","tipo":"Urbano","sup_m2":5438.1},"geometry":{"type":"Polygon","coordinates":[[[-58.643223,-34.270124],[-58.642705,-34.272659],[-58.642906,-34.272685],[-58.64344,-34.270073],[-58.643223,-34.270124]]]}},{"type":"Feature","properties":{"partida":"357000083","cca":"35700010000000000000002670000000000000200J","tipo":"Urbano","sup_m2":5302.5},"geometry":{"type":"Polygon","coordinates":[[[-58.643004,-34.270176],[-58.642503,-34.272632],[-58.642705,-34.272659],[-58.643223,-34.270124],[-58.643004,-34.270176]]]}},{"type":"Feature","properties":{"partida":"357000084","cca":"35700010000000000000002670000000000000200K","tipo":"Urbano","sup_m2":5099.4},"geometry":{"type":"Polygon","coordinates":[[[-58.642787,-34.270227],[-58.642302,-34.272606],[-58.642503,-34.272632],[-58.643004,-34.270176],[-58.642787,-34.270227]]]}},{"type":"Feature","properties":{"partida":"357000085","cca":"35700010000000000000002670000000000000200M","tipo":"Urbano","sup_m2":4762.9},"geometry":{"type":"Polygon","coordinates":[[[-58.642578,-34.270276],[-58.642108,-34.27258],[-58.642302,-34.272606],[-58.642787,-34.270227],[-58.642578,-34.270276]]]}},{"type":"Feature","properties":{"partida":"357000086","cca":"35700010000000000000002670000000000000200N","tipo":"Urbano","sup_m2":4789.9},"geometry":{"type":"Polygon","coordinates":[[[-58.642361,-34.270327],[-58.641906,-34.272554],[-58.642108,-34.27258],[-58.642578,-34.270276],[-58.642361,-34.270327]]]}},{"type":"Feature","properties":{"partida":"357001160","cca":"357000100000000000000026700000000000003000","tipo":"Rural","sup_m2":36064.4},"geometry":{"type":"Polygon","coordinates":[[[-58.643882,-34.272813],[-58.641561,-34.272509],[-58.640283,-34.27228],[-58.639939,-34.272338],[-58.639871,-34.272875],[-58.643644,-34.273979],[-58.643882,-34.272813]]]}},{"type":"Feature","properties":{"partida":"357019846","cca":"357000100000000000000026700000000000004000","tipo":"Urbano","sup_m2":45212.8},"geometry":{"type":"Polygon","coordinates":[[[-58.643406,-34.275165],[-58.643644,-34.273979],[-58.639871,-34.272875],[-58.639295,-34.273664],[-58.643406,-34.275165]]]}},{"type":"Feature","properties":{"partida":"357001162","cca":"357000100000000000000026700000000000005000","tipo":"Urbano","sup_m2":4633.8},"geometry":{"type":"Polygon","coordinates":[[[-58.639243,-34.273755],[-58.643386,-34.275267],[-58.643406,-34.275165],[-58.639295,-34.273664],[-58.639243,-34.273755]]]}},{"type":"Feature","properties":{"partida":"357001163","cca":"357000100000000000000026700000000000006000","tipo":"Urbano","sup_m2":7084.4},"geometry":{"type":"Polygon","coordinates":[[[-58.639144,-34.27393],[-58.643363,-34.275381],[-58.643386,-34.275267],[-58.639243,-34.273755],[-58.639144,-34.27393]]]}},{"type":"Feature","properties":{"partida":"357001164","cca":"35700010000000000000002670000000000000700A","tipo":"Urbano","sup_m2":6133.1},"geometry":{"type":"Polygon","coordinates":[[[-58.639043,-34.274108],[-58.64335,-34.275447],[-58.643363,-34.275381],[-58.639144,-34.27393],[-58.639043,-34.274108]]]}},{"type":"Feature","properties":{"partida":"357001165","cca":"35700010000000000000002670000000000000700B","tipo":"Urbano","sup_m2":6923.1},"geometry":{"type":"Polygon","coordinates":[[[-58.638941,-34.274287],[-58.643318,-34.275541],[-58.64335,-34.275447],[-58.639043,-34.274108],[-58.638941,-34.274287]]]}},{"type":"Feature","properties":{"partida":"357001166","cca":"35700010000000000000002670000000000000800A","tipo":"Urbano","sup_m2":3915.1},"geometry":{"type":"Polygon","coordinates":[[[-58.638856,-34.274437],[-58.643318,-34.275541],[-58.638941,-34.274287],[-58.638856,-34.274437]]]}},{"type":"Feature","properties":{"partida":"357001167","cca":"35700010000000000000002670000000000000800B","tipo":"Urbano","sup_m2":12708.4},"geometry":{"type":"Polygon","coordinates":[[[-58.638856,-34.274437],[-58.638678,-34.274751],[-58.643256,-34.275722],[-58.643318,-34.275541],[-58.638856,-34.274437]]]}},{"type":"Feature","properties":{"partida":"357001168","cca":"357000100000000000000026700000000000009000","tipo":"Urbano","sup_m2":15988.0},"geometry":{"type":"Polygon","coordinates":[[[-58.63844,-34.275057],[-58.641449,-34.275719],[-58.643199,-34.275892],[-58.643256,-34.275722],[-58.638678,-34.274751],[-58.63844,-34.275057]]]}},{"type":"Feature","properties":{"partida":"357001169","cca":"357000100000000000000026700000000000010000","tipo":"Urbano","sup_m2":13702.1},"geometry":{"type":"Polygon","coordinates":[[[-58.63844,-34.275057],[-58.638275,-34.27527],[-58.643055,-34.276315],[-58.643199,-34.275892],[-58.641449,-34.275719],[-58.63844,-34.275057]]]}},{"type":"Feature","properties":{"partida":"357001170","cca":"357000100000000000000026700000000000011000","tipo":"Urbano","sup_m2":16021.4},"geometry":{"type":"Polygon","coordinates":[[[-58.642952,-34.276619],[-58.643055,-34.276315],[-58.638275,-34.27527],[-58.638061,-34.275545],[-58.642952,-34.276619]]]}},{"type":"Feature","properties":{"partida":"357001171","cca":"35700010000000000000002670000000000001200A","tipo":"Rural","sup_m2":55498.2},"geometry":{"type":"Polygon","coordinates":[[[-58.637707,-34.276129],[-58.639522,-34.276517],[-58.63926,-34.277134],[-58.642537,-34.277841],[-58.642952,-34.276619],[-58.638061,-34.275545],[-58.637772,-34.275918],[-58.637707,-34.276129]]]}},{"type":"Feature","properties":{"partida":"357019296","cca":"35700010000000000000002670000000000001200B","tipo":"Rural","sup_m2":12225.5},"geometry":{"type":"Polygon","coordinates":[[[-58.637707,-34.276129],[-58.637514,-34.276758],[-58.63926,-34.277134],[-58.639522,-34.276517],[-58.637707,-34.276129]]]}},{"type":"Feature","properties":{"partida":"357001172","cca":"357000100000000000000026700000000000013000","tipo":"Rural","sup_m2":36804.9},"geometry":{"type":"Polygon","coordinates":[[[-58.642537,-34.277841],[-58.637514,-34.276758],[-58.637375,-34.27721],[-58.637284,-34.277411],[-58.642358,-34.278533],[-58.642391,-34.278272],[-58.642537,-34.277841]]]}},{"type":"Feature","properties":{"partida":"357001173","cca":"357000100000000000000026700000000000014000","tipo":"Rural","sup_m2":77079.2},"geometry":{"type":"Polygon","coordinates":[[[-58.637284,-34.277411],[-58.636881,-34.278308],[-58.636698,-34.278727],[-58.642185,-34.279907],[-58.642358,-34.278533],[-58.637284,-34.277411]]]}},{"type":"Feature","properties":{"partida":"357001174","cca":"357000100000000000000026700000000000015000","tipo":"Rural","sup_m2":269125.4},"geometry":{"type":"Polygon","coordinates":[[[-58.636916,-34.285053],[-58.637146,-34.285785],[-58.641698,-34.283162],[-58.642185,-34.279907],[-58.636698,-34.278727],[-58.636588,-34.279175],[-58.63646,-34.279588],[-58.636294,-34.280311],[-58.636311,-34.28031],[-58.636347,-34.280319],[-58.636726,-34.280555],[-58.636997,-34.280742],[-58.63711,-34.28083],[-58.637134,-34.28086],[-58.637135,-34.280889],[-58.637116,-34.280925],[-58.637072,-34.281028],[-58.637032,-34.281208],[-58.637026,-34.281359],[-58.637041,-34.281432],[-58.637046,-34.281476],[-58.637029,-34.281541],[-58.636948,-34.281698],[-58.636909,-34.281752],[-58.636898,-34.281791],[-58.636899,-34.281849],[-58.636931,-34.282019],[-58.636942,-34.28211],[-58.63697,-34.282238],[-58.636992,-34.282317],[-58.637001,-34.282378],[-58.637015,-34.282394],[-58.637038,-34.282438],[-58.637078,-34.282568],[-58.637098,-34.282602],[-58.637192,-34.282696],[-58.637279,-34.282677],[-58.637286,-34.282678],[-58.637302,-34.282691],[-58.63732,-34.282727],[-58.637353,-34.282851],[-58.637449,-34.283124],[-58.637442,-34.283155],[-58.637424,-34.283175],[-58.637379,-34.283182],[-58.636864,-34.283135],[-58.636847,-34.283137],[-58.63683,-34.283148],[-58.636856,-34.284154],[-58.636786,-34.284579],[-58.636916,-34.285053]]]}},{"type":"Feature","properties":{"partida":"357001175","cca":"35700010000000000000002670000000000001600A","tipo":"Rural","sup_m2":24348.9},"geometry":{"type":"Polygon","coordinates":[[[-58.635218,-34.280868],[-58.635073,-34.280831],[-58.634973,-34.280813],[-58.634932,-34.280814],[-58.634828,-34.280827],[-58.634785,-34.280842],[-58.634707,-34.280885],[-58.634539,-34.280986],[-58.63439,-34.281086],[-58.63676,-34.282249],[-58.636923,-34.282326],[-58.63698,-34.28236],[-58.637001,-34.282378],[-58.636992,-34.282317],[-58.63697,-34.282238],[-58.636942,-34.28211],[-58.636931,-34.282019],[-58.636899,-34.281849],[-58.636898,-34.281791],[-58.636909,-34.281752],[-58.636948,-34.281698],[-58.637029,-34.281541],[-58.637046,-34.281476],[-58.637041,-34.281432],[-58.637026,-34.281359],[-58.637032,-34.281208],[-58.637072,-34.281028],[-58.637116,-34.280925],[-58.637135,-34.280889],[-58.637134,-34.28086],[-58.63711,-34.28083],[-58.636997,-34.280742],[-58.636726,-34.280555],[-58.636347,-34.280319],[-58.636311,-34.28031],[-58.636297,-34.28031],[-58.63629,-34.280318],[-58.636285,-34.280383],[-58.636268,-34.28046],[-58.636269,-34.280558],[-58.636256,-34.280679],[-58.636261,-34.280774],[-58.636249,-34.280831],[-58.636224,-34.28086],[-58.636108,-34.280935],[-58.63607,-34.280978],[-58.636062,-34.281005],[-58.636051,-34.281012],[-58.636016,-34.28102],[-58.635961,-34.281042],[-58.635886,-34.281061],[-58.635792,-34.281056],[-58.63568,-34.281038],[-58.635614,-34.281018],[-58.63547,-34.280942],[-58.63538,-34.280912],[-58.635306,-34.280895],[-58.635218,-34.280868]]]}},{"type":"Feature","properties":{"partida":"357001176","cca":"35700010000000000000002670000000000001600C","tipo":"Rural","sup_m2":33478.1},"geometry":{"type":"Polygon","coordinates":[[[-58.636856,-34.284154],[-58.63683,-34.283148],[-58.633746,-34.282678],[-58.633765,-34.282774],[-58.63379,-34.283039],[-58.633797,-34.283178],[-58.633803,-34.283223],[-58.633822,-34.283256],[-58.633854,-34.283281],[-58.633902,-34.283307],[-58.633998,-34.283353],[-58.634265,-34.283463],[-58.634353,-34.28351],[-58.63451,-34.283583],[-58.634554,-34.28362],[-58.634574,-34.283661],[-58.634572,-34.283699],[-58.63453,-34.283734],[-58.634504,-34.283752],[-58.634457,-34.283774],[-58.634182,-34.283856],[-58.634046,-34.283871],[-58.633878,-34.283873],[-58.633669,-34.283895],[-58.63356,-34.283922],[-58.633526,-34.283935],[-58.633729,-34.284013],[-58.636856,-34.284154]]]}},{"type":"Feature","properties":{"partida":"357001177","cca":"35700010000000000000002670000000000001600D","tipo":"Rural","sup_m2":50946.9},"geometry":{"type":"Polygon","coordinates":[[[-58.636916,-34.285053],[-58.636786,-34.284579],[-58.636856,-34.284154],[-58.633729,-34.284013],[-58.633526,-34.283935],[-58.633503,-34.283954],[-58.633494,-34.28398],[-58.633486,-34.284024],[-58.633462,-34.284113],[-58.633454,-34.284217],[-58.63343,-34.284298],[-58.633383,-34.284424],[-58.633321,-34.284537],[-58.633266,-34.284649],[-58.633249,-34.284725],[-58.633244,-34.284826],[-58.633249,-34.284953],[-58.633257,-34.285013],[-58.633269,-34.285027],[-58.633295,-34.285042],[-58.633306,-34.285054],[-58.633385,-34.285166],[-58.633464,-34.285246],[-58.633545,-34.28534],[-58.633562,-34.285381],[-58.633578,-34.285445],[-58.63359,-34.28552],[-58.633573,-34.28559],[-58.633545,-34.285676],[-58.633538,-34.28569],[-58.633503,-34.285733],[-58.633438,-34.285788],[-58.633302,-34.285918],[-58.633136,-34.286042],[-58.636916,-34.285053]]]}},{"type":"Feature","properties":{"partida":"357001178","cca":"35700010000000000000002670000000000001600E","tipo":"Rural","sup_m2":50681.6},"geometry":{"type":"Polygon","coordinates":[[[-58.632659,-34.286634],[-58.632677,-34.28668],[-58.632817,-34.28699],[-58.6329,-34.287158],[-58.63299,-34.287318],[-58.633066,-34.287441],[-58.633118,-34.287518],[-58.633125,-34.287528],[-58.633131,-34.287531],[-58.633153,-34.287529],[-58.633318,-34.287459],[-58.637146,-34.285785],[-58.636916,-34.285053],[-58.633136,-34.286042],[-58.633015,-34.286121],[-58.632949,-34.286172],[-58.632829,-34.286283],[-58.632795,-34.286304],[-58.632778,-34.286309],[-58.632714,-34.286307],[-58.632652,-34.286313],[-58.632599,-34.28633],[-58.632568,-34.286358],[-58.632554,-34.286381],[-58.632549,-34.286415],[-58.632567,-34.286465],[-58.632659,-34.286634]]]}},{"type":"Feature","properties":{"partida":"357001179","cca":"35700010000000000000002670000000000001600F","tipo":"Rural","sup_m2":1982.0},"geometry":{"type":"Polygon","coordinates":[[[-58.632544,-34.286794],[-58.632379,-34.286268],[-58.632337,-34.286222],[-58.632304,-34.286205],[-58.632251,-34.286185],[-58.632178,-34.286171],[-58.632157,-34.286171],[-58.631949,-34.286217],[-58.631947,-34.286224],[-58.631979,-34.286325],[-58.632004,-34.286391],[-58.632042,-34.286485],[-58.632072,-34.286526],[-58.632157,-34.2866],[-58.632192,-34.286622],[-58.632278,-34.28666],[-58.632375,-34.286694],[-58.632475,-34.286764],[-58.632524,-34.286793],[-58.632539,-34.286798],[-58.632544,-34.286794]]]}},{"type":"Feature","properties":{"partida":"357001180","cca":"35700010000000000000002670000000000001600G","tipo":"Rural","sup_m2":774.0},"geometry":{"type":"Polygon","coordinates":[[[-58.632906,-34.287466],[-58.632696,-34.287031],[-58.632694,-34.28703],[-58.632666,-34.287061],[-58.632621,-34.287156],[-58.632593,-34.287208],[-58.632577,-34.287257],[-58.632569,-34.287326],[-58.632579,-34.287349],[-58.632646,-34.287406],[-58.632716,-34.287444],[-58.632774,-34.287456],[-58.632832,-34.287464],[-58.632888,-34.287469],[-58.632906,-34.287466]]]}},{"type":"Feature","properties":{"partida":"357001181","cca":"35700010000000000000002670000000000001600H","tipo":"Urbano","sup_m2":8278.7},"geometry":{"type":"Polygon","coordinates":[[[-58.634092,-34.281337],[-58.637098,-34.282602],[-58.637078,-34.282568],[-58.637038,-34.282438],[-58.637015,-34.282394],[-58.63698,-34.28236],[-58.636954,-34.282342],[-58.63439,-34.281086],[-58.634283,-34.281171],[-58.634092,-34.281337]]]}},{"type":"Feature","properties":{"partida":"357001182","cca":"35700010000000000000002670000000000001600J","tipo":"Urbano","sup_m2":8940.7},"geometry":{"type":"Polygon","coordinates":[[[-58.637353,-34.282851],[-58.63732,-34.282727],[-58.637302,-34.282691],[-58.637286,-34.282678],[-58.637275,-34.282677],[-58.637192,-34.282696],[-58.637098,-34.282602],[-58.634092,-34.281337],[-58.634014,-34.281423],[-58.633855,-34.281626],[-58.637353,-34.282851]]]}},{"type":"Feature","properties":{"partida":"357001183","cca":"35700010000000000000002670000000000001600K","tipo":"Urbano","sup_m2":9673.4},"geometry":{"type":"Polygon","coordinates":[[[-58.633549,-34.281913],[-58.637404,-34.282995],[-58.637353,-34.282851],[-58.633855,-34.281626],[-58.633829,-34.281652],[-58.633758,-34.281705],[-58.633691,-34.281743],[-58.633616,-34.281799],[-58.633595,-34.281829],[-58.633549,-34.281913]]]}},{"type":"Feature","properties":{"partida":"357001184","cca":"35700010000000000000002670000000000001600M","tipo":"Urbano","sup_m2":9960.4},"geometry":{"type":"Polygon","coordinates":[[[-58.633507,-34.282278],[-58.637449,-34.283124],[-58.637404,-34.282995],[-58.633549,-34.281913],[-58.63353,-34.281946],[-58.633493,-34.282041],[-58.63346,-34.282151],[-58.633459,-34.282169],[-58.633463,-34.282188],[-58.633507,-34.282278]]]}},{"type":"Feature","properties":{"partida":"357001185","cca":"35700010000000000000002670000000000001600N","tipo":"Urbano","sup_m2":9000.6},"geometry":{"type":"Polygon","coordinates":[[[-58.633507,-34.282278],[-58.633514,-34.282302],[-58.63353,-34.282328],[-58.633621,-34.28246],[-58.633732,-34.282608],[-58.633746,-34.282646],[-58.633746,-34.282678],[-58.63683,-34.283148],[-58.636847,-34.283137],[-58.636864,-34.283135],[-58.637379,-34.283182],[-58.637424,-34.283175],[-58.637442,-34.283155],[-58.637449,-34.283124],[-58.633507,-34.282278]]]}},{"type":"Feature","properties":{"partida":"357001187","cca":"357000100000000000000026800000000000001000","tipo":"Rural","sup_m2":223522.8},"geometry":{"type":"Polygon","coordinates":[[[-58.63351,-34.28835],[-58.640352,-34.28851],[-58.640904,-34.287234],[-58.641493,-34.283792],[-58.641698,-34.283162],[-58.637146,-34.285785],[-58.633138,-34.287537],[-58.63351,-34.28835]]]}},{"type":"Feature","properties":{"partida":"357001189","cca":"357000100000000000000026800000000000003000","tipo":"Urbano","sup_m2":10538.5},"geometry":{"type":"Polygon","coordinates":[[[-58.636664,-34.28904],[-58.636664,-34.288707],[-58.633607,-34.288694],[-58.633564,-34.289031],[-58.636664,-34.28904]]]}},{"type":"Feature","properties":{"partida":"357001219","cca":"35700010000000000000002690000000000000100A","tipo":"Urbano","sup_m2":2715.1},"geometry":{"type":"Polygon","coordinates":[[[-58.644148,-34.288716],[-58.64548,-34.288947],[-58.645537,-34.288872],[-58.64558,-34.288771],[-58.644174,-34.288527],[-58.644148,-34.288716]]]}},{"type":"Feature","properties":{"partida":null,"cca":"35700010000000000000002690000000000000100B","tipo":null,"sup_m2":35411.4},"geometry":{"type":"Polygon","coordinates":[[[-58.644076,-34.289251],[-58.644227,-34.288135],[-58.644231,-34.288002],[-58.640904,-34.287234],[-58.640622,-34.287887],[-58.644076,-34.289251]]]}},{"type":"Feature","properties":{"partida":"357001221","cca":"35700010000000000000002690000000000000100C","tipo":"Urbano","sup_m2":2388.8},"geometry":{"type":"Polygon","coordinates":[[[-58.644148,-34.288716],[-58.644125,-34.288891],[-58.645385,-34.289112],[-58.64548,-34.288947],[-58.644148,-34.288716]]]}},{"type":"Feature","properties":{"partida":"357001226","cca":"35700010000000000000002690000000000000100J","tipo":"Rural","sup_m2":42875.2},"geometry":{"type":"Polygon","coordinates":[[[-58.64359,-34.289854],[-58.6448,-34.290595],[-58.644903,-34.290343],[-58.644862,-34.290333],[-58.644903,-34.290342],[-58.64497,-34.290151],[-58.64497,-34.290126],[-58.644955,-34.290097],[-58.644893,-34.290071],[-58.644783,-34.290063],[-58.644675,-34.290073],[-58.644603,-34.290045],[-58.644443,-34.289885],[-58.644305,-34.289737],[-58.644145,-34.289504],[-58.644063,-34.289349],[-58.644076,-34.289251],[-58.640622,-34.287887],[-58.640339,-34.28854],[-58.64305,-34.2902],[-58.64359,-34.289854]]]}},{"type":"Feature","properties":{"partida":"357005543","cca":"357000100000000000000039000000000000001000","tipo":"Rural","sup_m2":33078.6},"geometry":{"type":"Polygon","coordinates":[[[-58.639516,-34.272542],[-58.639678,-34.27212],[-58.639609,-34.271572],[-58.639141,-34.271069],[-58.638303,-34.271057],[-58.637424,-34.271012],[-58.637193,-34.271083],[-58.636923,-34.27215],[-58.639516,-34.272542]]]}},{"type":"Feature","properties":{"partida":"357005544","cca":"357000100000000000000039000000000000002000","tipo":"Rural","sup_m2":27325.6},"geometry":{"type":"Polygon","coordinates":[[[-58.636253,-34.274804],[-58.63643,-34.274103],[-58.637193,-34.271083],[-58.636792,-34.271206],[-58.636352,-34.27123],[-58.635583,-34.274746],[-58.636253,-34.274804]]]}},{"type":"Feature","properties":{"partida":"357005545","cca":"357000100000000000000039000000000000003000","tipo":"Rural","sup_m2":27779.1},"geometry":{"type":"Polygon","coordinates":[[[-58.634899,-34.274687],[-58.635583,-34.274746],[-58.636352,-34.27123],[-58.636174,-34.271218],[-58.635844,-34.271355],[-58.635432,-34.271344],[-58.634899,-34.274687]]]}},{"type":"Feature","properties":{"partida":"357005546","cca":"357000100000000000000039000000000000004000","tipo":"Rural","sup_m2":25609.3},"geometry":{"type":"Polygon","coordinates":[[[-58.63456,-34.271484],[-58.63422,-34.274628],[-58.634899,-34.274687],[-58.635432,-34.271344],[-58.634869,-34.271413],[-58.63456,-34.271484]]]}},{"type":"Feature","properties":{"partida":"357005547","cca":"357000100000000000000039000000000000005000","tipo":"Rural","sup_m2":24213.6},"geometry":{"type":"Polygon","coordinates":[[[-58.633681,-34.271691],[-58.633539,-34.274569],[-58.63422,-34.274628],[-58.63456,-34.271484],[-58.634467,-34.271484],[-58.63411,-34.271507],[-58.633681,-34.271691]]]}},{"type":"Feature","properties":{"partida":"357005548","cca":"357000100000000000000039000000000000006000","tipo":"Rural","sup_m2":27301.5},"geometry":{"type":"Polygon","coordinates":[[[-58.633539,-34.274569],[-58.633681,-34.271691],[-58.633602,-34.271725],[-58.633313,-34.271702],[-58.632915,-34.271816],[-58.632589,-34.27188],[-58.632699,-34.274495],[-58.633539,-34.274569]]]}},{"type":"Feature","properties":{"partida":"357005549","cca":"357000100000000000000039000000000000007000","tipo":"Urbano","sup_m2":13711.5},"geometry":{"type":"Polygon","coordinates":[[[-58.639296,-34.273034],[-58.639431,-34.272761],[-58.639516,-34.272542],[-58.636923,-34.27215],[-58.636795,-34.272657],[-58.639296,-34.273034]]]}},{"type":"Feature","properties":{"partida":"357005550","cca":"357000100000000000000039000000000000008000","tipo":"Urbano","sup_m2":13501.2},"geometry":{"type":"Polygon","coordinates":[[[-58.636659,-34.273198],[-58.639056,-34.273518],[-58.639296,-34.273034],[-58.636795,-34.272657],[-58.636659,-34.273198]]]}},{"type":"Feature","properties":{"partida":"357005551","cca":"35700010000000000000003900000000000000900A","tipo":"Urbano","sup_m2":2433.8},"geometry":{"type":"Polygon","coordinates":[[[-58.637618,-34.273493],[-58.638969,-34.273693],[-58.639056,-34.273518],[-58.63772,-34.27334],[-58.637618,-34.273493]]]}},{"type":"Feature","properties":{"partida":null,"cca":"35700010000000000000003900000000000000900B","tipo":null,"sup_m2":2626.5},"geometry":{"type":"Polygon","coordinates":[[[-58.638969,-34.273693],[-58.637618,-34.273493],[-58.637505,-34.273664],[-58.638858,-34.273868],[-58.638938,-34.273756],[-58.638969,-34.273693]]]}},{"type":"Feature","properties":{"partida":null,"cca":"35700010000000000000003900000000000000900C","tipo":null,"sup_m2":7840.9},"geometry":{"type":"Polygon","coordinates":[[[-58.636524,-34.27373],[-58.638753,-34.274015],[-58.638858,-34.273868],[-58.637505,-34.273664],[-58.63772,-34.27334],[-58.636659,-34.273198],[-58.636524,-34.27373]]]}},{"type":"Feature","properties":{"partida":"357000026","cca":"35700010000000000000003900000000000001000A","tipo":"Urbano","sup_m2":4215.5},"geometry":{"type":"Polygon","coordinates":[[[-58.636524,-34.27373],[-58.636475,-34.273925],[-58.638639,-34.274176],[-58.638753,-34.274015],[-58.636524,-34.27373]]]}},{"type":"Feature","properties":{"partida":"357005552","cca":"35700010000000000000003900000000000001000B","tipo":"Urbano","sup_m2":3750.1},"geometry":{"type":"Polygon","coordinates":[[[-58.63643,-34.274103],[-58.638533,-34.274325],[-58.638639,-34.274176],[-58.636475,-34.273925],[-58.63643,-34.274103]]]}},{"type":"Feature","properties":{"partida":"357000028","cca":"35700010000000000000003900000000000001000C","tipo":"Urbano","sup_m2":3581.7},"geometry":{"type":"Polygon","coordinates":[[[-58.63643,-34.274103],[-58.63639,-34.274264],[-58.638418,-34.274487],[-58.638533,-34.274325],[-58.63643,-34.274103]]]}},{"type":"Feature","properties":{"partida":"357005553","cca":"357000100000000000000039000000000000011000","tipo":"Urbano","sup_m2":10674.9},"geometry":{"type":"Polygon","coordinates":[[[-58.636253,-34.274804],[-58.637809,-34.274956],[-58.638059,-34.274991],[-58.638418,-34.274487],[-58.63639,-34.274264],[-58.636253,-34.274804]]]}},{"type":"Feature","properties":{"partida":"357005554","cca":"357000100000000000000039000000000000012000","tipo":"Rural","sup_m2":61416.5},"geometry":{"type":"Polygon","coordinates":[[[-58.638059,-34.274991],[-58.637809,-34.274956],[-58.636253,-34.274804],[-58.632699,-34.274495],[-58.632745,-34.275402],[-58.637378,-34.276356],[-58.637634,-34.275975],[-58.638059,-34.274991]]]}},{"type":"Feature","properties":{"partida":"357005555","cca":"357000100000000000000039000000000000013000","tipo":"Rural","sup_m2":68820.3},"geometry":{"type":"Polygon","coordinates":[[[-58.637378,-34.276356],[-58.637028,-34.276284],[-58.632745,-34.275402],[-58.63282,-34.277002],[-58.635727,-34.277611],[-58.636695,-34.277835],[-58.636866,-34.277507],[-58.637003,-34.276924],[-58.637378,-34.276356]]]}},{"type":"Feature","properties":{"partida":"357019444","cca":"35700010000000000000003900000000000001400A","tipo":"Rural","sup_m2":1731.0},"geometry":{"type":"Polygon","coordinates":[[[-58.636695,-34.277835],[-58.635727,-34.277611],[-58.635674,-34.277775],[-58.636618,-34.277996],[-58.636633,-34.277953],[-58.636695,-34.277835]]]}},{"type":"Feature","properties":{"partida":"357019445","cca":"35700010000000000000003900000000000001400B","tipo":"Rural","sup_m2":1831.8},"geometry":{"type":"Polygon","coordinates":[[[-58.635674,-34.277775],[-58.635615,-34.277956],[-58.636556,-34.278167],[-58.636618,-34.277996],[-58.635674,-34.277775]]]}},{"type":"Feature","properties":{"partida":"357005556","cca":"35700010000000000000003900000000000001400C","tipo":"Rural","sup_m2":51988.5},"geometry":{"type":"Polygon","coordinates":[[[-58.636556,-34.278167],[-58.635615,-34.277956],[-58.635727,-34.277611],[-58.63282,-34.277002],[-58.632883,-34.278355],[-58.632594,-34.278782],[-58.635068,-34.279325],[-58.635418,-34.278296],[-58.636408,-34.278503],[-58.636469,-34.278411],[-58.636556,-34.278167]]]}},{"type":"Feature","properties":{"partida":"357019446","cca":"35700010000000000000003900000000000001400D","tipo":"Rural","sup_m2":1766.1},"geometry":{"type":"Polygon","coordinates":[[[-58.635362,-34.278459],[-58.636303,-34.278664],[-58.636408,-34.278503],[-58.635418,-34.278296],[-58.635362,-34.278459]]]}},{"type":"Feature","properties":{"partida":"357019447","cca":"35700010000000000000003900000000000001400E","tipo":"Rural","sup_m2":1665.5},"geometry":{"type":"Polygon","coordinates":[[[-58.635362,-34.278459],[-58.635304,-34.278629],[-58.636205,-34.278814],[-58.636303,-34.278664],[-58.635362,-34.278459]]]}},{"type":"Feature","properties":{"partida":"357019448","cca":"35700010000000000000003900000000000001400F","tipo":"Rural","sup_m2":1657.6},"geometry":{"type":"Polygon","coordinates":[[[-58.636205,-34.278814],[-58.635304,-34.278629],[-58.635245,-34.278803],[-58.63613,-34.278981],[-58.63614,-34.278914],[-58.636205,-34.278814]]]}},{"type":"Feature","properties":{"partida":"357019449","cca":"35700010000000000000003900000000000001400G","tipo":"Rural","sup_m2":1786.9},"geometry":{"type":"Polygon","coordinates":[[[-58.635245,-34.278803],[-58.635186,-34.278977],[-58.636103,-34.279176],[-58.63613,-34.278981],[-58.635245,-34.278803]]]}},{"type":"Feature","properties":{"partida":"357019450","cca":"35700010000000000000003900000000000001400H","tipo":"Rural","sup_m2":1809.3},"geometry":{"type":"Polygon","coordinates":[[[-58.635186,-34.278977],[-58.635126,-34.279154],[-58.636077,-34.27936],[-58.636103,-34.279176],[-58.635186,-34.278977]]]}},{"type":"Feature","properties":{"partida":"357019451","cca":"35700010000000000000003900000000000001400M","tipo":"Rural","sup_m2":1841.9},"geometry":{"type":"Polygon","coordinates":[[[-58.635126,-34.279154],[-58.635068,-34.279325],[-58.636052,-34.279543],[-58.636077,-34.27936],[-58.635126,-34.279154]]]}},{"type":"Feature","properties":{"partida":"357005557","cca":"35700010000000000000003900000000000001500A","tipo":"Rural","sup_m2":2525.3},"geometry":{"type":"Polygon","coordinates":[[[-58.636052,-34.279543],[-58.634806,-34.279268],[-58.634779,-34.279435],[-58.636022,-34.279759],[-58.636052,-34.279543]]]}},{"type":"Feature","properties":{"partida":"357005558","cca":"35700010000000000000003900000000000001500B","tipo":"Rural","sup_m2":2342.7},"geometry":{"type":"Polygon","coordinates":[[[-58.636022,-34.279759],[-58.635816,-34.279705],[-58.634779,-34.279435],[-58.634751,-34.279607],[-58.63602,-34.279945],[-58.636017,-34.279795],[-58.636022,-34.279759]]]}},{"type":"Feature","properties":{"partida":"357005559","cca":"35700010000000000000003900000000000001500C","tipo":"Rural","sup_m2":2527.2},"geometry":{"type":"Polygon","coordinates":[[[-58.634721,-34.279789],[-58.635761,-34.28007],[-58.636024,-34.280141],[-58.63602,-34.279945],[-58.634751,-34.279607],[-58.634721,-34.279789]]]}},{"type":"Feature","properties":{"partida":"357005560","cca":"35700010000000000000003900000000000001500D","tipo":"Rural","sup_m2":2452.9},"geometry":{"type":"Polygon","coordinates":[[[-58.634721,-34.279789],[-58.634694,-34.279956],[-58.636028,-34.280332],[-58.636024,-34.280141],[-58.634721,-34.279789]]]}},{"type":"Feature","properties":{"partida":"357005561","cca":"35700010000000000000003900000000000001500E","tipo":"Rural","sup_m2":40846.9},"geometry":{"type":"Polygon","coordinates":[[[-58.635605,-34.28055],[-58.636031,-34.280481],[-58.636028,-34.280332],[-58.634694,-34.279956],[-58.634806,-34.279268],[-58.632594,-34.278782],[-58.631297,-34.280698],[-58.632654,-34.280945],[-58.632915,-34.280608],[-58.633665,-34.279583],[-58.635605,-34.28055]]]}},{"type":"Feature","properties":{"partida":"357005562","cca":"35700010000000000000003900000000000001500F","tipo":"Rural","sup_m2":3212.1},"geometry":{"type":"Polygon","coordinates":[[[-58.633569,-34.279714],[-58.634787,-34.280338],[-58.634959,-34.280424],[-58.635605,-34.28055],[-58.633665,-34.279583],[-58.633569,-34.279714]]]}},{"type":"Feature","properties":{"partida":"357005563","cca":"35700010000000000000003900000000000001500G","tipo":"Rural","sup_m2":2510.5},"geometry":{"type":"Polygon","coordinates":[[[-58.633569,-34.279714],[-58.633461,-34.279862],[-58.634776,-34.280496],[-58.634959,-34.280424],[-58.634787,-34.280338],[-58.633569,-34.279714]]]}},{"type":"Feature","properties":{"partida":"357005564","cca":"35700010000000000000003900000000000001500H","tipo":"Rural","sup_m2":2373.9},"geometry":{"type":"Polygon","coordinates":[[[-58.633347,-34.280017],[-58.634595,-34.280568],[-58.634776,-34.280496],[-58.633461,-34.279862],[-58.633347,-34.280017]]]}},{"type":"Feature","properties":{"partida":"357005565","cca":"35700010000000000000003900000000000001500J","tipo":"Rural","sup_m2":2351.5},"geometry":{"type":"Polygon","coordinates":[[[-58.633347,-34.280017],[-58.63324,-34.280164],[-58.634363,-34.280659],[-58.634595,-34.280568],[-58.633347,-34.280017]]]}},{"type":"Feature","properties":{"partida":"357005566","cca":"35700010000000000000003900000000000001500K","tipo":"Rural","sup_m2":2174.8},"geometry":{"type":"Polygon","coordinates":[[[-58.634363,-34.280659],[-58.63324,-34.280164],[-58.633131,-34.280313],[-58.634141,-34.280764],[-58.634176,-34.280733],[-58.634363,-34.280659]]]}},{"type":"Feature","properties":{"partida":"357005567","cca":"35700010000000000000003900000000000001500M","tipo":"Rural","sup_m2":1987.5},"geometry":{"type":"Polygon","coordinates":[[[-58.633131,-34.280313],[-58.633024,-34.280459],[-58.633989,-34.280897],[-58.634141,-34.280764],[-58.633131,-34.280313]]]}},{"type":"Feature","properties":{"partida":"357005568","cca":"35700010000000000000003900000000000001500N","tipo":"Rural","sup_m2":1896.2},"geometry":{"type":"Polygon","coordinates":[[[-58.633024,-34.280459],[-58.632915,-34.280608],[-58.633844,-34.281025],[-58.633989,-34.280897],[-58.633024,-34.280459]]]}},{"type":"Feature","properties":{"partida":"357005569","cca":"35700010000000000000003900000000000001500P","tipo":"Rural","sup_m2":2862.7},"geometry":{"type":"Polygon","coordinates":[[[-58.632915,-34.280608],[-58.632654,-34.280945],[-58.633721,-34.281133],[-58.633844,-34.281025],[-58.632915,-34.280608]]]}},{"type":"Feature","properties":{"partida":"357005570","cca":"35700010000000000000003900000000000001600A","tipo":"Rural","sup_m2":9421.7},"geometry":{"type":"Polygon","coordinates":[[[-58.632654,-34.280945],[-58.631297,-34.280698],[-58.631047,-34.281068],[-58.633371,-34.281441],[-58.633721,-34.281133],[-58.632654,-34.280945]]]}},{"type":"Feature","properties":{"partida":"357005571","cca":"35700010000000000000003900000000000001600B","tipo":"Rural","sup_m2":9471.9},"geometry":{"type":"Polygon","coordinates":[[[-58.631047,-34.281068],[-58.630826,-34.281394],[-58.632927,-34.281831],[-58.633371,-34.281441],[-58.631047,-34.281068]]]}},{"type":"Feature","properties":{"partida":"357005572","cca":"35700010000000000000003900000000000001600C","tipo":"Rural","sup_m2":7757.2},"geometry":{"type":"Polygon","coordinates":[[[-58.633013,-34.28219],[-58.63301,-34.282186],[-58.632927,-34.281831],[-58.630826,-34.281394],[-58.630627,-34.281688],[-58.633013,-34.28219]]]}},{"type":"Feature","properties":{"partida":"357005573","cca":"35700010000000000000003900000000000001600D","tipo":"Rural","sup_m2":8806.2},"geometry":{"type":"Polygon","coordinates":[[[-58.630627,-34.281688],[-58.630423,-34.281989],[-58.633289,-34.28256],[-58.633013,-34.28219],[-58.630627,-34.281688]]]}},{"type":"Feature","properties":{"partida":"357005574","cca":"35700010000000000000003900000000000001600E","tipo":"Rural","sup_m2":10028.2},"geometry":{"type":"Polygon","coordinates":[[[-58.633289,-34.28256],[-58.630423,-34.281989],[-58.630234,-34.28227],[-58.633347,-34.282903],[-58.633367,-34.282666],[-58.633289,-34.28256]]]}},{"type":"Feature","properties":{"partida":"357005575","cca":"35700010000000000000003900000000000001600F","tipo":"Urbano","sup_m2":10431.3},"geometry":{"type":"Polygon","coordinates":[[[-58.633292,-34.283211],[-58.633326,-34.283135],[-58.633347,-34.282903],[-58.630234,-34.28227],[-58.630043,-34.282552],[-58.633292,-34.283211]]]}},{"type":"Feature","properties":{"partida":"357005576","cca":"35700010000000000000003900000000000001600G","tipo":"Rural","sup_m2":11493.3},"geometry":{"type":"Polygon","coordinates":[[[-58.633292,-34.283211],[-58.630043,-34.282552],[-58.629852,-34.282833],[-58.633138,-34.283546],[-58.633292,-34.283211]]]}},{"type":"Feature","properties":{"partida":"357005577","cca":"357000100000000000000039000000000000017000","tipo":"Urbano","sup_m2":435.8},"geometry":{"type":"Polygon","coordinates":[[[-58.633493,-34.283332],[-58.633399,-34.283395],[-58.633349,-34.283467],[-58.633325,-34.283576],[-58.633395,-34.283623],[-58.633493,-34.283562],[-58.633581,-34.283488],[-58.63355,-34.283424],[-58.633541,-34.283394],[-58.633493,-34.283332]]]}},{"type":"Feature","properties":{"partida":"357005578","cca":"357000100000000000000039100000000000001000","tipo":"Rural","sup_m2":8238.5},"geometry":{"type":"Polygon","coordinates":[[[-58.628742,-34.273798],[-58.628876,-34.272584],[-58.628574,-34.272652],[-58.627929,-34.27287],[-58.627848,-34.273393],[-58.628226,-34.273539],[-58.628742,-34.273798]]]}},{"type":"Feature","properties":{"partida":"357005579","cca":"357000100000000000000039100000000000002000","tipo":"Rural","sup_m2":3363.1},"geometry":{"type":"Polygon","coordinates":[[[-58.627848,-34.273393],[-58.627929,-34.27287],[-58.627203,-34.272856],[-58.62686,-34.272959],[-58.627316,-34.273187],[-58.627848,-34.273393]]]}},{"type":"Feature","properties":{"partida":"357005580","cca":"357000100000000000000039200000000000001000","tipo":"Rural","sup_m2":58475.4},"geometry":{"type":"Polygon","coordinates":[[[-58.628457,-34.27433],[-58.62407,-34.279174],[-58.624175,-34.279558],[-58.624239,-34.279824],[-58.62615,-34.278345],[-58.626974,-34.27807],[-58.627797,-34.275989],[-58.628609,-34.275288],[-58.628542,-34.27507],[-58.628457,-34.27433]]]}},{"type":"Feature","properties":{"partida":"357005581","cca":"35700010000000000000003920000000000000200A","tipo":"Rural","sup_m2":37679.7},"geometry":{"type":"Polygon","coordinates":[[[-58.626603,-34.27573],[-58.626215,-34.275558],[-58.62402,-34.278989],[-58.62407,-34.279174],[-58.628457,-34.27433],[-58.628412,-34.274063],[-58.628166,-34.273853],[-58.627846,-34.2737],[-58.626603,-34.27573]]]}},{"type":"Feature","properties":{"partida":"357020461","cca":"35700010000000000000003920000000000000200B","tipo":"Urbano","sup_m2":9624.2},"geometry":{"type":"Polygon","coordinates":[[[-58.627488,-34.273568],[-58.626215,-34.275558],[-58.626603,-34.27573],[-58.627846,-34.2737],[-58.627488,-34.273568]]]}},{"type":"Feature","properties":{"partida":"357005582","cca":"357000100000000000000039200000000000003000","tipo":"Rural","sup_m2":148720.2},"geometry":{"type":"Polygon","coordinates":[[[-58.62402,-34.278989],[-58.627488,-34.273568],[-58.626755,-34.273312],[-58.625906,-34.273035],[-58.624488,-34.273341],[-58.622535,-34.273834],[-58.62402,-34.278989]]]}},{"type":"Feature","properties":{"partida":"357019812","cca":"35700010000000000000003950000000000000100B","tipo":"Rural","sup_m2":67654.2},"geometry":{"type":"Polygon","coordinates":[[[-58.632722,-34.278592],[-58.632883,-34.278355],[-58.632766,-34.275859],[-58.630324,-34.276078],[-58.630435,-34.276514],[-58.630446,-34.277036],[-58.630285,-34.277932],[-58.629951,-34.278634],[-58.630111,-34.278637],[-58.630715,-34.278617],[-58.632722,-34.278592]]]}},{"type":"Feature","properties":{"partida":"357005793","cca":"35700010000000000000003950000000000000100D","tipo":"Urbano","sup_m2":52363.4},"geometry":{"type":"Polygon","coordinates":[[[-58.629903,-34.274161],[-58.630097,-34.275481],[-58.630242,-34.27576],[-58.630324,-34.276078],[-58.632766,-34.275859],[-58.632674,-34.273948],[-58.629903,-34.274161]]]}},{"type":"Feature","properties":{"partida":"357019966","cca":"35700010000000000000003950000000000000100E","tipo":"Urbano","sup_m2":11487.1},"geometry":{"type":"Polygon","coordinates":[[[-58.632674,-34.273948],[-58.632589,-34.27188],[-58.632448,-34.271908],[-58.63205,-34.271896],[-58.632129,-34.27399],[-58.632674,-34.273948]]]}},{"type":"Feature","properties":{"partida":"357019967","cca":"35700010000000000000003950000000000000100F","tipo":"Urbano","sup_m2":11731.6},"geometry":{"type":"Polygon","coordinates":[[[-58.631588,-34.274032],[-58.632129,-34.27399],[-58.63205,-34.271896],[-58.631499,-34.271933],[-58.631588,-34.274032]]]}},{"type":"Feature","properties":{"partida":"357019968","cca":"35700010000000000000003950000000000000100G","tipo":"Urbano","sup_m2":11617.5},"geometry":{"type":"Polygon","coordinates":[[[-58.631047,-34.274073],[-58.631588,-34.274032],[-58.631499,-34.271933],[-58.631184,-34.271954],[-58.630959,-34.272008],[-58.631047,-34.274073]]]}},{"type":"Feature","properties":{"partida":"357019969","cca":"35700010000000000000003950000000000000100H","tipo":"Urbano","sup_m2":11430.3},"geometry":{"type":"Polygon","coordinates":[[[-58.630505,-34.274115],[-58.631047,-34.274073],[-58.630959,-34.272008],[-58.630566,-34.272103],[-58.630508,-34.272112],[-58.630402,-34.27211],[-58.630505,-34.274115]]]}},{"type":"Feature","properties":{"partida":"357019970","cca":"35700010000000000000003950000000000000100M","tipo":"Urbano","sup_m2":13683.1},"geometry":{"type":"Polygon","coordinates":[[[-58.630402,-34.27211],[-58.629634,-34.272327],[-58.629903,-34.274161],[-58.630505,-34.274115],[-58.630402,-34.27211]]]}},{"type":"Feature","properties":{"partida":"357005794","cca":"357000100000000000000039500000000000002000","tipo":"Rural","sup_m2":29744.9},"geometry":{"type":"Polygon","coordinates":[[[-58.630097,-34.275481],[-58.629903,-34.274161],[-58.629634,-34.272327],[-58.628876,-34.272584],[-58.628742,-34.273798],[-58.628936,-34.274868],[-58.628977,-34.275177],[-58.629574,-34.275325],[-58.630097,-34.275481]]]}},{"type":"Feature","properties":{"partida":null,"cca":"35700010000000000000003950000000000000300A","tipo":null,"sup_m2":19161.7},"geometry":{"type":"Polygon","coordinates":[[[-58.629951,-34.278634],[-58.62954,-34.279493],[-58.63236,-34.279127],[-58.632722,-34.278592],[-58.630715,-34.278617],[-58.630111,-34.278637],[-58.629951,-34.278634]]]}},{"type":"Feature","properties":{"partida":"357000169","cca":"35700010000000000000003950000000000000300B","tipo":"Rural","sup_m2":28280.8},"geometry":{"type":"Polygon","coordinates":[[[-58.62954,-34.279493],[-58.62927,-34.28006],[-58.62902,-34.280554],[-58.631578,-34.280283],[-58.63236,-34.279127],[-58.62954,-34.279493]]]}},{"type":"Feature","properties":{"partida":"357000167","cca":"35700010000000000000003950000000000000300C","tipo":"Rural","sup_m2":29024.3},"geometry":{"type":"Polygon","coordinates":[[[-58.62902,-34.280554],[-58.628477,-34.281628],[-58.630627,-34.281688],[-58.631578,-34.280283],[-58.62902,-34.280554]]]}},{"type":"Feature","properties":{"partida":"357000171","cca":"35700010000000000000003950000000000000300D","tipo":"Rural","sup_m2":27511.1},"geometry":{"type":"Polygon","coordinates":[[[-58.627917,-34.282778],[-58.62976,-34.283149],[-58.629795,-34.282918],[-58.630627,-34.281688],[-58.628477,-34.281628],[-58.628159,-34.282256],[-58.627917,-34.282778]]]}},{"type":"Feature","properties":{"partida":"357000157","cca":"35700010000000000000003950000000000000300E","tipo":"Rural","sup_m2":23316.7},"geometry":{"type":"Polygon","coordinates":[[[-58.62976,-34.283149],[-58.627917,-34.282778],[-58.627439,-34.28381],[-58.629588,-34.284268],[-58.62976,-34.283149]]]}},{"type":"Feature","properties":{"partida":"357005796","cca":"357000100000000000000039500000000000004000","tipo":"Rural","sup_m2":76368.1},"geometry":{"type":"Polygon","coordinates":[[[-58.627439,-34.28381],[-58.626993,-34.284772],[-58.626554,-34.286064],[-58.626535,-34.286713],[-58.629154,-34.287108],[-58.629588,-34.284268],[-58.627439,-34.28381]]]}},{"type":"Feature","properties":{"partida":"357005797","cca":"357000100000000000000039600000000000001000","tipo":"Rural","sup_m2":85270.6},"geometry":{"type":"Polygon","coordinates":[[[-58.62922,-34.279473],[-58.629391,-34.2789],[-58.629557,-34.278573],[-58.629778,-34.277601],[-58.629826,-34.276949],[-58.629943,-34.276095],[-58.629864,-34.27565],[-58.629512,-34.275621],[-58.628999,-34.275648],[-58.628674,-34.275411],[-58.628609,-34.275288],[-58.627797,-34.275989],[-58.626974,-34.27807],[-58.626446,-34.278246],[-58.62922,-34.279473]]]}},{"type":"Feature","properties":{"partida":"357005798","cca":"35700010000000000000003960000000000000200A","tipo":"Rural","sup_m2":109363.2},"geometry":{"type":"Polygon","coordinates":[[[-58.627955,-34.281894],[-58.62865,-34.280695],[-58.62922,-34.279473],[-58.626446,-34.278246],[-58.62615,-34.278345],[-58.62398,-34.280023],[-58.623859,-34.280222],[-58.627955,-34.281894]]]}},{"type":"Feature","properties":{"partida":"357005799","cca":"35700010000000000000003960000000000000200C","tipo":"Rural","sup_m2":51278.4},"geometry":{"type":"Polygon","coordinates":[[[-58.623859,-34.280222],[-58.623711,-34.280306],[-58.62284,-34.280324],[-58.622449,-34.280313],[-58.622443,-34.280308],[-58.622015,-34.280301],[-58.621895,-34.280287],[-58.621517,-34.280307],[-58.627496,-34.282709],[-58.627527,-34.282633],[-58.627955,-34.281894],[-58.623859,-34.280222]]]}},{"type":"Feature","properties":{"partida":"357020039","cca":"357000100000000000000039600000000000003000","tipo":"Rural","sup_m2":70806.5},"geometry":{"type":"Polygon","coordinates":[[[-58.621517,-34.280307],[-58.621369,-34.280336],[-58.62057,-34.281069],[-58.622936,-34.281958],[-58.625645,-34.282931],[-58.626635,-34.283777],[-58.627029,-34.283847],[-58.627496,-34.282709],[-58.621517,-34.280307]]]}},{"type":"Feature","properties":{"partida":"357005800","cca":"357000100000000000000039700000000000001000","tipo":"Urbano","sup_m2":12205.2},"geometry":{"type":"Polygon","coordinates":[[[-58.629797,-34.282916],[-58.62976,-34.283149],[-58.632895,-34.2841],[-58.632997,-34.283855],[-58.633091,-34.28365],[-58.629797,-34.282916]]]}},{"type":"Feature","properties":{"partida":"357005792","cca":"357000100000000000000039700000000000002000","tipo":"Urbano","sup_m2":10624.2},"geometry":{"type":"Polygon","coordinates":[[[-58.62976,-34.283149],[-58.62971,-34.283471],[-58.632772,-34.284396],[-58.632895,-34.2841],[-58.62976,-34.283149]]]}},{"type":"Feature","properties":{"partida":"357005801","cca":"357000100000000000000039700000000000003000","tipo":"Urbano","sup_m2":10098.0},"geometry":{"type":"Polygon","coordinates":[[[-58.62971,-34.283471],[-58.629663,-34.283778],[-58.632649,-34.28469],[-58.632772,-34.284396],[-58.62971,-34.283471]]]}},{"type":"Feature","properties":{"partida":"357005802","cca":"357000100000000000000039700000000000004000","tipo":"Urbano","sup_m2":9755.1},"geometry":{"type":"Polygon","coordinates":[[[-58.632516,-34.284974],[-58.632588,-34.284834],[-58.632649,-34.28469],[-58.629663,-34.283778],[-58.629616,-34.284087],[-58.632516,-34.284974]]]}},{"type":"Feature","properties":{"partida":"357005803","cca":"357000100000000000000039700000000000005000","tipo":"Urbano","sup_m2":10321.8},"geometry":{"type":"Polygon","coordinates":[[[-58.629616,-34.284087],[-58.629563,-34.284434],[-58.632349,-34.285272],[-58.632516,-34.284974],[-58.629616,-34.284087]]]}},{"type":"Feature","properties":{"partida":"357005804","cca":"357000100000000000000039700000000000006000","tipo":"Rural","sup_m2":36203.0},"geometry":{"type":"Polygon","coordinates":[[[-58.632349,-34.285272],[-58.629563,-34.284434],[-58.629284,-34.28626],[-58.631943,-34.285977],[-58.632188,-34.285559],[-58.632349,-34.285272]]]}},{"type":"Feature","properties":{"partida":"357005805","cca":"357000100000000000000039700000000000007000","tipo":"Urbano","sup_m2":6493.3},"geometry":{"type":"Polygon","coordinates":[[[-58.63179,-34.286242],[-58.631943,-34.285977],[-58.629284,-34.28626],[-58.629246,-34.286503],[-58.63179,-34.286242]]]}},{"type":"Feature","properties":{"partida":"357005806","cca":"357000100000000000000039700000000000008000","tipo":"Urbano","sup_m2":5822.2},"geometry":{"type":"Polygon","coordinates":[[[-58.63179,-34.286242],[-58.629246,-34.286503],[-58.629215,-34.286711],[-58.631872,-34.286468],[-58.63179,-34.286242]]]}},{"type":"Feature","properties":{"partida":"357005807","cca":"357000100000000000000039700000000000009000","tipo":"Urbano","sup_m2":7307.8},"geometry":{"type":"Polygon","coordinates":[[[-58.631981,-34.286698],[-58.631931,-34.286615],[-58.631872,-34.286468],[-58.629215,-34.286711],[-58.629171,-34.286999],[-58.631981,-34.286698]]]}},{"type":"Feature","properties":{"partida":"357005808","cca":"357000100000000000000039700000000000010000","tipo":"Urbano","sup_m2":11104.0},"geometry":{"type":"Polygon","coordinates":[[[-58.629171,-34.286999],[-58.629113,-34.287378],[-58.632187,-34.287041],[-58.631981,-34.286698],[-58.629171,-34.286999]]]}},{"type":"Feature","properties":{"partida":"357005809","cca":"357000100000000000000039700000000000011000","tipo":"Urbano","sup_m2":10623.5},"geometry":{"type":"Polygon","coordinates":[[[-58.632393,-34.287325],[-58.632256,-34.287157],[-58.632221,-34.287102],[-58.632187,-34.287041],[-58.629113,-34.287378],[-58.629059,-34.287727],[-58.632393,-34.287325]]]}},{"type":"Feature","properties":{"partida":"357005810","cca":"357000100000000000000039700000000000012000","tipo":"Urbano","sup_m2":11422.3},"geometry":{"type":"Polygon","coordinates":[[[-58.632797,-34.287593],[-58.632662,-34.287532],[-58.63257,-34.287496],[-58.632473,-34.28742],[-58.632393,-34.287325],[-58.629059,-34.287727],[-58.62901,-34.288051],[-58.632797,-34.287593]]]}},{"type":"Feature","properties":{"partida":"357005811","cca":"357000100000000000000039700000000000013000","tipo":"Urbano","sup_m2":13157.0},"geometry":{"type":"Polygon","coordinates":[[[-58.633017,-34.287893],[-58.632848,-34.287606],[-58.632797,-34.287593],[-58.62901,-34.288051],[-58.628959,-34.288384],[-58.633017,-34.287893]]]}},{"type":"Feature","properties":{"partida":"357005812","cca":"357000100000000000000039700000000000014000","tipo":"Urbano","sup_m2":13144.8},"geometry":{"type":"Polygon","coordinates":[[[-58.633193,-34.288189],[-58.633017,-34.287893],[-58.628959,-34.288384],[-58.62891,-34.288701],[-58.632612,-34.288247],[-58.633193,-34.288189]]]}},{"type":"Feature","properties":{"partida":"357005813","cca":"357000100000000000000039700000000000015000","tipo":"Urbano","sup_m2":13613.1},"geometry":{"type":"Polygon","coordinates":[[[-58.62891,-34.288701],[-58.628862,-34.289017],[-58.633246,-34.288477],[-58.633193,-34.288189],[-58.632612,-34.288247],[-58.62891,-34.288701]]]}},{"type":"Feature","properties":{"partida":"357005814","cca":"357000100000000000000039700000000000016000","tipo":"Urbano","sup_m2":14602.1},"geometry":{"type":"Polygon","coordinates":[[[-58.633303,-34.288799],[-58.633246,-34.288477],[-58.628862,-34.289017],[-58.628813,-34.289337],[-58.633303,-34.288799]]]}},{"type":"Feature","properties":{"partida":"357005820","cca":"357000100000000000000039700000000000027000","tipo":"Rural","sup_m2":4337.1},"geometry":{"type":"Polygon","coordinates":[[[-58.63293,-34.285039],[-58.632779,-34.28513],[-58.632725,-34.285178],[-58.632655,-34.285302],[-58.632597,-34.285415],[-58.632504,-34.285645],[-58.632466,-34.285809],[-58.632469,-34.285893],[-58.632495,-34.285973],[-58.632534,-34.286025],[-58.632578,-34.286034],[-58.632631,-34.286025],[-58.632724,-34.285977],[-58.632985,-34.285748],[-58.633178,-34.285565],[-58.6332,-34.285531],[-58.633206,-34.285454],[-58.633175,-34.28537],[-58.633067,-34.28521],[-58.63304,-34.285186],[-58.632973,-34.285146],[-58.632944,-34.285107],[-58.63293,-34.285039]]]}},{"type":"Feature","properties":{"partida":"357005823","cca":"357000100000000000000039800000000000001000","tipo":"Rural","sup_m2":34875.0},"geometry":{"type":"Polygon","coordinates":[[[-58.626726,-34.284586],[-58.627029,-34.283847],[-58.626635,-34.283777],[-58.625645,-34.282931],[-58.622936,-34.281958],[-58.6228,-34.282486],[-58.626726,-34.284586]]]}},{"type":"Feature","properties":{"partida":"357005824","cca":"357000100000000000000039800000000000002000","tipo":"Rural","sup_m2":16182.4},"geometry":{"type":"Polygon","coordinates":[[[-58.626726,-34.284586],[-58.626453,-34.28444],[-58.6228,-34.282486],[-58.622732,-34.282752],[-58.626547,-34.284999],[-58.626636,-34.284806],[-58.626726,-34.284586]]]}},{"type":"Feature","properties":{"partida":"357020366","cca":"35700010000000000000003980000000000000300D","tipo":"Urbano","sup_m2":17004.8},"geometry":{"type":"Polygon","coordinates":[[[-58.626547,-34.284999],[-58.622732,-34.282752],[-58.622634,-34.283134],[-58.626387,-34.285345],[-58.626547,-34.284999]]]}},{"type":"Feature","properties":{"partida":"357020367","cca":"35700010000000000000003980000000000000300E","tipo":"Urbano","sup_m2":16862.9},"geometry":{"type":"Polygon","coordinates":[[[-58.62619,-34.285673],[-58.626361,-34.285401],[-58.626387,-34.285345],[-58.622634,-34.283134],[-58.622534,-34.283521],[-58.62619,-34.285673]]]}},{"type":"Feature","properties":{"partida":"357020368","cca":"35700010000000000000003980000000000000300G","tipo":"Urbano","sup_m2":10315.3},"geometry":{"type":"Polygon","coordinates":[[[-58.626003,-34.28752],[-58.623385,-34.286605],[-58.623376,-34.286988],[-58.62599,-34.287902],[-58.626003,-34.28752]]]}},{"type":"Feature","properties":{"partida":"357020369","cca":"35700010000000000000003980000000000000300K","tipo":"Urbano","sup_m2":10299.1},"geometry":{"type":"Polygon","coordinates":[[[-58.62599,-34.287902],[-58.625878,-34.287863],[-58.623376,-34.286988],[-58.623368,-34.287371],[-58.625977,-34.288283],[-58.62599,-34.287902]]]}},{"type":"Feature","properties":{"partida":"357020370","cca":"35700010000000000000003980000000000000300M","tipo":"Urbano","sup_m2":10281.9},"geometry":{"type":"Polygon","coordinates":[[[-58.625977,-34.288283],[-58.623368,-34.287371],[-58.623359,-34.287754],[-58.62596,-34.288663],[-58.625965,-34.288626],[-58.625977,-34.288283]]]}},{"type":"Feature","properties":{"partida":"357020371","cca":"35700010000000000000003980000000000000300N","tipo":"Urbano","sup_m2":10158.4},"geometry":{"type":"Polygon","coordinates":[[[-58.625901,-34.289029],[-58.62596,-34.288663],[-58.623359,-34.287754],[-58.62335,-34.288137],[-58.625901,-34.289029]]]}},{"type":"Feature","properties":{"partida":"357020372","cca":"35700010000000000000003980000000000000300R","tipo":"Urbano","sup_m2":9963.9},"geometry":{"type":"Polygon","coordinates":[[[-58.625843,-34.289394],[-58.625901,-34.289029],[-58.62335,-34.288137],[-58.623341,-34.28852],[-58.625843,-34.289394]]]}},{"type":"Feature","properties":{"partida":"357006158","cca":"357000100000000000000040300000000000001000","tipo":"Rural","sup_m2":77797.9},"geometry":{"type":"Polygon","coordinates":[[[-58.626035,-34.289918],[-58.626389,-34.289763],[-58.62672,-34.289738],[-58.627189,-34.289743],[-58.627727,-34.289836],[-58.628074,-34.289883],[-58.628688,-34.290152],[-58.629154,-34.287108],[-58.626535,-34.286713],[-58.626487,-34.288271],[-58.62635,-34.288854],[-58.62609,-34.289335],[-58.626035,-34.289918]]]}}]}