{"type":"FeatureCollection","features":[{"type":"Feature","properties":{"partida":"357001881","cca":"357000100000000000000029100H00000000010000","tipo":"Urbano","sup_m2":1199.9},"geometry":{"type":"Polygon","coordinates":[[[-58.643849,-34.325012],[-58.64365,-34.325086],[-58.643913,-34.325581],[-58.644111,-34.325507],[-58.643849,-34.325012]]]}},{"type":"Feature","properties":{"partida":"357001883","cca":"357000100000000000000029100H00000000012000","tipo":"Urbano","sup_m2":817.5},"geometry":{"type":"Polygon","coordinates":[[[-58.643739,-34.325254],[-58.643289,-34.325421],[-58.643451,-34.325555],[-58.643825,-34.325415],[-58.643739,-34.325254]]]}},{"type":"Feature","properties":{"partida":"357001884","cca":"357000100000000000000029100H00000000013000","tipo":"Urbano","sup_m2":666.0},"geometry":{"type":"Polygon","coordinates":[[[-58.643451,-34.325555],[-58.643619,-34.325686],[-58.643913,-34.325581],[-58.643825,-34.325415],[-58.643451,-34.325555]]]}},{"type":"Feature","properties":{"partida":"357001885","cca":"357000100000000000000029100H00000000014000","tipo":"Urbano","sup_m2":955.0},"geometry":{"type":"Polygon","coordinates":[[[-58.643619,-34.325686],[-58.643624,-34.32569],[-58.643715,-34.325846],[-58.644196,-34.325668],[-58.644111,-34.325507],[-58.643619,-34.325686]]]}},{"type":"Feature","properties":{"partida":"357001886","cca":"357000100000000000000029100H00000000015000","tipo":"Urbano","sup_m2":1007.9},"geometry":{"type":"Polygon","coordinates":[[[-58.643815,-34.326017],[-58.644287,-34.325841],[-58.644196,-34.325668],[-58.643715,-34.325846],[-58.643815,-34.326017]]]}},{"type":"Feature","properties":{"partida":"357001887","cca":"357000100000000000000029100H00000000016000","tipo":"Urbano","sup_m2":962.8},"geometry":{"type":"Polygon","coordinates":[[[-58.643815,-34.326017],[-58.643903,-34.326182],[-58.644376,-34.32601],[-58.644287,-34.325841],[-58.643815,-34.326017]]]}},{"type":"Feature","properties":{"partida":"357001888","cca":"357000100000000000000029100H00000000017000","tipo":"Urbano","sup_m2":1215.2},"geometry":{"type":"Polygon","coordinates":[[[-58.644111,-34.325507],[-58.644376,-34.32601],[-58.644573,-34.325937],[-58.64431,-34.325433],[-58.644111,-34.325507]]]}},{"type":"Feature","properties":{"partida":"357001889","cca":"357000100000000000000029100H00000000018000","tipo":"Urbano","sup_m2":1228.3},"geometry":{"type":"Polygon","coordinates":[[[-58.644573,-34.325937],[-58.644774,-34.325863],[-58.644509,-34.32536],[-58.64431,-34.325433],[-58.644573,-34.325937]]]}},{"type":"Feature","properties":{"partida":"357001890","cca":"357000100000000000000029100H00000000019000","tipo":"Urbano","sup_m2":1218.2},"geometry":{"type":"Polygon","coordinates":[[[-58.644774,-34.325863],[-58.644972,-34.32579],[-58.644707,-34.325286],[-58.644509,-34.32536],[-58.644774,-34.325863]]]}},{"type":"Feature","properties":{"partida":"357001891","cca":"357000100000000000000029100H00000000020000","tipo":"Urbano","sup_m2":1260.9},"geometry":{"type":"Polygon","coordinates":[[[-58.645177,-34.325715],[-58.644913,-34.32521],[-58.644707,-34.325286],[-58.644972,-34.32579],[-58.645177,-34.325715]]]}},{"type":"Feature","properties":{"partida":"357001935","cca":"357000100000000000000029100K00000000008000","tipo":"Urbano","sup_m2":774.3},"geometry":{"type":"Polygon","coordinates":[[[-58.645163,-34.326299],[-58.644972,-34.325961],[-58.64479,-34.326032],[-58.644975,-34.326369],[-58.645163,-34.326299]]]}},{"type":"Feature","properties":{"partida":"357001936","cca":"357000100000000000000029100K00000000009000","tipo":"Urbano","sup_m2":1366.5},"geometry":{"type":"Polygon","coordinates":[[[-58.644883,-34.326201],[-58.64479,-34.326032],[-58.644075,-34.326311],[-58.644245,-34.32641],[-58.644274,-34.326436],[-58.644883,-34.326201]]]}},{"type":"Feature","properties":{"partida":"357001937","cca":"357000100000000000000029100K00000000010000","tipo":"Urbano","sup_m2":1212.7},"geometry":{"type":"Polygon","coordinates":[[[-58.644274,-34.326436],[-58.644439,-34.326581],[-58.644975,-34.326369],[-58.644883,-34.326201],[-58.644274,-34.326436]]]}},{"type":"Feature","properties":{"partida":"357001938","cca":"357000100000000000000029100K00000000011000","tipo":"Urbano","sup_m2":1352.3},"geometry":{"type":"Polygon","coordinates":[[[-58.644439,-34.326581],[-58.644588,-34.326713],[-58.645251,-34.326454],[-58.645163,-34.326299],[-58.644975,-34.326369],[-58.644439,-34.326581]]]}},{"type":"Feature","properties":{"partida":"357001939","cca":"357000100000000000000029100K00000000012000","tipo":"Urbano","sup_m2":1268.0},"geometry":{"type":"Polygon","coordinates":[[[-58.644588,-34.326713],[-58.644633,-34.326753],[-58.644699,-34.326857],[-58.645342,-34.326615],[-58.645251,-34.326454],[-58.644588,-34.326713]]]}},{"type":"Feature","properties":{"partida":"357002058","cca":"357000100000000000000029100R00000000049000","tipo":"Urbano","sup_m2":1844.0},"geometry":{"type":"Polygon","coordinates":[[[-58.644987,-34.336042],[-58.645183,-34.33592],[-58.644704,-34.335468],[-58.644611,-34.335375],[-58.644409,-34.335498],[-58.6445,-34.335594],[-58.644987,-34.336042]]]}},{"type":"Feature","properties":{"partida":"357002059","cca":"357000100000000000000029100R00000000050000","tipo":"Urbano","sup_m2":1953.1},"geometry":{"type":"Polygon","coordinates":[[[-58.644774,-34.336173],[-58.644987,-34.336042],[-58.6445,-34.335594],[-58.644409,-34.335498],[-58.644192,-34.335631],[-58.644267,-34.335705],[-58.644774,-34.336173]]]}},{"type":"Feature","properties":{"partida":"357002060","cca":"357000100000000000000029100R00000000051000","tipo":"Urbano","sup_m2":2091.0},"geometry":{"type":"Polygon","coordinates":[[[-58.643968,-34.335782],[-58.644053,-34.335864],[-58.644543,-34.336315],[-58.644774,-34.336173],[-58.644267,-34.335705],[-58.644192,-34.335631],[-58.64408,-34.335725],[-58.643968,-34.335782]]]}},{"type":"Feature","properties":{"partida":"357002061","cca":"357000100000000000000029100R00000000052000","tipo":"Urbano","sup_m2":1911.9},"geometry":{"type":"Polygon","coordinates":[[[-58.644338,-34.336442],[-58.644543,-34.336315],[-58.644053,-34.335864],[-58.643968,-34.335782],[-58.643748,-34.335913],[-58.644338,-34.336442]]]}},{"type":"Feature","properties":{"partida":"357002062","cca":"357000100000000000000029100R00000000053000","tipo":"Urbano","sup_m2":2286.0},"geometry":{"type":"Polygon","coordinates":[[[-58.644099,-34.336589],[-58.644338,-34.336442],[-58.643748,-34.335913],[-58.643451,-34.335976],[-58.643651,-34.336183],[-58.644099,-34.336589]]]}},{"type":"Feature","properties":{"partida":"357002063","cca":"357000100000000000000029100R00000000054000","tipo":"Urbano","sup_m2":1970.1},"geometry":{"type":"Polygon","coordinates":[[[-58.643897,-34.336714],[-58.644099,-34.336589],[-58.643651,-34.336183],[-58.643451,-34.335976],[-58.643294,-34.33615],[-58.643897,-34.336714]]]}},{"type":"Feature","properties":{"partida":"357002064","cca":"357000100000000000000029100R00000000055000","tipo":"Urbano","sup_m2":1973.3},"geometry":{"type":"Polygon","coordinates":[[[-58.643695,-34.336839],[-58.643897,-34.336714],[-58.643294,-34.33615],[-58.643075,-34.336266],[-58.643695,-34.336839]]]}},{"type":"Feature","properties":{"partida":"357002065","cca":"357000100000000000000029100R00000000056000","tipo":"Urbano","sup_m2":1383.6},"geometry":{"type":"Polygon","coordinates":[[[-58.643552,-34.336927],[-58.643695,-34.336839],[-58.643075,-34.336266],[-58.642942,-34.336362],[-58.643552,-34.336927]]]}},{"type":"Feature","properties":{"partida":"357002066","cca":"357000100000000000000029100R00000000057000","tipo":"Urbano","sup_m2":2582.7},"geometry":{"type":"Polygon","coordinates":[[[-58.642618,-34.336493],[-58.643287,-34.337091],[-58.643552,-34.336927],[-58.642942,-34.336362],[-58.642893,-34.336414],[-58.642865,-34.336476],[-58.642834,-34.336481],[-58.642785,-34.336478],[-58.642618,-34.336493]]]}},{"type":"Feature","properties":{"partida":"357002067","cca":"357000100000000000000029100R00000000058000","tipo":"Urbano","sup_m2":2005.3},"geometry":{"type":"Polygon","coordinates":[[[-58.642618,-34.336493],[-58.642493,-34.336544],[-58.642403,-34.33659],[-58.643097,-34.337207],[-58.643287,-34.337091],[-58.642618,-34.336493]]]}},{"type":"Feature","properties":{"partida":"357002068","cca":"357000100000000000000029100R00000000059000","tipo":"Urbano","sup_m2":2240.7},"geometry":{"type":"Polygon","coordinates":[[[-58.643097,-34.337207],[-58.642403,-34.33659],[-58.64221,-34.336787],[-58.642908,-34.337324],[-58.643097,-34.337207]]]}},{"type":"Feature","properties":{"partida":"357002091","cca":"357000100000000000000029100T0000000001100A","tipo":"Urbano","sup_m2":8069.1},"geometry":{"type":"Polygon","coordinates":[[[-58.640205,-34.337576],[-58.642004,-34.338198],[-58.642188,-34.337804],[-58.640647,-34.337277],[-58.640571,-34.337294],[-58.640519,-34.337297],[-58.64045,-34.337315],[-58.640366,-34.337359],[-58.640255,-34.337434],[-58.640205,-34.337576]]]}},{"type":"Feature","properties":{"partida":"357002092","cca":"357000100000000000000029100T0000000001100B","tipo":"Urbano","sup_m2":3774.9},"geometry":{"type":"Polygon","coordinates":[[[-58.641708,-34.338306],[-58.642004,-34.338198],[-58.640205,-34.337576],[-58.639867,-34.337645],[-58.640378,-34.337833],[-58.641708,-34.338306]]]}},{"type":"Feature","properties":{"partida":"357002093","cca":"357000100000000000000029100T0000000001100C","tipo":"Urbano","sup_m2":3614.0},"geometry":{"type":"Polygon","coordinates":[[[-58.641708,-34.338306],[-58.640378,-34.337833],[-58.639867,-34.337645],[-58.639674,-34.337784],[-58.640161,-34.337952],[-58.641439,-34.338403],[-58.641708,-34.338306]]]}},{"type":"Feature","properties":{"partida":"357002094","cca":"357000100000000000000029100T0000000001100D","tipo":"Urbano","sup_m2":3691.1},"geometry":{"type":"Polygon","coordinates":[[[-58.641163,-34.338503],[-58.641439,-34.338403],[-58.640161,-34.337952],[-58.639674,-34.337784],[-58.639397,-34.337899],[-58.641163,-34.338503]]]}},{"type":"Feature","properties":{"partida":"357002095","cca":"357000100000000000000029100T0000000001100E","tipo":"Urbano","sup_m2":3653.6},"geometry":{"type":"Polygon","coordinates":[[[-58.639267,-34.33806],[-58.640868,-34.338609],[-58.641163,-34.338503],[-58.639397,-34.337899],[-58.639249,-34.337957],[-58.639249,-34.33798],[-58.639229,-34.338009],[-58.63922,-34.338035],[-58.639267,-34.33806]]]}},{"type":"Feature","properties":{"partida":"357002096","cca":"357000100000000000000029100T0000000001100F","tipo":"Urbano","sup_m2":2764.7},"geometry":{"type":"Polygon","coordinates":[[[-58.639267,-34.33806],[-58.639314,-34.338139],[-58.639379,-34.338186],[-58.639424,-34.338228],[-58.639386,-34.338256],[-58.639304,-34.338266],[-58.640587,-34.338711],[-58.640868,-34.338609],[-58.639267,-34.33806]]]}},{"type":"Feature","properties":{"partida":"357002097","cca":"357000100000000000000029100T0000000001100G","tipo":"Rural","sup_m2":16564.5},"geometry":{"type":"Polygon","coordinates":[[[-58.642004,-34.338198],[-58.640587,-34.338711],[-58.642341,-34.339319],[-58.642971,-34.338075],[-58.642188,-34.337804],[-58.642004,-34.338198]]]}},{"type":"Feature","properties":{"partida":"357002098","cca":"357000100000000000000029100T0000000001200A","tipo":"Urbano","sup_m2":2867.4},"geometry":{"type":"Polygon","coordinates":[[[-58.64037,-34.338866],[-58.640587,-34.338711],[-58.639304,-34.338266],[-58.639116,-34.338411],[-58.64037,-34.338866]]]}},{"type":"Feature","properties":{"partida":"357002099","cca":"357000100000000000000029100T0000000001200B","tipo":"Urbano","sup_m2":2929.8},"geometry":{"type":"Polygon","coordinates":[[[-58.640165,-34.339012],[-58.64037,-34.338866],[-58.639116,-34.338411],[-58.638861,-34.338537],[-58.639073,-34.338623],[-58.640165,-34.339012]]]}},{"type":"Feature","properties":{"partida":"357002100","cca":"357000100000000000000029100T0000000001200C","tipo":"Urbano","sup_m2":2890.5},"geometry":{"type":"Polygon","coordinates":[[[-58.638861,-34.338537],[-58.638828,-34.338583],[-58.638793,-34.338612],[-58.638733,-34.338642],[-58.638629,-34.338681],[-58.638875,-34.338763],[-58.639956,-34.339161],[-58.640165,-34.339012],[-58.639073,-34.338623],[-58.638861,-34.338537]]]}},{"type":"Feature","properties":{"partida":"357002101","cca":"357000100000000000000029100T0000000001200D","tipo":"Urbano","sup_m2":3016.2},"geometry":{"type":"Polygon","coordinates":[[[-58.639956,-34.339161],[-58.638875,-34.338763],[-58.638629,-34.338681],[-58.638436,-34.338815],[-58.638664,-34.338913],[-58.63975,-34.339308],[-58.639956,-34.339161]]]}},{"type":"Feature","properties":{"partida":"357002102","cca":"357000100000000000000029100T0000000001200E","tipo":"Urbano","sup_m2":2943.4},"geometry":{"type":"Polygon","coordinates":[[[-58.638436,-34.338815],[-58.638247,-34.338795],[-58.638164,-34.338917],[-58.638464,-34.339034],[-58.639556,-34.339447],[-58.63975,-34.339308],[-58.638664,-34.338913],[-58.638436,-34.338815]]]}},{"type":"Feature","properties":{"partida":"357002103","cca":"357000100000000000000029100T0000000001200F","tipo":"Rural","sup_m2":191171.9},"geometry":{"type":"Polygon","coordinates":[[[-58.647707,-34.341013],[-58.648167,-34.339875],[-58.642971,-34.338075],[-58.642341,-34.339319],[-58.640587,-34.338711],[-58.639556,-34.339447],[-58.638464,-34.339034],[-58.638164,-34.338917],[-58.638139,-34.339031],[-58.638159,-34.33937],[-58.63828,-34.339398],[-58.63908,-34.339663],[-58.64277,-34.340939],[-58.647152,-34.342247],[-58.647707,-34.341013]]]}},{"type":"Feature","properties":{"partida":"357002104","cca":"357000100000000000000029100T0000000001300A","tipo":"Urbano","sup_m2":1461.7},"geometry":{"type":"Polygon","coordinates":[[[-58.63908,-34.339663],[-58.63828,-34.339398],[-58.638159,-34.33937],[-58.638187,-34.339542],[-58.639123,-34.339811],[-58.63908,-34.339663]]]}},{"type":"Feature","properties":{"partida":"357018355","cca":"357000100000000000000029100T0000000001300B","tipo":"Urbano","sup_m2":1569.0},"geometry":{"type":"Polygon","coordinates":[[[-58.638141,-34.339722],[-58.638314,-34.339753],[-58.63917,-34.339952],[-58.639123,-34.339811],[-58.638187,-34.339542],[-58.638141,-34.339722]]]}},{"type":"Feature","properties":{"partida":"357018356","cca":"357000100000000000000029100T0000000001300C","tipo":"Urbano","sup_m2":1665.7},"geometry":{"type":"Polygon","coordinates":[[[-58.639218,-34.340095],[-58.63917,-34.339952],[-58.638314,-34.339753],[-58.638141,-34.339722],[-58.638166,-34.339898],[-58.638331,-34.339931],[-58.639218,-34.340095]]]}},{"type":"Feature","properties":{"partida":"357018357","cca":"357000100000000000000029100T0000000001300D","tipo":"Urbano","sup_m2":1804.6},"geometry":{"type":"Polygon","coordinates":[[[-58.639218,-34.340095],[-58.638331,-34.339931],[-58.638166,-34.339898],[-58.63821,-34.340104],[-58.639266,-34.340241],[-58.639218,-34.340095]]]}},{"type":"Feature","properties":{"partida":"357018358","cca":"357000100000000000000029100T0000000001300E","tipo":"Urbano","sup_m2":1722.0},"geometry":{"type":"Polygon","coordinates":[[[-58.639312,-34.340391],[-58.639266,-34.340241],[-58.63821,-34.340104],[-58.638292,-34.340294],[-58.639312,-34.340391]]]}},{"type":"Feature","properties":{"partida":"357018359","cca":"357000100000000000000029100T0000000001300F","tipo":"Urbano","sup_m2":1521.8},"geometry":{"type":"Polygon","coordinates":[[[-58.639312,-34.340391],[-58.638292,-34.340294],[-58.638332,-34.340393],[-58.638383,-34.340464],[-58.639355,-34.340528],[-58.639312,-34.340391]]]}},{"type":"Feature","properties":{"partida":"357018360","cca":"357000100000000000000029100T0000000001300G","tipo":"Urbano","sup_m2":1582.6},"geometry":{"type":"Polygon","coordinates":[[[-58.639397,-34.340663],[-58.639355,-34.340528],[-58.638383,-34.340464],[-58.638418,-34.340648],[-58.638499,-34.340651],[-58.639397,-34.340663]]]}},{"type":"Feature","properties":{"partida":"357018361","cca":"357000100000000000000029100T0000000001300H","tipo":"Urbano","sup_m2":1584.1},"geometry":{"type":"Polygon","coordinates":[[[-58.639446,-34.34082],[-58.639397,-34.340663],[-58.638499,-34.340651],[-58.638418,-34.340648],[-58.638495,-34.340817],[-58.639446,-34.34082]]]}},{"type":"Feature","properties":{"partida":"357018362","cca":"357000100000000000000029100T0000000001300K","tipo":"Urbano","sup_m2":1583.8},"geometry":{"type":"Polygon","coordinates":[[[-58.639496,-34.340963],[-58.639446,-34.34082],[-58.638495,-34.340817],[-58.638481,-34.340987],[-58.639496,-34.340963]]]}},{"type":"Feature","properties":{"partida":"357018363","cca":"357000100000000000000029100T0000000001300M","tipo":"Urbano","sup_m2":1845.8},"geometry":{"type":"Polygon","coordinates":[[[-58.638481,-34.340987],[-58.638491,-34.341026],[-58.638507,-34.341045],[-58.638532,-34.34106],[-58.638541,-34.341075],[-58.638524,-34.341094],[-58.638492,-34.341115],[-58.638469,-34.34114],[-58.638484,-34.341188],[-58.638684,-34.341176],[-58.639541,-34.341114],[-58.639496,-34.340963],[-58.638481,-34.340987]]]}},{"type":"Feature","properties":{"partida":"357018364","cca":"357000100000000000000029100T0000000001300N","tipo":"Urbano","sup_m2":1887.1},"geometry":{"type":"Polygon","coordinates":[[[-58.638484,-34.341188],[-58.638473,-34.341227],[-58.638515,-34.341312],[-58.638545,-34.341333],[-58.638576,-34.34133],[-58.638592,-34.341339],[-58.638609,-34.341351],[-58.638612,-34.341368],[-58.639589,-34.341274],[-58.639541,-34.341114],[-58.638684,-34.341176],[-58.638484,-34.341188]]]}},{"type":"Feature","properties":{"partida":"357018365","cca":"357000100000000000000029100T0000000001300P","tipo":"Urbano","sup_m2":1633.2},"geometry":{"type":"Polygon","coordinates":[[[-58.639589,-34.341274],[-58.638747,-34.341355],[-58.638612,-34.341368],[-58.638685,-34.341543],[-58.639642,-34.341413],[-58.639589,-34.341274]]]}},{"type":"Feature","properties":{"partida":"357002105","cca":"357000100000000000000029100T0000000001400A","tipo":"Rural","sup_m2":109471.8},"geometry":{"type":"Polygon","coordinates":[[[-58.638685,-34.341543],[-58.638698,-34.341572],[-58.638698,-34.341585],[-58.638718,-34.341606],[-58.638907,-34.341582],[-58.638914,-34.341634],[-58.638876,-34.341643],[-58.638834,-34.341665],[-58.638823,-34.341645],[-58.638791,-34.341634],[-58.638737,-34.34167],[-58.63872,-34.341702],[-58.638718,-34.341753],[-58.638735,-34.341771],[-58.638712,-34.341789],[-58.638728,-34.341825],[-58.638785,-34.341879],[-58.638772,-34.341897],[-58.63877,-34.341916],[-58.638801,-34.341925],[-58.638842,-34.341924],[-58.638875,-34.34194],[-58.638887,-34.34196],[-58.638911,-34.341987],[-58.638906,-34.342015],[-58.638891,-34.342045],[-58.638882,-34.342078],[-58.638888,-34.3421],[-58.638881,-34.342146],[-58.638917,-34.34217],[-58.638911,-34.342215],[-58.638939,-34.342242],[-58.639004,-34.342231],[-58.638982,-34.342263],[-58.639002,-34.342294],[-58.639027,-34.342319],[-58.639068,-34.342327],[-58.639073,-34.342346],[-58.639048,-34.342355],[-58.639036,-34.342394],[-58.639004,-34.342404],[-58.638997,-34.342426],[-58.639024,-34.34244],[-58.639071,-34.342433],[-58.639039,-34.342463],[-58.640515,-34.342451],[-58.647152,-34.342247],[-58.64277,-34.340939],[-58.63908,-34.339663],[-58.639123,-34.339811],[-58.639266,-34.340241],[-58.639446,-34.34082],[-58.639496,-34.340963],[-58.639589,-34.341274],[-58.639642,-34.341413],[-58.638685,-34.341543]]]}},{"type":"Feature","properties":{"partida":"357002106","cca":"357000100000000000000029100T0000000001500A","tipo":"Urbano","sup_m2":2550.5},"geometry":{"type":"Polygon","coordinates":[[[-58.639039,-34.342463],[-58.639047,-34.342499],[-58.639075,-34.342516],[-58.639108,-34.342563],[-58.639091,-34.342575],[-58.639065,-34.342565],[-58.639039,-34.342602],[-58.639045,-34.34263],[-58.640566,-34.342622],[-58.640515,-34.342451],[-58.639039,-34.342463]]]}},{"type":"Feature","properties":{"partida":"357002107","cca":"357000100000000000000029100T0000000001500D","tipo":"Urbano","sup_m2":2562.6},"geometry":{"type":"Polygon","coordinates":[[[-58.639326,-34.343172],[-58.639633,-34.343169],[-58.640727,-34.343159],[-58.640675,-34.342985],[-58.639251,-34.343],[-58.639204,-34.343066],[-58.639221,-34.343084],[-58.63928,-34.343102],[-58.639273,-34.343125],[-58.639294,-34.343139],[-58.639302,-34.343158],[-58.639326,-34.343172]]]}},{"type":"Feature","properties":{"partida":"357002108","cca":"357000100000000000000029100T0000000001500E","tipo":"Urbano","sup_m2":2549.9},"geometry":{"type":"Polygon","coordinates":[[[-58.640727,-34.343159],[-58.639633,-34.343169],[-58.639326,-34.343172],[-58.639461,-34.343354],[-58.640782,-34.343342],[-58.640727,-34.343159]]]}},{"type":"Feature","properties":{"partida":"357002109","cca":"357000100000000000000029100T0000000001500F","tipo":"Rural","sup_m2":79484.2},"geometry":{"type":"Polygon","coordinates":[[[-58.640515,-34.342451],[-58.640782,-34.343342],[-58.639461,-34.343354],[-58.639483,-34.343634],[-58.646575,-34.343496],[-58.646677,-34.343301],[-58.647152,-34.342247],[-58.640515,-34.342451]]]}},{"type":"Feature","properties":{"partida":"357002110","cca":"357000100000000000000029100T0000000001500G","tipo":"Urbano","sup_m2":5452.6},"geometry":{"type":"Polygon","coordinates":[[[-58.639099,-34.34263],[-58.639135,-34.342645],[-58.639143,-34.342668],[-58.639129,-34.342687],[-58.639142,-34.3427],[-58.639155,-34.34273],[-58.63913,-34.342769],[-58.63914,-34.342775],[-58.639135,-34.342807],[-58.639152,-34.342836],[-58.639207,-34.342837],[-58.63918,-34.342879],[-58.639151,-34.34288],[-58.639163,-34.342902],[-58.63919,-34.342928],[-58.639241,-34.342961],[-58.639267,-34.342963],[-58.639253,-34.342977],[-58.639251,-34.343],[-58.640675,-34.342985],[-58.640566,-34.342622],[-58.639099,-34.34263]]]}},{"type":"Feature","properties":{"partida":"357006981","cca":"35700010000000000000004450000000000000200A","tipo":"Rural","sup_m2":306293.3},"geometry":{"type":"Polygon","coordinates":[[[-58.633294,-34.327035],[-58.633669,-34.328339],[-58.63418,-34.329164],[-58.635633,-34.330364],[-58.635698,-34.33034],[-58.635751,-34.330356],[-58.635812,-34.330344],[-58.635877,-34.330345],[-58.635889,-34.330314],[-58.635961,-34.330327],[-58.636094,-34.33031],[-58.636227,-34.330302],[-58.636308,-34.330236],[-58.636365,-34.330221],[-58.636468,-34.330203],[-58.63656,-34.330193],[-58.636641,-34.330175],[-58.636701,-34.330164],[-58.63676,-34.330193],[-58.636761,-34.330146],[-58.636802,-34.330121],[-58.636858,-34.33013],[-58.636909,-34.330128],[-58.636986,-34.330087],[-58.637071,-34.330027],[-58.637176,-34.329926],[-58.637198,-34.329835],[-58.637185,-34.329777],[-58.637243,-34.329705],[-58.637338,-34.329651],[-58.637409,-34.329602],[-58.637403,-34.329566],[-58.637561,-34.329504],[-58.637595,-34.329454],[-58.637652,-34.329413],[-58.637747,-34.329323],[-58.637829,-34.329268],[-58.637995,-34.329125],[-58.638047,-34.329057],[-58.638121,-34.328993],[-58.638159,-34.328949],[-58.638167,-34.32892],[-58.638163,-34.328883],[-58.638135,-34.328856],[-58.63788,-34.328731],[-58.63783,-34.328725],[-58.637772,-34.328723],[-58.637792,-34.328681],[-58.637702,-34.328641],[-58.637517,-34.328565],[-58.637529,-34.328502],[-58.637587,-34.328282],[-58.637594,-34.328088],[-58.637829,-34.327962],[-58.638108,-34.327832],[-58.638247,-34.327744],[-58.638453,-34.327642],[-58.638723,-34.327502],[-58.638901,-34.327414],[-58.63905,-34.327308],[-58.639205,-34.327192],[-58.639704,-34.326951],[-58.640018,-34.326968],[-58.640111,-34.326891],[-58.640254,-34.326811],[-58.640485,-34.326739],[-58.640735,-34.326721],[-58.640964,-34.326716],[-58.641328,-34.326694],[-58.641573,-34.326664],[-58.642029,-34.326476],[-58.642175,-34.32648],[-58.642348,-34.326433],[-58.642394,-34.326437],[-58.642431,-34.326461],[-58.642446,-34.326478],[-58.642671,-34.326495],[-58.642807,-34.326557],[-58.643021,-34.326601],[-58.643224,-34.32661],[-58.643243,-34.326626],[-58.643254,-34.326647],[-58.643276,-34.326666],[-58.643346,-34.326665],[-58.64339,-34.326643],[-58.643413,-34.326609],[-58.643559,-34.326604],[-58.643577,-34.326568],[-58.643606,-34.326538],[-58.643628,-34.326544],[-58.643655,-34.326559],[-58.643806,-34.326517],[-58.643828,-34.326506],[-58.643847,-34.326477],[-58.643846,-34.326427],[-58.643809,-34.326375],[-58.643694,-34.326175],[-58.64358,-34.326098],[-58.643251,-34.325971],[-58.642991,-34.325694],[-58.642816,-34.325515],[-58.642837,-34.325485],[-58.642838,-34.32543],[-58.642834,-34.325376],[-58.642799,-34.325334],[-58.642756,-34.325306],[-58.642731,-34.325304],[-58.642695,-34.325329],[-58.642662,-34.325299],[-58.642727,-34.325254],[-58.642499,-34.324991],[-58.642495,-34.324923],[-58.642509,-34.32487],[-58.642499,-34.324832],[-58.642481,-34.324819],[-58.642438,-34.324823],[-58.642433,-34.324803],[-58.642433,-34.324772],[-58.642405,-34.324743],[-58.642209,-34.324597],[-58.642067,-34.32451],[-58.642026,-34.324412],[-58.642003,-34.324333],[-58.641928,-34.324311],[-58.64189,-34.324272],[-58.641927,-34.324158],[-58.641929,-34.324107],[-58.641857,-34.324082],[-58.641792,-34.324012],[-58.641784,-34.323965],[-58.641784,-34.323932],[-58.641811,-34.323883],[-58.641853,-34.323844],[-58.641848,-34.32381],[-58.641863,-34.323771],[-58.63316,-34.326629],[-58.633294,-34.327035]]]}},{"type":"Feature","properties":{"partida":"357006982","cca":"35700010000000000000004450000000000000200B","tipo":"Rural","sup_m2":100073.5},"geometry":{"type":"Polygon","coordinates":[[[-58.635727,-34.330419],[-58.638412,-34.3326],[-58.638868,-34.332979],[-58.640601,-34.33173],[-58.640621,-34.331744],[-58.640681,-34.331748],[-58.640735,-34.331695],[-58.640779,-34.331641],[-58.640956,-34.331577],[-58.640801,-34.331539],[-58.640678,-34.331452],[-58.64054,-34.331369],[-58.640336,-34.331305],[-58.640288,-34.331243],[-58.640228,-34.331193],[-58.640169,-34.331077],[-58.640072,-34.33098],[-58.639922,-34.330851],[-58.639875,-34.330654],[-58.639854,-34.330527],[-58.639826,-34.330402],[-58.639757,-34.3302],[-58.639689,-34.330082],[-58.639586,-34.329916],[-58.63956,-34.32978],[-58.639502,-34.329618],[-58.639393,-34.329447],[-58.639381,-34.329329],[-58.639342,-34.329178],[-58.639283,-34.329141],[-58.639148,-34.32913],[-58.639049,-34.329135],[-58.638989,-34.329152],[-58.638937,-34.329153],[-58.638829,-34.329165],[-58.63872,-34.329154],[-58.638635,-34.329119],[-58.638553,-34.329078],[-58.638486,-34.329082],[-58.638455,-34.329072],[-58.638412,-34.329049],[-58.63836,-34.328998],[-58.638297,-34.328977],[-58.638276,-34.328977],[-58.638266,-34.328981],[-58.638261,-34.328991],[-58.638226,-34.329029],[-58.63815,-34.329106],[-58.638133,-34.32911],[-58.638094,-34.329137],[-58.638094,-34.329181],[-58.638035,-34.329209],[-58.637999,-34.329221],[-58.637939,-34.329206],[-58.637931,-34.329236],[-58.637943,-34.32926],[-58.637918,-34.329266],[-58.637916,-34.329292],[-58.637905,-34.329322],[-58.637864,-34.329355],[-58.637772,-34.329376],[-58.637757,-34.329394],[-58.637741,-34.329456],[-58.637662,-34.329508],[-58.637511,-34.329632],[-58.637355,-34.329738],[-58.637306,-34.3298],[-58.637278,-34.329811],[-58.637251,-34.329798],[-58.637265,-34.329856],[-58.637267,-34.329906],[-58.637224,-34.329958],[-58.637184,-34.329983],[-58.637147,-34.330025],[-58.637125,-34.330073],[-58.636882,-34.330211],[-58.636696,-34.330225],[-58.636608,-34.33024],[-58.636566,-34.330268],[-58.636498,-34.33027],[-58.63644,-34.330276],[-58.636429,-34.330307],[-58.636386,-34.330354],[-58.636315,-34.330299],[-58.636245,-34.330368],[-58.636099,-34.330445],[-58.635959,-34.330447],[-58.635916,-34.330487],[-58.635887,-34.330452],[-58.635876,-34.330427],[-58.635815,-34.330426],[-58.635815,-34.330404],[-58.635762,-34.330394],[-58.635727,-34.330419]]]}},{"type":"Feature","properties":{"partida":"357006986","cca":"35700010000000000000004450000000000000200F","tipo":"Rural","sup_m2":89097.9},"geometry":{"type":"Polygon","coordinates":[[[-58.641821,-34.330528],[-58.641926,-34.330931],[-58.641991,-34.331092],[-58.642157,-34.331383],[-58.64233,-34.331519],[-58.642454,-34.331607],[-58.641723,-34.328777],[-58.644825,-34.328214],[-58.644821,-34.328125],[-58.644694,-34.328069],[-58.644416,-34.327534],[-58.64447,-34.327178],[-58.644281,-34.326984],[-58.644186,-34.326861],[-58.644169,-34.326754],[-58.644099,-34.32668],[-58.643989,-34.326658],[-58.643737,-34.326762],[-58.643661,-34.326637],[-58.643423,-34.326685],[-58.643117,-34.326753],[-58.642714,-34.326661],[-58.642443,-34.326557],[-58.642069,-34.326576],[-58.641759,-34.326695],[-58.641414,-34.326798],[-58.641025,-34.326823],[-58.640803,-34.326813],[-58.640488,-34.326839],[-58.640233,-34.326964],[-58.640099,-34.327076],[-58.64011,-34.327236],[-58.640277,-34.327382],[-58.640362,-34.327495],[-58.640442,-34.3278],[-58.640583,-34.328044],[-58.640765,-34.328486],[-58.640839,-34.328791],[-58.640983,-34.328934],[-58.641045,-34.329053],[-58.641153,-34.329145],[-58.641266,-34.329178],[-58.641333,-34.329229],[-58.641457,-34.329302],[-58.64149,-34.329454],[-58.64157,-34.329714],[-58.641633,-34.329896],[-58.641677,-34.330056],[-58.641739,-34.330188],[-58.641757,-34.330353],[-58.641821,-34.330528]]]}},{"type":"Feature","properties":{"partida":"357006985","cca":"35700010000000000000004450000000000000200R","tipo":"Rural","sup_m2":17603.8},"geometry":{"type":"Polygon","coordinates":[[[-58.642387,-34.336253],[-58.642663,-34.336108],[-58.642811,-34.33609],[-58.642871,-34.336079],[-58.639091,-34.332818],[-58.638868,-34.332979],[-58.639078,-34.333153],[-58.642387,-34.336253]]]}},{"type":"Feature","properties":{"partida":"357006983","cca":"35700010000000000000004450000000000000200S","tipo":"Rural","sup_m2":15838.9},"geometry":{"type":"Polygon","coordinates":[[[-58.643169,-34.33586],[-58.639307,-34.332663],[-58.639091,-34.332818],[-58.642871,-34.336079],[-58.642965,-34.336035],[-58.643006,-34.33603],[-58.64306,-34.336015],[-58.643078,-34.335999],[-58.643085,-34.33594],[-58.643136,-34.335914],[-58.643169,-34.33586]]]}},{"type":"Feature","properties":{"partida":"357006984","cca":"35700010000000000000004450000000000000200T","tipo":"Rural","sup_m2":14964.5},"geometry":{"type":"Polygon","coordinates":[[[-58.64344,-34.335663],[-58.639523,-34.332506],[-58.639307,-34.332663],[-58.643169,-34.33586],[-58.643215,-34.335829],[-58.64325,-34.335812],[-58.643272,-34.335813],[-58.643298,-34.335802],[-58.643344,-34.335767],[-58.643345,-34.335749],[-58.643335,-34.335725],[-58.64334,-34.335707],[-58.643371,-34.335704],[-58.643429,-34.335707],[-58.643443,-34.335693],[-58.64344,-34.335663]]]}},{"type":"Feature","properties":{"partida":"357019878","cca":"35700010000000000000004450000000000000200W","tipo":"Rural","sup_m2":14276.9},"geometry":{"type":"Polygon","coordinates":[[[-58.643698,-34.335524],[-58.639759,-34.332337],[-58.639523,-34.332506],[-58.64344,-34.335663],[-58.643516,-34.335661],[-58.643548,-34.335643],[-58.643587,-34.335639],[-58.643604,-34.335614],[-58.643629,-34.335603],[-58.643648,-34.335589],[-58.643669,-34.335565],[-58.643712,-34.335569],[-58.643698,-34.335524]]]}},{"type":"Feature","properties":{"partida":"357019879","cca":"35700010000000000000004450000000000000200X","tipo":"Rural","sup_m2":16132.7},"geometry":{"type":"Polygon","coordinates":[[[-58.639759,-34.332337],[-58.643698,-34.335524],[-58.643791,-34.335444],[-58.643839,-34.335412],[-58.643847,-34.335385],[-58.643896,-34.335367],[-58.643919,-34.335324],[-58.640037,-34.332136],[-58.639759,-34.332337]]]}},{"type":"Feature","properties":{"partida":"357019880","cca":"35700010000000000000004450000000000000200Y","tipo":"Rural","sup_m2":17938.2},"geometry":{"type":"Polygon","coordinates":[[[-58.644272,-34.335141],[-58.640313,-34.331937],[-58.640037,-34.332136],[-58.643919,-34.335324],[-58.643951,-34.335277],[-58.644037,-34.335274],[-58.644064,-34.335249],[-58.644101,-34.335232],[-58.644131,-34.335212],[-58.644171,-34.335203],[-58.644187,-34.335186],[-58.644254,-34.33518],[-58.644272,-34.335141]]]}},{"type":"Feature","properties":{"partida":"357019881","cca":"35700010000000000000004450000000000000200Z","tipo":"Rural","sup_m2":20678.0},"geometry":{"type":"Polygon","coordinates":[[[-58.644651,-34.334913],[-58.640681,-34.331748],[-58.640621,-34.331744],[-58.640601,-34.33173],[-58.640313,-34.331937],[-58.644272,-34.335141],[-58.644411,-34.335076],[-58.644532,-34.334955],[-58.644651,-34.334913]]]}},{"type":"Feature","properties":{"partida":"357019882","cca":"3570001000000000000000445000000000000020AB","tipo":"Rural","sup_m2":17017.5},"geometry":{"type":"Polygon","coordinates":[[[-58.64496,-34.334709],[-58.640956,-34.331577],[-58.640779,-34.331641],[-58.640735,-34.331695],[-58.640681,-34.331748],[-58.644651,-34.334913],[-58.644702,-34.334885],[-58.644706,-34.334861],[-58.644722,-34.33484],[-58.644753,-34.334817],[-58.644799,-34.334795],[-58.64484,-34.334762],[-58.644865,-34.334756],[-58.644906,-34.33473],[-58.64496,-34.334709]]]}},{"type":"Feature","properties":{"partida":"357019883","cca":"3570001000000000000000445000000000000020AC","tipo":"Rural","sup_m2":16864.5},"geometry":{"type":"Polygon","coordinates":[[[-58.645313,-34.334418],[-58.64114,-34.331458],[-58.640956,-34.331577],[-58.64496,-34.334709],[-58.645035,-34.334675],[-58.645011,-34.334626],[-58.645014,-34.334613],[-58.645033,-34.334589],[-58.645249,-34.334481],[-58.645266,-34.334441],[-58.645313,-34.334418]]]}},{"type":"Feature","properties":{"partida":"357019884","cca":"3570001000000000000000445000000000000020AD","tipo":"Rural","sup_m2":12800.0},"geometry":{"type":"Polygon","coordinates":[[[-58.645599,-34.33428],[-58.641322,-34.331334],[-58.641217,-34.331429],[-58.64114,-34.331458],[-58.645313,-34.334418],[-58.645329,-34.334422],[-58.645324,-34.334434],[-58.64533,-34.334446],[-58.645377,-34.334444],[-58.64539,-34.334435],[-58.645402,-34.334413],[-58.645434,-34.334396],[-58.645455,-34.334387],[-58.64549,-34.334384],[-58.645531,-34.334372],[-58.645566,-34.334355],[-58.645567,-34.334335],[-58.645573,-34.334316],[-58.645599,-34.33428]]]}},{"type":"Feature","properties":{"partida":"357019885","cca":"3570001000000000000000445000000000000020AE","tipo":"Rural","sup_m2":13926.5},"geometry":{"type":"Polygon","coordinates":[[[-58.645903,-34.334066],[-58.641462,-34.331211],[-58.641322,-34.331334],[-58.645599,-34.33428],[-58.645612,-34.3342],[-58.645688,-34.33414],[-58.645754,-34.334135],[-58.645769,-34.334118],[-58.645773,-34.334091],[-58.645805,-34.334074],[-58.645903,-34.334066]]]}},{"type":"Feature","properties":{"partida":"357019886","cca":"3570001000000000000000445000000000000020AF","tipo":"Rural","sup_m2":18165.9},"geometry":{"type":"Polygon","coordinates":[[[-58.646316,-34.333739],[-58.645576,-34.333323],[-58.64498,-34.33301],[-58.644432,-34.332694],[-58.644235,-34.332616],[-58.643944,-34.332478],[-58.643716,-34.332341],[-58.643501,-34.332233],[-58.643373,-34.332158],[-58.643221,-34.332027],[-58.642875,-34.33181],[-58.642687,-34.33174],[-58.642526,-34.331658],[-58.64233,-34.331519],[-58.642157,-34.331383],[-58.641991,-34.331092],[-58.641926,-34.330931],[-58.641821,-34.330528],[-58.64187,-34.330919],[-58.641768,-34.331021],[-58.641672,-34.331095],[-58.641462,-34.331211],[-58.645903,-34.334066],[-58.646206,-34.33385],[-58.646316,-34.333739]]]}},{"type":"Feature","properties":{"partida":"357006987","cca":"357000100000000000000044500000000000003000","tipo":"Rural","sup_m2":147311.9},"geometry":{"type":"Polygon","coordinates":[[[-58.646655,-34.332241],[-58.646485,-34.332001],[-58.646226,-34.331584],[-58.646013,-34.331229],[-58.645741,-34.330666],[-58.645628,-34.330381],[-58.645377,-34.330104],[-58.645322,-34.330035],[-58.645313,-34.329976],[-58.645319,-34.329926],[-58.645347,-34.329905],[-58.645347,-34.329763],[-58.645356,-34.32974],[-58.645392,-34.329735],[-58.64541,-34.329716],[-58.645407,-34.329694],[-58.645384,-34.329682],[-58.645331,-34.329699],[-58.645284,-34.329709],[-58.645314,-34.329657],[-58.645266,-34.329594],[-58.645245,-34.329536],[-58.645252,-34.329494],[-58.645294,-34.329451],[-58.645325,-34.329414],[-58.645289,-34.329351],[-58.645263,-34.329273],[-58.645252,-34.329222],[-58.645189,-34.32921],[-58.645126,-34.329177],[-58.645074,-34.329167],[-58.645013,-34.329165],[-58.644985,-34.329127],[-58.644966,-34.329051],[-58.644966,-34.328953],[-58.644994,-34.328909],[-58.645042,-34.328818],[-58.64507,-34.328719],[-58.645047,-34.328679],[-58.644993,-34.328649],[-58.644943,-34.328611],[-58.644886,-34.328559],[-58.644853,-34.328505],[-58.644893,-34.328451],[-58.644937,-34.328398],[-58.644954,-34.328327],[-58.644942,-34.328274],[-58.644871,-34.328258],[-58.644825,-34.328214],[-58.641723,-34.328777],[-58.642454,-34.331607],[-58.642526,-34.331658],[-58.642687,-34.33174],[-58.642875,-34.33181],[-58.643221,-34.332027],[-58.643373,-34.332158],[-58.643501,-34.332233],[-58.643716,-34.332341],[-58.643944,-34.332478],[-58.644235,-34.332616],[-58.644432,-34.332694],[-58.64498,-34.33301],[-58.645414,-34.333238],[-58.646595,-34.332273],[-58.646655,-34.332241]]]}},{"type":"Feature","properties":{"partida":"357017705","cca":"35700010000000000000004460000000000000200A","tipo":"Rural","sup_m2":4518.4},"geometry":{"type":"Polygon","coordinates":[[[-58.6225,-34.326406],[-58.622455,-34.326412],[-58.622437,-34.326429],[-58.622425,-34.32646],[-58.622426,-34.326498],[-58.622466,-34.32653],[-58.622529,-34.326525],[-58.622581,-34.326537],[-58.622597,-34.32661],[-58.623145,-34.326597],[-58.624501,-34.326498],[-58.624479,-34.326256],[-58.623053,-34.32639],[-58.622524,-34.326411],[-58.6225,-34.326406]]]}},{"type":"Feature","properties":{"partida":"357017706","cca":"35700010000000000000004460000000000000200B","tipo":"Rural","sup_m2":3734.1},"geometry":{"type":"Polygon","coordinates":[[[-58.622597,-34.32661],[-58.62277,-34.326705],[-58.622847,-34.326839],[-58.622942,-34.326826],[-58.624518,-34.326693],[-58.624501,-34.326498],[-58.623145,-34.326597],[-58.622597,-34.32661]]]}},{"type":"Feature","properties":{"partida":"357017707","cca":"35700010000000000000004460000000000000200C","tipo":"Rural","sup_m2":3350.1},"geometry":{"type":"Polygon","coordinates":[[[-58.624518,-34.326693],[-58.622942,-34.326826],[-58.622847,-34.326839],[-58.622986,-34.327039],[-58.623117,-34.327016],[-58.624535,-34.326891],[-58.624518,-34.326693]]]}},{"type":"Feature","properties":{"partida":"357006990","cca":"35700010000000000000004460000000000000200D","tipo":"Rural","sup_m2":247459.6},"geometry":{"type":"Polygon","coordinates":[[[-58.633294,-34.327035],[-58.633067,-34.326348],[-58.632901,-34.325799],[-58.632807,-34.325474],[-58.624479,-34.326256],[-58.624535,-34.326891],[-58.623117,-34.327016],[-58.622986,-34.327039],[-58.623056,-34.327281],[-58.623136,-34.327433],[-58.623327,-34.327396],[-58.624577,-34.32729],[-58.62471,-34.328645],[-58.624708,-34.328897],[-58.631757,-34.328364],[-58.633637,-34.328233],[-58.633294,-34.327035]]]}},{"type":"Feature","properties":{"partida":"357017708","cca":"35700010000000000000004460000000000000200E","tipo":"Rural","sup_m2":2541.6},"geometry":{"type":"Polygon","coordinates":[[[-58.624595,-34.327469],[-58.624577,-34.32729],[-58.623327,-34.327396],[-58.623136,-34.327433],[-58.623193,-34.32759],[-58.623352,-34.327565],[-58.624595,-34.327469]]]}},{"type":"Feature","properties":{"partida":"357017709","cca":"35700010000000000000004460000000000000200F","tipo":"Rural","sup_m2":2719.4},"geometry":{"type":"Polygon","coordinates":[[[-58.623269,-34.327785],[-58.623489,-34.327742],[-58.624614,-34.327665],[-58.624595,-34.327469],[-58.623352,-34.327565],[-58.623193,-34.32759],[-58.623269,-34.327785]]]}},{"type":"Feature","properties":{"partida":"357017710","cca":"35700010000000000000004460000000000000200G","tipo":"Rural","sup_m2":2781.9},"geometry":{"type":"Polygon","coordinates":[[[-58.62334,-34.327971],[-58.6235,-34.327947],[-58.624634,-34.327871],[-58.624614,-34.327665],[-58.623489,-34.327742],[-58.623269,-34.327785],[-58.62334,-34.327971]]]}},{"type":"Feature","properties":{"partida":"357017711","cca":"35700010000000000000004460000000000000200H","tipo":"Rural","sup_m2":2485.0},"geometry":{"type":"Polygon","coordinates":[[[-58.623401,-34.328142],[-58.624653,-34.328065],[-58.624634,-34.327871],[-58.6235,-34.327947],[-58.62334,-34.327971],[-58.623401,-34.328142]]]}},{"type":"Feature","properties":{"partida":"357017712","cca":"35700010000000000000004460000000000000200J","tipo":"Rural","sup_m2":2536.8},"geometry":{"type":"Polygon","coordinates":[[[-58.623394,-34.328341],[-58.624672,-34.328258],[-58.624653,-34.328065],[-58.623401,-34.328142],[-58.623394,-34.328341]]]}},{"type":"Feature","properties":{"partida":"357017713","cca":"35700010000000000000004460000000000000200K","tipo":"Rural","sup_m2":2581.3},"geometry":{"type":"Polygon","coordinates":[[[-58.623394,-34.328341],[-58.62339,-34.328429],[-58.623411,-34.328545],[-58.624691,-34.328447],[-58.624672,-34.328258],[-58.623394,-34.328341]]]}},{"type":"Feature","properties":{"partida":"357017714","cca":"35700010000000000000004460000000000000200M","tipo":"Rural","sup_m2":2728.5},"geometry":{"type":"Polygon","coordinates":[[[-58.62471,-34.328645],[-58.624691,-34.328447],[-58.623411,-34.328545],[-58.623285,-34.328748],[-58.62471,-34.328645]]]}},{"type":"Feature","properties":{"partida":"357017715","cca":"35700010000000000000004460000000000000200N","tipo":"Rural","sup_m2":3332.2},"geometry":{"type":"Polygon","coordinates":[[[-58.623357,-34.328962],[-58.624708,-34.328897],[-58.62471,-34.328645],[-58.623285,-34.328748],[-58.623357,-34.328962]]]}},{"type":"Feature","properties":{"partida":"357007022","cca":"357000100000000000000045200000000000001000","tipo":"Rural","sup_m2":2698.3},"geometry":{"type":"Polygon","coordinates":[[[-58.631757,-34.328364],[-58.63267,-34.32907],[-58.632445,-34.328317],[-58.631757,-34.328364]]]}},{"type":"Feature","properties":{"partida":"357007023","cca":"35700010000000000000004520000000000000200A","tipo":"Rural","sup_m2":159916.6},"geometry":{"type":"Polygon","coordinates":[[[-58.62332,-34.331172],[-58.623393,-34.331157],[-58.623994,-34.331014],[-58.624776,-34.330882],[-58.624985,-34.33082],[-58.625653,-34.3306],[-58.626255,-34.330327],[-58.628308,-34.32961],[-58.633115,-34.330608],[-58.632762,-34.32938],[-58.63267,-34.32907],[-58.631757,-34.328364],[-58.624708,-34.328897],[-58.623357,-34.328962],[-58.623199,-34.329014],[-58.623152,-34.329037],[-58.623173,-34.329076],[-58.623204,-34.3291],[-58.62321,-34.329118],[-58.623195,-34.329177],[-58.623086,-34.329502],[-58.623055,-34.329789],[-58.623061,-34.330219],[-58.623105,-34.330569],[-58.623294,-34.331031],[-58.623332,-34.331076],[-58.623334,-34.331139],[-58.62332,-34.331172]]]}},{"type":"Feature","properties":{"partida":"357007024","cca":"35700010000000000000004520000000000000200B","tipo":"Rural","sup_m2":225454.9},"geometry":{"type":"Polygon","coordinates":[[[-58.62332,-34.331172],[-58.623303,-34.331195],[-58.623346,-34.33121],[-58.623391,-34.331236],[-58.623484,-34.33127],[-58.623541,-34.331308],[-58.6235,-34.331344],[-58.623478,-34.331426],[-58.623523,-34.331452],[-58.623506,-34.331495],[-58.623506,-34.331516],[-58.623547,-34.33153],[-58.623528,-34.331553],[-58.623591,-34.331578],[-58.623617,-34.331584],[-58.623613,-34.331601],[-58.623631,-34.331642],[-58.623642,-34.33165],[-58.623624,-34.331667],[-58.623623,-34.33169],[-58.623649,-34.331696],[-58.623674,-34.331721],[-58.623664,-34.331734],[-58.623678,-34.331745],[-58.623705,-34.331731],[-58.623722,-34.331758],[-58.623713,-34.331783],[-58.623742,-34.331777],[-58.62373,-34.331818],[-58.623731,-34.331847],[-58.623747,-34.331903],[-58.623756,-34.331917],[-58.623765,-34.331903],[-58.623764,-34.331887],[-58.623781,-34.331878],[-58.62377,-34.331967],[-58.623793,-34.331984],[-58.623808,-34.331971],[-58.623848,-34.332007],[-58.62385,-34.33205],[-58.623864,-34.332062],[-58.623888,-34.332057],[-58.623888,-34.33207],[-58.623861,-34.332079],[-58.623877,-34.332132],[-58.623911,-34.332168],[-58.623923,-34.332188],[-58.623953,-34.332209],[-58.62398,-34.332213],[-58.623962,-34.332237],[-58.623967,-34.332261],[-58.623974,-34.332274],[-58.624007,-34.33228],[-58.624051,-34.332292],[-58.624005,-34.33237],[-58.624027,-34.332397],[-58.624045,-34.33239],[-58.624067,-34.332438],[-58.624038,-34.332466],[-58.624055,-34.332504],[-58.624115,-34.332528],[-58.624128,-34.332576],[-58.624198,-34.332592],[-58.624208,-34.332641],[-58.624237,-34.332669],[-58.624293,-34.332694],[-58.624341,-34.332712],[-58.624343,-34.332741],[-58.62434,-34.332781],[-58.624329,-34.332808],[-58.624356,-34.332831],[-58.62442,-34.332828],[-58.624466,-34.332893],[-58.624423,-34.332962],[-58.632318,-34.332444],[-58.632722,-34.331829],[-58.633115,-34.330608],[-58.628308,-34.32961],[-58.626255,-34.330327],[-58.625653,-34.3306],[-58.624985,-34.33082],[-58.624776,-34.330882],[-58.623994,-34.331014],[-58.623393,-34.331157],[-58.62332,-34.331172]]]}},{"type":"Feature","properties":{"partida":"357007030","cca":"357000100000000000000045600000000000000000","tipo":"Rural","sup_m2":201389.6},"geometry":{"type":"Polygon","coordinates":[[[-58.631471,-34.335183],[-58.631825,-34.334756],[-58.63219,-34.334241],[-58.632052,-34.333437],[-58.632318,-34.332444],[-58.624423,-34.332962],[-58.624398,-34.33325],[-58.624398,-34.333283],[-58.624411,-34.333317],[-58.624406,-34.333347],[-58.624382,-34.333382],[-58.62442,-34.333381],[-58.624437,-34.333404],[-58.624447,-34.333453],[-58.624412,-34.333634],[-58.624388,-34.333686],[-58.624364,-34.333717],[-58.624405,-34.333744],[-58.624435,-34.333772],[-58.62438,-34.33383],[-58.624365,-34.333877],[-58.624386,-34.333908],[-58.62439,-34.333942],[-58.624353,-34.334033],[-58.624279,-34.334075],[-58.624243,-34.334122],[-58.624226,-34.334159],[-58.624178,-34.334172],[-58.624108,-34.334185],[-58.623988,-34.334251],[-58.623936,-34.334292],[-58.623981,-34.334382],[-58.624021,-34.33441],[-58.624,-34.334421],[-58.62402,-34.334469],[-58.624048,-34.334492],[-58.624114,-34.334487],[-58.624123,-34.334513],[-58.624108,-34.334548],[-58.624179,-34.334582],[-58.624041,-34.33461],[-58.624005,-34.334641],[-58.623981,-34.334699],[-58.623976,-34.334734],[-58.623944,-34.334809],[-58.623947,-34.334877],[-58.623942,-34.334914],[-58.623911,-34.334932],[-58.62392,-34.33499],[-58.623904,-34.335057],[-58.623871,-34.335072],[-58.623865,-34.335133],[-58.623917,-34.335153],[-58.623947,-34.335192],[-58.623935,-34.335216],[-58.623918,-34.335234],[-58.62395,-34.335287],[-58.623975,-34.33535],[-58.623913,-34.335388],[-58.623908,-34.335443],[-58.623944,-34.33552],[-58.623955,-34.335562],[-58.623967,-34.335629],[-58.627356,-34.334839],[-58.6281,-34.33491],[-58.62898,-34.335391],[-58.630867,-34.335397],[-58.631471,-34.335183]]]}},{"type":"Feature","properties":{"partida":"357007033","cca":"357000100000000000000045800000000000001000","tipo":"Urbano","sup_m2":332375.6},"geometry":{"type":"Polygon","coordinates":[[[-58.642387,-34.336253],[-58.639078,-34.333153],[-58.638412,-34.3326],[-58.635727,-34.330419],[-58.635693,-34.330422],[-58.635666,-34.330453],[-58.63561,-34.330402],[-58.635633,-34.330364],[-58.63418,-34.329164],[-58.633669,-34.328339],[-58.633637,-34.328233],[-58.632445,-34.328317],[-58.632762,-34.32938],[-58.633115,-34.330608],[-58.632722,-34.331829],[-58.632318,-34.332444],[-58.640215,-34.337217],[-58.640291,-34.337176],[-58.64033,-34.337119],[-58.640333,-34.336955],[-58.640417,-34.337013],[-58.640458,-34.337014],[-58.640555,-34.337052],[-58.640645,-34.336991],[-58.64073,-34.336979],[-58.640818,-34.336945],[-58.640939,-34.33689],[-58.640994,-34.33687],[-58.641059,-34.336869],[-58.641095,-34.336838],[-58.641165,-34.33682],[-58.641226,-34.336782],[-58.641279,-34.336734],[-58.641334,-34.3367],[-58.6414,-34.336692],[-58.641435,-34.336653],[-58.641446,-34.336622],[-58.641471,-34.336598],[-58.641517,-34.336601],[-58.642276,-34.336334],[-58.642387,-34.336253]]]}},{"type":"Feature","properties":{"partida":"357000181","cca":"35700010000000000000004580000000000000200A","tipo":"Rural","sup_m2":59919.5},"geometry":{"type":"Polygon","coordinates":[[[-58.632052,-34.333437],[-58.639873,-34.337379],[-58.640038,-34.337346],[-58.640083,-34.337323],[-58.640142,-34.33726],[-58.640155,-34.337235],[-58.640215,-34.337217],[-58.632318,-34.332444],[-58.632052,-34.333437]]]}},{"type":"Feature","properties":{"partida":"357000203","cca":"35700010000000000000004580000000000000200B","tipo":"Rural","sup_m2":41748.3},"geometry":{"type":"Polygon","coordinates":[[[-58.63219,-34.334241],[-58.639528,-34.337555],[-58.639873,-34.337379],[-58.632052,-34.333437],[-58.63219,-34.334241]]]}},{"type":"Feature","properties":{"partida":"357000204","cca":"35700010000000000000004580000000000000200C","tipo":"Rural","sup_m2":37278.9},"geometry":{"type":"Polygon","coordinates":[[[-58.631825,-34.334756],[-58.639268,-34.337761],[-58.639281,-34.337731],[-58.639299,-34.337716],[-58.639326,-34.337709],[-58.639321,-34.337692],[-58.639346,-34.33766],[-58.639388,-34.337646],[-58.639528,-34.337555],[-58.63219,-34.334241],[-58.631825,-34.334756]]]}},{"type":"Feature","properties":{"partida":"357000202","cca":"35700010000000000000004580000000000000200D","tipo":"Rural","sup_m2":33168.8},"geometry":{"type":"Polygon","coordinates":[[[-58.631825,-34.334756],[-58.631471,-34.335183],[-58.638982,-34.337956],[-58.639124,-34.337849],[-58.639268,-34.337761],[-58.631825,-34.334756]]]}},{"type":"Feature","properties":{"partida":"357000199","cca":"35700010000000000000004580000000000000200E","tipo":"Rural","sup_m2":40831.3},"geometry":{"type":"Polygon","coordinates":[[[-58.638666,-34.338164],[-58.638982,-34.337956],[-58.631471,-34.335183],[-58.631934,-34.336102],[-58.637818,-34.337966],[-58.637879,-34.33788],[-58.638666,-34.338164]]]}},{"type":"Feature","properties":{"partida":"357000197","cca":"35700010000000000000004580000000000000200F","tipo":"Rural","sup_m2":2201.8},"geometry":{"type":"Polygon","coordinates":[[[-58.637879,-34.33788],[-58.637721,-34.338102],[-58.638385,-34.338369],[-58.638666,-34.338164],[-58.637879,-34.33788]]]}},{"type":"Feature","properties":{"partida":"357007034","cca":"35700010000000000000004580000000000000200G","tipo":"Rural","sup_m2":44999.2},"geometry":{"type":"Polygon","coordinates":[[[-58.638385,-34.338369],[-58.637721,-34.338102],[-58.637818,-34.337966],[-58.631934,-34.336102],[-58.631909,-34.337013],[-58.638099,-34.338573],[-58.638112,-34.338571],[-58.63812,-34.338564],[-58.638119,-34.338551],[-58.638146,-34.338497],[-58.638161,-34.338475],[-58.638164,-34.33846],[-58.638153,-34.338445],[-58.638203,-34.338408],[-58.638259,-34.338385],[-58.638288,-34.338381],[-58.63831,-34.338387],[-58.63831,-34.338413],[-58.638325,-34.338419],[-58.638338,-34.33842],[-58.638355,-34.33841],[-58.638385,-34.338369]]]}},{"type":"Feature","properties":{"partida":"357000193","cca":"35700010000000000000004580000000000000200H","tipo":"Rural","sup_m2":40094.1},"geometry":{"type":"Polygon","coordinates":[[[-58.638086,-34.338569],[-58.631909,-34.337013],[-58.631883,-34.337987],[-58.637861,-34.338845],[-58.637872,-34.338831],[-58.637875,-34.338802],[-58.637859,-34.338782],[-58.63783,-34.338761],[-58.637818,-34.338742],[-58.637835,-34.338706],[-58.637861,-34.338685],[-58.637904,-34.338682],[-58.637952,-34.338705],[-58.638,-34.338687],[-58.637969,-34.338658],[-58.637869,-34.338599],[-58.637914,-34.338555],[-58.638086,-34.338569]]]}},{"type":"Feature","properties":{"partida":"357000182","cca":"35700010000000000000004580000000000000200K","tipo":"Rural","sup_m2":40736.1},"geometry":{"type":"Polygon","coordinates":[[[-58.631854,-34.339026],[-58.635885,-34.339089],[-58.63697,-34.339119],[-58.637765,-34.339287],[-58.637819,-34.339248],[-58.637826,-34.33922],[-58.637807,-34.339188],[-58.63779,-34.339122],[-58.637766,-34.339103],[-58.637747,-34.339095],[-58.63766,-34.339091],[-58.637574,-34.339066],[-58.637642,-34.33902],[-58.637721,-34.338981],[-58.637753,-34.338923],[-58.637798,-34.338863],[-58.637829,-34.338864],[-58.637861,-34.338845],[-58.631883,-34.337987],[-58.631854,-34.339026]]]}},{"type":"Feature","properties":{"partida":"357007035","cca":"357000100000000000000045900000000000001000","tipo":"Rural","sup_m2":117828.0},"geometry":{"type":"Polygon","coordinates":[[[-58.63193,-34.336256],[-58.631934,-34.336102],[-58.631471,-34.335183],[-58.630867,-34.335397],[-58.62898,-34.335391],[-58.6281,-34.33491],[-58.627356,-34.334839],[-58.623967,-34.335629],[-58.623984,-34.335677],[-58.624051,-34.335739],[-58.624064,-34.335839],[-58.624042,-34.335884],[-58.624047,-34.335919],[-58.624058,-34.335953],[-58.624107,-34.336007],[-58.62407,-34.336022],[-58.624039,-34.336044],[-58.62409,-34.336089],[-58.62405,-34.336127],[-58.624032,-34.33617],[-58.624051,-34.336196],[-58.624088,-34.336204],[-58.624134,-34.336233],[-58.624144,-34.336276],[-58.624119,-34.336303],[-58.624149,-34.33633],[-58.62416,-34.336435],[-58.624203,-34.336493],[-58.624172,-34.336532],[-58.624195,-34.336625],[-58.624243,-34.336679],[-58.624292,-34.33676],[-58.624341,-34.336878],[-58.62434,-34.336895],[-58.624311,-34.336891],[-58.624295,-34.336877],[-58.624268,-34.336874],[-58.624263,-34.336893],[-58.624276,-34.336917],[-58.6243,-34.336909],[-58.624322,-34.336927],[-58.62432,-34.336945],[-58.624313,-34.336958],[-58.624316,-34.336976],[-58.624345,-34.336986],[-58.624336,-34.337007],[-58.624329,-34.337051],[-58.624313,-34.337066],[-58.624335,-34.337077],[-58.624338,-34.3371],[-58.624316,-34.337106],[-58.624322,-34.337137],[-58.624337,-34.33715],[-58.624334,-34.337162],[-58.624324,-34.337173],[-58.624319,-34.337194],[-58.63193,-34.336256]]]}},{"type":"Feature","properties":{"partida":"357007036","cca":"357000100000000000000045900000000000002000","tipo":"Rural","sup_m2":70481.0},"geometry":{"type":"Polygon","coordinates":[[[-58.631288,-34.337188],[-58.631284,-34.337214],[-58.631286,-34.337246],[-58.631905,-34.33716],[-58.63193,-34.336256],[-58.624319,-34.337194],[-58.62434,-34.337208],[-58.624357,-34.337206],[-58.624365,-34.337242],[-58.624378,-34.337274],[-58.624404,-34.337314],[-58.62447,-34.337938],[-58.624523,-34.337967],[-58.62457,-34.338004],[-58.624598,-34.338036],[-58.624625,-34.338089],[-58.624652,-34.33811],[-58.624728,-34.338108],[-58.624928,-34.338076],[-58.625099,-34.338059],[-58.625278,-34.33803],[-58.625585,-34.338002],[-58.625608,-34.338009],[-58.626612,-34.337873],[-58.62697,-34.337815],[-58.627108,-34.3378],[-58.627336,-34.337759],[-58.627536,-34.337741],[-58.627824,-34.337698],[-58.628299,-34.337633],[-58.628755,-34.337557],[-58.629133,-34.337512],[-58.629484,-34.337461],[-58.629886,-34.337396],[-58.630633,-34.337285],[-58.630875,-34.337253],[-58.631117,-34.337212],[-58.631236,-34.337208],[-58.631288,-34.337188]]]}},{"type":"Feature","properties":{"partida":null,"cca":"35700010000000000000004620000000000000100B","tipo":null,"sup_m2":9783.8},"geometry":{"type":"Polygon","coordinates":[[[-58.638303,-34.341305],[-58.638265,-34.341183],[-58.63821,-34.34112],[-58.638239,-34.341075],[-58.638239,-34.34104],[-58.638201,-34.341016],[-58.638167,-34.341003],[-58.638158,-34.340966],[-58.638164,-34.340927],[-58.638193,-34.34093],[-58.638229,-34.340953],[-58.638253,-34.340957],[-58.638258,-34.340933],[-58.638234,-34.340835],[-58.638213,-34.340785],[-58.638172,-34.340729],[-58.637055,-34.340695],[-58.636568,-34.340678],[-58.636511,-34.341238],[-58.638303,-34.341305]]]}},{"type":"Feature","properties":{"partida":null,"cca":"35700010000000000000004620000000000000100C","tipo":null,"sup_m2":27307.8},"geometry":{"type":"Polygon","coordinates":[[[-58.631791,-34.341063],[-58.636511,-34.341238],[-58.636568,-34.340678],[-58.631795,-34.340498],[-58.631791,-34.341063]]]}},{"type":"Feature","properties":{"partida":"357007044","cca":"35700010000000000000004620000000000000100D","tipo":"Rural","sup_m2":82759.7},"geometry":{"type":"Polygon","coordinates":[[[-58.637853,-34.339899],[-58.636902,-34.339885],[-58.63697,-34.339119],[-58.635885,-34.339089],[-58.631854,-34.339026],[-58.631795,-34.340498],[-58.637055,-34.340695],[-58.637084,-34.340117],[-58.637888,-34.340147],[-58.637832,-34.340122],[-58.637818,-34.340086],[-58.637821,-34.340052],[-58.637844,-34.340031],[-58.637858,-34.340012],[-58.637848,-34.339981],[-58.637853,-34.339899]]]}},{"type":"Feature","properties":{"partida":"357017824","cca":"357000100000000000000046200000000000002000","tipo":"Rural","sup_m2":5568.1},"geometry":{"type":"Polygon","coordinates":[[[-58.637888,-34.340147],[-58.637084,-34.340117],[-58.637055,-34.340695],[-58.638172,-34.340729],[-58.63813,-34.34057],[-58.638088,-34.340543],[-58.638055,-34.340527],[-58.638015,-34.340513],[-58.638006,-34.340478],[-58.638068,-34.340435],[-58.638047,-34.340401],[-58.637975,-34.340337],[-58.637937,-34.340335],[-58.637902,-34.340339],[-58.63788,-34.340322],[-58.637867,-34.340272],[-58.637871,-34.340228],[-58.637888,-34.340147]]]}},{"type":"Feature","properties":{"partida":"357019611","cca":"357000100000000000000046200000000000003000","tipo":"Urbano","sup_m2":1636.3},"geometry":{"type":"Polygon","coordinates":[[[-58.637853,-34.339899],[-58.637833,-34.339852],[-58.637843,-34.339838],[-58.637869,-34.339817],[-58.637871,-34.339784],[-58.637852,-34.33974],[-58.636917,-34.339705],[-58.636902,-34.339885],[-58.637853,-34.339899]]]}},{"type":"Feature","properties":{"partida":"357019612","cca":"357000100000000000000046200000000000004000","tipo":"Urbano","sup_m2":1695.0},"geometry":{"type":"Polygon","coordinates":[[[-58.636917,-34.339705],[-58.637852,-34.33974],[-58.637833,-34.339722],[-58.637871,-34.339665],[-58.637866,-34.33964],[-58.637816,-34.339596],[-58.63779,-34.339578],[-58.63778,-34.339554],[-58.636933,-34.339526],[-58.636917,-34.339705]]]}},{"type":"Feature","properties":{"partida":"357019613","cca":"357000100000000000000046200000000000005000","tipo":"Urbano","sup_m2":1507.5},"geometry":{"type":"Polygon","coordinates":[[[-58.636949,-34.339346],[-58.636933,-34.339526],[-58.63778,-34.339554],[-58.637759,-34.339451],[-58.63776,-34.339419],[-58.63777,-34.3394],[-58.637787,-34.339377],[-58.636949,-34.339346]]]}},{"type":"Feature","properties":{"partida":"357019614","cca":"357000100000000000000046200000000000006000","tipo":"Urbano","sup_m2":1321.8},"geometry":{"type":"Polygon","coordinates":[[[-58.63697,-34.339119],[-58.636949,-34.339346],[-58.637787,-34.339377],[-58.637765,-34.339287],[-58.63697,-34.339119]]]}},{"type":"Feature","properties":{"partida":"357007045","cca":"357000100000000000000046300000000000000000","tipo":"Rural","sup_m2":242202.1},"geometry":{"type":"Polygon","coordinates":[[[-58.631854,-34.339026],[-58.631905,-34.33716],[-58.628321,-34.337657],[-58.624612,-34.338161],[-58.624588,-34.338161],[-58.624538,-34.338176],[-58.624515,-34.338223],[-58.62451,-34.338245],[-58.624549,-34.338263],[-58.624558,-34.338285],[-58.624519,-34.338292],[-58.624475,-34.338295],[-58.62445,-34.338322],[-58.624435,-34.338366],[-58.624454,-34.338401],[-58.624487,-34.338442],[-58.624558,-34.338451],[-58.624573,-34.338488],[-58.624547,-34.338497],[-58.624507,-34.338505],[-58.624497,-34.338552],[-58.624524,-34.338585],[-58.624579,-34.338611],[-58.624619,-34.338622],[-58.624598,-34.338652],[-58.624539,-34.338646],[-58.624504,-34.338675],[-58.624525,-34.338721],[-58.62454,-34.338807],[-58.624563,-34.338833],[-58.624594,-34.338849],[-58.624602,-34.338869],[-58.624638,-34.33887],[-58.624694,-34.338913],[-58.624678,-34.338955],[-58.624677,-34.339018],[-58.62464,-34.339065],[-58.624637,-34.339116],[-58.624656,-34.339167],[-58.6247,-34.339192],[-58.62467,-34.339203],[-58.624661,-34.339235],[-58.624678,-34.339266],[-58.624678,-34.339288],[-58.624696,-34.339307],[-58.62468,-34.339316],[-58.624659,-34.339346],[-58.624672,-34.339397],[-58.624711,-34.339435],[-58.624711,-34.339454],[-58.624689,-34.339521],[-58.624687,-34.339552],[-58.624691,-34.339575],[-58.624689,-34.339592],[-58.624679,-34.339609],[-58.624678,-34.339642],[-58.624741,-34.339721],[-58.624776,-34.339746],[-58.624781,-34.339793],[-58.624755,-34.339823],[-58.624771,-34.33985],[-58.624814,-34.339903],[-58.624786,-34.339926],[-58.624741,-34.33993],[-58.624732,-34.339947],[-58.624724,-34.339982],[-58.62472,-34.34005],[-58.624734,-34.340103],[-58.624725,-34.340131],[-58.624699,-34.340179],[-58.624703,-34.340223],[-58.624701,-34.340272],[-58.624631,-34.340375],[-58.624667,-34.340388],[-58.624694,-34.340406],[-58.624663,-34.340438],[-58.624611,-34.34047],[-58.624599,-34.340492],[-58.624589,-34.340529],[-58.624589,-34.340554],[-58.624612,-34.340599],[-58.624631,-34.340611],[-58.624649,-34.340639],[-58.624657,-34.340681],[-58.62464,-34.340713],[-58.624632,-34.340747],[-58.62465,-34.340785],[-58.624696,-34.340802],[-58.624704,-34.340853],[-58.631791,-34.341063],[-58.631795,-34.340498],[-58.631854,-34.339026]]]}},{"type":"Feature","properties":{"partida":"357007046","cca":"357000100000000000000046400000000000001000","tipo":"Rural","sup_m2":65952.5},"geometry":{"type":"Polygon","coordinates":[[[-58.638303,-34.341305],[-58.631791,-34.341063],[-58.631778,-34.341519],[-58.638948,-34.342803],[-58.638811,-34.342427],[-58.638799,-34.342384],[-58.638774,-34.342352],[-58.63873,-34.342312],[-58.638713,-34.342253],[-58.638677,-34.342194],[-58.638662,-34.342141],[-58.638665,-34.342109],[-58.638642,-34.342052],[-58.638594,-34.341963],[-58.638561,-34.34186],[-58.638522,-34.341787],[-58.638499,-34.341717],[-58.638455,-34.341669],[-58.638401,-34.341638],[-58.638356,-34.341627],[-58.638255,-34.34164],[-58.638347,-34.341595],[-58.638382,-34.341583],[-58.63842,-34.341554],[-58.638437,-34.341524],[-58.638403,-34.341428],[-58.638333,-34.341349],[-58.638302,-34.34134],[-58.638303,-34.341305]]]}},{"type":"Feature","properties":{"partida":"357007049","cca":"35700010000000000000004640000000000000200H","tipo":"Rural","sup_m2":75943.1},"geometry":{"type":"Polygon","coordinates":[[[-58.639177,-34.343768],[-58.639251,-34.343753],[-58.63927,-34.343718],[-58.639198,-34.343689],[-58.639147,-34.343649],[-58.639072,-34.343565],[-58.639015,-34.34351],[-58.639016,-34.343456],[-58.639072,-34.343413],[-58.639073,-34.343365],[-58.639046,-34.343298],[-58.639047,-34.343229],[-58.639064,-34.343192],[-58.638994,-34.342921],[-58.638948,-34.342803],[-58.631778,-34.341519],[-58.631768,-34.341837],[-58.636994,-34.344011],[-58.6371,-34.343849],[-58.638239,-34.344351],[-58.6383,-34.343317],[-58.639177,-34.343768]]]}},{"type":"Feature","properties":{"partida":"357017532","cca":"357000100000000000000046500000000000000000","tipo":"Rural","sup_m2":321773.8},"geometry":{"type":"Polygon","coordinates":[[[-58.624718,-34.345731],[-58.631649,-34.34511],[-58.631677,-34.345019],[-58.631791,-34.341063],[-58.624704,-34.340853],[-58.624765,-34.340923],[-58.624724,-34.340963],[-58.624713,-34.341009],[-58.624742,-34.341022],[-58.624768,-34.341042],[-58.624768,-34.341084],[-58.624754,-34.341131],[-58.624754,-34.341186],[-58.624739,-34.341203],[-58.624705,-34.341218],[-58.624708,-34.341242],[-58.624743,-34.341267],[-58.624729,-34.341305],[-58.6247,-34.34132],[-58.624693,-34.341335],[-58.624708,-34.341388],[-58.62479,-34.34145],[-58.624833,-34.341461],[-58.624818,-34.341535],[-58.624817,-34.341623],[-58.624805,-34.341676],[-58.62483,-34.341712],[-58.624816,-34.34173],[-58.624805,-34.34176],[-58.624817,-34.34179],[-58.62481,-34.341825],[-58.62479,-34.341883],[-58.624817,-34.341932],[-58.624785,-34.341955],[-58.624763,-34.342025],[-58.62476,-34.342051],[-58.624744,-34.342112],[-58.624737,-34.342155],[-58.624836,-34.34222],[-58.624808,-34.342253],[-58.624864,-34.342267],[-58.624838,-34.342318],[-58.624786,-34.342344],[-58.624789,-34.342385],[-58.624828,-34.342439],[-58.624823,-34.342459],[-58.624778,-34.342469],[-58.624791,-34.342509],[-58.62477,-34.342517],[-58.624776,-34.34256],[-58.624791,-34.342585],[-58.624741,-34.342573],[-58.624719,-34.342596],[-58.624705,-34.342629],[-58.624703,-34.342688],[-58.624741,-34.342699],[-58.624789,-34.342726],[-58.624801,-34.342778],[-58.624775,-34.342803],[-58.624755,-34.342833],[-58.62476,-34.342864],[-58.624742,-34.34288],[-58.624745,-34.342919],[-58.624833,-34.342963],[-58.624792,-34.343107],[-58.624761,-34.343175],[-58.624716,-34.34333],[-58.624634,-34.343403],[-58.624529,-34.34348],[-58.624587,-34.343573],[-58.624551,-34.343598],[-58.624524,-34.343641],[-58.624525,-34.343695],[-58.62454,-34.343745],[-58.624585,-34.343732],[-58.624634,-34.343744],[-58.62455,-34.343797],[-58.624512,-34.343896],[-58.624536,-34.343977],[-58.624513,-34.343994],[-58.624511,-34.344067],[-58.624494,-34.34419],[-58.624505,-34.344291],[-58.62446,-34.344356],[-58.624443,-34.344416],[-58.624453,-34.344451],[-58.624505,-34.344458],[-58.624499,-34.344503],[-58.62447,-34.344529],[-58.624456,-34.344572],[-58.624452,-34.344658],[-58.624504,-34.344683],[-58.624565,-34.344759],[-58.624562,-34.344837],[-58.624652,-34.345492],[-58.624648,-34.345514],[-58.624672,-34.345576],[-58.624697,-34.345622],[-58.624732,-34.345647],[-58.624718,-34.345731]]]}},{"type":"Feature","properties":{"partida":"357007052","cca":"357000100000000000000046600A00000000001000","tipo":"Urbano","sup_m2":1047.6},"geometry":{"type":"Polygon","coordinates":[[[-58.623582,-34.340701],[-58.6236,-34.340854],[-58.624309,-34.340798],[-58.624223,-34.340656],[-58.623582,-34.340701]]]}},{"type":"Feature","properties":{"partida":"357007053","cca":"357000100000000000000046600A00000000002000","tipo":"Urbano","sup_m2":1187.0},"geometry":{"type":"Polygon","coordinates":[[[-58.623334,-34.340723],[-58.623395,-34.341191],[-58.623637,-34.341173],[-58.623582,-34.340701],[-58.623334,-34.340723]]]}},{"type":"Feature","properties":{"partida":"357007054","cca":"357000100000000000000046600A00000000003000","tipo":"Urbano","sup_m2":1221.6},"geometry":{"type":"Polygon","coordinates":[[[-58.623334,-34.340723],[-58.623104,-34.340744],[-58.623156,-34.34127],[-58.623395,-34.341191],[-58.623334,-34.340723]]]}},{"type":"Feature","properties":{"partida":"357007064","cca":"357000100000000000000046600A00000000013000","tipo":"Urbano","sup_m2":301.6},"geometry":{"type":"Polygon","coordinates":[[[-58.623278,-34.34123],[-58.623086,-34.341293],[-58.623123,-34.341415],[-58.623196,-34.341347],[-58.623393,-34.341436],[-58.623278,-34.34123]]]}},{"type":"Feature","properties":{"partida":"357007065","cca":"357000100000000000000046600A00000000014000","tipo":"Urbano","sup_m2":1001.9},"geometry":{"type":"Polygon","coordinates":[[[-58.623682,-34.341568],[-58.623637,-34.341173],[-58.623395,-34.341191],[-58.623278,-34.34123],[-58.623393,-34.341436],[-58.623682,-34.341568]]]}},{"type":"Feature","properties":{"partida":"357007066","cca":"357000100000000000000046600A00000000015000","tipo":"Urbano","sup_m2":1712.4},"geometry":{"type":"Polygon","coordinates":[[[-58.623682,-34.341568],[-58.624448,-34.341835],[-58.624423,-34.341455],[-58.623675,-34.3415],[-58.623682,-34.341568]]]}},{"type":"Feature","properties":{"partida":"357007067","cca":"357000100000000000000046600A00000000016000","tipo":"Urbano","sup_m2":1271.3},"geometry":{"type":"Polygon","coordinates":[[[-58.624423,-34.341455],[-58.624393,-34.341284],[-58.623656,-34.341339],[-58.623675,-34.3415],[-58.624423,-34.341455]]]}},{"type":"Feature","properties":{"partida":"357007068","cca":"357000100000000000000046600A00000000017000","tipo":"Urbano","sup_m2":1185.5},"geometry":{"type":"Polygon","coordinates":[[[-58.624393,-34.341284],[-58.624292,-34.341125],[-58.623637,-34.341173],[-58.623656,-34.341339],[-58.624393,-34.341284]]]}},{"type":"Feature","properties":{"partida":"357007069","cca":"357000100000000000000046600A00000000018000","tipo":"Urbano","sup_m2":1059.1},"geometry":{"type":"Polygon","coordinates":[[[-58.624292,-34.341125],[-58.624264,-34.340967],[-58.623619,-34.341016],[-58.623637,-34.341173],[-58.624292,-34.341125]]]}},{"type":"Feature","properties":{"partida":"357007070","cca":"357000100000000000000046600A00000000019000","tipo":"Urbano","sup_m2":1134.9},"geometry":{"type":"Polygon","coordinates":[[[-58.624309,-34.340798],[-58.6236,-34.340854],[-58.623619,-34.341016],[-58.624264,-34.340967],[-58.624309,-34.340798]]]}},{"type":"Feature","properties":{"partida":null,"cca":"357000100000000000000046600E0000000000100A","tipo":null,"sup_m2":296.6},"geometry":{"type":"Polygon","coordinates":[[[-58.623112,-34.34159],[-58.62331,-34.341703],[-58.623385,-34.341566],[-58.623216,-34.341498],[-58.623112,-34.34159]]]}},{"type":"Feature","properties":{"partida":"357007139","cca":"357000100000000000000046600E0000000000100B","tipo":"Urbano","sup_m2":411.2},"geometry":{"type":"Polygon","coordinates":[[[-58.623525,-34.341825],[-58.623591,-34.341649],[-58.623385,-34.341566],[-58.62331,-34.341703],[-58.623525,-34.341825]]]}},{"type":"Feature","properties":{"partida":null,"cca":"357000100000000000000046600E00000000002000","tipo":null,"sup_m2":869.0},"geometry":{"type":"Polygon","coordinates":[[[-58.623466,-34.341984],[-58.623525,-34.341825],[-58.623112,-34.34159],[-58.622984,-34.341704],[-58.623466,-34.341984]]]}},{"type":"Feature","properties":{"partida":"357007141","cca":"357000100000000000000046600E00000000003000","tipo":"Urbano","sup_m2":1021.5},"geometry":{"type":"Polygon","coordinates":[[[-58.623466,-34.341984],[-58.622984,-34.341704],[-58.622851,-34.341822],[-58.623407,-34.342141],[-58.623466,-34.341984]]]}},{"type":"Feature","properties":{"partida":"357007142","cca":"357000100000000000000046600E00000000004000","tipo":"Urbano","sup_m2":1149.9},"geometry":{"type":"Polygon","coordinates":[[[-58.623407,-34.342141],[-58.622851,-34.341822],[-58.622724,-34.341936],[-58.623348,-34.342301],[-58.623407,-34.342141]]]}},{"type":"Feature","properties":{"partida":"357007157","cca":"357000100000000000000046600E0000000001900B","tipo":"Urbano","sup_m2":1953.9},"geometry":{"type":"Polygon","coordinates":[[[-58.623278,-34.342489],[-58.624062,-34.34245],[-58.624441,-34.342442],[-58.624445,-34.342285],[-58.624058,-34.342287],[-58.623348,-34.342301],[-58.623278,-34.342489]]]}},{"type":"Feature","properties":{"partida":"357007158","cca":"357000100000000000000046600E0000000001900C","tipo":"Urbano","sup_m2":1897.5},"geometry":{"type":"Polygon","coordinates":[[[-58.623455,-34.342669],[-58.624067,-34.342638],[-58.624425,-34.34263],[-58.624441,-34.342442],[-58.624062,-34.34245],[-58.623439,-34.342481],[-58.623455,-34.342669]]]}},{"type":"Feature","properties":{"partida":"357007159","cca":"357000100000000000000046600E0000000001900D","tipo":"Urbano","sup_m2":850.5},"geometry":{"type":"Polygon","coordinates":[[[-58.624425,-34.34263],[-58.624067,-34.342638],[-58.623455,-34.342669],[-58.623462,-34.342753],[-58.624392,-34.342716],[-58.624425,-34.34263]]]}},{"type":"Feature","properties":{"partida":"357007160","cca":"357000100000000000000046600E0000000001900E","tipo":"Urbano","sup_m2":550.6},"geometry":{"type":"Polygon","coordinates":[[[-58.623439,-34.342481],[-58.623242,-34.34249],[-58.623267,-34.342765],[-58.623462,-34.342753],[-58.623439,-34.342481]]]}},{"type":"Feature","properties":{"partida":"357007161","cca":"357000100000000000000046600E0000000001900F","tipo":"Urbano","sup_m2":536.1},"geometry":{"type":"Polygon","coordinates":[[[-58.623242,-34.34249],[-58.623053,-34.342499],[-58.623077,-34.342776],[-58.623267,-34.342765],[-58.623242,-34.34249]]]}},{"type":"Feature","properties":{"partida":"357007165","cca":"357000100000000000000046600E00000000020000","tipo":"Urbano","sup_m2":1681.9},"geometry":{"type":"Polygon","coordinates":[[[-58.623407,-34.342141],[-58.623348,-34.342301],[-58.624058,-34.342287],[-58.624445,-34.342285],[-58.624441,-34.342134],[-58.624054,-34.342134],[-58.623407,-34.342141]]]}},{"type":"Feature","properties":{"partida":"357007166","cca":"357000100000000000000046600E00000000021000","tipo":"Urbano","sup_m2":1610.9},"geometry":{"type":"Polygon","coordinates":[[[-58.623466,-34.341984],[-58.623407,-34.342141],[-58.624054,-34.342134],[-58.624441,-34.342134],[-58.624453,-34.341998],[-58.62405,-34.34197],[-58.623466,-34.341984]]]}},{"type":"Feature","properties":{"partida":"357007167","cca":"357000100000000000000046600E00000000022000","tipo":"Urbano","sup_m2":1320.3},"geometry":{"type":"Polygon","coordinates":[[[-58.624453,-34.341998],[-58.624457,-34.341936],[-58.623993,-34.341811],[-58.623525,-34.341825],[-58.623466,-34.341984],[-58.62405,-34.34197],[-58.624453,-34.341998]]]}},{"type":"Feature","properties":{"partida":"357007168","cca":"357000100000000000000046600E00000000023000","tipo":"Urbano","sup_m2":416.4},"geometry":{"type":"Polygon","coordinates":[[[-58.623525,-34.341825],[-58.623993,-34.341811],[-58.623591,-34.341649],[-58.623525,-34.341825]]]}}]}