{"type":"FeatureCollection","features":[{"type":"Feature","properties":{"partida":null,"cca":"0570300000000000000000000000000000001310AE","tipo":null,"sup_m2":156309.8},"geometry":{"type":"Polygon","coordinates":[[[-58.630178,-34.423867],[-58.630558,-34.42339],[-58.630784,-34.422977],[-58.630961,-34.422522],[-58.631062,-34.421905],[-58.630988,-34.421358],[-58.63083,-34.42098],[-58.630623,-34.420642],[-58.630386,-34.42032],[-58.630105,-34.420051],[-58.629781,-34.419803],[-58.629411,-34.419588],[-58.628932,-34.419317],[-58.628482,-34.418966],[-58.628183,-34.418648],[-58.627963,-34.41839],[-58.627819,-34.41815],[-58.627677,-34.417789],[-58.627595,-34.417425],[-58.627572,-34.416922],[-58.627658,-34.416406],[-58.627799,-34.416022],[-58.627973,-34.415702],[-58.628127,-34.41548],[-58.62842,-34.415035],[-58.628756,-34.414423],[-58.629013,-34.413826],[-58.629215,-34.4132],[-58.629364,-34.412503],[-58.628753,-34.412507],[-58.628731,-34.413149],[-58.628344,-34.414743],[-58.627967,-34.415384],[-58.627741,-34.41573],[-58.627522,-34.416163],[-58.627241,-34.416695],[-58.62695,-34.417459],[-58.626111,-34.417907],[-58.625816,-34.418099],[-58.626513,-34.418612],[-58.625904,-34.419202],[-58.629233,-34.421789],[-58.628237,-34.42264],[-58.628331,-34.422616],[-58.628385,-34.422609],[-58.628441,-34.422604],[-58.628492,-34.422603],[-58.628547,-34.422607],[-58.628609,-34.422613],[-58.628716,-34.42264],[-58.628812,-34.422678],[-58.628853,-34.4227],[-58.628939,-34.422757],[-58.629509,-34.42329],[-58.629776,-34.423516],[-58.629938,-34.423668],[-58.630178,-34.423867]]]}},{"type":"Feature","properties":{"partida":"057111767","cca":"0570300000000000000000000000000000001310AN","tipo":"Rural","sup_m2":2525736.3},"geometry":{"type":"MultiPolygon","coordinates":[[[[-58.631565,-34.42613],[-58.631523,-34.426265],[-58.63151,-34.426348],[-58.631476,-34.426599],[-58.631453,-34.426851],[-58.63144,-34.427104],[-58.631434,-34.427436],[-58.631436,-34.427681],[-58.631446,-34.427927],[-58.631478,-34.428147],[-58.631585,-34.428523],[-58.631639,-34.428774],[-58.631697,-34.429111],[-58.631773,-34.429445],[-58.631865,-34.429777],[-58.631974,-34.430105],[-58.632034,-34.430268],[-58.632099,-34.430429],[-58.632168,-34.43059],[-58.632318,-34.430906],[-58.632477,-34.431208],[-58.632644,-34.431494],[-58.632827,-34.431773],[-58.632923,-34.43191],[-58.633127,-34.432179],[-58.633345,-34.43244],[-58.63346,-34.432567],[-58.633698,-34.432815],[-58.633949,-34.433055],[-58.63413,-34.433215],[-58.63431,-34.433366],[-58.634496,-34.433512],[-58.634686,-34.433653],[-58.634982,-34.433857],[-58.635184,-34.433987],[-58.635392,-34.434111],[-58.635723,-34.434294],[-58.636063,-34.434464],[-58.636413,-34.434621],[-58.636771,-34.434764],[-58.637137,-34.434894],[-58.637509,-34.435009],[-58.637888,-34.435111],[-58.638271,-34.435198],[-58.638659,-34.43527],[-58.639051,-34.435328],[-58.639445,-34.435371],[-58.639842,-34.435399],[-58.640239,-34.435411],[-58.640637,-34.435409],[-58.641034,-34.435391],[-58.641133,-34.435385],[-58.641129,-34.435283],[-58.641376,-34.435261],[-58.641573,-34.435238],[-58.64172,-34.435218],[-58.642124,-34.435154],[-58.642104,-34.435083],[-58.642093,-34.435011],[-58.642091,-34.434938],[-58.642098,-34.434866],[-58.642114,-34.434794],[-58.642139,-34.434725],[-58.642173,-34.434658],[-58.642216,-34.434594],[-58.642266,-34.434534],[-58.642323,-34.434479],[-58.642387,-34.434429],[-58.642457,-34.434385],[-58.642532,-34.434348],[-58.642612,-34.434317],[-58.643066,-34.434186],[-58.642981,-34.434001],[-58.643192,-34.433932],[-58.643331,-34.433883],[-58.643537,-34.433805],[-58.64374,-34.433722],[-58.644006,-34.433604],[-58.644488,-34.433379],[-58.64477,-34.433243],[-58.644909,-34.433173],[-58.645183,-34.433026],[-58.645452,-34.432873],[-58.645715,-34.432713],[-58.645972,-34.432547],[-58.646098,-34.432461],[-58.646223,-34.432374],[-58.646467,-34.432195],[-58.646594,-34.43207],[-58.646714,-34.431941],[-58.646856,-34.431851],[-58.646968,-34.431731],[-58.647233,-34.431507],[-58.647364,-34.431361],[-58.647502,-34.43124],[-58.647683,-34.431091],[-58.648111,-34.430651],[-58.648342,-34.430436],[-58.648589,-34.430152],[-58.648769,-34.430026],[-58.649141,-34.429686],[-58.649624,-34.429354],[-58.650081,-34.429065],[-58.650568,-34.428739],[-58.651107,-34.428406],[-58.649098,-34.427105],[-58.646778,-34.425542],[-58.644857,-34.424142],[-58.641593,-34.422081],[-58.641261,-34.421907],[-58.641119,-34.421848],[-58.640875,-34.42178],[-58.64051,-34.421737],[-58.640326,-34.421726],[-58.640176,-34.42173],[-58.639945,-34.421756],[-58.639771,-34.421789],[-58.639273,-34.42192],[-58.639158,-34.421968],[-58.638757,-34.422152],[-58.638586,-34.422249],[-58.638363,-34.422396],[-58.638157,-34.422547],[-58.637966,-34.422707],[-58.637693,-34.42295],[-58.637586,-34.423051],[-58.637415,-34.42326],[-58.637151,-34.423669],[-58.636937,-34.42398],[-58.636865,-34.424131],[-58.636718,-34.424331],[-58.636578,-34.424516],[-58.636435,-34.424654],[-58.636309,-34.424758],[-58.636082,-34.424939],[-58.635935,-34.425047],[-58.635834,-34.425112],[-58.635578,-34.425265],[-58.635313,-34.425396],[-58.635026,-34.425495],[-58.634757,-34.425563],[-58.634592,-34.425597],[-58.634147,-34.425631],[-58.633919,-34.42562],[-58.633651,-34.425591],[-58.63337,-34.4255],[-58.633074,-34.425362],[-58.632827,-34.425225],[-58.632441,-34.424975],[-58.632151,-34.424791],[-58.631907,-34.4247],[-58.631591,-34.424604],[-58.631419,-34.424555],[-58.630957,-34.424447],[-58.631053,-34.424537],[-58.631138,-34.424609],[-58.63135,-34.424775],[-58.631482,-34.424886],[-58.631566,-34.425007],[-58.631606,-34.425132],[-58.63166,-34.425407],[-58.631668,-34.425551],[-58.631673,-34.425818],[-58.63164,-34.425938],[-58.631565,-34.42613]]],[[[-58.638829,-34.419932],[-58.638614,-34.420058],[-58.638209,-34.420307],[-58.637757,-34.420628],[-58.637569,-34.420771],[-58.637239,-34.421036],[-58.637194,-34.421067],[-58.636555,-34.421825],[-58.636157,-34.42242],[-58.635797,-34.422758],[-58.6354,-34.423021],[-58.635236,-34.423048],[-58.634909,-34.423423],[-58.634448,-34.423722],[-58.633832,-34.423995],[-58.632728,-34.424184],[-58.630431,-34.424105],[-58.630485,-34.424157],[-58.63125,-34.424328],[-58.631648,-34.424428],[-58.632044,-34.424547],[-58.63226,-34.424634],[-58.63244,-34.424737],[-58.633162,-34.425198],[-58.633539,-34.425366],[-58.633712,-34.425421],[-58.633953,-34.425448],[-58.634189,-34.425458],[-58.634708,-34.425396],[-58.635113,-34.425283],[-58.635464,-34.425122],[-58.63571,-34.424975],[-58.636164,-34.424637],[-58.636473,-34.424305],[-58.636738,-34.423917],[-58.636954,-34.423615],[-58.637139,-34.423339],[-58.637213,-34.42322],[-58.63732,-34.423058],[-58.637418,-34.422931],[-58.637509,-34.422828],[-58.637622,-34.422721],[-58.637846,-34.422519],[-58.637904,-34.42247],[-58.638107,-34.422328],[-58.63834,-34.422172],[-58.638576,-34.422023],[-58.638765,-34.421929],[-58.638961,-34.421846],[-58.639301,-34.421732],[-58.639628,-34.421637],[-58.639881,-34.421572],[-58.640133,-34.421544],[-58.640509,-34.421551],[-58.640901,-34.421597],[-58.641179,-34.421674],[-58.641629,-34.421875],[-58.644809,-34.423786],[-58.647027,-34.425292],[-58.651416,-34.428263],[-58.65163,-34.428156],[-58.652123,-34.427924],[-58.652562,-34.427733],[-58.653024,-34.427522],[-58.653232,-34.427441],[-58.653776,-34.427162],[-58.65364,-34.427161],[-58.653537,-34.427131],[-58.653441,-34.427011],[-58.653144,-34.42649],[-58.652964,-34.426556],[-58.652698,-34.426245],[-58.6524,-34.425971],[-58.652059,-34.42562],[-58.651646,-34.425326],[-58.651179,-34.425096],[-58.650879,-34.424989],[-58.651337,-34.424202],[-58.651974,-34.424372],[-58.652573,-34.424622],[-58.652995,-34.424858],[-58.653315,-34.425118],[-58.653558,-34.425361],[-58.653834,-34.425646],[-58.65394,-34.425884],[-58.654324,-34.426266],[-58.654458,-34.426252],[-58.654941,-34.42602],[-58.654975,-34.425751],[-58.655111,-34.425533],[-58.655247,-34.425327],[-58.655426,-34.425159],[-58.655619,-34.425039],[-58.655777,-34.424972],[-58.655928,-34.424898],[-58.656254,-34.424764],[-58.656115,-34.424637],[-58.655783,-34.424457],[-58.655621,-34.424385],[-58.655437,-34.424327],[-58.655348,-34.424313],[-58.655249,-34.424292],[-58.655097,-34.424251],[-58.654998,-34.424219],[-58.654883,-34.424173],[-58.654763,-34.424115],[-58.654693,-34.424078],[-58.65457,-34.424001],[-58.65443,-34.4239],[-58.654278,-34.423779],[-58.654151,-34.423688],[-58.65397,-34.423563],[-58.653809,-34.42346],[-58.653563,-34.423313],[-58.653408,-34.423229],[-58.653161,-34.423102],[-58.6529,-34.422983],[-58.652681,-34.422892],[-58.652424,-34.422796],[-58.652206,-34.422727],[-58.65204,-34.42268],[-58.651846,-34.42263],[-58.651651,-34.422587],[-58.651414,-34.422541],[-58.651043,-34.422481],[-58.650912,-34.422452],[-58.650823,-34.422427],[-58.650691,-34.422383],[-58.650558,-34.422329],[-58.650424,-34.422264],[-58.650295,-34.422189],[-58.650212,-34.422133],[-58.650095,-34.422043],[-58.649991,-34.42195],[-58.649897,-34.42185],[-58.649845,-34.421789],[-58.649775,-34.421692],[-58.649718,-34.421603],[-58.649629,-34.42144],[-58.649575,-34.421349],[-58.649498,-34.421235],[-58.649415,-34.421127],[-58.649305,-34.421],[-58.649199,-34.420894],[-58.649077,-34.420785],[-58.648941,-34.420678],[-58.648872,-34.420615],[-58.64882,-34.420562],[-58.648721,-34.42044],[-58.648701,-34.420393],[-58.648671,-34.420334],[-58.648577,-34.420215],[-58.648518,-34.420191],[-58.648456,-34.420172],[-58.648331,-34.420148],[-58.64827,-34.420141],[-58.648207,-34.42014],[-58.648146,-34.420145],[-58.648084,-34.420155],[-58.647953,-34.420186],[-58.647895,-34.420194],[-58.64785,-34.420197],[-58.647756,-34.420194],[-58.647665,-34.420179],[-58.647577,-34.420153],[-58.647495,-34.420114],[-58.647422,-34.420066],[-58.64736,-34.420008],[-58.647238,-34.419867],[-58.647101,-34.41968],[-58.647028,-34.419563],[-58.646965,-34.419442],[-58.646912,-34.419318],[-58.646868,-34.419192],[-58.646725,-34.418965],[-58.646706,-34.418862],[-58.646705,-34.418784],[-58.645226,-34.417763],[-58.645067,-34.417894],[-58.644881,-34.418034],[-58.644764,-34.418113],[-58.64459,-34.418218],[-58.644209,-34.418428],[-58.643982,-34.418531],[-58.643838,-34.41858],[-58.643047,-34.418761],[-58.642687,-34.418815],[-58.64243,-34.418835],[-58.642241,-34.41884],[-58.641926,-34.418882],[-58.641678,-34.418923],[-58.641432,-34.418971],[-58.641187,-34.419025],[-58.640947,-34.419085],[-58.640708,-34.419151],[-58.6404,-34.419246],[-58.640189,-34.419318],[-58.639938,-34.419412],[-58.639697,-34.41951],[-58.639475,-34.419607],[-58.639257,-34.419709],[-58.639039,-34.419819],[-58.638829,-34.419932]]]]}},{"type":"Feature","properties":{"partida":"057133067","cca":"0570300000000000000000000000000000001310BY","tipo":"Urbano","sup_m2":186681.6},"geometry":{"type":"Polygon","coordinates":[[[-58.632678,-34.418572],[-58.632808,-34.418745],[-58.632905,-34.418887],[-58.632997,-34.419031],[-58.633141,-34.419272],[-58.633209,-34.419361],[-58.633248,-34.419402],[-58.633334,-34.419479],[-58.63343,-34.419548],[-58.633481,-34.419578],[-58.63359,-34.419632],[-58.633756,-34.419695],[-58.633846,-34.419736],[-58.633931,-34.419783],[-58.634013,-34.419835],[-58.634126,-34.419922],[-58.634227,-34.420019],[-58.634286,-34.420088],[-58.634363,-34.420199],[-58.634406,-34.420276],[-58.634442,-34.420356],[-58.63447,-34.420438],[-58.634533,-34.420651],[-58.63457,-34.420756],[-58.634652,-34.420964],[-58.634722,-34.421118],[-58.6348,-34.42127],[-58.634884,-34.421419],[-58.634975,-34.421565],[-58.635073,-34.421708],[-58.635166,-34.42188],[-58.635222,-34.42197],[-58.635267,-34.422059],[-58.635313,-34.422172],[-58.635345,-34.422272],[-58.63536,-34.422334],[-58.635372,-34.422437],[-58.635369,-34.422536],[-58.635353,-34.422676],[-58.635328,-34.422801],[-58.635278,-34.422952],[-58.635236,-34.423048],[-58.6354,-34.423021],[-58.635797,-34.422758],[-58.636157,-34.42242],[-58.636555,-34.421825],[-58.636341,-34.421738],[-58.636241,-34.421688],[-58.636088,-34.421586],[-58.636042,-34.421552],[-58.635944,-34.421471],[-58.63582,-34.421346],[-58.635783,-34.421307],[-58.635675,-34.42116],[-58.635608,-34.421027],[-58.635573,-34.420936],[-58.635354,-34.420148],[-58.635286,-34.419955],[-58.635233,-34.419837],[-58.63518,-34.419738],[-58.635073,-34.419567],[-58.63503,-34.419512],[-58.635003,-34.419472],[-58.634933,-34.419397],[-58.634802,-34.419271],[-58.634661,-34.419167],[-58.634568,-34.419111],[-58.634438,-34.419051],[-58.63421,-34.418959],[-58.6341,-34.418881],[-58.633995,-34.418799],[-58.633896,-34.418712],[-58.633801,-34.418622],[-58.633713,-34.418527],[-58.63363,-34.418429],[-58.633553,-34.418328],[-58.633483,-34.418223],[-58.633419,-34.418116],[-58.633361,-34.418006],[-58.633311,-34.417894],[-58.633267,-34.41778],[-58.633231,-34.417664],[-58.633201,-34.417547],[-58.633179,-34.417429],[-58.633164,-34.41731],[-58.633156,-34.41719],[-58.633155,-34.417071],[-58.633162,-34.416951],[-58.633176,-34.416832],[-58.633198,-34.416714],[-58.633226,-34.416596],[-58.633271,-34.416451],[-58.63329,-34.416376],[-58.633298,-34.416315],[-58.633301,-34.416254],[-58.633299,-34.416193],[-58.633291,-34.416132],[-58.633278,-34.416072],[-58.63326,-34.416013],[-58.633236,-34.415955],[-58.633208,-34.415899],[-58.633175,-34.415844],[-58.633137,-34.415792],[-58.633074,-34.415717],[-58.633035,-34.415665],[-58.632966,-34.415557],[-58.632913,-34.415443],[-58.632873,-34.415326],[-58.632859,-34.415266],[-58.632843,-34.415145],[-58.632841,-34.415084],[-58.632843,-34.414955],[-58.632839,-34.41483],[-58.632828,-34.414705],[-58.632811,-34.414581],[-58.63278,-34.414417],[-58.632737,-34.414254],[-58.632698,-34.414134],[-58.632633,-34.413966],[-58.632617,-34.413909],[-58.632605,-34.41385],[-58.6326,-34.413792],[-58.632599,-34.413733],[-58.632604,-34.413677],[-58.632655,-34.413371],[-58.632678,-34.413266],[-58.632719,-34.413128],[-58.632758,-34.413027],[-58.632822,-34.412895],[-58.632898,-34.412767],[-58.632986,-34.412645],[-58.633086,-34.412525],[-58.633148,-34.412435],[-58.633197,-34.41234],[-58.633215,-34.41229],[-58.633241,-34.412188],[-58.633248,-34.412137],[-58.633263,-34.411952],[-58.633252,-34.411861],[-58.633235,-34.411558],[-58.633234,-34.411455],[-58.633265,-34.411323],[-58.633282,-34.411221],[-58.633312,-34.41112],[-58.633354,-34.411023],[-58.633385,-34.410976],[-58.633449,-34.410889],[-58.633488,-34.41085],[-58.633529,-34.410817],[-58.633581,-34.410792],[-58.633659,-34.410728],[-58.633845,-34.410621],[-58.633898,-34.410594],[-58.634009,-34.410546],[-58.634128,-34.41051],[-58.634171,-34.410501],[-58.634258,-34.41049],[-58.634424,-34.410477],[-58.634561,-34.41046],[-58.634696,-34.410437],[-58.63483,-34.410408],[-58.634963,-34.410373],[-58.635092,-34.410333],[-58.63522,-34.410288],[-58.635344,-34.410237],[-58.635465,-34.410181],[-58.63564,-34.410088],[-58.635751,-34.41002],[-58.635926,-34.409901],[-58.63603,-34.409834],[-58.636137,-34.409771],[-58.636247,-34.409711],[-58.636359,-34.409655],[-58.636513,-34.409585],[-58.636631,-34.409538],[-58.636792,-34.40948],[-58.636837,-34.409457],[-58.636869,-34.409427],[-58.63691,-34.409329],[-58.636919,-34.409281],[-58.63695,-34.409308],[-58.636938,-34.40926],[-58.636915,-34.409215],[-58.636884,-34.409174],[-58.636844,-34.409138],[-58.636797,-34.409108],[-58.636744,-34.409086],[-58.636702,-34.409076],[-58.636658,-34.409069],[-58.6366,-34.409063],[-58.636541,-34.409061],[-58.636481,-34.409064],[-58.636423,-34.409069],[-58.636365,-34.409079],[-58.636308,-34.409092],[-58.636253,-34.409109],[-58.636199,-34.409129],[-58.636147,-34.409153],[-58.636098,-34.40918],[-58.636017,-34.409236],[-58.635821,-34.409392],[-58.635788,-34.409412],[-58.635749,-34.409429],[-58.635708,-34.40944],[-58.635665,-34.409446],[-58.635621,-34.409445],[-58.635579,-34.40944],[-58.635538,-34.409428],[-58.635497,-34.40941],[-58.635324,-34.409385],[-58.635205,-34.409374],[-58.635086,-34.409368],[-58.634967,-34.409367],[-58.634848,-34.40937],[-58.634729,-34.409379],[-58.634611,-34.409392],[-58.634494,-34.40941],[-58.634321,-34.409447],[-58.634151,-34.409494],[-58.63393,-34.409569],[-58.633801,-34.409601],[-58.633713,-34.409617],[-58.633581,-34.409634],[-58.633463,-34.40964],[-58.633403,-34.409641],[-58.633285,-34.409635],[-58.633167,-34.409622],[-58.633109,-34.409612],[-58.633052,-34.409601],[-58.632952,-34.409576],[-58.632689,-34.409492],[-58.632517,-34.409449],[-58.632327,-34.409416],[-58.632224,-34.409405],[-58.63212,-34.409397],[-58.631991,-34.409421],[-58.631876,-34.409451],[-58.631801,-34.409475],[-58.631728,-34.409502],[-58.631615,-34.409553],[-58.63157,-34.409566],[-58.631523,-34.40957],[-58.631476,-34.409567],[-58.631433,-34.409556],[-58.630878,-34.409312],[-58.630832,-34.409287],[-58.630745,-34.40923],[-58.630665,-34.409166],[-58.630595,-34.409096],[-58.630451,-34.409201],[-58.630323,-34.409303],[-58.63023,-34.409384],[-58.630111,-34.409494],[-58.630893,-34.409816],[-58.631042,-34.409883],[-58.631185,-34.409958],[-58.631322,-34.41004],[-58.631453,-34.410129],[-58.631578,-34.410224],[-58.631695,-34.410325],[-58.631804,-34.410432],[-58.631856,-34.410487],[-58.631954,-34.410602],[-58.632042,-34.410721],[-58.632122,-34.410845],[-58.632193,-34.410972],[-58.632254,-34.411103],[-58.632285,-34.411185],[-58.632311,-34.411268],[-58.632332,-34.411352],[-58.632349,-34.411436],[-58.632361,-34.411521],[-58.632369,-34.411606],[-58.632371,-34.411692],[-58.63237,-34.411778],[-58.632363,-34.411863],[-58.632352,-34.411948],[-58.632337,-34.412033],[-58.632317,-34.412117],[-58.632292,-34.4122],[-58.632263,-34.412282],[-58.632229,-34.412363],[-58.632191,-34.412442],[-58.632149,-34.412521],[-58.632103,-34.412597],[-58.632052,-34.412672],[-58.631998,-34.412744],[-58.631939,-34.412815],[-58.631877,-34.412883],[-58.631811,-34.412949],[-58.631742,-34.413013],[-58.631623,-34.413112],[-58.631538,-34.413195],[-58.631466,-34.413287],[-58.631435,-34.413335],[-58.631385,-34.413436],[-58.63135,-34.413541],[-58.631331,-34.413649],[-58.631327,-34.413758],[-58.63134,-34.413866],[-58.631369,-34.413973],[-58.631413,-34.414076],[-58.631441,-34.414125],[-58.631507,-34.414219],[-58.631545,-34.414264],[-58.631639,-34.41436],[-58.631713,-34.414452],[-58.631777,-34.414548],[-58.63183,-34.41465],[-58.63187,-34.414755],[-58.631886,-34.414808],[-58.631899,-34.414862],[-58.631934,-34.415055],[-58.631972,-34.415189],[-58.632024,-34.41532],[-58.632066,-34.415404],[-58.632142,-34.415543],[-58.632204,-34.415679],[-58.632257,-34.415817],[-58.632301,-34.415957],[-58.632335,-34.416098],[-58.632349,-34.41617],[-58.632368,-34.416314],[-58.632375,-34.416386],[-58.63238,-34.41653],[-58.632376,-34.416675],[-58.632362,-34.416819],[-58.632339,-34.416963],[-58.632305,-34.417105],[-58.632236,-34.417333],[-58.632216,-34.417424],[-58.632202,-34.41756],[-58.632202,-34.417652],[-58.63221,-34.417743],[-58.632227,-34.417834],[-58.632251,-34.417923],[-58.632283,-34.418011],[-58.632345,-34.418138],[-58.632395,-34.41822],[-58.632453,-34.418298],[-58.632569,-34.418436],[-58.632678,-34.418572]]]}},{"type":"Feature","properties":{"partida":"057133068","cca":"0570300000000000000000000000000000001310BZ","tipo":"Urbano","sup_m2":548924.2},"geometry":{"type":"Polygon","coordinates":[[[-58.627819,-34.41815],[-58.627963,-34.41839],[-58.628183,-34.418648],[-58.628482,-34.418966],[-58.628932,-34.419317],[-58.629411,-34.419588],[-58.629781,-34.419803],[-58.630105,-34.420051],[-58.630386,-34.42032],[-58.630623,-34.420642],[-58.63083,-34.42098],[-58.630988,-34.421358],[-58.631062,-34.421905],[-58.630961,-34.422522],[-58.630784,-34.422977],[-58.630558,-34.42339],[-58.630178,-34.423867],[-58.630431,-34.424105],[-58.632728,-34.424184],[-58.633832,-34.423995],[-58.634448,-34.423722],[-58.634909,-34.423423],[-58.635236,-34.423048],[-58.635278,-34.422952],[-58.635328,-34.422801],[-58.635342,-34.422737],[-58.635365,-34.422589],[-58.635369,-34.422536],[-58.635372,-34.422437],[-58.63536,-34.422334],[-58.635345,-34.422272],[-58.635313,-34.422172],[-58.635267,-34.422059],[-58.635222,-34.42197],[-58.635166,-34.42188],[-58.635073,-34.421708],[-58.634975,-34.421565],[-58.634884,-34.421419],[-58.6348,-34.42127],[-58.634722,-34.421118],[-58.634652,-34.420964],[-58.63457,-34.420756],[-58.634533,-34.420651],[-58.63447,-34.420438],[-58.634442,-34.420356],[-58.634385,-34.420237],[-58.634313,-34.420124],[-58.634257,-34.420053],[-58.634194,-34.419985],[-58.63409,-34.419892],[-58.634013,-34.419835],[-58.633931,-34.419783],[-58.633846,-34.419736],[-58.633756,-34.419695],[-58.63359,-34.419632],[-58.633481,-34.419578],[-58.63343,-34.419548],[-58.633334,-34.419479],[-58.633248,-34.419402],[-58.633209,-34.419361],[-58.633141,-34.419272],[-58.632952,-34.418958],[-58.632857,-34.418815],[-58.632782,-34.41871],[-58.632652,-34.418537],[-58.632453,-34.418298],[-58.632395,-34.41822],[-58.632345,-34.418138],[-58.632302,-34.418054],[-58.632251,-34.417923],[-58.632227,-34.417834],[-58.63221,-34.417743],[-58.632201,-34.417606],[-58.632205,-34.417515],[-58.632216,-34.417424],[-58.632236,-34.417333],[-58.632305,-34.417105],[-58.632339,-34.416963],[-58.632362,-34.416819],[-58.632376,-34.416675],[-58.63238,-34.41653],[-58.632375,-34.416386],[-58.632368,-34.416314],[-58.632349,-34.41617],[-58.632319,-34.416027],[-58.63228,-34.415886],[-58.632232,-34.415747],[-58.632204,-34.415679],[-58.632142,-34.415543],[-58.632066,-34.415404],[-58.632024,-34.41532],[-58.631972,-34.415189],[-58.631934,-34.415055],[-58.631899,-34.414862],[-58.631886,-34.414808],[-58.63187,-34.414755],[-58.63183,-34.41465],[-58.631777,-34.414548],[-58.631713,-34.414452],[-58.631639,-34.41436],[-58.631545,-34.414264],[-58.631507,-34.414219],[-58.631441,-34.414125],[-58.631413,-34.414076],[-58.631369,-34.413973],[-58.63134,-34.413866],[-58.631327,-34.413758],[-58.631331,-34.413649],[-58.631338,-34.413595],[-58.63135,-34.413541],[-58.631385,-34.413436],[-58.631435,-34.413335],[-58.631466,-34.413287],[-58.631538,-34.413195],[-58.631623,-34.413112],[-58.631742,-34.413013],[-58.631811,-34.412949],[-58.631877,-34.412883],[-58.631939,-34.412815],[-58.631998,-34.412744],[-58.632052,-34.412672],[-58.632103,-34.412597],[-58.632149,-34.412521],[-58.632191,-34.412442],[-58.632229,-34.412363],[-58.632263,-34.412282],[-58.632292,-34.4122],[-58.632317,-34.412117],[-58.632337,-34.412033],[-58.632352,-34.411948],[-58.632363,-34.411863],[-58.63237,-34.411778],[-58.632371,-34.411692],[-58.632369,-34.411606],[-58.632361,-34.411521],[-58.632349,-34.411436],[-58.632332,-34.411352],[-58.632311,-34.411268],[-58.632285,-34.411185],[-58.632254,-34.411103],[-58.632225,-34.411037],[-58.632159,-34.410908],[-58.632084,-34.410783],[-58.631999,-34.410661],[-58.631906,-34.410544],[-58.631804,-34.410432],[-58.631695,-34.410325],[-58.631637,-34.410274],[-58.631516,-34.410176],[-58.631453,-34.410129],[-58.631322,-34.41004],[-58.631185,-34.409958],[-58.631042,-34.409883],[-58.630893,-34.409816],[-58.630111,-34.409494],[-58.629938,-34.409672],[-58.629778,-34.409857],[-58.629704,-34.409953],[-58.629564,-34.41015],[-58.6295,-34.410251],[-58.629383,-34.410457],[-58.629281,-34.410669],[-58.629194,-34.410886],[-58.629123,-34.411106],[-58.629068,-34.41133],[-58.629047,-34.411443],[-58.629016,-34.411669],[-58.629002,-34.411897],[-58.629001,-34.412011],[-58.629005,-34.412125],[-58.629026,-34.412505],[-58.629025,-34.412822],[-58.628966,-34.413241],[-58.628853,-34.413855],[-58.628664,-34.414419],[-58.62842,-34.415035],[-58.628236,-34.415455],[-58.627658,-34.416406],[-58.627572,-34.416922],[-58.627595,-34.417425],[-58.627677,-34.417789],[-58.627819,-34.41815]]]}},{"type":"Feature","properties":{"partida":"057090858","cca":"057030X00000000000000000900A00000000000000","tipo":"Urbano","sup_m2":378930.2},"geometry":{"type":"Polygon","coordinates":[[[-58.628883,-34.421683],[-58.625166,-34.418858],[-58.619035,-34.424561],[-58.62251,-34.427178],[-58.628883,-34.421683]]]}},{"type":"Feature","properties":{"partida":"057107223","cca":"057030X0000000000000000290000000000000100A","tipo":"Urbano","sup_m2":392551.0},"geometry":{"type":"Polygon","coordinates":[[[-58.627961,-34.430991],[-58.631606,-34.428617],[-58.631585,-34.428523],[-58.631478,-34.428147],[-58.631446,-34.427927],[-58.631434,-34.4276],[-58.631438,-34.427188],[-58.631448,-34.426936],[-58.631467,-34.426683],[-58.631498,-34.426432],[-58.631523,-34.426265],[-58.631565,-34.42613],[-58.63164,-34.425938],[-58.631673,-34.425818],[-58.631668,-34.425551],[-58.63166,-34.425407],[-58.631606,-34.425132],[-58.631566,-34.425007],[-58.631482,-34.424886],[-58.63135,-34.424775],[-58.631138,-34.424609],[-58.631053,-34.424537],[-58.630957,-34.424447],[-58.629897,-34.424207],[-58.62974,-34.424143],[-58.629689,-34.424099],[-58.629637,-34.424032],[-58.62961,-34.423955],[-58.629614,-34.423879],[-58.629776,-34.423516],[-58.629509,-34.42329],[-58.628939,-34.422757],[-58.628853,-34.4227],[-58.628812,-34.422678],[-58.628716,-34.42264],[-58.628609,-34.422613],[-58.628492,-34.422603],[-58.628441,-34.422604],[-58.628331,-34.422616],[-58.628237,-34.42264],[-58.623893,-34.426385],[-58.627961,-34.430991]]]}},{"type":"Feature","properties":{"partida":"057107223","cca":"057030X0000000000000000290000000000000100A","tipo":"Urbano","sup_m2":1247.7},"geometry":{"type":"Polygon","coordinates":[[[-58.629938,-34.423668],[-58.62984,-34.423907],[-58.629836,-34.423937],[-58.629849,-34.423976],[-58.629876,-34.424001],[-58.629907,-34.424014],[-58.630485,-34.424157],[-58.630178,-34.423867],[-58.629938,-34.423668]]]}},{"type":"Feature","properties":{"partida":"057118037","cca":"057030X00000000000000002900000000000002000","tipo":"Urbano","sup_m2":171687.8},"geometry":{"type":"Polygon","coordinates":[[[-58.631457,-34.434682],[-58.633949,-34.433055],[-58.633698,-34.432815],[-58.63346,-34.432567],[-58.633235,-34.43231],[-58.633024,-34.432045],[-58.632827,-34.431773],[-58.632644,-34.431494],[-58.632477,-34.431208],[-58.632399,-34.431063],[-58.632241,-34.430749],[-58.632099,-34.430429],[-58.632034,-34.430268],[-58.631917,-34.429942],[-58.631865,-34.429777],[-58.631817,-34.429612],[-58.631773,-34.429445],[-58.631733,-34.429279],[-58.631697,-34.429111],[-58.631639,-34.428774],[-58.631606,-34.428617],[-58.627961,-34.430991],[-58.631457,-34.434682]]]}},{"type":"Feature","properties":{"partida":"057125227","cca":"057030X00000000000000022100000000000001000","tipo":"Urbano","sup_m2":126312.2},"geometry":{"type":"Polygon","coordinates":[[[-58.641039,-34.417257],[-58.641808,-34.417439],[-58.642063,-34.417505],[-58.642571,-34.417645],[-58.643028,-34.417779],[-58.643498,-34.417929],[-58.643574,-34.417959],[-58.643763,-34.418051],[-58.643814,-34.41808],[-58.643851,-34.418114],[-58.643886,-34.418152],[-58.643915,-34.41821],[-58.643923,-34.418249],[-58.643926,-34.418301],[-58.643917,-34.418354],[-58.6439,-34.418393],[-58.643873,-34.418433],[-58.643835,-34.418474],[-58.643784,-34.418509],[-58.643721,-34.418536],[-58.643862,-34.418487],[-58.643987,-34.418437],[-58.644184,-34.41835],[-58.644294,-34.418295],[-58.64459,-34.418218],[-58.644764,-34.418113],[-58.644881,-34.418034],[-58.645067,-34.417894],[-58.645226,-34.417763],[-58.640937,-34.41631],[-58.639684,-34.415698],[-58.638959,-34.415849],[-58.638654,-34.415579],[-58.63857,-34.415492],[-58.638389,-34.415762],[-58.638296,-34.415864],[-58.638236,-34.415953],[-58.63811,-34.416052],[-58.638029,-34.416132],[-58.637932,-34.416216],[-58.637801,-34.416276],[-58.637419,-34.416648],[-58.637293,-34.416801],[-58.637122,-34.416977],[-58.636848,-34.417312],[-58.636702,-34.417508],[-58.636592,-34.417628],[-58.636444,-34.417833],[-58.636199,-34.418224],[-58.636097,-34.418432],[-58.635787,-34.418739],[-58.635763,-34.418817],[-58.635739,-34.418936],[-58.635746,-34.418967],[-58.63575,-34.419006],[-58.635746,-34.419035],[-58.635732,-34.41907],[-58.635715,-34.419095],[-58.635671,-34.419142],[-58.635649,-34.41918],[-58.635639,-34.419217],[-58.635637,-34.41925],[-58.635644,-34.41929],[-58.635658,-34.419322],[-58.635678,-34.419352],[-58.635666,-34.419325],[-58.635666,-34.419295],[-58.635677,-34.419272],[-58.635753,-34.419185],[-58.635831,-34.419103],[-58.635925,-34.419025],[-58.635964,-34.419006],[-58.636014,-34.419007],[-58.636159,-34.419076],[-58.63623,-34.419106],[-58.636365,-34.419155],[-58.636512,-34.419197],[-58.636576,-34.419212],[-58.636721,-34.419236],[-58.636843,-34.419246],[-58.636921,-34.419245],[-58.637056,-34.419238],[-58.637203,-34.419216],[-58.63727,-34.419201],[-58.637344,-34.419181],[-58.637468,-34.419137],[-58.637544,-34.419105],[-58.637648,-34.419051],[-58.637723,-34.419004],[-58.637766,-34.418974],[-58.637879,-34.41888],[-58.637913,-34.418846],[-58.63798,-34.418768],[-58.638351,-34.418323],[-58.638501,-34.418147],[-58.638661,-34.417961],[-58.638755,-34.41786],[-58.638867,-34.417754],[-58.638951,-34.417683],[-58.639106,-34.417571],[-58.639199,-34.417514],[-58.639265,-34.417485],[-58.639315,-34.417471],[-58.639365,-34.417462],[-58.639423,-34.417458],[-58.639468,-34.417461],[-58.639649,-34.417731],[-58.639659,-34.417759],[-58.639658,-34.417778],[-58.63964,-34.417812],[-58.639616,-34.417828],[-58.639742,-34.417772],[-58.63982,-34.417743],[-58.639921,-34.417711],[-58.639895,-34.417715],[-58.639862,-34.417711],[-58.639837,-34.417698],[-58.639823,-34.417682],[-58.639674,-34.417383],[-58.639733,-34.417323],[-58.639814,-34.417275],[-58.639898,-34.417246],[-58.640121,-34.41721],[-58.640247,-34.417197],[-58.640368,-34.417191],[-58.640488,-34.41719],[-58.640612,-34.417195],[-58.640711,-34.417204],[-58.640867,-34.417224],[-58.641039,-34.417257]]]}},{"type":"Feature","properties":{"partida":"057125228","cca":"057030X00000000000000022100000000000002000","tipo":"Urbano","sup_m2":1322.5},"geometry":{"type":"Polygon","coordinates":[[[-58.635891,-34.419498],[-58.636159,-34.419076],[-58.636014,-34.419007],[-58.635964,-34.419006],[-58.635925,-34.419025],[-58.635831,-34.419103],[-58.635753,-34.419185],[-58.635677,-34.419272],[-58.635666,-34.419295],[-58.635666,-34.419325],[-58.635678,-34.419352],[-58.635718,-34.419394],[-58.635784,-34.419445],[-58.635891,-34.419498]]]}},{"type":"Feature","properties":{"partida":"057125229","cca":"057030X00000000000000022100000000000003000","tipo":"Urbano","sup_m2":1254.4},"geometry":{"type":"Polygon","coordinates":[[[-58.636153,-34.419597],[-58.636365,-34.419155],[-58.63623,-34.419106],[-58.636159,-34.419076],[-58.635891,-34.419498],[-58.636052,-34.419564],[-58.636153,-34.419597]]]}},{"type":"Feature","properties":{"partida":"057125230","cca":"057030X00000000000000022100000000000004000","tipo":"Urbano","sup_m2":1265.0},"geometry":{"type":"Polygon","coordinates":[[[-58.636576,-34.419212],[-58.636512,-34.419197],[-58.636365,-34.419155],[-58.636153,-34.419597],[-58.636309,-34.419645],[-58.636437,-34.419674],[-58.636576,-34.419212]]]}},{"type":"Feature","properties":{"partida":"057125231","cca":"057030X00000000000000022100000000000005000","tipo":"Urbano","sup_m2":1244.5},"geometry":{"type":"Polygon","coordinates":[[[-58.636437,-34.419674],[-58.636556,-34.419696],[-58.636657,-34.419709],[-58.636737,-34.419715],[-58.63678,-34.419241],[-58.636721,-34.419236],[-58.636576,-34.419212],[-58.636437,-34.419674]]]}},{"type":"Feature","properties":{"partida":"057125232","cca":"057030X00000000000000022100000000000006000","tipo":"Urbano","sup_m2":1252.8},"geometry":{"type":"Polygon","coordinates":[[[-58.636737,-34.419715],[-58.636836,-34.419719],[-58.636947,-34.419719],[-58.637042,-34.419713],[-58.636994,-34.419243],[-58.636843,-34.419246],[-58.63678,-34.419241],[-58.636737,-34.419715]]]}},{"type":"Feature","properties":{"partida":"057125233","cca":"057030X00000000000000022100000000000007000","tipo":"Urbano","sup_m2":1241.8},"geometry":{"type":"Polygon","coordinates":[[[-58.637042,-34.419713],[-58.637129,-34.419706],[-58.637235,-34.419692],[-58.637343,-34.41967],[-58.637202,-34.419216],[-58.637131,-34.419228],[-58.636994,-34.419243],[-58.637042,-34.419713]]]}},{"type":"Feature","properties":{"partida":"057125234","cca":"057030X00000000000000022100000000000008000","tipo":"Urbano","sup_m2":1238.2},"geometry":{"type":"Polygon","coordinates":[[[-58.637632,-34.419587],[-58.637404,-34.419161],[-58.63727,-34.419201],[-58.637202,-34.419216],[-58.637343,-34.41967],[-58.637496,-34.419633],[-58.637558,-34.419614],[-58.637632,-34.419587]]]}},{"type":"Feature","properties":{"partida":"057125235","cca":"057030X00000000000000022100000000000009000","tipo":"Urbano","sup_m2":1228.8},"geometry":{"type":"Polygon","coordinates":[[[-58.637632,-34.419587],[-58.637728,-34.41955],[-58.637778,-34.419525],[-58.63784,-34.419497],[-58.6379,-34.419465],[-58.637593,-34.41908],[-58.637544,-34.419105],[-58.637404,-34.419161],[-58.637632,-34.419587]]]}},{"type":"Feature","properties":{"partida":"057125236","cca":"057030X00000000000000022100000000000010000","tipo":"Urbano","sup_m2":1214.4},"geometry":{"type":"Polygon","coordinates":[[[-58.638139,-34.419309],[-58.637764,-34.418974],[-58.637648,-34.419051],[-58.637593,-34.41908],[-58.6379,-34.419465],[-58.638001,-34.419406],[-58.638139,-34.419309]]]}},{"type":"Feature","properties":{"partida":"057125237","cca":"057030X00000000000000022100000000000011000","tipo":"Urbano","sup_m2":1210.6},"geometry":{"type":"Polygon","coordinates":[[[-58.638345,-34.41912],[-58.637913,-34.418846],[-58.637879,-34.41888],[-58.637764,-34.418974],[-58.638139,-34.419309],[-58.638221,-34.41924],[-58.638308,-34.419161],[-58.638345,-34.41912]]]}},{"type":"Feature","properties":{"partida":"057125238","cca":"057030X00000000000000022100000000000012000","tipo":"Urbano","sup_m2":1197.8},"geometry":{"type":"Polygon","coordinates":[[[-58.638502,-34.418933],[-58.638053,-34.418678],[-58.637913,-34.418846],[-58.638345,-34.41912],[-58.638413,-34.419043],[-58.638502,-34.418933]]]}},{"type":"Feature","properties":{"partida":"057125239","cca":"057030X00000000000000022100000000000013000","tipo":"Urbano","sup_m2":1195.1},"geometry":{"type":"Polygon","coordinates":[[[-58.638053,-34.418678],[-58.638502,-34.418933],[-58.638651,-34.418755],[-58.638201,-34.418502],[-58.638053,-34.418678]]]}},{"type":"Feature","properties":{"partida":"057125240","cca":"057030X00000000000000022100000000000014000","tipo":"Urbano","sup_m2":1206.7},"geometry":{"type":"Polygon","coordinates":[[[-58.638651,-34.418755],[-58.6388,-34.418577],[-58.638351,-34.418323],[-58.638201,-34.418502],[-58.638651,-34.418755]]]}},{"type":"Feature","properties":{"partida":"057125241","cca":"057030X00000000000000022100000000000015000","tipo":"Urbano","sup_m2":1197.3},"geometry":{"type":"Polygon","coordinates":[[[-58.638351,-34.418323],[-58.6388,-34.418577],[-58.638951,-34.418401],[-58.638501,-34.418147],[-58.638351,-34.418323]]]}},{"type":"Feature","properties":{"partida":"057125242","cca":"057030X00000000000000022100000000000016000","tipo":"Urbano","sup_m2":1227.6},"geometry":{"type":"Polygon","coordinates":[[[-58.638951,-34.418401],[-58.639102,-34.418229],[-58.638661,-34.417961],[-58.638501,-34.418147],[-58.638951,-34.418401]]]}},{"type":"Feature","properties":{"partida":"057125243","cca":"057030X00000000000000022100000000000017000","tipo":"Urbano","sup_m2":1349.7},"geometry":{"type":"Polygon","coordinates":[[[-58.639102,-34.418229],[-58.63916,-34.418159],[-58.639205,-34.418112],[-58.639266,-34.418057],[-58.638867,-34.417754],[-58.638755,-34.41786],[-58.638661,-34.417961],[-58.639102,-34.418229]]]}},{"type":"Feature","properties":{"partida":"057125244","cca":"057030X00000000000000022100000000000018000","tipo":"Urbano","sup_m2":1346.0},"geometry":{"type":"Polygon","coordinates":[[[-58.639266,-34.418057],[-58.639388,-34.417963],[-58.639462,-34.417914],[-58.639106,-34.417571],[-58.638951,-34.417683],[-58.638867,-34.417754],[-58.639266,-34.418057]]]}},{"type":"Feature","properties":{"partida":"057125245","cca":"057030X00000000000000022100000000000019000","tipo":"Urbano","sup_m2":1428.5},"geometry":{"type":"Polygon","coordinates":[[[-58.639462,-34.417914],[-58.639616,-34.417828],[-58.63964,-34.417812],[-58.639658,-34.417778],[-58.639659,-34.417759],[-58.639649,-34.417731],[-58.639468,-34.417461],[-58.639423,-34.417458],[-58.639365,-34.417462],[-58.639315,-34.417471],[-58.639265,-34.417485],[-58.639199,-34.417514],[-58.639106,-34.417571],[-58.639462,-34.417914]]]}},{"type":"Feature","properties":{"partida":"057125246","cca":"057030X00000000000000022100000000000020000","tipo":"Urbano","sup_m2":1473.3},"geometry":{"type":"Polygon","coordinates":[[[-58.640014,-34.417225],[-58.639898,-34.417246],[-58.639814,-34.417275],[-58.639733,-34.417323],[-58.639674,-34.417383],[-58.639814,-34.417669],[-58.639837,-34.417698],[-58.639862,-34.417711],[-58.639895,-34.417715],[-58.639921,-34.417711],[-58.639986,-34.417695],[-58.64012,-34.417667],[-58.640014,-34.417225]]]}},{"type":"Feature","properties":{"partida":"057125247","cca":"057030X00000000000000022100000000000021000","tipo":"Urbano","sup_m2":1427.5},"geometry":{"type":"Polygon","coordinates":[[[-58.640014,-34.417225],[-58.64012,-34.417667],[-58.640217,-34.417654],[-58.640381,-34.41764],[-58.640369,-34.417191],[-58.640247,-34.417197],[-58.640121,-34.41721],[-58.640014,-34.417225]]]}},{"type":"Feature","properties":{"partida":"057125248","cca":"057030X00000000000000022100000000000022000","tipo":"Urbano","sup_m2":1382.9},"geometry":{"type":"Polygon","coordinates":[[[-58.640711,-34.417204],[-58.640612,-34.417195],[-58.640488,-34.41719],[-58.640369,-34.417191],[-58.640381,-34.41764],[-58.640577,-34.417644],[-58.64064,-34.417649],[-58.640711,-34.417204]]]}},{"type":"Feature","properties":{"partida":"057125249","cca":"057030X00000000000000022100000000000023000","tipo":"Urbano","sup_m2":1367.1},"geometry":{"type":"Polygon","coordinates":[[[-58.640711,-34.417204],[-58.64064,-34.417649],[-58.640777,-34.417669],[-58.640897,-34.417693],[-58.641039,-34.417257],[-58.640867,-34.417224],[-58.640711,-34.417204]]]}},{"type":"Feature","properties":{"partida":"057125250","cca":"057030X00000000000000022100000000000024000","tipo":"Urbano","sup_m2":1206.8},"geometry":{"type":"Polygon","coordinates":[[[-58.641148,-34.417749],[-58.641294,-34.417316],[-58.641039,-34.417257],[-58.640897,-34.417693],[-58.641148,-34.417749]]]}},{"type":"Feature","properties":{"partida":"057125251","cca":"057030X00000000000000022100000000000025000","tipo":"Urbano","sup_m2":1214.4},"geometry":{"type":"Polygon","coordinates":[[[-58.641552,-34.417377],[-58.641294,-34.417316],[-58.641148,-34.417749],[-58.6414,-34.417808],[-58.641552,-34.417377]]]}},{"type":"Feature","properties":{"partida":"057125252","cca":"057030X00000000000000022100000000000026000","tipo":"Urbano","sup_m2":1214.1},"geometry":{"type":"Polygon","coordinates":[[[-58.641651,-34.41787],[-58.641808,-34.417439],[-58.641552,-34.417377],[-58.6414,-34.417808],[-58.641651,-34.41787]]]}},{"type":"Feature","properties":{"partida":"057125253","cca":"057030X00000000000000022100000000000027000","tipo":"Urbano","sup_m2":1212.3},"geometry":{"type":"Polygon","coordinates":[[[-58.642063,-34.417505],[-58.641808,-34.417439],[-58.641651,-34.41787],[-58.641899,-34.417935],[-58.642063,-34.417505]]]}},{"type":"Feature","properties":{"partida":"057125254","cca":"057030X00000000000000022100000000000028000","tipo":"Urbano","sup_m2":1214.2},"geometry":{"type":"Polygon","coordinates":[[[-58.642147,-34.418001],[-58.642319,-34.417574],[-58.642063,-34.417505],[-58.641899,-34.417935],[-58.642147,-34.418001]]]}},{"type":"Feature","properties":{"partida":"057125255","cca":"057030X00000000000000022100000000000029000","tipo":"Urbano","sup_m2":1206.1},"geometry":{"type":"Polygon","coordinates":[[[-58.642571,-34.417645],[-58.642319,-34.417574],[-58.642147,-34.418001],[-58.642394,-34.418069],[-58.642571,-34.417645]]]}},{"type":"Feature","properties":{"partida":"057125256","cca":"057030X00000000000000022100000000000030000","tipo":"Urbano","sup_m2":1209.8},"geometry":{"type":"Polygon","coordinates":[[[-58.642825,-34.417719],[-58.642571,-34.417645],[-58.642394,-34.418069],[-58.642555,-34.418116],[-58.642646,-34.41813],[-58.642825,-34.417719]]]}},{"type":"Feature","properties":{"partida":"057125257","cca":"057030X00000000000000022100000000000031000","tipo":"Urbano","sup_m2":1215.9},"geometry":{"type":"Polygon","coordinates":[[[-58.642825,-34.417719],[-58.642646,-34.41813],[-58.642683,-34.418132],[-58.642773,-34.418129],[-58.642865,-34.418118],[-58.64293,-34.418102],[-58.642971,-34.418083],[-58.643002,-34.418062],[-58.643039,-34.41803],[-58.643063,-34.417995],[-58.643084,-34.417954],[-58.643092,-34.417908],[-58.643092,-34.417874],[-58.643079,-34.417823],[-58.643066,-34.417803],[-58.643049,-34.417788],[-58.643028,-34.417779],[-58.642825,-34.417719]]]}},{"type":"Feature","properties":{"partida":"057125258","cca":"057030X00000000000000022100000000000032000","tipo":"Urbano","sup_m2":1675.0},"geometry":{"type":"Polygon","coordinates":[[[-58.643786,-34.418508],[-58.643835,-34.418474],[-58.643873,-34.418433],[-58.6439,-34.418393],[-58.643917,-34.418354],[-58.643926,-34.418301],[-58.643923,-34.418249],[-58.643915,-34.41821],[-58.643886,-34.418152],[-58.643851,-34.418114],[-58.643814,-34.41808],[-58.643763,-34.418051],[-58.643574,-34.417959],[-58.643528,-34.41795],[-58.643492,-34.417957],[-58.643461,-34.417974],[-58.643448,-34.418],[-58.643441,-34.418023],[-58.643434,-34.418075],[-58.643421,-34.418104],[-58.643404,-34.418128],[-58.643786,-34.418508]]]}},{"type":"Feature","properties":{"partida":"057125259","cca":"057030X00000000000000022100000000000033000","tipo":"Urbano","sup_m2":1373.5},"geometry":{"type":"Polygon","coordinates":[[[-58.643786,-34.418508],[-58.643404,-34.418128],[-58.643358,-34.418164],[-58.643294,-34.418189],[-58.643252,-34.41819],[-58.643401,-34.41863],[-58.64363,-34.418565],[-58.643721,-34.418536],[-58.643786,-34.418508]]]}},{"type":"Feature","properties":{"partida":"057125260","cca":"057030X00000000000000022100000000000034000","tipo":"Urbano","sup_m2":1362.9},"geometry":{"type":"Polygon","coordinates":[[[-58.643081,-34.418695],[-58.643183,-34.418679],[-58.643401,-34.41863],[-58.643252,-34.41819],[-58.643204,-34.418194],[-58.643185,-34.4182],[-58.643012,-34.418231],[-58.643081,-34.418695]]]}},{"type":"Feature","properties":{"partida":"057125261","cca":"057030X00000000000000022100000000000035000","tipo":"Urbano","sup_m2":1240.3},"geometry":{"type":"Polygon","coordinates":[[[-58.643081,-34.418695],[-58.643012,-34.418231],[-58.642933,-34.418245],[-58.642755,-34.418267],[-58.642823,-34.418733],[-58.643081,-34.418695]]]}},{"type":"Feature","properties":{"partida":"057125262","cca":"057030X00000000000000022100000000000036000","tipo":"Urbano","sup_m2":1244.4},"geometry":{"type":"Polygon","coordinates":[[[-58.642823,-34.418733],[-58.642755,-34.418267],[-58.642497,-34.418289],[-58.642564,-34.418753],[-58.642823,-34.418733]]]}},{"type":"Feature","properties":{"partida":"057125263","cca":"057030X00000000000000022100000000000037000","tipo":"Urbano","sup_m2":1216.9},"geometry":{"type":"Polygon","coordinates":[[[-58.642497,-34.418289],[-58.642229,-34.418321],[-58.642311,-34.418765],[-58.642377,-34.418758],[-58.642564,-34.418753],[-58.642497,-34.418289]]]}},{"type":"Feature","properties":{"partida":"057125264","cca":"057030X00000000000000022100000000000038000","tipo":"Urbano","sup_m2":1191.8},"geometry":{"type":"Polygon","coordinates":[[[-58.642311,-34.418765],[-58.642229,-34.418321],[-58.641966,-34.418358],[-58.642062,-34.4188],[-58.642311,-34.418765]]]}},{"type":"Feature","properties":{"partida":"057125265","cca":"057030X00000000000000022100000000000039000","tipo":"Urbano","sup_m2":1204.7},"geometry":{"type":"Polygon","coordinates":[[[-58.641966,-34.418358],[-58.641698,-34.418402],[-58.641814,-34.418841],[-58.642062,-34.4188],[-58.641966,-34.418358]]]}},{"type":"Feature","properties":{"partida":"057125266","cca":"057030X00000000000000022100000000000040000","tipo":"Urbano","sup_m2":1194.9},"geometry":{"type":"Polygon","coordinates":[[[-58.641814,-34.418841],[-58.641698,-34.418402],[-58.641437,-34.418452],[-58.641568,-34.418889],[-58.641814,-34.418841]]]}},{"type":"Feature","properties":{"partida":"057125267","cca":"057030X00000000000000022100000000000041000","tipo":"Urbano","sup_m2":1195.3},"geometry":{"type":"Polygon","coordinates":[[[-58.641437,-34.418452],[-58.641177,-34.41851],[-58.641323,-34.418943],[-58.641568,-34.418889],[-58.641437,-34.418452]]]}},{"type":"Feature","properties":{"partida":"057125268","cca":"057030X00000000000000022100000000000042000","tipo":"Urbano","sup_m2":1193.4},"geometry":{"type":"Polygon","coordinates":[[[-58.641177,-34.41851],[-58.640919,-34.418574],[-58.641083,-34.419003],[-58.641323,-34.418943],[-58.641177,-34.41851]]]}},{"type":"Feature","properties":{"partida":"057125269","cca":"057030X00000000000000022100000000000043000","tipo":"Urbano","sup_m2":1210.3},"geometry":{"type":"Polygon","coordinates":[[[-58.641083,-34.419003],[-58.640919,-34.418574],[-58.640658,-34.418646],[-58.640844,-34.419069],[-58.641083,-34.419003]]]}},{"type":"Feature","properties":{"partida":"057125270","cca":"057030X00000000000000022100000000000044000","tipo":"Urbano","sup_m2":1325.7},"geometry":{"type":"Polygon","coordinates":[[[-58.640844,-34.419069],[-58.640658,-34.418646],[-58.640468,-34.418703],[-58.640433,-34.41872],[-58.640416,-34.418738],[-58.640398,-34.418773],[-58.640397,-34.418791],[-58.640405,-34.418823],[-58.640543,-34.419093],[-58.640586,-34.4191],[-58.640639,-34.419113],[-58.64067,-34.419114],[-58.64072,-34.419106],[-58.640844,-34.419069]]]}},{"type":"Feature","properties":{"partida":"057125271","cca":"057030X00000000000000022100000000000045000","tipo":"Urbano","sup_m2":1351.7},"geometry":{"type":"Polygon","coordinates":[[[-58.640018,-34.41884],[-58.640058,-34.418833],[-58.640092,-34.418836],[-58.640127,-34.418848],[-58.640148,-34.418864],[-58.640167,-34.418894],[-58.640275,-34.419173],[-58.640246,-34.419214],[-58.640209,-34.419255],[-58.640185,-34.419271],[-58.640164,-34.41928],[-58.640298,-34.419231],[-58.64049,-34.419169],[-58.64072,-34.419106],[-58.64067,-34.419114],[-58.640639,-34.419113],[-58.640586,-34.4191],[-58.640543,-34.419093],[-58.640405,-34.418823],[-58.640397,-34.418791],[-58.640402,-34.418761],[-58.640416,-34.418738],[-58.640433,-34.41872],[-58.640468,-34.418703],[-58.640321,-34.418742],[-58.640214,-34.418773],[-58.640127,-34.418801],[-58.640018,-34.41884]]]}},{"type":"Feature","properties":{"partida":"057125272","cca":"057030X00000000000000022100000000000046000","tipo":"Urbano","sup_m2":1363.1},"geometry":{"type":"Polygon","coordinates":[[[-58.639816,-34.418917],[-58.640047,-34.419325],[-58.640164,-34.41928],[-58.640185,-34.419271],[-58.640209,-34.419255],[-58.640246,-34.419214],[-58.640275,-34.419173],[-58.640167,-34.418894],[-58.640148,-34.418864],[-58.640127,-34.418848],[-58.640092,-34.418836],[-58.640058,-34.418833],[-58.640018,-34.41884],[-58.639816,-34.418917]]]}},{"type":"Feature","properties":{"partida":"057125273","cca":"057030X00000000000000022100000000000047000","tipo":"Urbano","sup_m2":1290.5},"geometry":{"type":"Polygon","coordinates":[[[-58.639816,-34.418917],[-58.639555,-34.419021],[-58.639801,-34.419422],[-58.640047,-34.419325],[-58.639816,-34.418917]]]}},{"type":"Feature","properties":{"partida":"057125274","cca":"057030X00000000000000022100000000000048000","tipo":"Urbano","sup_m2":1220.7},"geometry":{"type":"Polygon","coordinates":[[[-58.639801,-34.419422],[-58.639555,-34.419021],[-58.639311,-34.419125],[-58.639573,-34.41952],[-58.639801,-34.419422]]]}},{"type":"Feature","properties":{"partida":"057125275","cca":"057030X00000000000000022100000000000049000","tipo":"Urbano","sup_m2":1201.8},"geometry":{"type":"Polygon","coordinates":[[[-58.639573,-34.41952],[-58.639311,-34.419125],[-58.639072,-34.419231],[-58.63935,-34.419617],[-58.639573,-34.41952]]]}},{"type":"Feature","properties":{"partida":"057125276","cca":"057030X00000000000000022100000000000050000","tipo":"Urbano","sup_m2":1195.5},"geometry":{"type":"Polygon","coordinates":[[[-58.63884,-34.419343],[-58.639132,-34.419723],[-58.63935,-34.419617],[-58.639072,-34.419231],[-58.63884,-34.419343]]]}},{"type":"Feature","properties":{"partida":"057125277","cca":"057030X00000000000000022100000000000051000","tipo":"Urbano","sup_m2":1196.6},"geometry":{"type":"Polygon","coordinates":[[[-58.63884,-34.419343],[-58.63861,-34.41946],[-58.638916,-34.419831],[-58.639132,-34.419723],[-58.63884,-34.419343]]]}},{"type":"Feature","properties":{"partida":"057125278","cca":"057030X00000000000000022100000000000052000","tipo":"Urbano","sup_m2":1243.6},"geometry":{"type":"Polygon","coordinates":[[[-58.63861,-34.41946],[-58.638379,-34.419586],[-58.638696,-34.419953],[-58.638916,-34.419831],[-58.63861,-34.41946]]]}},{"type":"Feature","properties":{"partida":"057125279","cca":"057030X00000000000000022100000000000053000","tipo":"Urbano","sup_m2":1172.8},"geometry":{"type":"Polygon","coordinates":[[[-58.638696,-34.419953],[-58.638379,-34.419586],[-58.638284,-34.419636],[-58.638166,-34.419708],[-58.638489,-34.42007],[-58.638587,-34.420012],[-58.638696,-34.419953]]]}},{"type":"Feature","properties":{"partida":"057125280","cca":"057030X00000000000000022100000000000054000","tipo":"Urbano","sup_m2":1175.6},"geometry":{"type":"Polygon","coordinates":[[[-58.638166,-34.419708],[-58.637955,-34.419835],[-58.638286,-34.420193],[-58.638489,-34.42007],[-58.638166,-34.419708]]]}},{"type":"Feature","properties":{"partida":"057125281","cca":"057030X00000000000000022100000000000055000","tipo":"Urbano","sup_m2":1201.7},"geometry":{"type":"Polygon","coordinates":[[[-58.638286,-34.420193],[-58.637955,-34.419835],[-58.637745,-34.419975],[-58.638085,-34.420323],[-58.638286,-34.420193]]]}},{"type":"Feature","properties":{"partida":"057125282","cca":"057030X00000000000000022100000000000056000","tipo":"Urbano","sup_m2":1199.8},"geometry":{"type":"Polygon","coordinates":[[[-58.637537,-34.420114],[-58.637889,-34.420459],[-58.638085,-34.420323],[-58.637745,-34.419975],[-58.637537,-34.420114]]]}},{"type":"Feature","properties":{"partida":"057125283","cca":"057030X00000000000000022100000000000057000","tipo":"Urbano","sup_m2":1189.8},"geometry":{"type":"Polygon","coordinates":[[[-58.637889,-34.420459],[-58.637537,-34.420114],[-58.637336,-34.42026],[-58.637699,-34.420595],[-58.637889,-34.420459]]]}},{"type":"Feature","properties":{"partida":"057125284","cca":"057030X00000000000000022100000000000058000","tipo":"Urbano","sup_m2":1205.4},"geometry":{"type":"Polygon","coordinates":[[[-58.637699,-34.420595],[-58.637336,-34.42026],[-58.637139,-34.420409],[-58.637509,-34.420739],[-58.637699,-34.420595]]]}},{"type":"Feature","properties":{"partida":"057125285","cca":"057030X00000000000000022100000000000059000","tipo":"Urbano","sup_m2":1237.1},"geometry":{"type":"Polygon","coordinates":[[[-58.636945,-34.420561],[-58.637314,-34.420893],[-58.637509,-34.420739],[-58.637139,-34.420409],[-58.636945,-34.420561]]]}},{"type":"Feature","properties":{"partida":"057125286","cca":"057030X00000000000000022100000000000060000","tipo":"Urbano","sup_m2":1340.0},"geometry":{"type":"Polygon","coordinates":[[[-58.637314,-34.420893],[-58.636945,-34.420561],[-58.636845,-34.42064],[-58.636816,-34.42066],[-58.636753,-34.420692],[-58.637072,-34.421075],[-58.637179,-34.421004],[-58.637314,-34.420893]]]}},{"type":"Feature","properties":{"partida":"057125287","cca":"057030X00000000000000022100000000000061000","tipo":"Urbano","sup_m2":1355.7},"geometry":{"type":"Polygon","coordinates":[[[-58.636734,-34.421208],[-58.636816,-34.421186],[-58.636926,-34.421146],[-58.636975,-34.421126],[-58.637072,-34.421075],[-58.636753,-34.420692],[-58.63672,-34.420707],[-58.636661,-34.420726],[-58.636578,-34.420745],[-58.636734,-34.421208]]]}},{"type":"Feature","properties":{"partida":"057125288","cca":"057030X00000000000000022100000000000062000","tipo":"Urbano","sup_m2":1500.8},"geometry":{"type":"Polygon","coordinates":[[[-58.636734,-34.421208],[-58.636578,-34.420745],[-58.636487,-34.420752],[-58.636432,-34.42075],[-58.636368,-34.420778],[-58.636353,-34.420808],[-58.636316,-34.42115],[-58.636472,-34.421222],[-58.636542,-34.421234],[-58.636598,-34.421232],[-58.636734,-34.421208]]]}},{"type":"Feature","properties":{"partida":"057125289","cca":"057030X00000000000000022200000000000001000","tipo":"Urbano","sup_m2":1271.8},"geometry":{"type":"Polygon","coordinates":[[[-58.640586,-34.417905],[-58.640529,-34.417759],[-58.640417,-34.417757],[-58.64033,-34.41776],[-58.640227,-34.417771],[-58.640051,-34.417801],[-58.640025,-34.41781],[-58.640005,-34.417822],[-58.639982,-34.417848],[-58.639973,-34.41787],[-58.639971,-34.417896],[-58.639978,-34.417921],[-58.640048,-34.418065],[-58.640586,-34.417905]]]}},{"type":"Feature","properties":{"partida":"057125290","cca":"057030X00000000000000022200000000000002000","tipo":"Urbano","sup_m2":1084.2},"geometry":{"type":"Polygon","coordinates":[[[-58.640586,-34.417905],[-58.640048,-34.418065],[-58.640134,-34.41824],[-58.640656,-34.418085],[-58.640586,-34.417905]]]}},{"type":"Feature","properties":{"partida":"057125291","cca":"057030X00000000000000022200000000000003000","tipo":"Urbano","sup_m2":1055.2},"geometry":{"type":"Polygon","coordinates":[[[-58.640727,-34.418265],[-58.640656,-34.418085],[-58.640134,-34.41824],[-58.640218,-34.418415],[-58.640727,-34.418265]]]}},{"type":"Feature","properties":{"partida":"057125292","cca":"057030X00000000000000022200000000000004000","tipo":"Urbano","sup_m2":1097.4},"geometry":{"type":"Polygon","coordinates":[[[-58.640727,-34.418265],[-58.640218,-34.418415],[-58.640271,-34.418527],[-58.640291,-34.418551],[-58.640313,-34.418568],[-58.640353,-34.41858],[-58.640385,-34.418581],[-58.64041,-34.418577],[-58.640804,-34.418462],[-58.640727,-34.418265]]]}},{"type":"Feature","properties":{"partida":"057125293","cca":"057030X00000000000000022200000000000005000","tipo":"Urbano","sup_m2":1241.1},"geometry":{"type":"Polygon","coordinates":[[[-58.640676,-34.418136],[-58.640804,-34.418462],[-58.641137,-34.418379],[-58.641024,-34.41805],[-58.640676,-34.418136]]]}},{"type":"Feature","properties":{"partida":"057125294","cca":"057030X00000000000000022200000000000006000","tipo":"Urbano","sup_m2":1401.4},"geometry":{"type":"Polygon","coordinates":[[[-58.640949,-34.417825],[-58.641137,-34.418379],[-58.641389,-34.418323],[-58.641261,-34.417897],[-58.640949,-34.417825]]]}},{"type":"Feature","properties":{"partida":"057125295","cca":"057030X00000000000000022200000000000007000","tipo":"Urbano","sup_m2":1261.6},"geometry":{"type":"Polygon","coordinates":[[[-58.641389,-34.418323],[-58.641596,-34.418281],[-58.641643,-34.418259],[-58.641684,-34.418222],[-58.641708,-34.418184],[-58.641717,-34.418144],[-58.641717,-34.418106],[-58.641705,-34.418073],[-58.641684,-34.418038],[-58.641653,-34.418009],[-58.641617,-34.417987],[-58.641579,-34.417974],[-58.641261,-34.417897],[-58.641389,-34.418323]]]}},{"type":"Feature","properties":{"partida":"057125312","cca":"057030X00000000000000022200000000000008000","tipo":"Urbano","sup_m2":1219.4},"geometry":{"type":"Polygon","coordinates":[[[-58.640529,-34.417759],[-58.640676,-34.418136],[-58.641024,-34.41805],[-58.640949,-34.417825],[-58.640828,-34.417797],[-58.640718,-34.417778],[-58.640641,-34.417768],[-58.640529,-34.417759]]]}},{"type":"Feature","properties":{"partida":"057125296","cca":"057030X00000000000000022300000000000001000","tipo":"Urbano","sup_m2":1254.6},"geometry":{"type":"Polygon","coordinates":[[[-58.638838,-34.418737],[-58.638665,-34.418944],[-58.638644,-34.418975],[-58.638631,-34.419016],[-58.638631,-34.419069],[-58.638644,-34.419098],[-58.638667,-34.419133],[-58.638698,-34.419161],[-58.638742,-34.419185],[-58.638786,-34.419196],[-58.638816,-34.419199],[-58.638868,-34.419196],[-58.638904,-34.419186],[-58.639089,-34.419096],[-58.638838,-34.418737]]]}},{"type":"Feature","properties":{"partida":"057125297","cca":"057030X00000000000000022300000000000002000","tipo":"Urbano","sup_m2":1226.9},"geometry":{"type":"Polygon","coordinates":[[[-58.639008,-34.418537],[-58.638838,-34.418737],[-58.639089,-34.419096],[-58.639305,-34.418996],[-58.639008,-34.418537]]]}},{"type":"Feature","properties":{"partida":"057125298","cca":"057030X00000000000000022300000000000003000","tipo":"Urbano","sup_m2":1325.2},"geometry":{"type":"Polygon","coordinates":[[[-58.639656,-34.418846],[-58.639484,-34.418555],[-58.639121,-34.41871],[-58.639305,-34.418996],[-58.639656,-34.418846]]]}},{"type":"Feature","properties":{"partida":"057125299","cca":"057030X00000000000000022300000000000004000","tipo":"Urbano","sup_m2":1092.4},"geometry":{"type":"Polygon","coordinates":[[[-58.639546,-34.418661],[-58.639656,-34.418846],[-58.640033,-34.418703],[-58.640063,-34.418688],[-58.640084,-34.418668],[-58.640098,-34.418635],[-58.640098,-34.418607],[-58.640091,-34.418587],[-58.640037,-34.418477],[-58.639546,-34.418661]]]}},{"type":"Feature","properties":{"partida":"057125300","cca":"057030X00000000000000022300000000000005000","tipo":"Urbano","sup_m2":1054.2},"geometry":{"type":"Polygon","coordinates":[[[-58.639446,-34.418491],[-58.639546,-34.418661],[-58.640037,-34.418477],[-58.639951,-34.418301],[-58.639446,-34.418491]]]}},{"type":"Feature","properties":{"partida":"057125301","cca":"057030X00000000000000022300000000000006000","tipo":"Urbano","sup_m2":1086.8},"geometry":{"type":"Polygon","coordinates":[[[-58.639867,-34.418126],[-58.639346,-34.41832],[-58.639446,-34.418491],[-58.639951,-34.418301],[-58.639867,-34.418126]]]}},{"type":"Feature","properties":{"partida":"057125302","cca":"057030X00000000000000022300000000000007000","tipo":"Urbano","sup_m2":1135.0},"geometry":{"type":"Polygon","coordinates":[[[-58.639346,-34.41832],[-58.639867,-34.418126],[-58.639803,-34.417993],[-58.639786,-34.41797],[-58.639749,-34.417946],[-58.639716,-34.417938],[-58.639671,-34.417941],[-58.639642,-34.417953],[-58.639548,-34.418007],[-58.639484,-34.418048],[-58.639407,-34.418106],[-58.639285,-34.418218],[-58.639346,-34.41832]]]}},{"type":"Feature","properties":{"partida":"057125303","cca":"057030X00000000000000022300000000000008000","tipo":"Urbano","sup_m2":1214.7},"geometry":{"type":"Polygon","coordinates":[[[-58.639484,-34.418555],[-58.639285,-34.418218],[-58.639008,-34.418537],[-58.639121,-34.41871],[-58.639484,-34.418555]]]}},{"type":"Feature","properties":{"partida":"057125304","cca":"057030X00000000000000022400000000000001000","tipo":"Urbano","sup_m2":1248.0},"geometry":{"type":"Polygon","coordinates":[[[-58.636204,-34.420185],[-58.636339,-34.419768],[-58.636133,-34.419715],[-58.636102,-34.419716],[-58.636068,-34.419721],[-58.636038,-34.419732],[-58.636012,-34.419748],[-58.635984,-34.419776],[-58.635965,-34.419825],[-58.635965,-34.419864],[-58.636033,-34.420142],[-58.636204,-34.420185]]]}},{"type":"Feature","properties":{"partida":"057125305","cca":"057030X00000000000000022400000000000002000","tipo":"Urbano","sup_m2":1231.2},"geometry":{"type":"Polygon","coordinates":[[[-58.636544,-34.42024],[-58.636293,-34.420204],[-58.636151,-34.420172],[-58.636033,-34.420142],[-58.636082,-34.420346],[-58.6361,-34.420404],[-58.636117,-34.420426],[-58.63615,-34.420449],[-58.636192,-34.42046],[-58.636503,-34.420489],[-58.636544,-34.42024]]]}},{"type":"Feature","properties":{"partida":"057125306","cca":"057030X00000000000000022400000000000003000","tipo":"Urbano","sup_m2":1287.3},"geometry":{"type":"Polygon","coordinates":[[[-58.636544,-34.42024],[-58.636503,-34.420489],[-58.636761,-34.420523],[-58.636797,-34.420523],[-58.63683,-34.420513],[-58.636856,-34.4205],[-58.63719,-34.420237],[-58.637101,-34.420247],[-58.636991,-34.420254],[-58.636854,-34.420256],[-58.636631,-34.420247],[-58.636544,-34.42024]]]}},{"type":"Feature","properties":{"partida":"057125307","cca":"057030X00000000000000022400000000000004000","tipo":"Urbano","sup_m2":1290.1},"geometry":{"type":"Polygon","coordinates":[[[-58.63719,-34.420237],[-58.63748,-34.420027],[-58.637504,-34.420006],[-58.637519,-34.419987],[-58.637535,-34.419951],[-58.63754,-34.419917],[-58.637535,-34.419883],[-58.637518,-34.419848],[-58.637491,-34.419816],[-58.637453,-34.419793],[-58.63742,-34.41978],[-58.637385,-34.419773],[-58.637344,-34.419774],[-58.637251,-34.419791],[-58.637113,-34.419809],[-58.63719,-34.420237]]]}},{"type":"Feature","properties":{"partida":"057125308","cca":"057030X00000000000000022400000000000005000","tipo":"Urbano","sup_m2":1313.3},"geometry":{"type":"Polygon","coordinates":[[[-58.637113,-34.419809],[-58.637028,-34.419817],[-58.636855,-34.419824],[-58.636854,-34.420256],[-58.636991,-34.420254],[-58.637101,-34.420247],[-58.63719,-34.420237],[-58.637113,-34.419809]]]}},{"type":"Feature","properties":{"partida":"057125309","cca":"057030X00000000000000022400000000000006000","tipo":"Urbano","sup_m2":1299.6},"geometry":{"type":"Polygon","coordinates":[[[-58.636526,-34.420237],[-58.636631,-34.420247],[-58.636854,-34.420256],[-58.636855,-34.419824],[-58.636666,-34.419816],[-58.636595,-34.419809],[-58.636526,-34.420237]]]}},{"type":"Feature","properties":{"partida":"057125310","cca":"057030X00000000000000022400000000000007000","tipo":"Urbano","sup_m2":1299.8},"geometry":{"type":"Polygon","coordinates":[[[-58.636204,-34.420185],[-58.636293,-34.420204],[-58.636424,-34.420225],[-58.636526,-34.420237],[-58.636595,-34.419809],[-58.636515,-34.419799],[-58.636339,-34.419768],[-58.636204,-34.420185]]]}},{"type":"Feature","properties":{"partida":"057125311","cca":"057030X00000000000000022500000000000000000","tipo":"Urbano","sup_m2":48739.2},"geometry":{"type":"Polygon","coordinates":[[[-58.636432,-34.42075],[-58.636487,-34.420752],[-58.636538,-34.420749],[-58.636616,-34.420737],[-58.636661,-34.420726],[-58.63672,-34.420707],[-58.636816,-34.42066],[-58.636879,-34.420614],[-58.637139,-34.420409],[-58.637338,-34.420258],[-58.637537,-34.420114],[-58.637955,-34.419835],[-58.638284,-34.419636],[-58.63861,-34.41946],[-58.63884,-34.419343],[-58.639072,-34.419231],[-58.639311,-34.419124],[-58.639555,-34.419021],[-58.639816,-34.418917],[-58.640127,-34.418801],[-58.640321,-34.418742],[-58.640468,-34.418703],[-58.640663,-34.418644],[-58.640919,-34.418574],[-58.641177,-34.41851],[-58.641437,-34.418452],[-58.641698,-34.418402],[-58.641966,-34.418358],[-58.642227,-34.418321],[-58.642497,-34.418289],[-58.642835,-34.418258],[-58.642933,-34.418245],[-58.643185,-34.4182],[-58.643204,-34.418194],[-58.643294,-34.418189],[-58.643358,-34.418164],[-58.643404,-34.418128],[-58.643421,-34.418104],[-58.643434,-34.418075],[-58.643441,-34.418023],[-58.643448,-34.418],[-58.643461,-34.417974],[-58.643492,-34.417957],[-58.643528,-34.41795],[-58.643574,-34.417959],[-58.643468,-34.417918],[-58.643028,-34.417779],[-58.643049,-34.417788],[-58.643066,-34.417803],[-58.643079,-34.417823],[-58.643092,-34.417874],[-58.643092,-34.417908],[-58.643084,-34.417954],[-58.643063,-34.417995],[-58.643039,-34.41803],[-58.643002,-34.418062],[-58.642971,-34.418083],[-58.64293,-34.418102],[-58.642906,-34.418109],[-58.642865,-34.418118],[-58.642773,-34.418129],[-58.642683,-34.418132],[-58.642646,-34.41813],[-58.642555,-34.418116],[-58.642147,-34.418001],[-58.641651,-34.41787],[-58.641148,-34.417749],[-58.640897,-34.417693],[-58.640777,-34.417669],[-58.640688,-34.417655],[-58.640577,-34.417644],[-58.640381,-34.41764],[-58.640217,-34.417654],[-58.640074,-34.417676],[-58.639986,-34.417695],[-58.639896,-34.417719],[-58.63982,-34.417743],[-58.63968,-34.417798],[-58.639616,-34.417828],[-58.639462,-34.417914],[-58.639388,-34.417963],[-58.639321,-34.418013],[-58.639205,-34.418112],[-58.63916,-34.418159],[-58.6388,-34.418577],[-58.638413,-34.419043],[-58.638308,-34.419161],[-58.638221,-34.41924],[-58.638139,-34.419309],[-58.638001,-34.419406],[-58.63784,-34.419497],[-58.637778,-34.419525],[-58.637728,-34.41955],[-58.637673,-34.419573],[-58.637558,-34.419614],[-58.637448,-34.419646],[-58.637235,-34.419692],[-58.637129,-34.419706],[-58.636947,-34.419719],[-58.636836,-34.419719],[-58.636657,-34.419709],[-58.636556,-34.419696],[-58.636437,-34.419674],[-58.636309,-34.419645],[-58.636052,-34.419564],[-58.635849,-34.41948],[-58.635784,-34.419445],[-58.635718,-34.419394],[-58.635678,-34.419352],[-58.635658,-34.419322],[-58.635644,-34.41929],[-58.635637,-34.41925],[-58.635639,-34.419217],[-58.635649,-34.41918],[-58.635671,-34.419142],[-58.635715,-34.419095],[-58.635732,-34.41907],[-58.635746,-34.419035],[-58.63575,-34.419006],[-58.635746,-34.418967],[-58.635739,-34.418936],[-58.635763,-34.418817],[-58.635787,-34.418739],[-58.636097,-34.418432],[-58.636199,-34.418224],[-58.636444,-34.417833],[-58.636592,-34.417628],[-58.636702,-34.417508],[-58.636848,-34.417312],[-58.637122,-34.416977],[-58.637293,-34.416801],[-58.637419,-34.416648],[-58.637801,-34.416276],[-58.637932,-34.416216],[-58.638029,-34.416132],[-58.63811,-34.416052],[-58.638236,-34.415953],[-58.638296,-34.415864],[-58.638389,-34.415762],[-58.63857,-34.415492],[-58.638618,-34.415451],[-58.638641,-34.415396],[-58.638638,-34.415335],[-58.638597,-34.415185],[-58.63858,-34.41481],[-58.638589,-34.414691],[-58.638623,-34.414548],[-58.638662,-34.414437],[-58.638756,-34.414217],[-58.63876,-34.414121],[-58.638722,-34.414029],[-58.638656,-34.413914],[-58.638599,-34.413797],[-58.6385,-34.413621],[-58.638402,-34.413391],[-58.638282,-34.413081],[-58.638459,-34.413696],[-58.638444,-34.413812],[-58.638421,-34.413868],[-58.638406,-34.413897],[-58.638384,-34.413968],[-58.638387,-34.414031],[-58.63841,-34.414091],[-58.638441,-34.414153],[-58.638443,-34.414187],[-58.638439,-34.414238],[-58.638316,-34.415017],[-58.638286,-34.415159],[-58.638222,-34.415342],[-58.638156,-34.415475],[-58.638045,-34.415643],[-58.63791,-34.415799],[-58.637834,-34.415878],[-58.63743,-34.416247],[-58.637207,-34.416456],[-58.636826,-34.416862],[-58.636577,-34.417146],[-58.636341,-34.417427],[-58.635977,-34.41791],[-58.635753,-34.418307],[-58.635647,-34.418506],[-58.635503,-34.418725],[-58.63542,-34.418779],[-58.635335,-34.418796],[-58.635255,-34.419037],[-58.635339,-34.41911],[-58.635412,-34.419205],[-58.635506,-34.419355],[-58.635714,-34.419591],[-58.635766,-34.419678],[-58.635804,-34.41975],[-58.635828,-34.41982],[-58.635968,-34.420401],[-58.636001,-34.420489],[-58.636028,-34.420536],[-58.636099,-34.420621],[-58.636194,-34.420685],[-58.6363,-34.420727],[-58.636357,-34.420741],[-58.636432,-34.42075]],[[-58.636339,-34.419768],[-58.636515,-34.419799],[-58.636595,-34.419809],[-58.636666,-34.419816],[-58.636855,-34.419824],[-58.637028,-34.419817],[-58.637113,-34.419809],[-58.637251,-34.419791],[-58.637344,-34.419774],[-58.637385,-34.419773],[-58.63742,-34.41978],[-58.637453,-34.419793],[-58.637491,-34.419816],[-58.637518,-34.419848],[-58.637535,-34.419883],[-58.63754,-34.419917],[-58.637535,-34.419951],[-58.637519,-34.419987],[-58.637504,-34.420006],[-58.63748,-34.420027],[-58.63719,-34.420237],[-58.636856,-34.4205],[-58.63683,-34.420513],[-58.636797,-34.420523],[-58.636761,-34.420523],[-58.636503,-34.420489],[-58.636192,-34.42046],[-58.63615,-34.420449],[-58.636117,-34.420426],[-58.6361,-34.420404],[-58.636082,-34.420346],[-58.635965,-34.419864],[-58.635965,-34.419825],[-58.635984,-34.419776],[-58.636012,-34.419748],[-58.636038,-34.419732],[-58.636068,-34.419721],[-58.636102,-34.419716],[-58.636133,-34.419715],[-58.636339,-34.419768]],[[-58.639285,-34.418218],[-58.639407,-34.418106],[-58.639484,-34.418048],[-58.639548,-34.418007],[-58.639642,-34.417953],[-58.639671,-34.417941],[-58.639716,-34.417938],[-58.639749,-34.417946],[-58.639786,-34.41797],[-58.639803,-34.417993],[-58.640091,-34.418587],[-58.640098,-34.418607],[-58.640098,-34.418635],[-58.640084,-34.418668],[-58.640063,-34.418688],[-58.640033,-34.418703],[-58.639654,-34.418847],[-58.639305,-34.418996],[-58.639089,-34.419096],[-58.638904,-34.419186],[-58.638868,-34.419196],[-58.638816,-34.419199],[-58.638786,-34.419196],[-58.638742,-34.419185],[-58.638698,-34.419161],[-58.638667,-34.419133],[-58.638644,-34.419098],[-58.638631,-34.419069],[-58.638631,-34.419016],[-58.638644,-34.418975],[-58.638665,-34.418944],[-58.638838,-34.418737],[-58.639285,-34.418218]],[[-58.640804,-34.418462],[-58.64041,-34.418577],[-58.640385,-34.418581],[-58.640353,-34.41858],[-58.640313,-34.418568],[-58.640291,-34.418551],[-58.640271,-34.418527],[-58.639978,-34.417921],[-58.639971,-34.417896],[-58.639973,-34.41787],[-58.639982,-34.417848],[-58.640005,-34.417822],[-58.640025,-34.41781],[-58.640051,-34.417801],[-58.640119,-34.417788],[-58.640227,-34.417771],[-58.64033,-34.41776],[-58.640417,-34.417757],[-58.640529,-34.417759],[-58.640641,-34.417768],[-58.640828,-34.417797],[-58.641261,-34.417897],[-58.641579,-34.417974],[-58.641617,-34.417987],[-58.641653,-34.418009],[-58.641684,-34.418038],[-58.641705,-34.418073],[-58.641717,-34.418106],[-58.641717,-34.418144],[-58.641708,-34.418184],[-58.641684,-34.418222],[-58.641643,-34.418259],[-58.641596,-34.418281],[-58.641137,-34.418379],[-58.640804,-34.418462]]]}},{"type":"Feature","properties":{"partida":"057139096","cca":"057030X00000000000000026600000000000001000","tipo":"Urbano","sup_m2":1161.9},"geometry":{"type":"Polygon","coordinates":[[[-58.634409,-34.416751],[-58.634447,-34.416641],[-58.634451,-34.416615],[-58.634451,-34.416597],[-58.634445,-34.416571],[-58.634433,-34.416546],[-58.634422,-34.41653],[-58.634385,-34.416498],[-58.634288,-34.416452],[-58.634181,-34.41641],[-58.634071,-34.416377],[-58.634043,-34.416456],[-58.634048,-34.416512],[-58.634039,-34.416551],[-58.63402,-34.41658],[-58.63397,-34.416626],[-58.633946,-34.416655],[-58.634409,-34.416751]]]}},{"type":"Feature","properties":{"partida":"057139097","cca":"057030X00000000000000026600000000000002000","tipo":"Urbano","sup_m2":993.3},"geometry":{"type":"Polygon","coordinates":[[[-58.633885,-34.416874],[-58.634371,-34.416922],[-58.634386,-34.416836],[-58.634409,-34.416751],[-58.633946,-34.416655],[-58.633928,-34.416686],[-58.633915,-34.416722],[-58.633885,-34.416874]]]}},{"type":"Feature","properties":{"partida":"057139098","cca":"057030X00000000000000026600000000000003000","tipo":"Urbano","sup_m2":995.9},"geometry":{"type":"Polygon","coordinates":[[[-58.634358,-34.417096],[-58.634362,-34.417],[-58.634371,-34.416922],[-58.633885,-34.416874],[-58.633873,-34.416985],[-58.633869,-34.417098],[-58.634358,-34.417096]]]}},{"type":"Feature","properties":{"partida":"057139099","cca":"057030X00000000000000026600000000000004000","tipo":"Urbano","sup_m2":996.1},"geometry":{"type":"Polygon","coordinates":[[[-58.634372,-34.41727],[-58.634362,-34.417183],[-58.634358,-34.417096],[-58.633869,-34.417098],[-58.633873,-34.41721],[-58.633886,-34.417321],[-58.634372,-34.41727]]]}},{"type":"Feature","properties":{"partida":"057139100","cca":"057030X00000000000000026600000000000005000","tipo":"Urbano","sup_m2":996.2},"geometry":{"type":"Polygon","coordinates":[[[-58.634411,-34.417442],[-58.634388,-34.417357],[-58.634372,-34.41727],[-58.633886,-34.417321],[-58.633905,-34.417421],[-58.633937,-34.417542],[-58.634411,-34.417442]]]}},{"type":"Feature","properties":{"partida":"057139101","cca":"057030X00000000000000026600000000000006000","tipo":"Urbano","sup_m2":996.1},"geometry":{"type":"Polygon","coordinates":[[[-58.634411,-34.417442],[-58.633937,-34.417542],[-58.633974,-34.41765],[-58.63402,-34.417755],[-58.634476,-34.417608],[-58.63444,-34.417526],[-58.634411,-34.417442]]]}},{"type":"Feature","properties":{"partida":"057139102","cca":"057030X00000000000000026600000000000007000","tipo":"Urbano","sup_m2":996.1},"geometry":{"type":"Polygon","coordinates":[[[-58.634476,-34.417608],[-58.63402,-34.417755],[-58.634067,-34.417849],[-58.634134,-34.417959],[-58.634564,-34.417766],[-58.634517,-34.417688],[-58.634476,-34.417608]]]}},{"type":"Feature","properties":{"partida":"057139103","cca":"057030X00000000000000026600000000000008000","tipo":"Urbano","sup_m2":996.1},"geometry":{"type":"Polygon","coordinates":[[[-58.634675,-34.417914],[-58.634617,-34.417841],[-58.634564,-34.417766],[-58.634134,-34.417959],[-58.634202,-34.418056],[-58.634277,-34.418149],[-58.634675,-34.417914]]]}},{"type":"Feature","properties":{"partida":"057139104","cca":"057030X00000000000000026600000000000009000","tipo":"Urbano","sup_m2":996.0},"geometry":{"type":"Polygon","coordinates":[[[-58.634808,-34.41805],[-58.634739,-34.417983],[-58.634675,-34.417914],[-58.634277,-34.418149],[-58.634367,-34.418247],[-58.634447,-34.418324],[-58.634808,-34.41805]]]}},{"type":"Feature","properties":{"partida":"057139105","cca":"057030X00000000000000026600000000000010000","tipo":"Urbano","sup_m2":994.8},"geometry":{"type":"Polygon","coordinates":[[[-58.634808,-34.41805],[-58.634447,-34.418324],[-58.634539,-34.418402],[-58.634636,-34.418475],[-58.634965,-34.418174],[-58.634876,-34.418108],[-58.634808,-34.41805]]]}},{"type":"Feature","properties":{"partida":"057139106","cca":"057030X00000000000000026600000000000011000","tipo":"Urbano","sup_m2":997.0},"geometry":{"type":"Polygon","coordinates":[[[-58.635139,-34.418284],[-58.634965,-34.418174],[-58.634636,-34.418475],[-58.634723,-34.418534],[-58.634845,-34.418609],[-58.635139,-34.418284]]]}},{"type":"Feature","properties":{"partida":"057139107","cca":"057030X00000000000000026600000000000012000","tipo":"Urbano","sup_m2":985.4},"geometry":{"type":"Polygon","coordinates":[[[-58.634845,-34.418609],[-58.635001,-34.41871],[-58.635069,-34.418747],[-58.635293,-34.418384],[-58.635139,-34.418284],[-58.634845,-34.418609]]]}},{"type":"Feature","properties":{"partida":"057139108","cca":"057030X00000000000000026600000000000013000","tipo":"Urbano","sup_m2":1089.9},"geometry":{"type":"Polygon","coordinates":[[[-58.635069,-34.418747],[-58.635115,-34.418767],[-58.63517,-34.418787],[-58.635238,-34.4188],[-58.635282,-34.418801],[-58.635316,-34.418797],[-58.635345,-34.418791],[-58.63537,-34.418778],[-58.635381,-34.418768],[-58.635391,-34.418752],[-58.635504,-34.41845],[-58.635504,-34.418438],[-58.635495,-34.418413],[-58.635443,-34.418421],[-58.63539,-34.418418],[-58.635339,-34.418406],[-58.635293,-34.418384],[-58.635069,-34.418747]]]}},{"type":"Feature","properties":{"partida":"057138943","cca":"057030X00000000000000026600000000000014000","tipo":"Urbano","sup_m2":5567.6},"geometry":{"type":"Polygon","coordinates":[[[-58.635069,-34.418747],[-58.635001,-34.41871],[-58.634672,-34.4185],[-58.634558,-34.418417],[-58.634447,-34.418324],[-58.634325,-34.418203],[-58.634223,-34.418084],[-58.634134,-34.417959],[-58.634056,-34.417828],[-58.634015,-34.417745],[-58.633974,-34.41765],[-58.63394,-34.417553],[-58.633918,-34.417476],[-58.633898,-34.417388],[-58.633882,-34.417288],[-58.633873,-34.417199],[-58.633869,-34.417086],[-58.633873,-34.416985],[-58.633881,-34.416896],[-58.633894,-34.416814],[-58.633916,-34.416718],[-58.633928,-34.416686],[-58.633948,-34.416652],[-58.633978,-34.416618],[-58.63402,-34.41658],[-58.634039,-34.416551],[-58.634048,-34.416512],[-58.634043,-34.416456],[-58.634071,-34.416377],[-58.633933,-34.416348],[-58.633792,-34.416332],[-58.633783,-34.416413],[-58.633754,-34.416461],[-58.633744,-34.416496],[-58.633746,-34.416531],[-58.633764,-34.41659],[-58.633767,-34.416633],[-58.633764,-34.416659],[-58.633731,-34.416805],[-58.633714,-34.416927],[-58.633706,-34.417078],[-58.633711,-34.417221],[-58.63372,-34.417305],[-58.633736,-34.417405],[-58.633777,-34.417569],[-58.633831,-34.417723],[-58.63387,-34.417809],[-58.633905,-34.417879],[-58.633948,-34.417955],[-58.633999,-34.418037],[-58.634061,-34.418124],[-58.634116,-34.418195],[-58.634238,-34.41833],[-58.634365,-34.418449],[-58.634474,-34.418537],[-58.634584,-34.418615],[-58.634768,-34.41873],[-58.634912,-34.418824],[-58.63504,-34.418891],[-58.635103,-34.418927],[-58.635185,-34.418985],[-58.63525,-34.41904],[-58.635333,-34.418795],[-58.635264,-34.418801],[-58.635204,-34.418795],[-58.635148,-34.41878],[-58.635069,-34.418747]]]}},{"type":"Feature","properties":{"partida":null,"cca":"057030X00000000000000026700000000000000000","tipo":null,"sup_m2":0.0},"geometry":{"type":"Polygon","coordinates":[[[-58.635544,-34.420824],[-58.635541,-34.420814],[-58.635542,-34.42082],[-58.635544,-34.420824]]]}},{"type":"Feature","properties":{"partida":"057139109","cca":"057030X00000000000000026700000000000001000","tipo":"Urbano","sup_m2":1064.3},"geometry":{"type":"Polygon","coordinates":[[[-58.633298,-34.41653],[-58.633767,-34.416625],[-58.633763,-34.416586],[-58.633746,-34.416531],[-58.633744,-34.416502],[-58.633754,-34.416461],[-58.633783,-34.416413],[-58.633792,-34.416332],[-58.63369,-34.416329],[-58.633588,-34.416333],[-58.633453,-34.416348],[-58.63341,-34.416359],[-58.633366,-34.416386],[-58.633339,-34.416416],[-58.633326,-34.416443],[-58.633298,-34.41653]]]}},{"type":"Feature","properties":{"partida":"057139110","cca":"057030X00000000000000026700000000000002000","tipo":"Urbano","sup_m2":1399.8},"geometry":{"type":"Polygon","coordinates":[[[-58.633767,-34.416625],[-58.633298,-34.41653],[-58.63326,-34.41668],[-58.633234,-34.416832],[-58.63372,-34.416877],[-58.633739,-34.416765],[-58.633764,-34.416659],[-58.633767,-34.416625]]]}},{"type":"Feature","properties":{"partida":"057139111","cca":"057030X00000000000000026700000000000003000","tipo":"Urbano","sup_m2":1389.7},"geometry":{"type":"Polygon","coordinates":[[[-58.633217,-34.417136],[-58.633706,-34.417129],[-58.633708,-34.417002],[-58.63372,-34.416877],[-58.633234,-34.416832],[-58.63322,-34.416969],[-58.633217,-34.417136]]]}},{"type":"Feature","properties":{"partida":"057139112","cca":"057030X00000000000000026700000000000004000","tipo":"Urbano","sup_m2":926.8},"geometry":{"type":"Polygon","coordinates":[[[-58.633232,-34.417339],[-58.633719,-34.417296],[-58.633711,-34.417221],[-58.633706,-34.417129],[-58.633217,-34.417136],[-58.633221,-34.417227],[-58.633232,-34.417339]]]}},{"type":"Feature","properties":{"partida":"057139113","cca":"057030X00000000000000026700000000000005000","tipo":"Urbano","sup_m2":926.4},"geometry":{"type":"Polygon","coordinates":[[[-58.633268,-34.417539],[-58.633748,-34.417463],[-58.633719,-34.417296],[-58.633232,-34.417339],[-58.633247,-34.417439],[-58.633268,-34.417539]]]}},{"type":"Feature","properties":{"partida":"057139114","cca":"057030X00000000000000026700000000000006000","tipo":"Urbano","sup_m2":926.3},"geometry":{"type":"Polygon","coordinates":[[[-58.633268,-34.417539],[-58.633294,-34.417639],[-58.633325,-34.417737],[-58.633795,-34.417626],[-58.633748,-34.417463],[-58.633268,-34.417539]]]}},{"type":"Feature","properties":{"partida":"057139115","cca":"057030X00000000000000026700000000000007000","tipo":"Urbano","sup_m2":926.4},"geometry":{"type":"Polygon","coordinates":[[[-58.633325,-34.417737],[-58.633364,-34.417843],[-58.633401,-34.41793],[-58.633859,-34.417786],[-58.633825,-34.417707],[-58.633795,-34.417626],[-58.633325,-34.417737]]]}},{"type":"Feature","properties":{"partida":"057139116","cca":"057030X00000000000000026700000000000008000","tipo":"Urbano","sup_m2":926.4},"geometry":{"type":"Polygon","coordinates":[[[-58.633498,-34.418116],[-58.633939,-34.41794],[-58.633859,-34.417786],[-58.633401,-34.41793],[-58.633442,-34.418014],[-58.633498,-34.418116]]]}},{"type":"Feature","properties":{"partida":"057139117","cca":"057030X00000000000000026700000000000009000","tipo":"Urbano","sup_m2":926.5},"geometry":{"type":"Polygon","coordinates":[[[-58.633498,-34.418116],[-58.633553,-34.418206],[-58.633613,-34.418295],[-58.634035,-34.418088],[-58.633939,-34.41794],[-58.633498,-34.418116]]]}},{"type":"Feature","properties":{"partida":"057139118","cca":"057030X00000000000000026700000000000010000","tipo":"Urbano","sup_m2":926.7},"geometry":{"type":"Polygon","coordinates":[[[-58.633613,-34.418295],[-58.633671,-34.418373],[-58.633747,-34.418465],[-58.634145,-34.418229],[-58.634088,-34.41816],[-58.634035,-34.418088],[-58.633613,-34.418295]]]}},{"type":"Feature","properties":{"partida":"057139119","cca":"057030X00000000000000026700000000000011000","tipo":"Urbano","sup_m2":926.4},"geometry":{"type":"Polygon","coordinates":[[[-58.633898,-34.418625],[-58.63427,-34.418362],[-58.634145,-34.418229],[-58.633747,-34.418465],[-58.63382,-34.418546],[-58.633898,-34.418625]]]}},{"type":"Feature","properties":{"partida":"057139120","cca":"057030X00000000000000026700000000000012000","tipo":"Urbano","sup_m2":926.8},"geometry":{"type":"Polygon","coordinates":[[[-58.633898,-34.418625],[-58.633979,-34.418701],[-58.634064,-34.418774],[-58.634408,-34.418485],[-58.634337,-34.418425],[-58.63427,-34.418362],[-58.633898,-34.418625]]]}},{"type":"Feature","properties":{"partida":"057139121","cca":"057030X00000000000000026700000000000013000","tipo":"Urbano","sup_m2":926.1},"geometry":{"type":"Polygon","coordinates":[[[-58.634064,-34.418774],[-58.634163,-34.41885],[-58.634246,-34.41891],[-58.634559,-34.418598],[-58.634482,-34.418543],[-58.634408,-34.418485],[-58.634064,-34.418774]]]}},{"type":"Feature","properties":{"partida":"057139122","cca":"057030X00000000000000026700000000000014000","tipo":"Urbano","sup_m2":878.4},"geometry":{"type":"Polygon","coordinates":[[[-58.634559,-34.418598],[-58.634246,-34.41891],[-58.634333,-34.418968],[-58.634423,-34.419022],[-58.634718,-34.418699],[-58.634559,-34.418598]]]}},{"type":"Feature","properties":{"partida":"057138948","cca":"057030X00000000000000026700000000000015000","tipo":"Urbano","sup_m2":720.7},"geometry":{"type":"Polygon","coordinates":[[[-58.634423,-34.419022],[-58.634567,-34.419104],[-58.634859,-34.418789],[-58.634718,-34.418699],[-58.634423,-34.419022]]]}},{"type":"Feature","properties":{"partida":"057139123","cca":"057030X00000000000000026700000000000016000","tipo":"Urbano","sup_m2":860.8},"geometry":{"type":"Polygon","coordinates":[[[-58.63504,-34.418891],[-58.634933,-34.418836],[-58.634859,-34.418789],[-58.634567,-34.419104],[-58.634649,-34.419155],[-58.634727,-34.419209],[-58.63504,-34.418891]]]}},{"type":"Feature","properties":{"partida":"057139124","cca":"057030X00000000000000026700000000000017000","tipo":"Urbano","sup_m2":874.1},"geometry":{"type":"Polygon","coordinates":[[[-58.634727,-34.419209],[-58.634797,-34.419263],[-58.634863,-34.41932],[-58.635209,-34.419004],[-58.635128,-34.418944],[-58.63504,-34.418891],[-58.634727,-34.419209]]]}},{"type":"Feature","properties":{"partida":"057139125","cca":"057030X00000000000000026700000000000018000","tipo":"Urbano","sup_m2":1038.2},"geometry":{"type":"Polygon","coordinates":[[[-58.635334,-34.419126],[-58.635272,-34.41906],[-58.635209,-34.419004],[-58.634863,-34.41932],[-58.634984,-34.419438],[-58.635,-34.419445],[-58.635013,-34.419448],[-58.635026,-34.419447],[-58.635043,-34.419443],[-58.635085,-34.419413],[-58.63516,-34.419352],[-58.63523,-34.419287],[-58.635283,-34.419232],[-58.635337,-34.419168],[-58.635342,-34.419147],[-58.635334,-34.419126]]]}},{"type":"Feature","properties":{"partida":"057138949","cca":"057030X00000000000000026700000000000019000","tipo":"Urbano","sup_m2":708.6},"geometry":{"type":"Polygon","coordinates":[[[-58.635334,-34.419126],[-58.635342,-34.41915],[-58.63534,-34.419163],[-58.635332,-34.419176],[-58.635244,-34.419273],[-58.635145,-34.419364],[-58.635085,-34.419413],[-58.635043,-34.419443],[-58.635026,-34.419447],[-58.635008,-34.419447],[-58.634988,-34.41944],[-58.634975,-34.41943],[-58.635031,-34.419495],[-58.635094,-34.419575],[-58.635087,-34.41956],[-58.635087,-34.419543],[-58.635095,-34.419528],[-58.635108,-34.419516],[-58.635219,-34.419455],[-58.635352,-34.419398],[-58.635411,-34.419378],[-58.635448,-34.419376],[-58.635477,-34.419381],[-58.635497,-34.41939],[-58.635515,-34.419401],[-58.635529,-34.419415],[-58.635482,-34.41935],[-58.635407,-34.419223],[-58.635334,-34.419126]]]}},{"type":"Feature","properties":{"partida":"057139126","cca":"057030X00000000000000026700000000000020000","tipo":"Urbano","sup_m2":1037.9},"geometry":{"type":"Polygon","coordinates":[[[-58.635585,-34.419478],[-58.635509,-34.419397],[-58.635477,-34.419381],[-58.635441,-34.419375],[-58.635411,-34.419378],[-58.635352,-34.419398],[-58.635263,-34.419435],[-58.635177,-34.419477],[-58.635102,-34.41952],[-58.635093,-34.419531],[-58.635087,-34.419543],[-58.635089,-34.419566],[-58.635182,-34.41971],[-58.635641,-34.419529],[-58.635585,-34.419478]]]}},{"type":"Feature","properties":{"partida":"057139127","cca":"057030X00000000000000026700000000000021000","tipo":"Urbano","sup_m2":1078.4},"geometry":{"type":"Polygon","coordinates":[[[-58.635261,-34.419871],[-58.635774,-34.419723],[-58.63575,-34.41967],[-58.635721,-34.41962],[-58.635684,-34.419573],[-58.635641,-34.419529],[-58.635182,-34.41971],[-58.63522,-34.419782],[-58.635261,-34.419871]]]}},{"type":"Feature","properties":{"partida":"057139128","cca":"057030X00000000000000026700000000000022000","tipo":"Urbano","sup_m2":1080.3},"geometry":{"type":"Polygon","coordinates":[[[-58.635774,-34.419723],[-58.635261,-34.419871],[-58.635331,-34.420057],[-58.635823,-34.419926],[-58.635788,-34.419771],[-58.635774,-34.419723]]]}},{"type":"Feature","properties":{"partida":"057139129","cca":"057030X00000000000000026700000000000023000","tipo":"Urbano","sup_m2":1037.2},"geometry":{"type":"Polygon","coordinates":[[[-58.635868,-34.420129],[-58.635823,-34.419926],[-58.635331,-34.420057],[-58.635385,-34.420246],[-58.635868,-34.420129]]]}},{"type":"Feature","properties":{"partida":"057139130","cca":"057030X00000000000000026700000000000024000","tipo":"Urbano","sup_m2":1004.8},"geometry":{"type":"Polygon","coordinates":[[[-58.635909,-34.420312],[-58.635868,-34.420129],[-58.635385,-34.420246],[-58.635442,-34.420452],[-58.635909,-34.420312]]]}},{"type":"Feature","properties":{"partida":"057139131","cca":"057030X00000000000000026700000000000025000","tipo":"Urbano","sup_m2":1046.4},"geometry":{"type":"Polygon","coordinates":[[[-58.635506,-34.420689],[-58.635964,-34.420477],[-58.635944,-34.420438],[-58.635929,-34.420397],[-58.635909,-34.420312],[-58.635442,-34.420452],[-58.635506,-34.420689]]]}},{"type":"Feature","properties":{"partida":"057139132","cca":"057030X00000000000000026700000000000026000","tipo":"Urbano","sup_m2":1367.3},"geometry":{"type":"Polygon","coordinates":[[[-58.635506,-34.420689],[-58.635544,-34.420826],[-58.63556,-34.420862],[-58.635594,-34.420912],[-58.635649,-34.420964],[-58.636083,-34.420617],[-58.636048,-34.420585],[-58.63601,-34.420544],[-58.635964,-34.420477],[-58.635506,-34.420689]]]}},{"type":"Feature","properties":{"partida":"057139133","cca":"057030X00000000000000026700000000000027000","tipo":"Urbano","sup_m2":1418.0},"geometry":{"type":"Polygon","coordinates":[[[-58.636083,-34.420617],[-58.635649,-34.420964],[-58.635695,-34.421],[-58.635739,-34.42103],[-58.635792,-34.421054],[-58.635841,-34.421066],[-58.635881,-34.42107],[-58.636012,-34.421074],[-58.636221,-34.420773],[-58.63623,-34.42075],[-58.636228,-34.420725],[-58.636212,-34.420699],[-58.636128,-34.420649],[-58.636083,-34.420617]]]}},{"type":"Feature","properties":{"partida":"057139137","cca":"057030X00000000000000026800000000000004000","tipo":"Urbano","sup_m2":1007.5},"geometry":{"type":"Polygon","coordinates":[[[-58.635817,-34.415844],[-58.635712,-34.41591],[-58.635621,-34.415959],[-58.635949,-34.416267],[-58.63605,-34.416208],[-58.636146,-34.416145],[-58.635817,-34.415844]]]}},{"type":"Feature","properties":{"partida":"057139138","cca":"057030X00000000000000026800000000000005000","tipo":"Urbano","sup_m2":1014.0},"geometry":{"type":"Polygon","coordinates":[[[-58.635949,-34.416267],[-58.635621,-34.415959],[-58.635508,-34.416018],[-58.635411,-34.416078],[-58.635751,-34.416372],[-58.635813,-34.416337],[-58.635949,-34.416267]]]}},{"type":"Feature","properties":{"partida":"057139139","cca":"057030X00000000000000026800000000000006000","tipo":"Urbano","sup_m2":1009.3},"geometry":{"type":"Polygon","coordinates":[[[-58.635411,-34.416078],[-58.635321,-34.416143],[-58.63522,-34.41623],[-58.635588,-34.416497],[-58.635657,-34.416437],[-58.635751,-34.416372],[-58.635411,-34.416078]]]}},{"type":"Feature","properties":{"partida":"057139140","cca":"057030X00000000000000026800000000000007000","tipo":"Urbano","sup_m2":1031.2},"geometry":{"type":"Polygon","coordinates":[[[-58.635047,-34.41643],[-58.635471,-34.416633],[-58.63552,-34.416569],[-58.635588,-34.416497],[-58.63522,-34.41623],[-58.635163,-34.416287],[-58.635119,-34.416336],[-58.635047,-34.41643]]]}},{"type":"Feature","properties":{"partida":"057139141","cca":"057030X00000000000000026800000000000008000","tipo":"Urbano","sup_m2":1031.5},"geometry":{"type":"Polygon","coordinates":[[[-58.634925,-34.416654],[-58.635388,-34.416784],[-58.635425,-34.416707],[-58.635471,-34.416633],[-58.635047,-34.41643],[-58.634985,-34.416528],[-58.634925,-34.416654]]]}},{"type":"Feature","properties":{"partida":"057139142","cca":"057030X00000000000000026800000000000009000","tipo":"Urbano","sup_m2":1031.0},"geometry":{"type":"Polygon","coordinates":[[[-58.634857,-34.416893],[-58.635342,-34.416947],[-58.63536,-34.416865],[-58.635388,-34.416784],[-58.634925,-34.416654],[-58.634884,-34.416772],[-58.634857,-34.416893]]]}},{"type":"Feature","properties":{"partida":"057139143","cca":"057030X00000000000000026800000000000010000","tipo":"Urbano","sup_m2":1031.0},"geometry":{"type":"Polygon","coordinates":[[[-58.634857,-34.416893],[-58.634844,-34.417015],[-58.634846,-34.417138],[-58.635335,-34.417113],[-58.635333,-34.41703],[-58.635342,-34.416947],[-58.634857,-34.416893]]]}},{"type":"Feature","properties":{"partida":"057139144","cca":"057030X00000000000000026800000000000011000","tipo":"Urbano","sup_m2":1031.7},"geometry":{"type":"Polygon","coordinates":[[[-58.634893,-34.417381],[-58.635367,-34.417278],[-58.635346,-34.417196],[-58.635335,-34.417113],[-58.634846,-34.417138],[-58.634863,-34.417261],[-58.634893,-34.417381]]]}},{"type":"Feature","properties":{"partida":"057139145","cca":"057030X00000000000000026800000000000012000","tipo":"Urbano","sup_m2":1031.3},"geometry":{"type":"Polygon","coordinates":[[[-58.634996,-34.417611],[-58.635436,-34.417434],[-58.635397,-34.417358],[-58.635367,-34.417278],[-58.634893,-34.417381],[-58.634933,-34.417487],[-58.634996,-34.417611]]]}},{"type":"Feature","properties":{"partida":"057139146","cca":"057030X00000000000000026800000000000013000","tipo":"Urbano","sup_m2":1059.5},"geometry":{"type":"Polygon","coordinates":[[[-58.635159,-34.41783],[-58.635542,-34.417577],[-58.635485,-34.417508],[-58.635436,-34.417434],[-58.634996,-34.417611],[-58.635071,-34.417724],[-58.635159,-34.41783]]]}},{"type":"Feature","properties":{"partida":"057139147","cca":"057030X00000000000000026800000000000014000","tipo":"Urbano","sup_m2":1119.0},"geometry":{"type":"Polygon","coordinates":[[[-58.635159,-34.41783],[-58.635245,-34.417914],[-58.635286,-34.417945],[-58.635309,-34.417955],[-58.635348,-34.417964],[-58.635375,-34.417966],[-58.635414,-34.417962],[-58.635452,-34.41795],[-58.635474,-34.417937],[-58.635494,-34.417922],[-58.635601,-34.417822],[-58.635704,-34.417718],[-58.635626,-34.417658],[-58.635542,-34.417577],[-58.635159,-34.41783]]]}},{"type":"Feature","properties":{"partida":"057139157","cca":"057030X00000000000000027000000000000002000","tipo":"Urbano","sup_m2":966.2},"geometry":{"type":"Polygon","coordinates":[[[-58.636757,-34.41583],[-58.636589,-34.415973],[-58.636944,-34.416252],[-58.637102,-34.416118],[-58.636757,-34.41583]]]}},{"type":"Feature","properties":{"partida":"057139158","cca":"057030X00000000000000027000000000000003000","tipo":"Urbano","sup_m2":965.5},"geometry":{"type":"Polygon","coordinates":[[[-58.636944,-34.416252],[-58.636589,-34.415973],[-58.636425,-34.416121],[-58.636793,-34.416389],[-58.636944,-34.416252]]]}},{"type":"Feature","properties":{"partida":"057139159","cca":"057030X00000000000000027000000000000004000","tipo":"Urbano","sup_m2":965.4},"geometry":{"type":"Polygon","coordinates":[[[-58.636425,-34.416121],[-58.636268,-34.416277],[-58.63665,-34.41653],[-58.636793,-34.416389],[-58.636425,-34.416121]]]}},{"type":"Feature","properties":{"partida":"057139160","cca":"057030X00000000000000027000000000000005000","tipo":"Urbano","sup_m2":965.2},"geometry":{"type":"Polygon","coordinates":[[[-58.63612,-34.416438],[-58.636515,-34.416676],[-58.63665,-34.41653],[-58.636268,-34.416277],[-58.63612,-34.416438]]]}},{"type":"Feature","properties":{"partida":"057139161","cca":"057030X00000000000000027000000000000006000","tipo":"Urbano","sup_m2":965.4},"geometry":{"type":"Polygon","coordinates":[[[-58.63598,-34.416604],[-58.636389,-34.416828],[-58.636515,-34.416676],[-58.63612,-34.416438],[-58.63598,-34.416604]]]}},{"type":"Feature","properties":{"partida":"057139162","cca":"057030X00000000000000027000000000000007000","tipo":"Urbano","sup_m2":965.3},"geometry":{"type":"Polygon","coordinates":[[[-58.63585,-34.416775],[-58.63627,-34.416984],[-58.636389,-34.416828],[-58.63598,-34.416604],[-58.63585,-34.416775]]]}},{"type":"Feature","properties":{"partida":"057139163","cca":"057030X00000000000000027000000000000008000","tipo":"Urbano","sup_m2":965.3},"geometry":{"type":"Polygon","coordinates":[[[-58.63585,-34.416775],[-58.63573,-34.416951],[-58.63616,-34.417144],[-58.63627,-34.416984],[-58.63585,-34.416775]]]}},{"type":"Feature","properties":{"partida":"057139164","cca":"057030X00000000000000027000000000000009000","tipo":"Urbano","sup_m2":979.7},"geometry":{"type":"Polygon","coordinates":[[[-58.63616,-34.417144],[-58.63573,-34.416951],[-58.635618,-34.417112],[-58.636036,-34.417323],[-58.63616,-34.417144]]]}},{"type":"Feature","properties":{"partida":"057139165","cca":"057030X00000000000000027000000000000010000","tipo":"Urbano","sup_m2":992.6},"geometry":{"type":"Polygon","coordinates":[[[-58.635618,-34.417112],[-58.635557,-34.417193],[-58.63554,-34.417226],[-58.635535,-34.41725],[-58.635537,-34.417274],[-58.63555,-34.417309],[-58.635576,-34.417338],[-58.635612,-34.417359],[-58.635639,-34.417368],[-58.635708,-34.417378],[-58.635751,-34.417396],[-58.63578,-34.41742],[-58.635815,-34.417462],[-58.635892,-34.417508],[-58.636036,-34.417323],[-58.635618,-34.417112]]]}}]}