{"type":"FeatureCollection","features":[{"type":"Feature","properties":{"partida":null,"cca":"05702000000000000000000000000000000004900A","tipo":null,"sup_m2":214444.1},"geometry":{"type":"Polygon","coordinates":[[[-58.628905,-34.508263],[-58.630261,-34.509361],[-58.637483,-34.503473],[-58.635631,-34.503431],[-58.631829,-34.503657],[-58.632034,-34.505802],[-58.628722,-34.506072],[-58.628905,-34.508263]]]}},{"type":"Feature","properties":{"partida":null,"cca":"05702000000000000000000000000000000004900B","tipo":null,"sup_m2":175066.0},"geometry":{"type":"Polygon","coordinates":[[[-58.624976,-34.51367],[-58.630261,-34.509361],[-58.628905,-34.508263],[-58.624509,-34.508564],[-58.624814,-34.512145],[-58.624976,-34.51367]]]}},{"type":"Feature","properties":{"partida":null,"cca":"05702000000000000000000000000000000004900C","tipo":null,"sup_m2":120751.5},"geometry":{"type":"Polygon","coordinates":[[[-58.624432,-34.507663],[-58.624509,-34.508564],[-58.628905,-34.508263],[-58.628722,-34.506072],[-58.632034,-34.505802],[-58.631829,-34.503657],[-58.628266,-34.503981],[-58.628624,-34.507401],[-58.624432,-34.507663]]]}},{"type":"Feature","properties":{"partida":"057060807","cca":"05702000000000000000000000000000000005400A","tipo":"Rural","sup_m2":235599.5},"geometry":{"type":"Polygon","coordinates":[[[-58.631813,-34.508286],[-58.635158,-34.51099],[-58.639395,-34.507614],[-58.636075,-34.504811],[-58.631813,-34.508286]]]}},{"type":"Feature","properties":{"partida":"057116501","cca":"05702000000000000000000000000000000005400B","tipo":"Rural","sup_m2":239314.9},"geometry":{"type":"Polygon","coordinates":[[[-58.627443,-34.511849],[-58.630715,-34.514496],[-58.635158,-34.51099],[-58.631813,-34.508286],[-58.627443,-34.511849]]]}},{"type":"Feature","properties":{"partida":"057116502","cca":"05702000000000000000000000000000000005400C","tipo":"Rural","sup_m2":230917.1},"geometry":{"type":"Polygon","coordinates":[[[-58.623209,-34.515301],[-58.626368,-34.518002],[-58.630715,-34.514496],[-58.627443,-34.511849],[-58.623209,-34.515301]]]}}]}