{"type":"FeatureCollection","features":[{"type":"Feature","properties":{"partida":"357005881","cca":"357000100000000000000040000000000000002000","tipo":"Rural","sup_m2":247969.8},"geometry":{"type":"Polygon","coordinates":[[[-58.617453,-34.286714],[-58.614922,-34.28733],[-58.614745,-34.287797],[-58.615358,-34.290606],[-58.615362,-34.290668],[-58.620289,-34.292251],[-58.621326,-34.288219],[-58.617525,-34.286721],[-58.617816,-34.28692],[-58.617828,-34.286963],[-58.617857,-34.287017],[-58.617876,-34.28708],[-58.617891,-34.28714],[-58.617898,-34.287214],[-58.617931,-34.287305],[-58.617975,-34.287377],[-58.618051,-34.287463],[-58.618106,-34.287495],[-58.618155,-34.287512],[-58.618243,-34.287586],[-58.618301,-34.287606],[-58.618324,-34.287623],[-58.618344,-34.287662],[-58.618365,-34.287737],[-58.618376,-34.287801],[-58.618376,-34.287907],[-58.618369,-34.287954],[-58.618371,-34.287985],[-58.618366,-34.288032],[-58.618346,-34.288085],[-58.618308,-34.288168],[-58.618297,-34.2883],[-58.618301,-34.28832],[-58.618302,-34.288358],[-58.618369,-34.288457],[-58.618395,-34.28853],[-58.618477,-34.288653],[-58.618524,-34.288705],[-58.618591,-34.288806],[-58.618651,-34.288884],[-58.618681,-34.288912],[-58.61871,-34.288946],[-58.618759,-34.289031],[-58.618781,-34.289086],[-58.6188,-34.289122],[-58.618797,-34.289157],[-58.618804,-34.289235],[-58.618792,-34.289398],[-58.618775,-34.289439],[-58.618747,-34.289534],[-58.618734,-34.289567],[-58.618707,-34.289678],[-58.618675,-34.289753],[-58.618676,-34.289796],[-58.618696,-34.28989],[-58.618733,-34.289993],[-58.618828,-34.290127],[-58.618873,-34.29017],[-58.618914,-34.290203],[-58.618958,-34.290233],[-58.619148,-34.290274],[-58.619313,-34.29033],[-58.619371,-34.290347],[-58.619375,-34.290356],[-58.619347,-34.290354],[-58.619246,-34.29032],[-58.619202,-34.290298],[-58.619052,-34.290263],[-58.618985,-34.290253],[-58.618855,-34.29022],[-58.618805,-34.290201],[-58.618772,-34.290182],[-58.618739,-34.290155],[-58.618714,-34.29014],[-58.618658,-34.29006],[-58.618615,-34.289954],[-58.618595,-34.289852],[-58.618591,-34.289793],[-58.618594,-34.28974],[-58.618607,-34.289673],[-58.618603,-34.289644],[-58.618612,-34.289612],[-58.618645,-34.289523],[-58.618652,-34.289487],[-58.618654,-34.289427],[-58.618648,-34.289239],[-58.618634,-34.289186],[-58.618615,-34.289143],[-58.618538,-34.289023],[-58.618492,-34.288933],[-58.618447,-34.288881],[-58.618391,-34.288791],[-58.618331,-34.288707],[-58.618257,-34.288591],[-58.618216,-34.288507],[-58.618188,-34.288418],[-58.618183,-34.288307],[-58.61819,-34.288184],[-58.618188,-34.288122],[-58.6182,-34.288028],[-58.618209,-34.287999],[-58.618228,-34.287968],[-58.618243,-34.287764],[-58.618208,-34.287683],[-58.618186,-34.287648],[-58.61816,-34.287631],[-58.618065,-34.287583],[-58.618034,-34.287561],[-58.617996,-34.28754],[-58.617946,-34.287489],[-58.617903,-34.287438],[-58.617871,-34.287405],[-58.617802,-34.287279],[-58.617782,-34.287251],[-58.617779,-34.287225],[-58.617768,-34.287188],[-58.617751,-34.287147],[-58.617735,-34.287117],[-58.617693,-34.286982],[-58.617671,-34.286925],[-58.617652,-34.286888],[-58.617549,-34.286752],[-58.617453,-34.286714]]]}},{"type":"Feature","properties":{"partida":"357005925","cca":"357000100000000000000040100000000000043000","tipo":"Rural","sup_m2":370225.8},"geometry":{"type":"Polygon","coordinates":[[[-58.615486,-34.292513],[-58.61404,-34.292493],[-58.61349,-34.292344],[-58.612926,-34.291395],[-58.612692,-34.290423],[-58.612712,-34.289755],[-58.612732,-34.289382],[-58.612223,-34.288342],[-58.612328,-34.287713],[-58.607263,-34.289669],[-58.608515,-34.292653],[-58.60941,-34.294449],[-58.609729,-34.295412],[-58.609782,-34.295589],[-58.615399,-34.294628],[-58.615347,-34.294437],[-58.615497,-34.292664],[-58.615486,-34.292513]]]}},{"type":"Feature","properties":{"partida":"357006005","cca":"357000100000000000000040100B00000000116000","tipo":"Urbano","sup_m2":4882.4},"geometry":{"type":"Polygon","coordinates":[[[-58.608388,-34.289234],[-58.608336,-34.288965],[-58.607361,-34.288934],[-58.607391,-34.289619],[-58.608388,-34.289234]]]}},{"type":"Feature","properties":{"partida":"357006155","cca":"357000100000000000000040200000000000036000","tipo":"Rural","sup_m2":85108.7},"geometry":{"type":"Polygon","coordinates":[[[-58.60569,-34.287731],[-58.601219,-34.2907],[-58.601149,-34.291968],[-58.60109,-34.292463],[-58.606581,-34.288815],[-58.60569,-34.287731]]]}},{"type":"Feature","properties":{"partida":"357006156","cca":"357000100000000000000040200000000000037000","tipo":"Rural","sup_m2":122542.7},"geometry":{"type":"Polygon","coordinates":[[[-58.607263,-34.289669],[-58.607235,-34.289612],[-58.606581,-34.288815],[-58.60109,-34.292463],[-58.601274,-34.292823],[-58.601417,-34.293405],[-58.60262,-34.293843],[-58.603445,-34.293763],[-58.607263,-34.289669]]]}},{"type":"Feature","properties":{"partida":null,"cca":"357000100000000000000040200000000000038000","tipo":null,"sup_m2":12174.3},"geometry":{"type":"Polygon","coordinates":[[[-58.60262,-34.293843],[-58.601417,-34.293405],[-58.601439,-34.29445],[-58.601475,-34.294677],[-58.601528,-34.294934],[-58.601727,-34.294974],[-58.601851,-34.294929],[-58.602015,-34.294887],[-58.60262,-34.293843]]]}},{"type":"Feature","properties":{"partida":"357006182","cca":"357000100000000000000040400000000000001000","tipo":"Rural","sup_m2":47592.2},"geometry":{"type":"Polygon","coordinates":[[[-58.625487,-34.290934],[-58.625678,-34.290432],[-58.625746,-34.290008],[-58.62112,-34.289019],[-58.62087,-34.289992],[-58.625487,-34.290934]]]}},{"type":"Feature","properties":{"partida":"357006183","cca":"357000100000000000000040400000000000002000","tipo":"Rural","sup_m2":46743.0},"geometry":{"type":"Polygon","coordinates":[[[-58.620607,-34.291013],[-58.62502,-34.291793],[-58.625404,-34.291153],[-58.625487,-34.290934],[-58.62087,-34.289992],[-58.620607,-34.291013]]]}},{"type":"Feature","properties":{"partida":"357006184","cca":"35700010000000000000004040000000000000300A","tipo":"Rural","sup_m2":27231.2},"geometry":{"type":"Polygon","coordinates":[[[-58.625071,-34.292311],[-58.62502,-34.291793],[-58.620607,-34.291013],[-58.620442,-34.291656],[-58.625071,-34.292311]]]}},{"type":"Feature","properties":{"partida":"357019843","cca":"35700010000000000000004040000000000000300B","tipo":"Rural","sup_m2":32038.9},"geometry":{"type":"Polygon","coordinates":[[[-58.620289,-34.292251],[-58.62175,-34.29272],[-58.625119,-34.292686],[-58.625089,-34.292491],[-58.625071,-34.292311],[-58.620442,-34.291656],[-58.620289,-34.292251]]]}},{"type":"Feature","properties":{"partida":"357006186","cca":"35700010000000000000004050000000000000100B","tipo":"Rural","sup_m2":166225.0},"geometry":{"type":"Polygon","coordinates":[[[-58.625169,-34.293015],[-58.624276,-34.293042],[-58.624155,-34.292696],[-58.62175,-34.29272],[-58.615362,-34.290668],[-58.615497,-34.292664],[-58.615347,-34.294437],[-58.61539,-34.294594],[-58.616267,-34.294242],[-58.616789,-34.293865],[-58.616892,-34.293768],[-58.61708,-34.293558],[-58.61727,-34.293441],[-58.617531,-34.29343],[-58.618397,-34.293453],[-58.618919,-34.293361],[-58.619317,-34.293098],[-58.61951,-34.293121],[-58.619881,-34.293372],[-58.620293,-34.293247],[-58.62065,-34.293029],[-58.620924,-34.293005],[-58.621049,-34.293052],[-58.62131,-34.293269],[-58.621489,-34.293464],[-58.621833,-34.293486],[-58.62241,-34.293395],[-58.622552,-34.293421],[-58.622809,-34.293578],[-58.623032,-34.293869],[-58.623043,-34.294024],[-58.622959,-34.294403],[-58.623111,-34.294344],[-58.623593,-34.294492],[-58.624211,-34.294549],[-58.624637,-34.294698],[-58.625228,-34.294572],[-58.625255,-34.294275],[-58.625172,-34.293772],[-58.6252,-34.293211],[-58.625169,-34.293015]]]}},{"type":"Feature","properties":{"partida":"357006187","cca":"357000100000000000000040600000000000000000","tipo":"Rural","sup_m2":156663.5},"geometry":{"type":"Polygon","coordinates":[[[-58.603565,-34.298117],[-58.60369,-34.298057],[-58.604043,-34.29765],[-58.604189,-34.297382],[-58.604189,-34.296841],[-58.603991,-34.296332],[-58.604174,-34.295878],[-58.604301,-34.295596],[-58.604041,-34.295202],[-58.60405,-34.295009],[-58.604032,-34.294347],[-58.605039,-34.29358],[-58.607307,-34.294266],[-58.609182,-34.29399],[-58.608515,-34.292653],[-58.607263,-34.289669],[-58.603445,-34.293763],[-58.603455,-34.29796],[-58.603565,-34.298117]]]}},{"type":"Feature","properties":{"partida":"357006188","cca":"357000100000000000000040700000000000000000","tipo":"Rural","sup_m2":82894.9},"geometry":{"type":"Polygon","coordinates":[[[-58.603445,-34.293763],[-58.60262,-34.293843],[-58.602015,-34.294887],[-58.601851,-34.294929],[-58.601727,-34.294974],[-58.601528,-34.294934],[-58.601475,-34.294677],[-58.601477,-34.294875],[-58.601363,-34.296176],[-58.601351,-34.296906],[-58.601373,-34.297112],[-58.601409,-34.297265],[-58.601621,-34.298461],[-58.603565,-34.298117],[-58.603455,-34.29796],[-58.603445,-34.293763]]]}},{"type":"Feature","properties":{"partida":"357006201","cca":"357000100000000000000041000000000000001000","tipo":"Rural","sup_m2":125013.6},"geometry":{"type":"Polygon","coordinates":[[[-58.622959,-34.294403],[-58.623043,-34.294024],[-58.623032,-34.293869],[-58.622809,-34.293578],[-58.622552,-34.293421],[-58.62241,-34.293395],[-58.621833,-34.293486],[-58.621489,-34.293464],[-58.62131,-34.293269],[-58.621049,-34.293052],[-58.620924,-34.293005],[-58.62065,-34.293029],[-58.620293,-34.293247],[-58.619881,-34.293372],[-58.61951,-34.293121],[-58.619317,-34.293098],[-58.618919,-34.293361],[-58.618397,-34.293453],[-58.617531,-34.29343],[-58.61727,-34.293441],[-58.61708,-34.293558],[-58.616892,-34.293768],[-58.616789,-34.293865],[-58.616267,-34.294242],[-58.61539,-34.294594],[-58.615594,-34.295329],[-58.621985,-34.295116],[-58.622068,-34.294984],[-58.622342,-34.294641],[-58.622959,-34.294403]]]}},{"type":"Feature","properties":{"partida":"357006202","cca":"357000100000000000000041000000000000002000","tipo":"Rural","sup_m2":72019.4},"geometry":{"type":"Polygon","coordinates":[[[-58.615786,-34.296025],[-58.615923,-34.29659],[-58.621645,-34.29617],[-58.621925,-34.295588],[-58.621985,-34.295116],[-58.615594,-34.295329],[-58.615786,-34.296025]]]}},{"type":"Feature","properties":{"partida":"357006203","cca":"357000100000000000000041000000000000003000","tipo":"Rural","sup_m2":67375.6},"geometry":{"type":"Polygon","coordinates":[[[-58.615942,-34.296729],[-58.616144,-34.297337],[-58.622241,-34.297679],[-58.621722,-34.296687],[-58.621645,-34.29617],[-58.615923,-34.29659],[-58.615942,-34.296729]]]}},{"type":"Feature","properties":{"partida":"357006204","cca":"357000100000000000000041000000000000004000","tipo":"Rural","sup_m2":45263.6},"geometry":{"type":"Polygon","coordinates":[[[-58.622616,-34.298302],[-58.622241,-34.297679],[-58.616144,-34.297337],[-58.616381,-34.298174],[-58.622616,-34.298302]]]}},{"type":"Feature","properties":{"partida":"357006205","cca":"357000100000000000000041000000000000005000","tipo":"Rural","sup_m2":48413.6},"geometry":{"type":"Polygon","coordinates":[[[-58.622616,-34.298302],[-58.616381,-34.298174],[-58.616394,-34.298221],[-58.616507,-34.298848],[-58.623348,-34.299118],[-58.623053,-34.298884],[-58.622967,-34.298755],[-58.622917,-34.298757],[-58.622846,-34.298782],[-58.622852,-34.298645],[-58.622616,-34.298302]]]}},{"type":"Feature","properties":{"partida":"357006206","cca":"357000100000000000000041000000000000006000","tipo":"Rural","sup_m2":43214.4},"geometry":{"type":"Polygon","coordinates":[[[-58.616554,-34.299111],[-58.62146,-34.299853],[-58.623397,-34.299976],[-58.623383,-34.29934],[-58.623348,-34.299118],[-58.616507,-34.298848],[-58.616554,-34.299111]]]}},{"type":"Feature","properties":{"partida":"357018148","cca":"35700010000000000000004100000000000000700A","tipo":"Urbano","sup_m2":6229.9},"geometry":{"type":"Polygon","coordinates":[[[-58.623359,-34.300317],[-58.623397,-34.299976],[-58.62146,-34.299853],[-58.621432,-34.300138],[-58.623359,-34.300317]]]}},{"type":"Feature","properties":{"partida":"357006207","cca":"35700010000000000000004100000000000000700B","tipo":"Rural","sup_m2":28601.6},"geometry":{"type":"Polygon","coordinates":[[[-58.62146,-34.299853],[-58.616554,-34.299111],[-58.616611,-34.299426],[-58.623426,-34.300801],[-58.623359,-34.300317],[-58.621432,-34.300138],[-58.62146,-34.299853]]]}},{"type":"Feature","properties":{"partida":"357006208","cca":"35700010000000000000004100000000000000800A","tipo":"Rural","sup_m2":20783.4},"geometry":{"type":"Polygon","coordinates":[[[-58.616659,-34.299673],[-58.623335,-34.30115],[-58.623356,-34.300947],[-58.623426,-34.300801],[-58.616611,-34.299426],[-58.616659,-34.299673]]]}},{"type":"Feature","properties":{"partida":"357006209","cca":"35700010000000000000004100000000000000800B","tipo":"Rural","sup_m2":14832.1},"geometry":{"type":"Polygon","coordinates":[[[-58.623297,-34.301336],[-58.623335,-34.30115],[-58.616659,-34.299673],[-58.616699,-34.299916],[-58.62314,-34.301311],[-58.623297,-34.301336]]]}},{"type":"Feature","properties":{"partida":"357006210","cca":"35700010000000000000004100000000000000800C","tipo":"Rural","sup_m2":25613.4},"geometry":{"type":"Polygon","coordinates":[[[-58.623297,-34.301336],[-58.62314,-34.301311],[-58.616699,-34.299916],[-58.616781,-34.300262],[-58.623186,-34.301764],[-58.623297,-34.301336]]]}},{"type":"Feature","properties":{"partida":"357006211","cca":"357000100000000000000041000000000000009000","tipo":"Rural","sup_m2":45818.9},"geometry":{"type":"Polygon","coordinates":[[[-58.616781,-34.300262],[-58.616851,-34.300838],[-58.6173,-34.30095],[-58.622921,-34.302593],[-58.623186,-34.301764],[-58.616781,-34.300262]]]}},{"type":"Feature","properties":{"partida":"357006212","cca":"357000100000000000000041100000000000001000","tipo":"Rural","sup_m2":77507.8},"geometry":{"type":"Polygon","coordinates":[[[-58.609782,-34.295589],[-58.609933,-34.296267],[-58.610208,-34.296758],[-58.615786,-34.296025],[-58.615399,-34.294628],[-58.609782,-34.295589]]]}},{"type":"Feature","properties":{"partida":"357006213","cca":"357000100000000000000041100000000000002000","tipo":"Rural","sup_m2":47299.7},"geometry":{"type":"Polygon","coordinates":[[[-58.615923,-34.29659],[-58.615786,-34.296025],[-58.610208,-34.296758],[-58.610181,-34.297667],[-58.615942,-34.296729],[-58.615923,-34.29659]]]}},{"type":"Feature","properties":{"partida":"357006214","cca":"357000100000000000000041100000000000003000","tipo":"Rural","sup_m2":44563.7},"geometry":{"type":"Polygon","coordinates":[[[-58.610146,-34.298516],[-58.616144,-34.297337],[-58.615942,-34.296729],[-58.610181,-34.297667],[-58.610195,-34.297776],[-58.610146,-34.298516]]]}},{"type":"Feature","properties":{"partida":"357006215","cca":"357000100000000000000041100000000000004000","tipo":"Rural","sup_m2":55994.7},"geometry":{"type":"Polygon","coordinates":[[[-58.610146,-34.298516],[-58.610168,-34.29884],[-58.610291,-34.299147],[-58.616432,-34.298436],[-58.616394,-34.298221],[-58.616144,-34.297337],[-58.610146,-34.298516]]]}},{"type":"Feature","properties":{"partida":"357006216","cca":"357000100000000000000041100000000000005000","tipo":"Rural","sup_m2":42615.7},"geometry":{"type":"Polygon","coordinates":[[[-58.610555,-34.299902],[-58.616539,-34.299015],[-58.616432,-34.298436],[-58.610291,-34.299147],[-58.610347,-34.299286],[-58.610518,-34.299619],[-58.610555,-34.299902]]]}},{"type":"Feature","properties":{"partida":null,"cca":"357000100000000000000041100000000000006000","tipo":null,"sup_m2":50156.8},"geometry":{"type":"Polygon","coordinates":[[[-58.610555,-34.299902],[-58.610652,-34.300254],[-58.610733,-34.300601],[-58.616699,-34.299916],[-58.616659,-34.299673],[-58.616611,-34.299426],[-58.616539,-34.299015],[-58.610555,-34.299902]]]}},{"type":"Feature","properties":{"partida":"357006218","cca":"357000100000000000000041100000000000007000","tipo":"Rural","sup_m2":51663.0},"geometry":{"type":"Polygon","coordinates":[[[-58.616781,-34.300262],[-58.616699,-34.299916],[-58.610733,-34.300601],[-58.610705,-34.300932],[-58.610737,-34.30124],[-58.610715,-34.301439],[-58.61684,-34.300733],[-58.616781,-34.300262]]]}},{"type":"Feature","properties":{"partida":"357006219","cca":"357000100000000000000041100000000000008000","tipo":"Rural","sup_m2":213775.5},"geometry":{"type":"Polygon","coordinates":[[[-58.616851,-34.300838],[-58.61684,-34.300733],[-58.610715,-34.301439],[-58.610702,-34.301707],[-58.610777,-34.302159],[-58.611102,-34.302607],[-58.611421,-34.303359],[-58.612323,-34.304386],[-58.612707,-34.30484],[-58.617382,-34.304707],[-58.617126,-34.304248],[-58.616851,-34.300838]]]}},{"type":"Feature","properties":{"partida":"357006220","cca":"357000100000000000000041200000000000000000","tipo":"Rural","sup_m2":306362.6},"geometry":{"type":"Polygon","coordinates":[[[-58.607549,-34.304275],[-58.607338,-34.304852],[-58.607041,-34.30557],[-58.607012,-34.305969],[-58.611421,-34.303359],[-58.611102,-34.302607],[-58.610777,-34.302159],[-58.610702,-34.301707],[-58.610715,-34.301439],[-58.610737,-34.30124],[-58.610705,-34.300932],[-58.610733,-34.300601],[-58.610652,-34.300254],[-58.610555,-34.299902],[-58.610518,-34.299619],[-58.610347,-34.299286],[-58.610168,-34.29884],[-58.610146,-34.298516],[-58.610195,-34.297776],[-58.610181,-34.297667],[-58.610208,-34.296758],[-58.609933,-34.296267],[-58.609782,-34.295589],[-58.609729,-34.295412],[-58.60941,-34.294449],[-58.609182,-34.29399],[-58.607307,-34.294266],[-58.607137,-34.294214],[-58.607638,-34.296541],[-58.607749,-34.29876],[-58.607709,-34.301047],[-58.607662,-34.301426],[-58.607576,-34.303026],[-58.607549,-34.304275]]]}},{"type":"Feature","properties":{"partida":null,"cca":"357000100000000000000041300000000000000000","tipo":null,"sup_m2":282723.7},"geometry":{"type":"Polygon","coordinates":[[[-58.603122,-34.300035],[-58.604642,-34.300517],[-58.606728,-34.300941],[-58.607662,-34.301426],[-58.607709,-34.301047],[-58.607749,-34.29876],[-58.607638,-34.296541],[-58.607137,-34.294214],[-58.605039,-34.29358],[-58.604032,-34.294347],[-58.60405,-34.295009],[-58.604041,-34.295202],[-58.604301,-34.295596],[-58.604174,-34.295878],[-58.603991,-34.296332],[-58.604189,-34.296841],[-58.604189,-34.297382],[-58.604043,-34.29765],[-58.60369,-34.298057],[-58.603565,-34.298117],[-58.601621,-34.298461],[-58.601663,-34.298749],[-58.602167,-34.299255],[-58.603122,-34.300035]]]}},{"type":"Feature","properties":{"partida":"357006223","cca":"357000100000000000000041400000000000002000","tipo":"Rural","sup_m2":69764.6},"geometry":{"type":"Polygon","coordinates":[[[-58.601409,-34.297265],[-58.600226,-34.297069],[-58.600044,-34.297021],[-58.600002,-34.2972],[-58.599959,-34.297265],[-58.599881,-34.29736],[-58.599888,-34.297465],[-58.599842,-34.297558],[-58.59984,-34.297678],[-58.599759,-34.297763],[-58.599821,-34.29783],[-58.599819,-34.297997],[-58.599794,-34.298035],[-58.599795,-34.298108],[-58.5998,-34.298189],[-58.599811,-34.298248],[-58.599823,-34.298355],[-58.599762,-34.298442],[-58.599882,-34.298598],[-58.600264,-34.29906],[-58.6003,-34.299354],[-58.600583,-34.300255],[-58.600895,-34.300525],[-58.601104,-34.300648],[-58.601701,-34.301122],[-58.603122,-34.300035],[-58.602167,-34.299255],[-58.601663,-34.298749],[-58.601621,-34.298461],[-58.601409,-34.297265]]]}},{"type":"Feature","properties":{"partida":"357019768","cca":"357000100000000000000041400000000000025000","tipo":"Urbano","sup_m2":2249.3},"geometry":{"type":"Polygon","coordinates":[[[-58.601351,-34.296906],[-58.600141,-34.296706],[-58.600105,-34.296852],[-58.601373,-34.297112],[-58.601351,-34.296906]]]}},{"type":"Feature","properties":{"partida":"357006224","cca":"357000100000000000000041500000000000000000","tipo":"Rural","sup_m2":104771.0},"geometry":{"type":"Polygon","coordinates":[[[-58.601681,-34.302043],[-58.601889,-34.302043],[-58.602088,-34.30203],[-58.602219,-34.301968],[-58.602424,-34.301734],[-58.602597,-34.301653],[-58.602865,-34.301705],[-58.603408,-34.301893],[-58.604535,-34.302408],[-58.605596,-34.302728],[-58.606143,-34.302831],[-58.607576,-34.303026],[-58.607662,-34.301426],[-58.606728,-34.300941],[-58.604642,-34.300517],[-58.603122,-34.300035],[-58.601701,-34.301122],[-58.601879,-34.30152],[-58.601857,-34.301577],[-58.601808,-34.301651],[-58.601757,-34.301746],[-58.601791,-34.301833],[-58.601789,-34.301964],[-58.601681,-34.302043]]]}},{"type":"Feature","properties":{"partida":"357006225","cca":"357000100000000000000041600000000000000000","tipo":"Rural","sup_m2":103597.9},"geometry":{"type":"Polygon","coordinates":[[[-58.601681,-34.302043],[-58.60118,-34.302502],[-58.60114,-34.302614],[-58.601018,-34.302609],[-58.600964,-34.302678],[-58.600864,-34.302734],[-58.600849,-34.3028],[-58.600792,-34.302854],[-58.600751,-34.302933],[-58.600776,-34.303027],[-58.600683,-34.303254],[-58.600502,-34.303372],[-58.600336,-34.303659],[-58.600756,-34.303971],[-58.601377,-34.304108],[-58.601736,-34.304013],[-58.602222,-34.30371],[-58.602622,-34.303582],[-58.602988,-34.30356],[-58.603597,-34.303556],[-58.604121,-34.303652],[-58.605982,-34.303955],[-58.607549,-34.304275],[-58.607576,-34.303026],[-58.606143,-34.302831],[-58.605596,-34.302728],[-58.604535,-34.302408],[-58.603408,-34.301893],[-58.602865,-34.301705],[-58.602597,-34.301653],[-58.602424,-34.301734],[-58.602219,-34.301968],[-58.602088,-34.30203],[-58.601889,-34.302043],[-58.601681,-34.302043]]]}},{"type":"Feature","properties":{"partida":"357006234","cca":"357000100000000000000041800A00000000010000","tipo":"Urbano","sup_m2":4328.2},"geometry":{"type":"Polygon","coordinates":[[[-58.622261,-34.297263],[-58.62318,-34.296852],[-58.623093,-34.296718],[-58.622667,-34.296676],[-58.622029,-34.296647],[-58.622031,-34.296671],[-58.622112,-34.296701],[-58.622143,-34.296726],[-58.622139,-34.296745],[-58.622093,-34.296774],[-58.622061,-34.296818],[-58.62212,-34.2971],[-58.622261,-34.297263]]]}},{"type":"Feature","properties":{"partida":"357006244","cca":"357000100000000000000041800A00000000011000","tipo":"Urbano","sup_m2":2112.4},"geometry":{"type":"Polygon","coordinates":[[[-58.6233,-34.297041],[-58.62318,-34.296852],[-58.622261,-34.297263],[-58.622327,-34.297429],[-58.623006,-34.297162],[-58.6233,-34.297041]]]}},{"type":"Feature","properties":{"partida":"357006245","cca":"357000100000000000000041800A00000000012000","tipo":"Urbano","sup_m2":2228.8},"geometry":{"type":"Polygon","coordinates":[[[-58.622327,-34.297429],[-58.622401,-34.297624],[-58.623411,-34.297216],[-58.6233,-34.297041],[-58.623006,-34.297162],[-58.622327,-34.297429]]]}},{"type":"Feature","properties":{"partida":"357006246","cca":"357000100000000000000041800A00000000013000","tipo":"Urbano","sup_m2":2114.4},"geometry":{"type":"Polygon","coordinates":[[[-58.62352,-34.297384],[-58.623411,-34.297216],[-58.622401,-34.297624],[-58.622581,-34.297763],[-58.62352,-34.297384]]]}},{"type":"Feature","properties":{"partida":"357006311","cca":"357000100000000000000041900000000000000000","tipo":"Rural","sup_m2":187325.8},"geometry":{"type":"Polygon","coordinates":[[[-58.616851,-34.300838],[-58.617126,-34.304248],[-58.617382,-34.304707],[-58.622067,-34.305523],[-58.621902,-34.305167],[-58.622117,-34.304378],[-58.622333,-34.303753],[-58.622921,-34.302593],[-58.6173,-34.30095],[-58.616851,-34.300838]]]}},{"type":"Feature","properties":{"partida":"357006312","cca":"357000100000000000000042000000000000000000","tipo":"Rural","sup_m2":107402.5},"geometry":{"type":"Polygon","coordinates":[[[-58.612909,-34.305168],[-58.612707,-34.30484],[-58.612323,-34.304386],[-58.611421,-34.303359],[-58.607012,-34.305969],[-58.606844,-34.306744],[-58.606771,-34.307546],[-58.612597,-34.305264],[-58.612909,-34.305168]]]}},{"type":"Feature","properties":{"partida":"357006313","cca":"357000100000000000000042100000000000000000","tipo":"Rural","sup_m2":113833.1},"geometry":{"type":"Polygon","coordinates":[[[-58.600015,-34.305658],[-58.600036,-34.305839],[-58.600332,-34.307142],[-58.600456,-34.307778],[-58.606844,-34.306744],[-58.607012,-34.305969],[-58.607041,-34.30557],[-58.600015,-34.305658]]]}},{"type":"Feature","properties":{"partida":"357006326","cca":"357000100000000000000042400A00000000001000","tipo":"Rural","sup_m2":8405.6},"geometry":{"type":"Polygon","coordinates":[[[-58.621588,-34.30616],[-58.621607,-34.30614],[-58.621638,-34.306136],[-58.621685,-34.306147],[-58.621739,-34.306152],[-58.621777,-34.306128],[-58.621787,-34.306083],[-58.621762,-34.306066],[-58.621805,-34.306048],[-58.621852,-34.306042],[-58.621921,-34.306005],[-58.622007,-34.305917],[-58.622067,-34.305523],[-58.620563,-34.305261],[-58.620475,-34.305561],[-58.621588,-34.30616]]]}},{"type":"Feature","properties":{"partida":"357006327","cca":"357000100000000000000042400A00000000002000","tipo":"Urbano","sup_m2":3543.2},"geometry":{"type":"Polygon","coordinates":[[[-58.620186,-34.306388],[-58.620475,-34.305561],[-58.620563,-34.305261],[-58.620252,-34.305207],[-58.619928,-34.306341],[-58.620186,-34.306388]]]}},{"type":"Feature","properties":{"partida":"357006328","cca":"357000100000000000000042400A00000000003000","tipo":"Urbano","sup_m2":2880.0},"geometry":{"type":"Polygon","coordinates":[[[-58.620014,-34.305165],[-58.619692,-34.306298],[-58.619928,-34.306341],[-58.620252,-34.305207],[-58.620014,-34.305165]]]}},{"type":"Feature","properties":{"partida":"357006329","cca":"357000100000000000000042400A00000000004000","tipo":"Urbano","sup_m2":2558.2},"geometry":{"type":"Polygon","coordinates":[[[-58.619802,-34.305129],[-58.619483,-34.30626],[-58.619692,-34.306298],[-58.620014,-34.305165],[-58.619802,-34.305129]]]}},{"type":"Feature","properties":{"partida":"357006330","cca":"357000100000000000000042400A00000000005000","tipo":"Urbano","sup_m2":2542.8},"geometry":{"type":"Polygon","coordinates":[[[-58.619591,-34.305092],[-58.619275,-34.306222],[-58.619483,-34.30626],[-58.619802,-34.305129],[-58.619591,-34.305092]]]}},{"type":"Feature","properties":{"partida":"357006331","cca":"357000100000000000000042400A00000000006000","tipo":"Urbano","sup_m2":2643.2},"geometry":{"type":"Polygon","coordinates":[[[-58.619372,-34.305054],[-58.619057,-34.306182],[-58.619275,-34.306222],[-58.619591,-34.305092],[-58.619372,-34.305054]]]}},{"type":"Feature","properties":{"partida":"357006332","cca":"357000100000000000000042400A00000000007000","tipo":"Urbano","sup_m2":2579.6},"geometry":{"type":"Polygon","coordinates":[[[-58.61916,-34.305017],[-58.618842,-34.306142],[-58.619057,-34.306182],[-58.619372,-34.305054],[-58.61916,-34.305017]]]}},{"type":"Feature","properties":{"partida":"357006333","cca":"357000100000000000000042400A00000000008000","tipo":"Urbano","sup_m2":2564.1},"geometry":{"type":"Polygon","coordinates":[[[-58.618629,-34.306103],[-58.618842,-34.306142],[-58.61916,-34.305017],[-58.618948,-34.30498],[-58.618629,-34.306103]]]}},{"type":"Feature","properties":{"partida":"357006334","cca":"357000100000000000000042400A00000000009000","tipo":"Urbano","sup_m2":2509.3},"geometry":{"type":"Polygon","coordinates":[[[-58.618422,-34.306065],[-58.618629,-34.306103],[-58.618948,-34.30498],[-58.618739,-34.304943],[-58.618422,-34.306065]]]}},{"type":"Feature","properties":{"partida":"357006335","cca":"357000100000000000000042400A00000000010000","tipo":"Urbano","sup_m2":2691.4},"geometry":{"type":"Polygon","coordinates":[[[-58.618514,-34.304904],[-58.618199,-34.306024],[-58.618422,-34.306065],[-58.618739,-34.304943],[-58.618514,-34.304904]]]}},{"type":"Feature","properties":{"partida":"357006336","cca":"357000100000000000000042400A00000000011000","tipo":"Urbano","sup_m2":2596.5},"geometry":{"type":"Polygon","coordinates":[[[-58.618299,-34.304866],[-58.617982,-34.305985],[-58.618199,-34.306024],[-58.618514,-34.304904],[-58.618299,-34.304866]]]}},{"type":"Feature","properties":{"partida":"357006337","cca":"357000100000000000000042400A00000000012000","tipo":"Urbano","sup_m2":2928.5},"geometry":{"type":"Polygon","coordinates":[[[-58.617738,-34.30594],[-58.617982,-34.305985],[-58.618299,-34.304866],[-58.618055,-34.304824],[-58.617738,-34.30594]]]}},{"type":"Feature","properties":{"partida":"357006338","cca":"357000100000000000000042400A00000000013000","tipo":"Urbano","sup_m2":6063.0},"geometry":{"type":"Polygon","coordinates":[[[-58.618055,-34.304824],[-58.617382,-34.304707],[-58.617396,-34.305877],[-58.617738,-34.30594],[-58.618055,-34.304824]]]}},{"type":"Feature","properties":{"partida":"357006339","cca":"357000100000000000000042400A00000000014000","tipo":"Urbano","sup_m2":1875.7},"geometry":{"type":"Polygon","coordinates":[[[-58.621233,-34.306393],[-58.62025,-34.306205],[-58.620186,-34.306388],[-58.621082,-34.306559],[-58.621233,-34.306393]]]}},{"type":"Feature","properties":{"partida":"357006340","cca":"357000100000000000000042400A00000000015000","tipo":"Urbano","sup_m2":2111.8},"geometry":{"type":"Polygon","coordinates":[[[-58.62149,-34.306265],[-58.620319,-34.306008],[-58.62025,-34.306205],[-58.621233,-34.306393],[-58.621261,-34.306337],[-58.621291,-34.30631],[-58.621342,-34.306311],[-58.621381,-34.306325],[-58.621411,-34.306326],[-58.621404,-34.306305],[-58.621415,-34.306288],[-58.62149,-34.306265]]]}},{"type":"Feature","properties":{"partida":"357006341","cca":"357000100000000000000042400A00000000016000","tipo":"Urbano","sup_m2":3784.6},"geometry":{"type":"Polygon","coordinates":[[[-58.62149,-34.306265],[-58.621554,-34.306221],[-58.621588,-34.30616],[-58.620475,-34.305561],[-58.620319,-34.306008],[-58.62149,-34.306265]]]}},{"type":"Feature","properties":{"partida":"357006342","cca":"357000100000000000000042400B00000000001000","tipo":"Urbano","sup_m2":2380.7},"geometry":{"type":"Polygon","coordinates":[[[-58.62099,-34.30677],[-58.621016,-34.306621],[-58.619691,-34.306394],[-58.619654,-34.306585],[-58.62099,-34.30677]]]}},{"type":"Feature","properties":{"partida":"357006343","cca":"357000100000000000000042400B00000000002000","tipo":"Urbano","sup_m2":1198.0},"geometry":{"type":"Polygon","coordinates":[[[-58.619576,-34.306983],[-58.619691,-34.306394],[-58.6195,-34.306361],[-58.619384,-34.306957],[-58.619576,-34.306983]]]}},{"type":"Feature","properties":{"partida":"357006344","cca":"357000100000000000000042400B00000000003000","tipo":"Urbano","sup_m2":1202.8},"geometry":{"type":"Polygon","coordinates":[[[-58.619193,-34.306931],[-58.619384,-34.306957],[-58.6195,-34.306361],[-58.619309,-34.306328],[-58.619193,-34.306931]]]}},{"type":"Feature","properties":{"partida":"357006345","cca":"357000100000000000000042400B00000000004000","tipo":"Urbano","sup_m2":1234.0},"geometry":{"type":"Polygon","coordinates":[[[-58.619193,-34.306931],[-58.619309,-34.306328],[-58.619117,-34.306295],[-58.618999,-34.306905],[-58.619193,-34.306931]]]}},{"type":"Feature","properties":{"partida":"357006346","cca":"357000100000000000000042400B00000000005000","tipo":"Urbano","sup_m2":1247.9},"geometry":{"type":"Polygon","coordinates":[[[-58.618804,-34.306878],[-58.618999,-34.306905],[-58.619117,-34.306295],[-58.618925,-34.306262],[-58.618804,-34.306878]]]}},{"type":"Feature","properties":{"partida":"357006347","cca":"357000100000000000000042400B00000000006000","tipo":"Urbano","sup_m2":1231.8},"geometry":{"type":"Polygon","coordinates":[[[-58.618804,-34.306878],[-58.618925,-34.306262],[-58.618738,-34.30623],[-58.618613,-34.306852],[-58.618804,-34.306878]]]}},{"type":"Feature","properties":{"partida":"357006348","cca":"357000100000000000000042400B00000000007000","tipo":"Urbano","sup_m2":1300.1},"geometry":{"type":"Polygon","coordinates":[[[-58.618416,-34.306826],[-58.618613,-34.306852],[-58.618738,-34.30623],[-58.61854,-34.306196],[-58.618416,-34.306826]]]}},{"type":"Feature","properties":{"partida":"357006349","cca":"357000100000000000000042400B00000000008000","tipo":"Urbano","sup_m2":1272.5},"geometry":{"type":"Polygon","coordinates":[[[-58.618416,-34.306826],[-58.61854,-34.306196],[-58.61835,-34.306163],[-58.618224,-34.306799],[-58.618416,-34.306826]]]}},{"type":"Feature","properties":{"partida":"357006350","cca":"357000100000000000000042400B00000000009000","tipo":"Urbano","sup_m2":1284.4},"geometry":{"type":"Polygon","coordinates":[[[-58.618224,-34.306799],[-58.61835,-34.306163],[-58.61816,-34.306131],[-58.618033,-34.306773],[-58.618224,-34.306799]]]}},{"type":"Feature","properties":{"partida":"357006351","cca":"357000100000000000000042400B00000000010000","tipo":"Urbano","sup_m2":1314.4},"geometry":{"type":"Polygon","coordinates":[[[-58.617838,-34.306747],[-58.618033,-34.306773],[-58.61816,-34.306131],[-58.617968,-34.306098],[-58.617838,-34.306747]]]}},{"type":"Feature","properties":{"partida":"357006352","cca":"357000100000000000000042400B00000000011000","tipo":"Urbano","sup_m2":1339.8},"geometry":{"type":"Polygon","coordinates":[[[-58.617838,-34.306747],[-58.617968,-34.306098],[-58.617773,-34.306064],[-58.617643,-34.30672],[-58.617838,-34.306747]]]}},{"type":"Feature","properties":{"partida":"357006353","cca":"357000100000000000000042400B00000000012000","tipo":"Urbano","sup_m2":2135.6},"geometry":{"type":"Polygon","coordinates":[[[-58.617406,-34.306688],[-58.617643,-34.30672],[-58.617773,-34.306064],[-58.617398,-34.306],[-58.617406,-34.306688]]]}},{"type":"Feature","properties":{"partida":"357006354","cca":"357000100000000000000042400B0000000001300A","tipo":"Rural","sup_m2":11533.2},"geometry":{"type":"Polygon","coordinates":[[[-58.619384,-34.306957],[-58.618804,-34.306878],[-58.617406,-34.306688],[-58.617412,-34.307248],[-58.619267,-34.307559],[-58.619384,-34.306957]]]}},{"type":"Feature","properties":{"partida":"357006366","cca":"357000100000000000000042400B00000000025000","tipo":"Urbano","sup_m2":2051.8},"geometry":{"type":"Polygon","coordinates":[[[-58.620845,-34.306918],[-58.619623,-34.306742],[-58.619592,-34.306902],[-58.620865,-34.307086],[-58.620812,-34.306993],[-58.620797,-34.306963],[-58.620794,-34.306948],[-58.620808,-34.306929],[-58.620845,-34.306918]]]}},{"type":"Feature","properties":{"partida":"357006367","cca":"357000100000000000000042400B00000000026000","tipo":"Urbano","sup_m2":2148.3},"geometry":{"type":"Polygon","coordinates":[[[-58.619623,-34.306742],[-58.620845,-34.306918],[-58.62099,-34.30677],[-58.619654,-34.306585],[-58.619623,-34.306742]]]}},{"type":"Feature","properties":{"partida":"357006382","cca":"357000100000000000000042500000000000001000","tipo":"Rural","sup_m2":18376.0},"geometry":{"type":"Polygon","coordinates":[[[-58.612909,-34.305168],[-58.612968,-34.305279],[-58.617386,-34.30505],[-58.617382,-34.304707],[-58.612707,-34.30484],[-58.612909,-34.305168]]]}},{"type":"Feature","properties":{"partida":"357006383","cca":"357000100000000000000042500000000000002000","tipo":"Rural","sup_m2":12598.0},"geometry":{"type":"Polygon","coordinates":[[[-58.613142,-34.305637],[-58.617389,-34.305249],[-58.617386,-34.30505],[-58.612968,-34.305279],[-58.613142,-34.305637]]]}},{"type":"Feature","properties":{"partida":"357006384","cca":"357000100000000000000042500000000000003000","tipo":"Rural","sup_m2":12066.7},"geometry":{"type":"Polygon","coordinates":[[[-58.613404,-34.305997],[-58.617391,-34.305434],[-58.617389,-34.305249],[-58.613142,-34.305637],[-58.613334,-34.305864],[-58.613404,-34.305997]]]}},{"type":"Feature","properties":{"partida":"357006385","cca":"357000100000000000000042500000000000004000","tipo":"Rural","sup_m2":12896.7},"geometry":{"type":"Polygon","coordinates":[[[-58.613404,-34.305997],[-58.613485,-34.306386],[-58.617394,-34.305671],[-58.617391,-34.305434],[-58.613404,-34.305997]]]}},{"type":"Feature","properties":{"partida":"357006386","cca":"357000100000000000000042500000000000005000","tipo":"Rural","sup_m2":27768.9},"geometry":{"type":"Polygon","coordinates":[[[-58.613665,-34.307023],[-58.613708,-34.30712],[-58.613681,-34.307177],[-58.617401,-34.306258],[-58.617394,-34.305671],[-58.613485,-34.306386],[-58.613532,-34.306769],[-58.613665,-34.307023]]]}},{"type":"Feature","properties":{"partida":"357006388","cca":"357000100000000000000042500000000000007000","tipo":"Rural","sup_m2":13827.2},"geometry":{"type":"Polygon","coordinates":[[[-58.617404,-34.306581],[-58.617401,-34.306258],[-58.613681,-34.307177],[-58.613704,-34.307207],[-58.613754,-34.307259],[-58.613731,-34.307332],[-58.613748,-34.307357],[-58.61374,-34.307401],[-58.613775,-34.307465],[-58.613849,-34.307519],[-58.613867,-34.307547],[-58.617404,-34.306581]]]}},{"type":"Feature","properties":{"partida":"357006391","cca":"357000100000000000000042600000000000001000","tipo":"Rural","sup_m2":114391.3},"geometry":{"type":"Polygon","coordinates":[[[-58.612909,-34.305168],[-58.612597,-34.305264],[-58.606771,-34.307546],[-58.60658,-34.308285],[-58.613765,-34.307562],[-58.613659,-34.3074],[-58.613665,-34.307228],[-58.613638,-34.307193],[-58.613575,-34.307091],[-58.613485,-34.306386],[-58.613404,-34.305997],[-58.613334,-34.305864],[-58.613142,-34.305637],[-58.612968,-34.305279],[-58.612909,-34.305168]]]}},{"type":"Feature","properties":{"partida":"357011362","cca":"357000100000000000000056700000000000000000","tipo":"Rural","sup_m2":322458.0},"geometry":{"type":"MultiPolygon","coordinates":[[[[-58.600336,-34.303659],[-58.600169,-34.303924],[-58.600052,-34.304142],[-58.599935,-34.304328],[-58.599839,-34.304548],[-58.599714,-34.304879],[-58.599813,-34.305221],[-58.600015,-34.305658],[-58.607041,-34.30557],[-58.607338,-34.304852],[-58.607549,-34.304275],[-58.605982,-34.303955],[-58.604121,-34.303652],[-58.603597,-34.303556],[-58.602988,-34.30356],[-58.602622,-34.303582],[-58.602222,-34.30371],[-58.601736,-34.304013],[-58.601377,-34.304108],[-58.600756,-34.303971],[-58.600336,-34.303659]]],[[[-58.599622,-34.305338],[-58.599596,-34.304707],[-58.599681,-34.304463],[-58.599834,-34.304212],[-58.600034,-34.30385],[-58.600234,-34.303597],[-58.600227,-34.303483],[-58.598845,-34.302989],[-58.59558,-34.298994],[-58.59538,-34.298726],[-58.594969,-34.299929],[-58.594366,-34.301723],[-58.594061,-34.302885],[-58.594019,-34.303127],[-58.593984,-34.303593],[-58.596674,-34.304157],[-58.597526,-34.304409],[-58.598159,-34.304409],[-58.598242,-34.305324],[-58.599622,-34.305338]]]]}}]}