{"type":"FeatureCollection","features":[{"type":"Feature","properties":{"partida":"357006991","cca":"357000100000000000000044700000000000001000","tipo":"Urbano","sup_m2":2592.6},"geometry":{"type":"Polygon","coordinates":[[[-58.621208,-34.324983],[-58.620379,-34.325207],[-58.620504,-34.325483],[-58.621339,-34.325226],[-58.621362,-34.325162],[-58.621208,-34.324983]]]}},{"type":"Feature","properties":{"partida":"357006992","cca":"357000100000000000000044700000000000002000","tipo":"Urbano","sup_m2":1815.2},"geometry":{"type":"Polygon","coordinates":[[[-58.621526,-34.325387],[-58.621479,-34.325373],[-58.621442,-34.325356],[-58.621339,-34.325226],[-58.620504,-34.325483],[-58.620573,-34.325654],[-58.621526,-34.325387]]]}},{"type":"Feature","properties":{"partida":"357006993","cca":"357000100000000000000044700000000000003000","tipo":"Urbano","sup_m2":1785.7},"geometry":{"type":"Polygon","coordinates":[[[-58.62154,-34.325575],[-58.621515,-34.32552],[-58.621526,-34.325387],[-58.620573,-34.325654],[-58.620642,-34.325825],[-58.62154,-34.325575]]]}},{"type":"Feature","properties":{"partida":"357006994","cca":"357000100000000000000044700000000000004000","tipo":"Urbano","sup_m2":1781.2},"geometry":{"type":"Polygon","coordinates":[[[-58.62163,-34.325743],[-58.62154,-34.325575],[-58.620642,-34.325825],[-58.620711,-34.325996],[-58.62163,-34.325743]]]}},{"type":"Feature","properties":{"partida":"357006995","cca":"357000100000000000000044700000000000005000","tipo":"Urbano","sup_m2":1785.8},"geometry":{"type":"Polygon","coordinates":[[[-58.621724,-34.325902],[-58.62163,-34.325743],[-58.620711,-34.325996],[-58.620779,-34.326167],[-58.621724,-34.325902]]]}},{"type":"Feature","properties":{"partida":"357006996","cca":"357000100000000000000044700000000000006000","tipo":"Urbano","sup_m2":1860.1},"geometry":{"type":"Polygon","coordinates":[[[-58.621819,-34.326067],[-58.621774,-34.325997],[-58.621724,-34.325902],[-58.620779,-34.326167],[-58.620848,-34.326338],[-58.621819,-34.326067]]]}},{"type":"Feature","properties":{"partida":"357006997","cca":"357000100000000000000044700000000000007000","tipo":"Urbano","sup_m2":1924.3},"geometry":{"type":"Polygon","coordinates":[[[-58.621945,-34.326223],[-58.621868,-34.32616],[-58.621819,-34.326067],[-58.620848,-34.326338],[-58.620917,-34.326509],[-58.621945,-34.326223]]]}},{"type":"Feature","properties":{"partida":"357006998","cca":"357000100000000000000044700000000000008000","tipo":"Urbano","sup_m2":2021.6},"geometry":{"type":"Polygon","coordinates":[[[-58.62209,-34.326363],[-58.621945,-34.326223],[-58.620917,-34.326509],[-58.620986,-34.32668],[-58.62209,-34.326363]]]}},{"type":"Feature","properties":{"partida":"357006999","cca":"357000100000000000000044700000000000009000","tipo":"Rural","sup_m2":87415.6},"geometry":{"type":"Polygon","coordinates":[[[-58.618374,-34.328654],[-58.619632,-34.328395],[-58.62155,-34.328136],[-58.621469,-34.327877],[-58.621055,-34.326851],[-58.62225,-34.32652],[-58.62209,-34.326363],[-58.620986,-34.32668],[-58.620504,-34.325483],[-58.620379,-34.325207],[-58.618986,-34.325587],[-58.618307,-34.325763],[-58.618005,-34.325854],[-58.618376,-34.328502],[-58.618374,-34.328654]]]}},{"type":"Feature","properties":{"partida":"357007000","cca":"357000100000000000000044700000000000010000","tipo":"Urbano","sup_m2":2309.7},"geometry":{"type":"Polygon","coordinates":[[[-58.62225,-34.32652],[-58.621055,-34.326851],[-58.621124,-34.327022],[-58.62239,-34.326657],[-58.62225,-34.32652]]]}},{"type":"Feature","properties":{"partida":"357007001","cca":"357000100000000000000044700000000000011000","tipo":"Urbano","sup_m2":2563.6},"geometry":{"type":"Polygon","coordinates":[[[-58.622466,-34.326841],[-58.62239,-34.326657],[-58.621124,-34.327022],[-58.621193,-34.327193],[-58.622466,-34.326841]]]}},{"type":"Feature","properties":{"partida":"357007002","cca":"357000100000000000000044700000000000012000","tipo":"Urbano","sup_m2":2481.3},"geometry":{"type":"Polygon","coordinates":[[[-58.622546,-34.327009],[-58.622466,-34.326841],[-58.621193,-34.327193],[-58.621262,-34.327364],[-58.622546,-34.327009]]]}},{"type":"Feature","properties":{"partida":"357007003","cca":"357000100000000000000044700000000000013000","tipo":"Urbano","sup_m2":2522.2},"geometry":{"type":"Polygon","coordinates":[[[-58.622661,-34.327165],[-58.622546,-34.327009],[-58.621262,-34.327364],[-58.621331,-34.327535],[-58.622661,-34.327165]]]}},{"type":"Feature","properties":{"partida":"357007004","cca":"357000100000000000000044700000000000014000","tipo":"Urbano","sup_m2":2582.7},"geometry":{"type":"Polygon","coordinates":[[[-58.62271,-34.327342],[-58.622687,-34.327195],[-58.622661,-34.327165],[-58.621331,-34.327535],[-58.6214,-34.327706],[-58.62271,-34.327342]]]}},{"type":"Feature","properties":{"partida":"357007005","cca":"357000100000000000000044700000000000015000","tipo":"Urbano","sup_m2":2595.1},"geometry":{"type":"Polygon","coordinates":[[[-58.6228,-34.327512],[-58.62271,-34.327342],[-58.6214,-34.327706],[-58.621469,-34.327877],[-58.6228,-34.327512]]]}},{"type":"Feature","properties":{"partida":"357007006","cca":"357000100000000000000044700000000000016000","tipo":"Urbano","sup_m2":5332.8},"geometry":{"type":"Polygon","coordinates":[[[-58.622999,-34.327936],[-58.622958,-34.32777],[-58.6228,-34.327512],[-58.621469,-34.327877],[-58.62155,-34.328136],[-58.622999,-34.327936]]]}},{"type":"Feature","properties":{"partida":"357007007","cca":"357000100000000000000044800000000000000000","tipo":"Rural","sup_m2":615237.1},"geometry":{"type":"Polygon","coordinates":[[[-58.613844,-34.321929],[-58.614261,-34.323334],[-58.614419,-34.325461],[-58.614386,-34.326335],[-58.614096,-34.327146],[-58.61355,-34.327933],[-58.613535,-34.328507],[-58.612979,-34.331087],[-58.61232,-34.332608],[-58.612017,-34.332105],[-58.611722,-34.332307],[-58.611502,-34.332491],[-58.611472,-34.332593],[-58.611102,-34.33318],[-58.610831,-34.333347],[-58.610772,-34.333687],[-58.610716,-34.333939],[-58.610668,-34.334109],[-58.610467,-34.334695],[-58.611608,-34.334717],[-58.612103,-34.334772],[-58.613069,-34.33501],[-58.613797,-34.335181],[-58.615866,-34.335534],[-58.615984,-34.333034],[-58.617215,-34.333305],[-58.617322,-34.332722],[-58.618157,-34.32945],[-58.618374,-34.328654],[-58.618376,-34.328502],[-58.617829,-34.324615],[-58.617667,-34.323374],[-58.617565,-34.322704],[-58.617715,-34.320943],[-58.617725,-34.320902],[-58.614837,-34.321645],[-58.613844,-34.321929]]]}},{"type":"Feature","properties":{"partida":"357007008","cca":"357000100000000000000044900000000000001000","tipo":"Rural","sup_m2":24831.5},"geometry":{"type":"Polygon","coordinates":[[[-58.611595,-34.324844],[-58.611224,-34.325337],[-58.614007,-34.326374],[-58.614033,-34.325103],[-58.611595,-34.324844]]]}},{"type":"Feature","properties":{"partida":"357007009","cca":"357000100000000000000044900000000000002000","tipo":"Rural","sup_m2":32887.6},"geometry":{"type":"Polygon","coordinates":[[[-58.611224,-34.325337],[-58.610796,-34.325807],[-58.613362,-34.327657],[-58.613706,-34.327232],[-58.613913,-34.326758],[-58.614007,-34.326374],[-58.611224,-34.325337]]]}},{"type":"Feature","properties":{"partida":"357007011","cca":"35700010000000000000004500000000000000100B","tipo":"Urbano","sup_m2":3657.3},"geometry":{"type":"Polygon","coordinates":[[[-58.608209,-34.325756],[-58.607927,-34.325499],[-58.607186,-34.326048],[-58.607232,-34.326116],[-58.607495,-34.326268],[-58.607536,-34.326301],[-58.608209,-34.325756]]]}},{"type":"Feature","properties":{"partida":"357007012","cca":"35700010000000000000004500000000000000200A","tipo":"Urbano","sup_m2":15908.7},"geometry":{"type":"Polygon","coordinates":[[[-58.608812,-34.327343],[-58.609069,-34.327593],[-58.609503,-34.327051],[-58.609946,-34.326731],[-58.610376,-34.326362],[-58.610796,-34.325807],[-58.611224,-34.325337],[-58.611595,-34.324844],[-58.61124,-34.324626],[-58.608993,-34.32716],[-58.608812,-34.327343]]]}},{"type":"Feature","properties":{"partida":"357007013","cca":"35700010000000000000004500000000000000200B","tipo":"Urbano","sup_m2":9638.2},"geometry":{"type":"Polygon","coordinates":[[[-58.611082,-34.324507],[-58.608756,-34.326947],[-58.608596,-34.327096],[-58.608707,-34.327196],[-58.608812,-34.327343],[-58.608993,-34.32716],[-58.61124,-34.324626],[-58.611082,-34.324507]]]}},{"type":"Feature","properties":{"partida":"357007014","cca":"35700010000000000000004500000000000000200C","tipo":"Urbano","sup_m2":9064.2},"geometry":{"type":"Polygon","coordinates":[[[-58.610964,-34.32441],[-58.608508,-34.326729],[-58.608344,-34.326892],[-58.608596,-34.327096],[-58.608756,-34.326947],[-58.611082,-34.324507],[-58.610964,-34.32441]]]}},{"type":"Feature","properties":{"partida":"357007015","cca":"35700010000000000000004500000000000000200D","tipo":"Urbano","sup_m2":8615.1},"geometry":{"type":"Polygon","coordinates":[[[-58.610845,-34.324315],[-58.608081,-34.326697],[-58.608344,-34.326892],[-58.608508,-34.326729],[-58.610964,-34.32441],[-58.610845,-34.324315]]]}},{"type":"Feature","properties":{"partida":"357007016","cca":"35700010000000000000004500000000000000200E","tipo":"Urbano","sup_m2":12232.5},"geometry":{"type":"Polygon","coordinates":[[[-58.608081,-34.326697],[-58.610845,-34.324315],[-58.610564,-34.324089],[-58.607835,-34.326514],[-58.607896,-34.326574],[-58.608081,-34.326697]]]}},{"type":"Feature","properties":{"partida":"357007018","cca":"357000100000000000000045100000000000001000","tipo":"Rural","sup_m2":24828.8},"geometry":{"type":"Polygon","coordinates":[[[-58.612509,-34.328165],[-58.613121,-34.327845],[-58.613362,-34.327657],[-58.610796,-34.325807],[-58.610376,-34.326362],[-58.612509,-34.328165]]]}},{"type":"Feature","properties":{"partida":"357007019","cca":"357000100000000000000045100000000000002000","tipo":"Rural","sup_m2":17293.7},"geometry":{"type":"Polygon","coordinates":[[[-58.609946,-34.326731],[-58.611911,-34.328543],[-58.612509,-34.328165],[-58.610376,-34.326362],[-58.609946,-34.326731]]]}},{"type":"Feature","properties":{"partida":"357007020","cca":"357000100000000000000045100000000000003000","tipo":"Rural","sup_m2":19457.7},"geometry":{"type":"Polygon","coordinates":[[[-58.609503,-34.327051],[-58.610573,-34.328622],[-58.611385,-34.328693],[-58.611491,-34.32869],[-58.611604,-34.328683],[-58.611697,-34.328643],[-58.611795,-34.328617],[-58.611911,-34.328543],[-58.609946,-34.326731],[-58.609503,-34.327051]]]}},{"type":"Feature","properties":{"partida":null,"cca":"357000100000000000000045100000000000004000","tipo":null,"sup_m2":10161.9},"geometry":{"type":"Polygon","coordinates":[[[-58.609503,-34.327051],[-58.609069,-34.327593],[-58.609313,-34.328076],[-58.609482,-34.32835],[-58.610573,-34.328622],[-58.609503,-34.327051]]]}},{"type":"Feature","properties":{"partida":"357018675","cca":"35700010000000000000004530000000000000100A","tipo":"Rural","sup_m2":28610.2},"geometry":{"type":"Polygon","coordinates":[[[-58.622974,-34.329083],[-58.622945,-34.328513],[-58.622999,-34.327936],[-58.62155,-34.328136],[-58.619632,-34.328395],[-58.619802,-34.328975],[-58.620636,-34.328999],[-58.622974,-34.329083]]]}},{"type":"Feature","properties":{"partida":"357018742","cca":"35700010000000000000004530000000000000100B","tipo":"Rural","sup_m2":25390.3},"geometry":{"type":"Polygon","coordinates":[[[-58.618157,-34.32945],[-58.620365,-34.329372],[-58.620586,-34.329386],[-58.622568,-34.329408],[-58.622876,-34.329418],[-58.622974,-34.329083],[-58.620636,-34.328999],[-58.619802,-34.328975],[-58.619632,-34.328395],[-58.618374,-34.328654],[-58.618157,-34.32945]]]}},{"type":"Feature","properties":{"partida":"357007025","cca":"357000100000000000000045300000000000002000","tipo":"Rural","sup_m2":105948.1},"geometry":{"type":"Polygon","coordinates":[[[-58.622291,-34.330769],[-58.622388,-34.329607],[-58.622853,-34.32949],[-58.622876,-34.329418],[-58.622568,-34.329408],[-58.620586,-34.329386],[-58.620365,-34.329372],[-58.618157,-34.32945],[-58.617322,-34.332722],[-58.622291,-34.330769]]]}},{"type":"Feature","properties":{"partida":"357018676","cca":"357000100000000000000045300000000000003000","tipo":"Urbano","sup_m2":874.4},"geometry":{"type":"Polygon","coordinates":[[[-58.622372,-34.329798],[-58.622842,-34.329671],[-58.622853,-34.32949],[-58.622388,-34.329607],[-58.622372,-34.329798]]]}},{"type":"Feature","properties":{"partida":"357018677","cca":"357000100000000000000045300000000000004000","tipo":"Urbano","sup_m2":864.0},"geometry":{"type":"Polygon","coordinates":[[[-58.622372,-34.329798],[-58.622356,-34.329988],[-58.622743,-34.329867],[-58.622856,-34.329824],[-58.622842,-34.329671],[-58.622372,-34.329798]]]}},{"type":"Feature","properties":{"partida":"357018678","cca":"357000100000000000000045300000000000005000","tipo":"Urbano","sup_m2":915.0},"geometry":{"type":"Polygon","coordinates":[[[-58.622356,-34.329988],[-58.62234,-34.330179],[-58.622817,-34.330021],[-58.622825,-34.330021],[-58.622856,-34.329824],[-58.622743,-34.329867],[-58.622356,-34.329988]]]}},{"type":"Feature","properties":{"partida":"357018679","cca":"357000100000000000000045300000000000006000","tipo":"Urbano","sup_m2":923.5},"geometry":{"type":"Polygon","coordinates":[[[-58.622825,-34.330021],[-58.622817,-34.330021],[-58.62234,-34.330179],[-58.622323,-34.330388],[-58.622731,-34.330222],[-58.622818,-34.330198],[-58.62282,-34.330076],[-58.622825,-34.330021]]]}},{"type":"Feature","properties":{"partida":"357018680","cca":"357000100000000000000045300000000000007000","tipo":"Urbano","sup_m2":975.5},"geometry":{"type":"Polygon","coordinates":[[[-58.622323,-34.330388],[-58.622307,-34.330579],[-58.622829,-34.33038],[-58.622811,-34.330323],[-58.622818,-34.330198],[-58.622731,-34.330222],[-58.622323,-34.330388]]]}},{"type":"Feature","properties":{"partida":"357018681","cca":"357000100000000000000045300000000000008000","tipo":"Urbano","sup_m2":1078.2},"geometry":{"type":"Polygon","coordinates":[[[-58.622307,-34.330579],[-58.622291,-34.330769],[-58.622836,-34.330578],[-58.622852,-34.330452],[-58.622829,-34.33038],[-58.622789,-34.330393],[-58.622307,-34.330579]]]}},{"type":"Feature","properties":{"partida":"357007026","cca":"357000100000000000000045400000000000001000","tipo":"Rural","sup_m2":138761.1},"geometry":{"type":"Polygon","coordinates":[[[-58.605572,-34.330217],[-58.612979,-34.331087],[-58.613535,-34.328507],[-58.61355,-34.327933],[-58.613091,-34.328135],[-58.612017,-34.328802],[-58.611656,-34.328902],[-58.610936,-34.328928],[-58.610375,-34.328932],[-58.609725,-34.328721],[-58.609268,-34.32856],[-58.609,-34.328453],[-58.608542,-34.328573],[-58.60729,-34.329139],[-58.606083,-34.329777],[-58.605572,-34.330217]]]}},{"type":"Feature","properties":{"partida":"357007027","cca":"357000100000000000000045400000000000002000","tipo":"Rural","sup_m2":130793.0},"geometry":{"type":"Polygon","coordinates":[[[-58.605597,-34.332093],[-58.611472,-34.332593],[-58.611502,-34.332491],[-58.611722,-34.332307],[-58.612017,-34.332105],[-58.61232,-34.332608],[-58.612979,-34.331087],[-58.605572,-34.330217],[-58.605376,-34.330394],[-58.605239,-34.330529],[-58.605174,-34.330578],[-58.605095,-34.330655],[-58.60506,-34.330699],[-58.604999,-34.330883],[-58.605053,-34.331172],[-58.605113,-34.331328],[-58.605414,-34.331833],[-58.605597,-34.332093]]]}},{"type":"Feature","properties":{"partida":"357007028","cca":"357000100000000000000045400000000000003000","tipo":"Rural","sup_m2":98940.7},"geometry":{"type":"Polygon","coordinates":[[[-58.605597,-34.332093],[-58.60627,-34.33308],[-58.606543,-34.334016],[-58.60653,-34.334375],[-58.610553,-34.334445],[-58.610668,-34.334109],[-58.610716,-34.333939],[-58.610772,-34.333687],[-58.610831,-34.333347],[-58.611102,-34.33318],[-58.611472,-34.332593],[-58.605597,-34.332093]]]}},{"type":"Feature","properties":{"partida":"357007029","cca":"357000100000000000000045400000000000004000","tipo":"Rural","sup_m2":11076.2},"geometry":{"type":"Polygon","coordinates":[[[-58.606493,-34.334813],[-58.607985,-34.334648],[-58.608416,-34.334618],[-58.609287,-34.334654],[-58.609941,-34.334689],[-58.610467,-34.334695],[-58.610553,-34.334445],[-58.60653,-34.334375],[-58.606557,-34.334528],[-58.606557,-34.334671],[-58.606493,-34.334813]]]}},{"type":"Feature","properties":{"partida":"357007031","cca":"357000100000000000000045700000000000001000","tipo":"Rural","sup_m2":158172.3},"geometry":{"type":"Polygon","coordinates":[[[-58.617322,-34.332722],[-58.617215,-34.333305],[-58.615984,-34.333034],[-58.615909,-34.334622],[-58.624069,-34.333009],[-58.624049,-34.332722],[-58.624011,-34.332627],[-58.623899,-34.33241],[-58.623456,-34.3318],[-58.62302,-34.330881],[-58.622836,-34.330578],[-58.622291,-34.330769],[-58.617322,-34.332722]]]}},{"type":"Feature","properties":{"partida":"357007032","cca":"357000100000000000000045700000000000002000","tipo":"Rural","sup_m2":167963.1},"geometry":{"type":"Polygon","coordinates":[[[-58.615814,-34.336424],[-58.61623,-34.33645],[-58.623573,-34.335366],[-58.623558,-34.335237],[-58.6236,-34.334949],[-58.623601,-34.334893],[-58.623862,-34.333968],[-58.624065,-34.333357],[-58.624069,-34.333009],[-58.615909,-34.334622],[-58.615861,-34.335632],[-58.615814,-34.336424]]]}},{"type":"Feature","properties":{"partida":"357007037","cca":"357000100000000000000046000000000000000000","tipo":"Rural","sup_m2":428563.2},"geometry":{"type":"Polygon","coordinates":[[[-58.615586,-34.341345],[-58.624325,-34.340483],[-58.624341,-34.340185],[-58.624273,-34.340161],[-58.624276,-34.340003],[-58.624323,-34.339907],[-58.624317,-34.339534],[-58.624238,-34.339481],[-58.624223,-34.339432],[-58.624282,-34.339381],[-58.624321,-34.339306],[-58.62438,-34.338953],[-58.624319,-34.338848],[-58.624207,-34.338678],[-58.624226,-34.338479],[-58.624228,-34.338367],[-58.624221,-34.33818],[-58.624196,-34.338089],[-58.624198,-34.337981],[-58.624166,-34.337717],[-58.624125,-34.337626],[-58.624026,-34.337625],[-58.624023,-34.337529],[-58.623914,-34.337417],[-58.623916,-34.3373],[-58.624058,-34.337236],[-58.624112,-34.337151],[-58.62403,-34.337024],[-58.623933,-34.336889],[-58.623922,-34.336647],[-58.623782,-34.336537],[-58.623784,-34.336424],[-58.623713,-34.336337],[-58.623704,-34.336244],[-58.623797,-34.33619],[-58.623799,-34.336107],[-58.623705,-34.336027],[-58.623724,-34.335972],[-58.62367,-34.33567],[-58.623573,-34.335366],[-58.61623,-34.33645],[-58.615814,-34.336424],[-58.61577,-34.337528],[-58.615708,-34.338815],[-58.615625,-34.340664],[-58.615586,-34.341345]]]}},{"type":"Feature","properties":{"partida":"357007038","cca":"357000100000000000000046100000000000001000","tipo":"Rural","sup_m2":149504.6},"geometry":{"type":"Polygon","coordinates":[[[-58.610467,-34.334695],[-58.609941,-34.334689],[-58.609287,-34.334654],[-58.608416,-34.334618],[-58.607985,-34.334648],[-58.606493,-34.334813],[-58.606526,-34.33516],[-58.606481,-34.335481],[-58.606363,-34.336476],[-58.615814,-34.336424],[-58.615866,-34.335534],[-58.613797,-34.335181],[-58.613069,-34.33501],[-58.612103,-34.334772],[-58.611608,-34.334717],[-58.610467,-34.334695]]]}},{"type":"Feature","properties":{"partida":"357007039","cca":"35700010000000000000004610000000000000200A","tipo":"Rural","sup_m2":84588.4},"geometry":{"type":"Polygon","coordinates":[[[-58.61577,-34.337528],[-58.615814,-34.336424],[-58.606363,-34.336476],[-58.606306,-34.337012],[-58.606283,-34.33712],[-58.61577,-34.337528]]]}},{"type":"Feature","properties":{"partida":"357007040","cca":"35700010000000000000004610000000000000200B","tipo":"Rural","sup_m2":68847.5},"geometry":{"type":"Polygon","coordinates":[[[-58.606329,-34.337855],[-58.612056,-34.338228],[-58.615755,-34.337836],[-58.61577,-34.337528],[-58.606283,-34.33712],[-58.606329,-34.337855]]]}},{"type":"Feature","properties":{"partida":"357007041","cca":"357000100000000000000046100000000000003000","tipo":"Rural","sup_m2":71160.1},"geometry":{"type":"Polygon","coordinates":[[[-58.606329,-34.337855],[-58.60644,-34.338404],[-58.606565,-34.338775],[-58.615708,-34.338805],[-58.615755,-34.337836],[-58.612056,-34.338228],[-58.606329,-34.337855]]]}},{"type":"Feature","properties":{"partida":"357007042","cca":"357000100000000000000046100000000000004000","tipo":"Rural","sup_m2":190608.7},"geometry":{"type":"Polygon","coordinates":[[[-58.60716,-34.341025],[-58.613506,-34.341149],[-58.613129,-34.340624],[-58.612859,-34.34031],[-58.615625,-34.340664],[-58.615708,-34.338805],[-58.606565,-34.338775],[-58.606616,-34.338897],[-58.606852,-34.339594],[-58.607073,-34.340525],[-58.60716,-34.341025]]]}},{"type":"Feature","properties":{"partida":"357007043","cca":"357000100000000000000046100000000000005000","tipo":"Rural","sup_m2":228715.4},"geometry":{"type":"Polygon","coordinates":[[[-58.606139,-34.343439],[-58.6071,-34.343694],[-58.607663,-34.343992],[-58.607918,-34.344025],[-58.608435,-34.343995],[-58.611276,-34.343503],[-58.613854,-34.343273],[-58.615506,-34.343004],[-58.615591,-34.341251],[-58.615625,-34.340664],[-58.612859,-34.34031],[-58.613129,-34.340624],[-58.613506,-34.341149],[-58.612505,-34.341129],[-58.612505,-34.341168],[-58.612488,-34.341245],[-58.610794,-34.341226],[-58.607543,-34.341119],[-58.607245,-34.341107],[-58.607174,-34.34113],[-58.607153,-34.341459],[-58.607005,-34.341986],[-58.606914,-34.342121],[-58.606887,-34.342255],[-58.606837,-34.342365],[-58.606852,-34.342486],[-58.606801,-34.342566],[-58.606702,-34.342625],[-58.606637,-34.342689],[-58.606574,-34.3428],[-58.606572,-34.342909],[-58.606486,-34.342894],[-58.606431,-34.342991],[-58.606449,-34.343058],[-58.606386,-34.343146],[-58.606199,-34.34335],[-58.606139,-34.343439]]]}},{"type":"Feature","properties":{"partida":"357007055","cca":"357000100000000000000046600A00000000004000","tipo":"Urbano","sup_m2":1313.6},"geometry":{"type":"Polygon","coordinates":[[[-58.62293,-34.341344],[-58.623156,-34.34127],[-58.623104,-34.340744],[-58.622873,-34.340764],[-58.62293,-34.341344]]]}},{"type":"Feature","properties":{"partida":"357007056","cca":"357000100000000000000046600A00000000005000","tipo":"Urbano","sup_m2":1440.8},"geometry":{"type":"Polygon","coordinates":[[[-58.622705,-34.341419],[-58.62293,-34.341344],[-58.622873,-34.340764],[-58.622643,-34.340785],[-58.622705,-34.341419]]]}},{"type":"Feature","properties":{"partida":"357007057","cca":"357000100000000000000046600A00000000006000","tipo":"Urbano","sup_m2":1568.3},"geometry":{"type":"Polygon","coordinates":[[[-58.62248,-34.341493],[-58.622705,-34.341419],[-58.622643,-34.340785],[-58.622412,-34.340806],[-58.62248,-34.341493]]]}},{"type":"Feature","properties":{"partida":"357007058","cca":"357000100000000000000046600A00000000007000","tipo":"Urbano","sup_m2":1695.7},"geometry":{"type":"Polygon","coordinates":[[[-58.62248,-34.341493],[-58.622412,-34.340806],[-58.622182,-34.340827],[-58.622255,-34.341568],[-58.62248,-34.341493]]]}},{"type":"Feature","properties":{"partida":"357007059","cca":"357000100000000000000046600A00000000008000","tipo":"Urbano","sup_m2":595.6},"geometry":{"type":"Polygon","coordinates":[[[-58.622591,-34.341916],[-58.622266,-34.341679],[-58.622299,-34.342015],[-58.622504,-34.341998],[-58.622591,-34.341916]]]}},{"type":"Feature","properties":{"partida":"357007060","cca":"357000100000000000000046600A00000000009000","tipo":"Urbano","sup_m2":731.2},"geometry":{"type":"Polygon","coordinates":[[[-58.622255,-34.341568],[-58.622266,-34.341679],[-58.622591,-34.341916],[-58.622693,-34.34182],[-58.62236,-34.341533],[-58.622255,-34.341568]]]}},{"type":"Feature","properties":{"partida":"357007061","cca":"357000100000000000000046600A00000000010000","tipo":"Urbano","sup_m2":716.3},"geometry":{"type":"Polygon","coordinates":[[[-58.622556,-34.341468],[-58.62236,-34.341533],[-58.622693,-34.34182],[-58.622823,-34.341698],[-58.622556,-34.341468]]]}},{"type":"Feature","properties":{"partida":null,"cca":"357000100000000000000046600A00000000011000","tipo":null,"sup_m2":557.9},"geometry":{"type":"Polygon","coordinates":[[[-58.622752,-34.341403],[-58.622556,-34.341468],[-58.622823,-34.341698],[-58.622953,-34.341576],[-58.622752,-34.341403]]]}},{"type":"Feature","properties":{"partida":"357007063","cca":"357000100000000000000046600A00000000012000","tipo":"Urbano","sup_m2":544.0},"geometry":{"type":"Polygon","coordinates":[[[-58.623086,-34.341293],[-58.622752,-34.341403],[-58.622953,-34.341576],[-58.623123,-34.341415],[-58.623086,-34.341293]]]}},{"type":"Feature","properties":{"partida":"357007071","cca":"357000100000000000000046600B00000000001000","tipo":"Urbano","sup_m2":1003.9},"geometry":{"type":"Polygon","coordinates":[[[-58.622089,-34.341506],[-58.622023,-34.340825],[-58.621875,-34.340839],[-58.621948,-34.341511],[-58.622089,-34.341506]]]}},{"type":"Feature","properties":{"partida":null,"cca":"357000100000000000000046600B00000000002000","tipo":null,"sup_m2":1340.8},"geometry":{"type":"Polygon","coordinates":[[[-58.621948,-34.341511],[-58.621875,-34.340839],[-58.621681,-34.340858],[-58.621749,-34.341517],[-58.621948,-34.341511]]]}},{"type":"Feature","properties":{"partida":"357007073","cca":"357000100000000000000046600B00000000003000","tipo":"Urbano","sup_m2":1298.7},"geometry":{"type":"Polygon","coordinates":[[[-58.621749,-34.341517],[-58.621681,-34.340858],[-58.621488,-34.340877],[-58.621555,-34.341523],[-58.621749,-34.341517]]]}},{"type":"Feature","properties":{"partida":"357007074","cca":"357000100000000000000046600B00000000004000","tipo":"Urbano","sup_m2":1236.2},"geometry":{"type":"Polygon","coordinates":[[[-58.621555,-34.341523],[-58.621488,-34.340877],[-58.621302,-34.340895],[-58.621365,-34.341529],[-58.621555,-34.341523]]]}},{"type":"Feature","properties":{"partida":"357007075","cca":"357000100000000000000046600B00000000005000","tipo":"Urbano","sup_m2":1245.5},"geometry":{"type":"Polygon","coordinates":[[[-58.621365,-34.341529],[-58.621302,-34.340895],[-58.62111,-34.340914],[-58.62117,-34.341535],[-58.621365,-34.341529]]]}},{"type":"Feature","properties":{"partida":"357007076","cca":"357000100000000000000046600B00000000006000","tipo":"Urbano","sup_m2":1234.9},"geometry":{"type":"Polygon","coordinates":[[[-58.620971,-34.341541],[-58.62117,-34.341535],[-58.62111,-34.340914],[-58.620919,-34.340932],[-58.620971,-34.341541]]]}},{"type":"Feature","properties":{"partida":"357007077","cca":"357000100000000000000046600B00000000007000","tipo":"Urbano","sup_m2":1186.6},"geometry":{"type":"Polygon","coordinates":[[[-58.620971,-34.341541],[-58.620919,-34.340932],[-58.620729,-34.340951],[-58.620777,-34.341547],[-58.620971,-34.341541]]]}},{"type":"Feature","properties":{"partida":"357007078","cca":"357000100000000000000046600B00000000008000","tipo":"Urbano","sup_m2":1121.7},"geometry":{"type":"Polygon","coordinates":[[[-58.620591,-34.341553],[-58.620777,-34.341547],[-58.620729,-34.340951],[-58.620545,-34.340969],[-58.620591,-34.341553]]]}},{"type":"Feature","properties":{"partida":null,"cca":"357000100000000000000046600B00000000009000","tipo":null,"sup_m2":1160.2},"geometry":{"type":"Polygon","coordinates":[[[-58.620591,-34.341553],[-58.620545,-34.340969],[-58.620348,-34.340988],[-58.620397,-34.341559],[-58.620591,-34.341553]]]}},{"type":"Feature","properties":{"partida":"357007080","cca":"357000100000000000000046600B00000000010000","tipo":"Urbano","sup_m2":1103.9},"geometry":{"type":"Polygon","coordinates":[[[-58.620207,-34.341565],[-58.620397,-34.341559],[-58.620348,-34.340988],[-58.620157,-34.341007],[-58.620207,-34.341565]]]}},{"type":"Feature","properties":{"partida":"357007081","cca":"357000100000000000000046600B00000000011000","tipo":"Urbano","sup_m2":1082.9},"geometry":{"type":"Polygon","coordinates":[[[-58.620016,-34.341571],[-58.620207,-34.341565],[-58.620157,-34.341007],[-58.619966,-34.341025],[-58.620016,-34.341571]]]}},{"type":"Feature","properties":{"partida":"357007082","cca":"357000100000000000000046600B00000000012000","tipo":"Urbano","sup_m2":1166.6},"geometry":{"type":"Polygon","coordinates":[[[-58.619966,-34.341025],[-58.619769,-34.341044],[-58.619792,-34.341578],[-58.620016,-34.341571],[-58.619966,-34.341025]]]}},{"type":"Feature","properties":{"partida":null,"cca":"357000100000000000000046600B00000000013000","tipo":null,"sup_m2":1380.4},"geometry":{"type":"Polygon","coordinates":[[[-58.619792,-34.341578],[-58.619819,-34.342213],[-58.620023,-34.342197],[-58.620016,-34.341571],[-58.619792,-34.341578]]]}},{"type":"Feature","properties":{"partida":null,"cca":"357000100000000000000046600B00000000014000","tipo":null,"sup_m2":1205.2},"geometry":{"type":"Polygon","coordinates":[[[-58.620207,-34.341565],[-58.620016,-34.341571],[-58.620023,-34.342197],[-58.620212,-34.342182],[-58.620207,-34.341565]]]}},{"type":"Feature","properties":{"partida":"357007085","cca":"357000100000000000000046600B00000000015000","tipo":"Urbano","sup_m2":1185.4},"geometry":{"type":"Polygon","coordinates":[[[-58.620207,-34.341565],[-58.620212,-34.342182],[-58.620401,-34.342168],[-58.620397,-34.341559],[-58.620207,-34.341565]]]}},{"type":"Feature","properties":{"partida":"357007086","cca":"357000100000000000000046600B00000000016000","tipo":"Urbano","sup_m2":1200.3},"geometry":{"type":"Polygon","coordinates":[[[-58.620397,-34.341559],[-58.620401,-34.342168],[-58.620596,-34.342152],[-58.620591,-34.341553],[-58.620397,-34.341559]]]}},{"type":"Feature","properties":{"partida":"357007087","cca":"357000100000000000000046600B00000000017000","tipo":"Urbano","sup_m2":1126.2},"geometry":{"type":"Polygon","coordinates":[[[-58.620591,-34.341553],[-58.620596,-34.342152],[-58.620781,-34.342138],[-58.620777,-34.341547],[-58.620591,-34.341553]]]}},{"type":"Feature","properties":{"partida":"357007088","cca":"357000100000000000000046600B00000000018000","tipo":"Urbano","sup_m2":1156.4},"geometry":{"type":"Polygon","coordinates":[[[-58.620777,-34.341547],[-58.620781,-34.342138],[-58.620974,-34.342123],[-58.620971,-34.341541],[-58.620777,-34.341547]]]}},{"type":"Feature","properties":{"partida":"357007089","cca":"357000100000000000000046600B00000000019000","tipo":"Urbano","sup_m2":1171.3},"geometry":{"type":"Polygon","coordinates":[[[-58.620971,-34.341541],[-58.620974,-34.342123],[-58.621172,-34.342107],[-58.62117,-34.341535],[-58.620971,-34.341541]]]}},{"type":"Feature","properties":{"partida":null,"cca":"357000100000000000000046600B00000000020000","tipo":null,"sup_m2":1132.9},"geometry":{"type":"Polygon","coordinates":[[[-58.62117,-34.341535],[-58.621172,-34.342107],[-58.621367,-34.342092],[-58.621365,-34.341529],[-58.62117,-34.341535]]]}},{"type":"Feature","properties":{"partida":"357007091","cca":"357000100000000000000046600B00000000021000","tipo":"Urbano","sup_m2":1080.0},"geometry":{"type":"Polygon","coordinates":[[[-58.621365,-34.341529],[-58.621367,-34.342092],[-58.621556,-34.342077],[-58.621555,-34.341523],[-58.621365,-34.341529]]]}},{"type":"Feature","properties":{"partida":"357007092","cca":"357000100000000000000046600B00000000022000","tipo":"Urbano","sup_m2":1079.6},"geometry":{"type":"Polygon","coordinates":[[[-58.621555,-34.341523],[-58.621556,-34.342077],[-58.621746,-34.342063],[-58.621749,-34.341517],[-58.621555,-34.341523]]]}},{"type":"Feature","properties":{"partida":"357007093","cca":"357000100000000000000046600B00000000023000","tipo":"Urbano","sup_m2":1103.7},"geometry":{"type":"Polygon","coordinates":[[[-58.621749,-34.341517],[-58.621746,-34.342063],[-58.621948,-34.342047],[-58.621948,-34.341511],[-58.621749,-34.341517]]]}},{"type":"Feature","properties":{"partida":"357007094","cca":"357000100000000000000046600B00000000024000","tipo":"Urbano","sup_m2":904.1},"geometry":{"type":"Polygon","coordinates":[[[-58.622089,-34.341506],[-58.621948,-34.341511],[-58.621948,-34.342047],[-58.622139,-34.342032],[-58.622089,-34.341506]]]}},{"type":"Feature","properties":{"partida":"357007095","cca":"357000100000000000000046600C00000000001000","tipo":"Urbano","sup_m2":1518.3},"geometry":{"type":"Polygon","coordinates":[[[-58.619316,-34.341108],[-58.619418,-34.341627],[-58.619665,-34.341605],[-58.619633,-34.341081],[-58.619316,-34.341108]]]}},{"type":"Feature","properties":{"partida":"357007096","cca":"357000100000000000000046600C00000000002000","tipo":"Urbano","sup_m2":1046.9},"geometry":{"type":"Polygon","coordinates":[[[-58.619418,-34.341627],[-58.619316,-34.341108],[-58.619124,-34.341125],[-58.619221,-34.341644],[-58.619418,-34.341627]]]}},{"type":"Feature","properties":{"partida":"357007097","cca":"357000100000000000000046600C00000000003000","tipo":"Urbano","sup_m2":1291.1},"geometry":{"type":"Polygon","coordinates":[[[-58.618985,-34.341665],[-58.619221,-34.341644],[-58.619124,-34.341125],[-58.618882,-34.341146],[-58.618985,-34.341665]]]}},{"type":"Feature","properties":{"partida":"357007098","cca":"357000100000000000000046600C00000000004000","tipo":"Urbano","sup_m2":1065.1},"geometry":{"type":"Polygon","coordinates":[[[-58.618985,-34.341665],[-58.618882,-34.341146],[-58.618684,-34.341163],[-58.618788,-34.341682],[-58.618985,-34.341665]]]}},{"type":"Feature","properties":{"partida":"357007099","cca":"357000100000000000000046600C00000000005000","tipo":"Urbano","sup_m2":1022.6},"geometry":{"type":"Polygon","coordinates":[[[-58.618788,-34.341682],[-58.618684,-34.341163],[-58.618492,-34.34118],[-58.618601,-34.341699],[-58.618788,-34.341682]]]}},{"type":"Feature","properties":{"partida":"357007100","cca":"357000100000000000000046600C00000000006000","tipo":"Urbano","sup_m2":1035.7},"geometry":{"type":"Polygon","coordinates":[[[-58.618601,-34.341699],[-58.618492,-34.34118],[-58.618299,-34.341197],[-58.61841,-34.341716],[-58.618601,-34.341699]]]}},{"type":"Feature","properties":{"partida":null,"cca":"357000100000000000000046600C00000000007000","tipo":null,"sup_m2":1145.7},"geometry":{"type":"Polygon","coordinates":[[[-58.618202,-34.341735],[-58.61841,-34.341716],[-58.618299,-34.341197],[-58.618083,-34.341215],[-58.618202,-34.341735]]]}},{"type":"Feature","properties":{"partida":null,"cca":"357000100000000000000046600C00000000008000","tipo":null,"sup_m2":1175.7},"geometry":{"type":"Polygon","coordinates":[[[-58.617985,-34.341753],[-58.618202,-34.341735],[-58.618083,-34.341215],[-58.617865,-34.341234],[-58.617985,-34.341753]]]}},{"type":"Feature","properties":{"partida":"357007103","cca":"357000100000000000000046600C00000000009000","tipo":"Urbano","sup_m2":1174.0},"geometry":{"type":"Polygon","coordinates":[[[-58.617767,-34.341772],[-58.617985,-34.341753],[-58.617865,-34.341234],[-58.617648,-34.341253],[-58.617767,-34.341772]]]}},{"type":"Feature","properties":{"partida":"357007104","cca":"357000100000000000000046600C00000000010000","tipo":"Urbano","sup_m2":969.0},"geometry":{"type":"Polygon","coordinates":[[[-58.617767,-34.341772],[-58.617648,-34.341253],[-58.617478,-34.341268],[-58.61758,-34.341789],[-58.617767,-34.341772]]]}},{"type":"Feature","properties":{"partida":"357007105","cca":"357000100000000000000046600C00000000011000","tipo":"Urbano","sup_m2":1076.1},"geometry":{"type":"Polygon","coordinates":[[[-58.617325,-34.341811],[-58.61758,-34.341789],[-58.617478,-34.341268],[-58.617334,-34.341281],[-58.617325,-34.341811]]]}},{"type":"Feature","properties":{"partida":"357007106","cca":"357000100000000000000046600C00000000012000","tipo":"Urbano","sup_m2":1667.8},"geometry":{"type":"Polygon","coordinates":[[[-58.617325,-34.341811],[-58.617316,-34.342392],[-58.617622,-34.342371],[-58.61758,-34.341789],[-58.617325,-34.341811]]]}},{"type":"Feature","properties":{"partida":"357007107","cca":"357000100000000000000046600C00000000013000","tipo":"Urbano","sup_m2":1127.7},"geometry":{"type":"Polygon","coordinates":[[[-58.61758,-34.341789],[-58.617622,-34.342371],[-58.61781,-34.342359],[-58.617767,-34.341772],[-58.61758,-34.341789]]]}},{"type":"Feature","properties":{"partida":"357007108","cca":"357000100000000000000046600C00000000014000","tipo":"Urbano","sup_m2":1322.0},"geometry":{"type":"Polygon","coordinates":[[[-58.617985,-34.341753],[-58.617767,-34.341772],[-58.61781,-34.342359],[-58.61803,-34.342344],[-58.617985,-34.341753]]]}},{"type":"Feature","properties":{"partida":"357007109","cca":"357000100000000000000046600C00000000015000","tipo":"Urbano","sup_m2":1315.8},"geometry":{"type":"Polygon","coordinates":[[[-58.617985,-34.341753],[-58.61803,-34.342344],[-58.618245,-34.342329],[-58.618202,-34.341735],[-58.617985,-34.341753]]]}},{"type":"Feature","properties":{"partida":"357007110","cca":"357000100000000000000046600C00000000016000","tipo":"Urbano","sup_m2":1283.8},"geometry":{"type":"Polygon","coordinates":[[[-58.618202,-34.341735],[-58.618245,-34.342329],[-58.618456,-34.342315],[-58.61841,-34.341716],[-58.618202,-34.341735]]]}},{"type":"Feature","properties":{"partida":"357007111","cca":"357000100000000000000046600C00000000017000","tipo":"Urbano","sup_m2":1173.4},"geometry":{"type":"Polygon","coordinates":[[[-58.618601,-34.341699],[-58.61841,-34.341716],[-58.618456,-34.342315],[-58.618645,-34.342302],[-58.618601,-34.341699]]]}},{"type":"Feature","properties":{"partida":"357007112","cca":"357000100000000000000046600C00000000018000","tipo":"Urbano","sup_m2":1174.0},"geometry":{"type":"Polygon","coordinates":[[[-58.618601,-34.341699],[-58.618645,-34.342302],[-58.618836,-34.342289],[-58.618788,-34.341682],[-58.618601,-34.341699]]]}},{"type":"Feature","properties":{"partida":"357007113","cca":"357000100000000000000046600C00000000019000","tipo":"Urbano","sup_m2":1214.0},"geometry":{"type":"Polygon","coordinates":[[[-58.618788,-34.341682],[-58.618836,-34.342289],[-58.619028,-34.342276],[-58.618985,-34.341665],[-58.618788,-34.341682]]]}},{"type":"Feature","properties":{"partida":"357007114","cca":"357000100000000000000046600C00000000020000","tipo":"Urbano","sup_m2":1497.1},"geometry":{"type":"Polygon","coordinates":[[[-58.618985,-34.341665],[-58.619028,-34.342276],[-58.619266,-34.34226],[-58.619221,-34.341644],[-58.618985,-34.341665]]]}},{"type":"Feature","properties":{"partida":"357007115","cca":"357000100000000000000046600C00000000021000","tipo":"Urbano","sup_m2":1256.2},"geometry":{"type":"Polygon","coordinates":[[[-58.619221,-34.341644],[-58.619266,-34.34226],[-58.619466,-34.342247],[-58.619418,-34.341627],[-58.619221,-34.341644]]]}},{"type":"Feature","properties":{"partida":"357007116","cca":"357000100000000000000046600C00000000022000","tipo":"Urbano","sup_m2":1553.8},"geometry":{"type":"Polygon","coordinates":[[[-58.619665,-34.341605],[-58.619418,-34.341627],[-58.619466,-34.342247],[-58.619705,-34.342231],[-58.619665,-34.341605]]]}},{"type":"Feature","properties":{"partida":"357007117","cca":"357000100000000000000046600D00000000001000","tipo":"Urbano","sup_m2":546.8},"geometry":{"type":"Polygon","coordinates":[[[-58.617181,-34.341735],[-58.617197,-34.341298],[-58.617026,-34.341315],[-58.617107,-34.341743],[-58.617181,-34.341735]]]}},{"type":"Feature","properties":{"partida":"357007118","cca":"357000100000000000000046600D00000000002000","tipo":"Urbano","sup_m2":575.9},"geometry":{"type":"Polygon","coordinates":[[[-58.616994,-34.341756],[-58.617107,-34.341743],[-58.617026,-34.341315],[-58.616881,-34.34133],[-58.616994,-34.341756]]]}},{"type":"Feature","properties":{"partida":"357007119","cca":"357000100000000000000046600D00000000003000","tipo":"Urbano","sup_m2":654.5},"geometry":{"type":"Polygon","coordinates":[[[-58.616855,-34.341773],[-58.616994,-34.341756],[-58.616881,-34.34133],[-58.616729,-34.341345],[-58.616855,-34.341773]]]}},{"type":"Feature","properties":{"partida":"357007120","cca":"357000100000000000000046600D00000000004000","tipo":"Urbano","sup_m2":745.9},"geometry":{"type":"Polygon","coordinates":[[[-58.616855,-34.341773],[-58.616729,-34.341345],[-58.61657,-34.341361],[-58.616685,-34.341793],[-58.616855,-34.341773]]]}},{"type":"Feature","properties":{"partida":"357007121","cca":"357000100000000000000046600D00000000005000","tipo":"Urbano","sup_m2":745.2},"geometry":{"type":"Polygon","coordinates":[[[-58.616522,-34.341813],[-58.616685,-34.341793],[-58.61657,-34.341361],[-58.616406,-34.341377],[-58.616522,-34.341813]]]}},{"type":"Feature","properties":{"partida":"357007122","cca":"357000100000000000000046600D00000000006000","tipo":"Urbano","sup_m2":888.8},"geometry":{"type":"Polygon","coordinates":[[[-58.616522,-34.341813],[-58.616406,-34.341377],[-58.616214,-34.341396],[-58.616328,-34.341836],[-58.616522,-34.341813]]]}},{"type":"Feature","properties":{"partida":"357007123","cca":"357000100000000000000046600D00000000007000","tipo":"Urbano","sup_m2":859.6},"geometry":{"type":"Polygon","coordinates":[[[-58.616328,-34.341836],[-58.616214,-34.341396],[-58.616023,-34.341415],[-58.616149,-34.341858],[-58.616328,-34.341836]]]}},{"type":"Feature","properties":{"partida":"357007124","cca":"357000100000000000000046600D00000000008000","tipo":"Urbano","sup_m2":926.5},"geometry":{"type":"Polygon","coordinates":[[[-58.615947,-34.341882],[-58.616149,-34.341858],[-58.616023,-34.341415],[-58.61583,-34.341434],[-58.615947,-34.341882]]]}},{"type":"Feature","properties":{"partida":"357007125","cca":"357000100000000000000046600D00000000009000","tipo":"Urbano","sup_m2":899.1},"geometry":{"type":"Polygon","coordinates":[[[-58.615947,-34.341882],[-58.61583,-34.341434],[-58.615651,-34.341452],[-58.615746,-34.341908],[-58.615947,-34.341882]]]}},{"type":"Feature","properties":{"partida":"357007126","cca":"357000100000000000000046600D00000000010000","tipo":"Urbano","sup_m2":613.4},"geometry":{"type":"Polygon","coordinates":[[[-58.615558,-34.341928],[-58.615746,-34.341908],[-58.615651,-34.341452],[-58.615581,-34.341459],[-58.615558,-34.341928]]]}},{"type":"Feature","properties":{"partida":"357007127","cca":"357000100000000000000046600D00000000011000","tipo":"Urbano","sup_m2":519.6},"geometry":{"type":"Polygon","coordinates":[[[-58.615624,-34.341921],[-58.615558,-34.341928],[-58.615533,-34.342459],[-58.615658,-34.342455],[-58.615624,-34.341921]]]}},{"type":"Feature","properties":{"partida":"357007128","cca":"357000100000000000000046600D00000000012000","tipo":"Urbano","sup_m2":819.7},"geometry":{"type":"Polygon","coordinates":[[[-58.615746,-34.341908],[-58.615624,-34.341921],[-58.615658,-34.342455],[-58.615833,-34.34245],[-58.615746,-34.341908]]]}},{"type":"Feature","properties":{"partida":"357007129","cca":"357000100000000000000046600D00000000013000","tipo":"Urbano","sup_m2":1040.8},"geometry":{"type":"Polygon","coordinates":[[[-58.615746,-34.341908],[-58.615833,-34.34245],[-58.615997,-34.342444],[-58.615947,-34.341882],[-58.615746,-34.341908]]]}},{"type":"Feature","properties":{"partida":"357007130","cca":"357000100000000000000046600D00000000014000","tipo":"Urbano","sup_m2":1134.1},"geometry":{"type":"Polygon","coordinates":[[[-58.616149,-34.341858],[-58.615947,-34.341882],[-58.615997,-34.342444],[-58.616181,-34.342439],[-58.616149,-34.341858]]]}},{"type":"Feature","properties":{"partida":"357007131","cca":"357000100000000000000046600D00000000015000","tipo":"Urbano","sup_m2":1036.6},"geometry":{"type":"Polygon","coordinates":[[[-58.616149,-34.341858],[-58.616181,-34.342439],[-58.616345,-34.342434],[-58.616328,-34.341836],[-58.616149,-34.341858]]]}},{"type":"Feature","properties":{"partida":"357007132","cca":"357000100000000000000046600D00000000016000","tipo":"Urbano","sup_m2":1199.2},"geometry":{"type":"Polygon","coordinates":[[[-58.616522,-34.341813],[-58.616328,-34.341836],[-58.616345,-34.342434],[-58.616538,-34.342428],[-58.616522,-34.341813]]]}},{"type":"Feature","properties":{"partida":"357007133","cca":"357000100000000000000046600D00000000017000","tipo":"Urbano","sup_m2":995.4},"geometry":{"type":"Polygon","coordinates":[[[-58.616522,-34.341813],[-58.616538,-34.342428],[-58.616688,-34.342423],[-58.616685,-34.341793],[-58.616522,-34.341813]]]}},{"type":"Feature","properties":{"partida":"357007134","cca":"357000100000000000000046600D00000000018000","tipo":"Urbano","sup_m2":1000.4},"geometry":{"type":"Polygon","coordinates":[[[-58.616855,-34.341773],[-58.616685,-34.341793],[-58.616688,-34.342423],[-58.616826,-34.342419],[-58.616855,-34.341773]]]}},{"type":"Feature","properties":{"partida":"357007135","cca":"357000100000000000000046600D00000000019000","tipo":"Urbano","sup_m2":906.6},"geometry":{"type":"Polygon","coordinates":[[[-58.616855,-34.341773],[-58.616826,-34.342419],[-58.61696,-34.342415],[-58.616994,-34.341756],[-58.616855,-34.341773]]]}},{"type":"Feature","properties":{"partida":"357007136","cca":"357000100000000000000046600D00000000020000","tipo":"Urbano","sup_m2":685.4},"geometry":{"type":"Polygon","coordinates":[[[-58.616994,-34.341756],[-58.61696,-34.342415],[-58.61705,-34.342412],[-58.617107,-34.341743],[-58.616994,-34.341756]]]}},{"type":"Feature","properties":{"partida":"357007137","cca":"357000100000000000000046600D00000000021000","tipo":"Urbano","sup_m2":617.1},"geometry":{"type":"Polygon","coordinates":[[[-58.617181,-34.341735],[-58.617107,-34.341743],[-58.61705,-34.342412],[-58.617156,-34.342409],[-58.617181,-34.341735]]]}},{"type":"Feature","properties":{"partida":"357007143","cca":"357000100000000000000046600E00000000005000","tipo":"Urbano","sup_m2":1551.1},"geometry":{"type":"Polygon","coordinates":[[[-58.623278,-34.342489],[-58.623348,-34.342301],[-58.622724,-34.341936],[-58.62257,-34.342073],[-58.623278,-34.342489]]]}},{"type":"Feature","properties":{"partida":"357007144","cca":"357000100000000000000046600E00000000006000","tipo":"Urbano","sup_m2":1670.8},"geometry":{"type":"Polygon","coordinates":[[[-58.62257,-34.342073],[-58.622547,-34.342093],[-58.62244,-34.342099],[-58.62268,-34.342517],[-58.623278,-34.342489],[-58.62257,-34.342073]]]}},{"type":"Feature","properties":{"partida":"357007145","cca":"357000100000000000000046600E00000000007000","tipo":"Urbano","sup_m2":1479.8},"geometry":{"type":"Polygon","coordinates":[[[-58.622197,-34.342115],[-58.622247,-34.342538],[-58.62268,-34.342517],[-58.62244,-34.342099],[-58.622197,-34.342115]]]}},{"type":"Feature","properties":{"partida":"357007146","cca":"357000100000000000000046600E00000000008000","tipo":"Urbano","sup_m2":1286.1},"geometry":{"type":"Polygon","coordinates":[[[-58.62193,-34.342553],[-58.622247,-34.342538],[-58.622197,-34.342115],[-58.621915,-34.342138],[-58.62193,-34.342553]]]}},{"type":"Feature","properties":{"partida":"357007147","cca":"357000100000000000000046600E00000000009000","tipo":"Urbano","sup_m2":1762.5},"geometry":{"type":"Polygon","coordinates":[[[-58.62194,-34.342908],[-58.621915,-34.342138],[-58.621663,-34.342159],[-58.621745,-34.34292],[-58.62194,-34.342908]]]}},{"type":"Feature","properties":{"partida":"357007148","cca":"357000100000000000000046600E00000000010000","tipo":"Urbano","sup_m2":1481.6},"geometry":{"type":"Polygon","coordinates":[[[-58.621745,-34.34292],[-58.621663,-34.342159],[-58.621473,-34.342175],[-58.621556,-34.342932],[-58.621745,-34.34292]]]}},{"type":"Feature","properties":{"partida":"357007149","cca":"357000100000000000000046600E00000000011000","tipo":"Urbano","sup_m2":1390.7},"geometry":{"type":"Polygon","coordinates":[[[-58.621376,-34.342943],[-58.621556,-34.342932],[-58.621473,-34.342175],[-58.621295,-34.34219],[-58.621376,-34.342943]]]}},{"type":"Feature","properties":{"partida":null,"cca":"357000100000000000000046600E00000000012000","tipo":null,"sup_m2":1455.7},"geometry":{"type":"Polygon","coordinates":[[[-58.621376,-34.342943],[-58.621295,-34.34219],[-58.621111,-34.342205],[-58.621183,-34.342954],[-58.621376,-34.342943]]]}},{"type":"Feature","properties":{"partida":"357007151","cca":"357000100000000000000046600E00000000013000","tipo":"Urbano","sup_m2":1446.2},"geometry":{"type":"Polygon","coordinates":[[[-58.620998,-34.342966],[-58.621183,-34.342954],[-58.621111,-34.342205],[-58.62092,-34.34222],[-58.620998,-34.342966]]]}},{"type":"Feature","properties":{"partida":null,"cca":"357000100000000000000046600E00000000014000","tipo":null,"sup_m2":1448.2},"geometry":{"type":"Polygon","coordinates":[[[-58.620998,-34.342966],[-58.62092,-34.34222],[-58.620732,-34.342236],[-58.620807,-34.342977],[-58.620998,-34.342966]]]}},{"type":"Feature","properties":{"partida":"357007153","cca":"357000100000000000000046600E00000000015000","tipo":"Urbano","sup_m2":1444.0},"geometry":{"type":"Polygon","coordinates":[[[-58.62062,-34.342989],[-58.620807,-34.342977],[-58.620732,-34.342236],[-58.62054,-34.342252],[-58.62062,-34.342989]]]}},{"type":"Feature","properties":{"partida":null,"cca":"357000100000000000000046600E00000000016000","tipo":null,"sup_m2":1417.0},"geometry":{"type":"Polygon","coordinates":[[[-58.62062,-34.342989],[-58.62054,-34.342252],[-58.620354,-34.342267],[-58.620431,-34.343],[-58.62062,-34.342989]]]}},{"type":"Feature","properties":{"partida":"357007155","cca":"357000100000000000000046600E00000000017000","tipo":"Urbano","sup_m2":1419.9},"geometry":{"type":"Polygon","coordinates":[[[-58.620243,-34.343012],[-58.620431,-34.343],[-58.620354,-34.342267],[-58.620164,-34.342283],[-58.620243,-34.343012]]]}},{"type":"Feature","properties":{"partida":"357007156","cca":"357000100000000000000046600E00000000018000","tipo":"Urbano","sup_m2":2514.2},"geometry":{"type":"Polygon","coordinates":[[[-58.620164,-34.342283],[-58.619862,-34.342308],[-58.61987,-34.343034],[-58.620243,-34.343012],[-58.620164,-34.342283]]]}},{"type":"Feature","properties":{"partida":"357007162","cca":"357000100000000000000046600E0000000001900G","tipo":"Urbano","sup_m2":548.9},"geometry":{"type":"Polygon","coordinates":[[[-58.623053,-34.342499],[-58.62286,-34.342509],[-58.622885,-34.342788],[-58.623077,-34.342776],[-58.623053,-34.342499]]]}},{"type":"Feature","properties":{"partida":"357007163","cca":"357000100000000000000046600E0000000001900H","tipo":"Urbano","sup_m2":521.0},"geometry":{"type":"Polygon","coordinates":[[[-58.62286,-34.342509],[-58.62268,-34.342517],[-58.622704,-34.342799],[-58.622885,-34.342788],[-58.62286,-34.342509]]]}},{"type":"Feature","properties":{"partida":"357007164","cca":"357000100000000000000046600E0000000001900J","tipo":"Rural","sup_m2":2722.3},"geometry":{"type":"Polygon","coordinates":[[[-58.62268,-34.342517],[-58.62193,-34.342553],[-58.62194,-34.342908],[-58.622709,-34.342862],[-58.62268,-34.342517]]]}},{"type":"Feature","properties":{"partida":"357007169","cca":"357000100000000000000046600F00000000001000","tipo":"Urbano","sup_m2":1599.8},"geometry":{"type":"Polygon","coordinates":[[[-58.619543,-34.343054],[-58.619718,-34.343043],[-58.619748,-34.342325],[-58.619485,-34.342345],[-58.619543,-34.343054]]]}},{"type":"Feature","properties":{"partida":"357007170","cca":"357000100000000000000046600F00000000002000","tipo":"Urbano","sup_m2":1442.3},"geometry":{"type":"Polygon","coordinates":[[[-58.619287,-34.34236],[-58.619344,-34.343066],[-58.619543,-34.343054],[-58.619485,-34.342345],[-58.619287,-34.34236]]]}},{"type":"Feature","properties":{"partida":"357007171","cca":"357000100000000000000046600F00000000003000","tipo":"Urbano","sup_m2":1480.6},"geometry":{"type":"Polygon","coordinates":[[[-58.619081,-34.342375],[-58.619141,-34.343078],[-58.619344,-34.343066],[-58.619287,-34.34236],[-58.619081,-34.342375]]]}},{"type":"Feature","properties":{"partida":"357007172","cca":"357000100000000000000046600F00000000004000","tipo":"Urbano","sup_m2":1378.4},"geometry":{"type":"Polygon","coordinates":[[[-58.618885,-34.34239],[-58.618955,-34.34309],[-58.619141,-34.343078],[-58.619081,-34.342375],[-58.618885,-34.34239]]]}},{"type":"Feature","properties":{"partida":"357007173","cca":"357000100000000000000046600F00000000005000","tipo":"Urbano","sup_m2":1487.3},"geometry":{"type":"Polygon","coordinates":[[[-58.61868,-34.342405],[-58.618746,-34.343102],[-58.618955,-34.34309],[-58.618885,-34.34239],[-58.61868,-34.342405]]]}},{"type":"Feature","properties":{"partida":"357007174","cca":"357000100000000000000046600F00000000006000","tipo":"Urbano","sup_m2":1374.1},"geometry":{"type":"Polygon","coordinates":[[[-58.618489,-34.342419],[-58.618552,-34.343114],[-58.618746,-34.343102],[-58.61868,-34.342405],[-58.618489,-34.342419]]]}},{"type":"Feature","properties":{"partida":"357007175","cca":"357000100000000000000046600F00000000007000","tipo":"Urbano","sup_m2":1427.9},"geometry":{"type":"Polygon","coordinates":[[[-58.618288,-34.342434],[-58.618352,-34.343126],[-58.618552,-34.343114],[-58.618489,-34.342419],[-58.618288,-34.342434]]]}},{"type":"Feature","properties":{"partida":"357007176","cca":"357000100000000000000046600F00000000008000","tipo":"Urbano","sup_m2":1359.8},"geometry":{"type":"Polygon","coordinates":[[[-58.618099,-34.342448],[-58.618158,-34.343138],[-58.618352,-34.343126],[-58.618288,-34.342434],[-58.618099,-34.342448]]]}},{"type":"Feature","properties":{"partida":"357007177","cca":"357000100000000000000046600F00000000009000","tipo":"Urbano","sup_m2":1428.3},"geometry":{"type":"Polygon","coordinates":[[[-58.617894,-34.342464],[-58.617959,-34.34315],[-58.618158,-34.343138],[-58.618099,-34.342448],[-58.617894,-34.342464]]]}},{"type":"Feature","properties":{"partida":"357007178","cca":"357000100000000000000046600F00000000010000","tipo":"Urbano","sup_m2":1391.9},"geometry":{"type":"Polygon","coordinates":[[[-58.617698,-34.342478],[-58.61776,-34.343162],[-58.617959,-34.34315],[-58.617894,-34.342464],[-58.617698,-34.342478]]]}},{"type":"Feature","properties":{"partida":"357007179","cca":"357000100000000000000046600F00000000011000","tipo":"Urbano","sup_m2":2854.0},"geometry":{"type":"Polygon","coordinates":[[[-58.617698,-34.342478],[-58.617337,-34.342505],[-58.617305,-34.34319],[-58.61776,-34.343162],[-58.617698,-34.342478]]]}},{"type":"Feature","properties":{"partida":"357007180","cca":"357000100000000000000046600G00000000001000","tipo":"Urbano","sup_m2":1096.3},"geometry":{"type":"Polygon","coordinates":[[[-58.617032,-34.343206],[-58.617186,-34.343197],[-58.617178,-34.342503],[-58.617023,-34.342509],[-58.617032,-34.343206]]]}},{"type":"Feature","properties":{"partida":"357007181","cca":"357000100000000000000046600G00000000002000","tipo":"Urbano","sup_m2":1100.7},"geometry":{"type":"Polygon","coordinates":[[[-58.616878,-34.343215],[-58.617032,-34.343206],[-58.617023,-34.342509],[-58.616869,-34.342516],[-58.616878,-34.343215]]]}},{"type":"Feature","properties":{"partida":"357007182","cca":"357000100000000000000046600G00000000003000","tipo":"Urbano","sup_m2":1106.3},"geometry":{"type":"Polygon","coordinates":[[[-58.616723,-34.343225],[-58.616878,-34.343215],[-58.616869,-34.342516],[-58.616715,-34.342522],[-58.616723,-34.343225]]]}},{"type":"Feature","properties":{"partida":"357007183","cca":"357000100000000000000046600G00000000004000","tipo":"Urbano","sup_m2":1111.6},"geometry":{"type":"Polygon","coordinates":[[[-58.616569,-34.343234],[-58.616723,-34.343225],[-58.616715,-34.342522],[-58.61656,-34.342528],[-58.616569,-34.343234]]]}},{"type":"Feature","properties":{"partida":"357007184","cca":"357000100000000000000046600G00000000005000","tipo":"Urbano","sup_m2":1116.4},"geometry":{"type":"Polygon","coordinates":[[[-58.616415,-34.343244],[-58.616569,-34.343234],[-58.61656,-34.342528],[-58.616406,-34.342534],[-58.616415,-34.343244]]]}},{"type":"Feature","properties":{"partida":"357007185","cca":"357000100000000000000046600G00000000006000","tipo":"Urbano","sup_m2":1122.0},"geometry":{"type":"Polygon","coordinates":[[[-58.61626,-34.343253],[-58.616415,-34.343244],[-58.616406,-34.342534],[-58.616252,-34.34254],[-58.61626,-34.343253]]]}},{"type":"Feature","properties":{"partida":"357007186","cca":"357000100000000000000046600G00000000007000","tipo":"Urbano","sup_m2":1127.2},"geometry":{"type":"Polygon","coordinates":[[[-58.616106,-34.343262],[-58.61626,-34.343253],[-58.616252,-34.34254],[-58.616097,-34.342546],[-58.616106,-34.343262]]]}},{"type":"Feature","properties":{"partida":"357007187","cca":"357000100000000000000046600G00000000008000","tipo":"Urbano","sup_m2":1132.4},"geometry":{"type":"Polygon","coordinates":[[[-58.615952,-34.343272],[-58.616106,-34.343262],[-58.616097,-34.342546],[-58.615943,-34.342552],[-58.615952,-34.343272]]]}},{"type":"Feature","properties":{"partida":"357007188","cca":"357000100000000000000046600G00000000009000","tipo":"Urbano","sup_m2":1137.6},"geometry":{"type":"Polygon","coordinates":[[[-58.615797,-34.343281],[-58.615952,-34.343272],[-58.615943,-34.342552],[-58.615789,-34.342558],[-58.615797,-34.343281]]]}},{"type":"Feature","properties":{"partida":"357007189","cca":"357000100000000000000046600G00000000010000","tipo":"Urbano","sup_m2":1142.8},"geometry":{"type":"Polygon","coordinates":[[[-58.615643,-34.34329],[-58.615797,-34.343281],[-58.615789,-34.342558],[-58.615634,-34.342564],[-58.615643,-34.34329]]]}},{"type":"Feature","properties":{"partida":"357007190","cca":"357000100000000000000046600G00000000011000","tipo":"Urbano","sup_m2":959.0},"geometry":{"type":"Polygon","coordinates":[[[-58.615634,-34.342564],[-58.615527,-34.342568],[-58.615492,-34.343299],[-58.615643,-34.34329],[-58.615634,-34.342564]]]}},{"type":"Feature","properties":{"partida":"357011723","cca":"357000100000000000000058400000000000005000","tipo":"Rural","sup_m2":177447.8},"geometry":{"type":"Polygon","coordinates":[[[-58.601003,-34.329083],[-58.605819,-34.324861],[-58.60565,-34.324599],[-58.605625,-34.324543],[-58.605524,-34.324398],[-58.605469,-34.324272],[-58.605415,-34.324199],[-58.60542,-34.324088],[-58.605471,-34.323952],[-58.60548,-34.323828],[-58.605363,-34.323024],[-58.60538,-34.322891],[-58.605315,-34.322779],[-58.605288,-34.322653],[-58.605262,-34.322589],[-58.605214,-34.322506],[-58.60524,-34.322448],[-58.605376,-34.322355],[-58.605379,-34.322181],[-58.605388,-34.322025],[-58.605342,-34.321897],[-58.605329,-34.321844],[-58.605351,-34.32173],[-58.605357,-34.321629],[-58.6054,-34.321544],[-58.605501,-34.321485],[-58.605558,-34.321219],[-58.604916,-34.321192],[-58.60084,-34.326145],[-58.601003,-34.329083]]]}},{"type":"Feature","properties":{"partida":"357011724","cca":"35700010000000000000005840000000000000600A","tipo":"Rural","sup_m2":208143.6},"geometry":{"type":"Polygon","coordinates":[[[-58.602223,-34.332483],[-58.604913,-34.328997],[-58.607512,-34.327672],[-58.606786,-34.327275],[-58.606181,-34.326812],[-58.605393,-34.325874],[-58.606146,-34.325444],[-58.606085,-34.32508],[-58.605819,-34.324861],[-58.601003,-34.329083],[-58.601141,-34.331568],[-58.600407,-34.332868],[-58.602223,-34.332483]]]}},{"type":"Feature","properties":{"partida":"357019098","cca":"35700010000000000000005840000000000000600B","tipo":"Urbano","sup_m2":1399.3},"geometry":{"type":"Polygon","coordinates":[[[-58.606146,-34.325444],[-58.605393,-34.325874],[-58.605495,-34.325995],[-58.606268,-34.325554],[-58.606146,-34.325444]]]}},{"type":"Feature","properties":{"partida":"357019099","cca":"35700010000000000000005840000000000000600C","tipo":"Urbano","sup_m2":1468.4},"geometry":{"type":"Polygon","coordinates":[[[-58.605597,-34.326117],[-58.60643,-34.325639],[-58.606268,-34.325554],[-58.605495,-34.325995],[-58.605597,-34.326117]]]}},{"type":"Feature","properties":{"partida":"357019100","cca":"35700010000000000000005840000000000000600D","tipo":"Urbano","sup_m2":1499.3},"geometry":{"type":"Polygon","coordinates":[[[-58.605699,-34.326238],[-58.606501,-34.325778],[-58.60643,-34.325639],[-58.605597,-34.326117],[-58.605699,-34.326238]]]}},{"type":"Feature","properties":{"partida":"357019101","cca":"35700010000000000000005840000000000000600E","tipo":"Urbano","sup_m2":1490.3},"geometry":{"type":"Polygon","coordinates":[[[-58.6058,-34.32636],[-58.606616,-34.325895],[-58.606556,-34.32584],[-58.606501,-34.325778],[-58.605699,-34.326238],[-58.6058,-34.32636]]]}},{"type":"Feature","properties":{"partida":"357019102","cca":"35700010000000000000005840000000000000600F","tipo":"Urbano","sup_m2":1467.9},"geometry":{"type":"Polygon","coordinates":[[[-58.605902,-34.326481],[-58.606699,-34.326024],[-58.606616,-34.325895],[-58.6058,-34.32636],[-58.605902,-34.326481]]]}},{"type":"Feature","properties":{"partida":"357019103","cca":"35700010000000000000005840000000000000600G","tipo":"Urbano","sup_m2":1533.5},"geometry":{"type":"Polygon","coordinates":[[[-58.606004,-34.326602],[-58.606869,-34.326109],[-58.606699,-34.326024],[-58.605902,-34.326481],[-58.606004,-34.326602]]]}},{"type":"Feature","properties":{"partida":"357019104","cca":"35700010000000000000005840000000000000600H","tipo":"Urbano","sup_m2":1610.5},"geometry":{"type":"Polygon","coordinates":[[[-58.606106,-34.326724],[-58.606999,-34.326214],[-58.606869,-34.326109],[-58.606004,-34.326602],[-58.606106,-34.326724]]]}},{"type":"Feature","properties":{"partida":"357019105","cca":"35700010000000000000005840000000000000600K","tipo":"Urbano","sup_m2":1677.5},"geometry":{"type":"Polygon","coordinates":[[[-58.606217,-34.32684],[-58.607146,-34.32631],[-58.606999,-34.326214],[-58.606106,-34.326724],[-58.606181,-34.326812],[-58.606217,-34.32684]]]}},{"type":"Feature","properties":{"partida":"357019106","cca":"35700010000000000000005840000000000000600M","tipo":"Urbano","sup_m2":1704.3},"geometry":{"type":"Polygon","coordinates":[[[-58.606351,-34.326943],[-58.607284,-34.32641],[-58.607146,-34.32631],[-58.606217,-34.32684],[-58.606351,-34.326943]]]}},{"type":"Feature","properties":{"partida":"357019107","cca":"35700010000000000000005840000000000000600N","tipo":"Urbano","sup_m2":1670.8},"geometry":{"type":"Polygon","coordinates":[[[-58.606486,-34.327046],[-58.607369,-34.326542],[-58.607284,-34.32641],[-58.606351,-34.326943],[-58.606486,-34.327046]]]}},{"type":"Feature","properties":{"partida":"357019108","cca":"35700010000000000000005840000000000000600P","tipo":"Urbano","sup_m2":1682.4},"geometry":{"type":"Polygon","coordinates":[[[-58.606486,-34.327046],[-58.60662,-34.327148],[-58.607582,-34.326598],[-58.607369,-34.326542],[-58.606486,-34.327046]]]}},{"type":"Feature","properties":{"partida":"357019109","cca":"35700010000000000000005840000000000000600R","tipo":"Urbano","sup_m2":1754.6},"geometry":{"type":"Polygon","coordinates":[[[-58.606755,-34.327251],[-58.607679,-34.326728],[-58.607582,-34.326598],[-58.60662,-34.327148],[-58.606755,-34.327251]]]}},{"type":"Feature","properties":{"partida":"357019110","cca":"35700010000000000000005840000000000000600S","tipo":"Urbano","sup_m2":1619.7},"geometry":{"type":"Polygon","coordinates":[[[-58.606909,-34.327342],[-58.607776,-34.326847],[-58.607679,-34.326728],[-58.606755,-34.327251],[-58.606786,-34.327275],[-58.606909,-34.327342]]]}},{"type":"Feature","properties":{"partida":"357019111","cca":"35700010000000000000005840000000000000600T","tipo":"Urbano","sup_m2":1572.5},"geometry":{"type":"Polygon","coordinates":[[[-58.60707,-34.32743],[-58.607924,-34.32694],[-58.607776,-34.326847],[-58.606909,-34.327342],[-58.60707,-34.32743]]]}},{"type":"Feature","properties":{"partida":"357019112","cca":"35700010000000000000005840000000000000600U","tipo":"Urbano","sup_m2":1598.3},"geometry":{"type":"Polygon","coordinates":[[[-58.607231,-34.327518],[-58.608105,-34.327018],[-58.607924,-34.32694],[-58.60707,-34.32743],[-58.607231,-34.327518]]]}},{"type":"Feature","properties":{"partida":"357019113","cca":"35700010000000000000005840000000000000600V","tipo":"Urbano","sup_m2":1568.4},"geometry":{"type":"Polygon","coordinates":[[[-58.607392,-34.327606],[-58.608215,-34.327139],[-58.608105,-34.327018],[-58.607231,-34.327518],[-58.607392,-34.327606]]]}},{"type":"Feature","properties":{"partida":"357019114","cca":"35700010000000000000005840000000000000600W","tipo":"Urbano","sup_m2":1339.8},"geometry":{"type":"Polygon","coordinates":[[[-58.607392,-34.327606],[-58.607512,-34.327672],[-58.608379,-34.32723],[-58.608215,-34.327139],[-58.607392,-34.327606]]]}},{"type":"Feature","properties":{"partida":"357019115","cca":"35700010000000000000005840000000000000600X","tipo":"Urbano","sup_m2":2717.6},"geometry":{"type":"Polygon","coordinates":[[[-58.607903,-34.328657],[-58.608128,-34.328575],[-58.607512,-34.327672],[-58.607277,-34.327792],[-58.607903,-34.328657]]]}},{"type":"Feature","properties":{"partida":"357019116","cca":"35700010000000000000005840000000000000600Y","tipo":"Urbano","sup_m2":2802.8},"geometry":{"type":"Polygon","coordinates":[[[-58.607041,-34.327912],[-58.607688,-34.328781],[-58.607785,-34.328738],[-58.607903,-34.328657],[-58.607277,-34.327792],[-58.607041,-34.327912]]]}},{"type":"Feature","properties":{"partida":"357019117","cca":"35700010000000000000005840000000000000600Z","tipo":"Urbano","sup_m2":2805.0},"geometry":{"type":"Polygon","coordinates":[[[-58.607448,-34.32888],[-58.607688,-34.328781],[-58.607041,-34.327912],[-58.606805,-34.328032],[-58.607448,-34.32888]]]}},{"type":"Feature","properties":{"partida":"357019118","cca":"3570001000000000000000584000000000000060AB","tipo":"Urbano","sup_m2":2390.2},"geometry":{"type":"Polygon","coordinates":[[[-58.607269,-34.328949],[-58.607448,-34.32888],[-58.606805,-34.328032],[-58.606569,-34.328153],[-58.607269,-34.328949]]]}},{"type":"Feature","properties":{"partida":"357019119","cca":"3570001000000000000000584000000000000060AC","tipo":"Urbano","sup_m2":3105.6},"geometry":{"type":"Polygon","coordinates":[[[-58.607032,-34.329137],[-58.607269,-34.328949],[-58.606569,-34.328153],[-58.606334,-34.328273],[-58.607032,-34.329137]]]}},{"type":"Feature","properties":{"partida":"357019120","cca":"3570001000000000000000584000000000000060AD","tipo":"Urbano","sup_m2":2884.6},"geometry":{"type":"Polygon","coordinates":[[[-58.606757,-34.329214],[-58.607032,-34.329137],[-58.606334,-34.328273],[-58.606098,-34.328393],[-58.606757,-34.329214]]]}},{"type":"Feature","properties":{"partida":"357019121","cca":"3570001000000000000000584000000000000060AE","tipo":"Urbano","sup_m2":2769.5},"geometry":{"type":"Polygon","coordinates":[[[-58.605862,-34.328513],[-58.606526,-34.329335],[-58.606757,-34.329214],[-58.606098,-34.328393],[-58.605862,-34.328513]]]}},{"type":"Feature","properties":{"partida":"357019122","cca":"3570001000000000000000584000000000000060AF","tipo":"Urbano","sup_m2":2898.4},"geometry":{"type":"Polygon","coordinates":[[[-58.605626,-34.328633],[-58.606274,-34.329466],[-58.606526,-34.329335],[-58.605862,-34.328513],[-58.605626,-34.328633]]]}},{"type":"Feature","properties":{"partida":"357019123","cca":"3570001000000000000000584000000000000060AG","tipo":"Urbano","sup_m2":2972.8},"geometry":{"type":"Polygon","coordinates":[[[-58.605391,-34.328753],[-58.606046,-34.329631],[-58.606274,-34.329466],[-58.605626,-34.328633],[-58.605391,-34.328753]]]}},{"type":"Feature","properties":{"partida":"357019124","cca":"3570001000000000000000584000000000000060AH","tipo":"Urbano","sup_m2":2840.9},"geometry":{"type":"Polygon","coordinates":[[[-58.605844,-34.329763],[-58.606046,-34.329631],[-58.605391,-34.328753],[-58.605155,-34.328874],[-58.605844,-34.329763]]]}},{"type":"Feature","properties":{"partida":"357019125","cca":"3570001000000000000000584000000000000060AK","tipo":"Urbano","sup_m2":7250.5},"geometry":{"type":"Polygon","coordinates":[[[-58.604519,-34.329507],[-58.605572,-34.32997],[-58.605621,-34.329919],[-58.60572,-34.329866],[-58.605844,-34.329763],[-58.605155,-34.328874],[-58.604913,-34.328997],[-58.604519,-34.329507]]]}},{"type":"Feature","properties":{"partida":"357019126","cca":"3570001000000000000000584000000000000060AM","tipo":"Urbano","sup_m2":2797.0},"geometry":{"type":"Polygon","coordinates":[[[-58.60435,-34.329727],[-58.605371,-34.330127],[-58.605428,-34.330068],[-58.605572,-34.32997],[-58.604519,-34.329507],[-58.60435,-34.329727]]]}},{"type":"Feature","properties":{"partida":"357019127","cca":"3570001000000000000000584000000000000060AN","tipo":"Urbano","sup_m2":3350.0},"geometry":{"type":"Polygon","coordinates":[[[-58.60417,-34.32996],[-58.605099,-34.330376],[-58.605298,-34.330197],[-58.605371,-34.330127],[-58.60435,-34.329727],[-58.60417,-34.32996]]]}},{"type":"Feature","properties":{"partida":"357019128","cca":"3570001000000000000000584000000000000060AP","tipo":"Urbano","sup_m2":2824.1},"geometry":{"type":"Polygon","coordinates":[[[-58.604002,-34.330177],[-58.604865,-34.330597],[-58.604973,-34.330466],[-58.605099,-34.330376],[-58.60417,-34.32996],[-58.604002,-34.330177]]]}},{"type":"Feature","properties":{"partida":"357019129","cca":"3570001000000000000000584000000000000060AR","tipo":"Urbano","sup_m2":2813.3},"geometry":{"type":"Polygon","coordinates":[[[-58.603825,-34.330407],[-58.604798,-34.330851],[-58.604853,-34.33065],[-58.604865,-34.330597],[-58.604002,-34.330177],[-58.603825,-34.330407]]]}},{"type":"Feature","properties":{"partida":"357019130","cca":"3570001000000000000000584000000000000060AS","tipo":"Urbano","sup_m2":3751.0},"geometry":{"type":"Polygon","coordinates":[[[-58.603637,-34.33065],[-58.604855,-34.331222],[-58.60483,-34.331125],[-58.604798,-34.330851],[-58.603825,-34.330407],[-58.603637,-34.33065]]]}},{"type":"Feature","properties":{"partida":"357019131","cca":"3570001000000000000000584000000000000060AT","tipo":"Urbano","sup_m2":4766.6},"geometry":{"type":"Polygon","coordinates":[[[-58.603446,-34.330898],[-58.605137,-34.331664],[-58.605015,-34.331505],[-58.604855,-34.331222],[-58.603637,-34.33065],[-58.603446,-34.330898]]]}},{"type":"Feature","properties":{"partida":"357019132","cca":"3570001000000000000000584000000000000060AU","tipo":"Urbano","sup_m2":21554.7},"geometry":{"type":"Polygon","coordinates":[[[-58.602223,-34.332483],[-58.605105,-34.331872],[-58.605233,-34.331842],[-58.605137,-34.331664],[-58.603446,-34.330898],[-58.602223,-34.332483]]]}},{"type":"Feature","properties":{"partida":null,"cca":"357000100000000000000058400000000000007000","tipo":null,"sup_m2":11455.6},"geometry":{"type":"Polygon","coordinates":[[[-58.607512,-34.327672],[-58.608128,-34.328575],[-58.608991,-34.328182],[-58.608923,-34.32787],[-58.608379,-34.32723],[-58.607512,-34.327672]]]}},{"type":"Feature","properties":{"partida":"357011825","cca":"357000100000000000000058400D00000000008000","tipo":"Urbano","sup_m2":8808.9},"geometry":{"type":"Polygon","coordinates":[[[-58.603907,-34.332459],[-58.604607,-34.332505],[-58.605724,-34.332579],[-58.605513,-34.332228],[-58.605233,-34.331842],[-58.605105,-34.331872],[-58.603941,-34.332119],[-58.603907,-34.332459]]]}},{"type":"Feature","properties":{"partida":"357011826","cca":"357000100000000000000058400D00000000009000","tipo":"Urbano","sup_m2":3807.2},"geometry":{"type":"Polygon","coordinates":[[[-58.603887,-34.332659],[-58.60445,-34.332693],[-58.605874,-34.332779],[-58.605724,-34.332579],[-58.603907,-34.332459],[-58.603887,-34.332659]]]}},{"type":"Feature","properties":{"partida":"357011827","cca":"357000100000000000000058400D00000000010000","tipo":"Urbano","sup_m2":4173.2},"geometry":{"type":"Polygon","coordinates":[[[-58.603866,-34.332859],[-58.604525,-34.332901],[-58.605942,-34.332982],[-58.605874,-34.332779],[-58.603887,-34.332659],[-58.603866,-34.332859]]]}},{"type":"Feature","properties":{"partida":null,"cca":"357000100000000000000058400D00000000011000","tipo":null,"sup_m2":3757.2},"geometry":{"type":"Polygon","coordinates":[[[-58.606117,-34.333162],[-58.605942,-34.332982],[-58.604525,-34.332901],[-58.603866,-34.332859],[-58.603849,-34.333026],[-58.604586,-34.333073],[-58.606117,-34.333162]]]}},{"type":"Feature","properties":{"partida":"357011829","cca":"357000100000000000000058400D00000000012000","tipo":"Urbano","sup_m2":9497.5},"geometry":{"type":"Polygon","coordinates":[[[-58.606117,-34.333162],[-58.604586,-34.333073],[-58.603849,-34.333026],[-58.603807,-34.333441],[-58.606217,-34.333546],[-58.606186,-34.333364],[-58.606117,-34.333162]]]}},{"type":"Feature","properties":{"partida":null,"cca":"357000100000000000000058400D00000000013000","tipo":null,"sup_m2":2608.3},"geometry":{"type":"Polygon","coordinates":[[[-58.603807,-34.333441],[-58.603887,-34.332659],[-58.603941,-34.332119],[-58.603739,-34.332161],[-58.603612,-34.333433],[-58.603807,-34.333441]]]}},{"type":"Feature","properties":{"partida":null,"cca":"357000100000000000000058400D00000000014000","tipo":null,"sup_m2":2478.3},"geometry":{"type":"Polygon","coordinates":[[[-58.603415,-34.333424],[-58.603612,-34.333433],[-58.603739,-34.332161],[-58.603543,-34.332203],[-58.603415,-34.333424]]]}},{"type":"Feature","properties":{"partida":"357011832","cca":"357000100000000000000058400D00000000015000","tipo":"Urbano","sup_m2":2434.0},"geometry":{"type":"Polygon","coordinates":[[[-58.603336,-34.332247],[-58.603219,-34.333416],[-58.603415,-34.333424],[-58.603543,-34.332203],[-58.603336,-34.332247]]]}},{"type":"Feature","properties":{"partida":"357011833","cca":"357000100000000000000058400D00000000016000","tipo":"Urbano","sup_m2":2421.5},"geometry":{"type":"Polygon","coordinates":[[[-58.603012,-34.333407],[-58.603219,-34.333416],[-58.603336,-34.332247],[-58.603124,-34.332292],[-58.603012,-34.333407]]]}},{"type":"Feature","properties":{"partida":"357011834","cca":"357000100000000000000058400D00000000017000","tipo":"Urbano","sup_m2":2137.9},"geometry":{"type":"Polygon","coordinates":[[[-58.602934,-34.332332],[-58.602815,-34.333398],[-58.603012,-34.333407],[-58.603124,-34.332292],[-58.602934,-34.332332]]]}},{"type":"Feature","properties":{"partida":null,"cca":"357000100000000000000058400D00000000018000","tipo":null,"sup_m2":1632.3},"geometry":{"type":"Polygon","coordinates":[[[-58.602753,-34.332371],[-58.602584,-34.332407],[-58.602485,-34.333384],[-58.60264,-34.33339],[-58.602753,-34.332371]]]}},{"type":"Feature","properties":{"partida":null,"cca":"357000100000000000000058400D00000000019000","tipo":null,"sup_m2":1949.3},"geometry":{"type":"Polygon","coordinates":[[[-58.602286,-34.333375],[-58.602485,-34.333384],[-58.602584,-34.332407],[-58.602379,-34.33245],[-58.602286,-34.333375]]]}},{"type":"Feature","properties":{"partida":"357011837","cca":"357000100000000000000058400D00000000020000","tipo":"Urbano","sup_m2":1758.3},"geometry":{"type":"Polygon","coordinates":[[[-58.602379,-34.33245],[-58.602185,-34.332491],[-58.602093,-34.333367],[-58.602286,-34.333375],[-58.602379,-34.33245]]]}},{"type":"Feature","properties":{"partida":null,"cca":"357000100000000000000058400D00000000021000","tipo":null,"sup_m2":1914.0},"geometry":{"type":"Polygon","coordinates":[[[-58.601875,-34.333357],[-58.602093,-34.333367],[-58.602185,-34.332491],[-58.601956,-34.33254],[-58.601875,-34.333357]]]}},{"type":"Feature","properties":{"partida":"357011839","cca":"357000100000000000000058400D00000000022000","tipo":"Urbano","sup_m2":2175.1},"geometry":{"type":"Polygon","coordinates":[[[-58.601679,-34.332599],[-58.601604,-34.333345],[-58.601875,-34.333357],[-58.601956,-34.33254],[-58.601679,-34.332599]]]}},{"type":"Feature","properties":{"partida":null,"cca":"357000100000000000000058400D00000000023000","tipo":null,"sup_m2":2060.8},"geometry":{"type":"Polygon","coordinates":[[[-58.60132,-34.333333],[-58.601604,-34.333345],[-58.601679,-34.332599],[-58.601388,-34.33266],[-58.60132,-34.333333]]]}},{"type":"Feature","properties":{"partida":"357011842","cca":"357000100000000000000058400E00000000001000","tipo":"Urbano","sup_m2":6587.3},"geometry":{"type":"Polygon","coordinates":[[[-58.606421,-34.334004],[-58.606388,-34.333837],[-58.606342,-34.333718],[-58.604354,-34.333645],[-58.604348,-34.333994],[-58.606421,-34.334004]]]}},{"type":"Feature","properties":{"partida":"357011843","cca":"357000100000000000000058400E00000000002000","tipo":"Urbano","sup_m2":1282.9},"geometry":{"type":"Polygon","coordinates":[[[-58.604143,-34.334272],[-58.604342,-34.334273],[-58.604354,-34.333645],[-58.604155,-34.333638],[-58.604143,-34.334272]]]}},{"type":"Feature","properties":{"partida":null,"cca":"357000100000000000000058400E00000000003000","tipo":null,"sup_m2":1266.8},"geometry":{"type":"Polygon","coordinates":[[[-58.603948,-34.33427],[-58.604143,-34.334272],[-58.604155,-34.333638],[-58.60396,-34.333631],[-58.603948,-34.33427]]]}},{"type":"Feature","properties":{"partida":null,"cca":"357000100000000000000058400E00000000004000","tipo":null,"sup_m2":1282.2},"geometry":{"type":"Polygon","coordinates":[[[-58.603753,-34.334269],[-58.603948,-34.33427],[-58.60396,-34.333631],[-58.603765,-34.333623],[-58.603753,-34.334269]]]}},{"type":"Feature","properties":{"partida":null,"cca":"357000100000000000000058400E00000000005000","tipo":null,"sup_m2":1268.0},"geometry":{"type":"Polygon","coordinates":[[[-58.603561,-34.334267],[-58.603753,-34.334269],[-58.603765,-34.333623],[-58.603573,-34.333616],[-58.603561,-34.334267]]]}},{"type":"Feature","properties":{"partida":null,"cca":"357000100000000000000058400E00000000006000","tipo":null,"sup_m2":1300.0},"geometry":{"type":"Polygon","coordinates":[[[-58.603366,-34.334266],[-58.603561,-34.334267],[-58.603573,-34.333616],[-58.60338,-34.333609],[-58.603366,-34.334266]]]}},{"type":"Feature","properties":{"partida":null,"cca":"357000100000000000000058400E00000000007000","tipo":null,"sup_m2":4172.9},"geometry":{"type":"Polygon","coordinates":[[[-58.602725,-34.334261],[-58.603366,-34.334266],[-58.60338,-34.333609],[-58.602795,-34.333587],[-58.602725,-34.334261]]]}},{"type":"Feature","properties":{"partida":null,"cca":"357000100000000000000058400E00000000008000","tipo":null,"sup_m2":3888.2},"geometry":{"type":"Polygon","coordinates":[[[-58.602725,-34.334261],[-58.602667,-34.33483],[-58.603355,-34.334842],[-58.603366,-34.334266],[-58.602725,-34.334261]]]}},{"type":"Feature","properties":{"partida":null,"cca":"357000100000000000000058400E00000000009000","tipo":null,"sup_m2":1153.9},"geometry":{"type":"Polygon","coordinates":[[[-58.603561,-34.334267],[-58.603366,-34.334266],[-58.603355,-34.334842],[-58.603551,-34.334846],[-58.603561,-34.334267]]]}},{"type":"Feature","properties":{"partida":"357011851","cca":"357000100000000000000058400E00000000010000","tipo":"Urbano","sup_m2":1134.3},"geometry":{"type":"Polygon","coordinates":[[[-58.603753,-34.334269],[-58.603561,-34.334267],[-58.603551,-34.334846],[-58.603743,-34.334849],[-58.603753,-34.334269]]]}},{"type":"Feature","properties":{"partida":null,"cca":"357000100000000000000058400E00000000011000","tipo":null,"sup_m2":1159.0},"geometry":{"type":"Polygon","coordinates":[[[-58.603948,-34.33427],[-58.603753,-34.334269],[-58.603743,-34.334849],[-58.603938,-34.334852],[-58.603948,-34.33427]]]}},{"type":"Feature","properties":{"partida":null,"cca":"357000100000000000000058400E00000000012000","tipo":null,"sup_m2":1162.8},"geometry":{"type":"Polygon","coordinates":[[[-58.603948,-34.33427],[-58.603938,-34.334852],[-58.604133,-34.334856],[-58.604143,-34.334272],[-58.603948,-34.33427]]]}},{"type":"Feature","properties":{"partida":null,"cca":"357000100000000000000058400E00000000013000","tipo":null,"sup_m2":1186.0},"geometry":{"type":"Polygon","coordinates":[[[-58.604342,-34.334273],[-58.604143,-34.334272],[-58.604133,-34.334856],[-58.604331,-34.334859],[-58.604342,-34.334273]]]}},{"type":"Feature","properties":{"partida":"357011855","cca":"357000100000000000000058400E00000000014000","tipo":"Urbano","sup_m2":1419.3},"geometry":{"type":"Polygon","coordinates":[[[-58.60453,-34.334863],[-58.604543,-34.334161],[-58.604344,-34.33416],[-58.604331,-34.334859],[-58.60453,-34.334863]]]}},{"type":"Feature","properties":{"partida":"357011856","cca":"357000100000000000000058400E00000000015000","tipo":"Urbano","sup_m2":5806.7},"geometry":{"type":"Polygon","coordinates":[[[-58.604535,-34.334562],[-58.60453,-34.334863],[-58.606358,-34.334894],[-58.606353,-34.334854],[-58.606393,-34.334577],[-58.604535,-34.334562]]]}},{"type":"Feature","properties":{"partida":"357011857","cca":"357000100000000000000058400E00000000016000","tipo":"Urbano","sup_m2":3648.1},"geometry":{"type":"Polygon","coordinates":[[[-58.606393,-34.334577],[-58.606302,-34.33438],[-58.604539,-34.334364],[-58.604535,-34.334562],[-58.606393,-34.334577]]]}},{"type":"Feature","properties":{"partida":"357011858","cca":"357000100000000000000058400E00000000017000","tipo":"Urbano","sup_m2":3856.9},"geometry":{"type":"Polygon","coordinates":[[[-58.604543,-34.334161],[-58.604539,-34.334364],[-58.606302,-34.33438],[-58.606315,-34.334343],[-58.606435,-34.334168],[-58.604543,-34.334161]]]}},{"type":"Feature","properties":{"partida":"357011859","cca":"357000100000000000000058400E00000000018000","tipo":"Urbano","sup_m2":3516.6},"geometry":{"type":"Polygon","coordinates":[[[-58.604348,-34.333994],[-58.604344,-34.33416],[-58.606435,-34.334168],[-58.606421,-34.334004],[-58.604348,-34.333994]]]}},{"type":"Feature","properties":{"partida":"357011860","cca":"357000100000000000000058400F00000000001000","tipo":"Urbano","sup_m2":7435.7},"geometry":{"type":"Polygon","coordinates":[[[-58.602544,-34.334251],[-58.602619,-34.333578],[-58.601546,-34.333522],[-58.601547,-34.334253],[-58.602544,-34.334251]]]}},{"type":"Feature","properties":{"partida":null,"cca":"357000100000000000000058400F00000000002000","tipo":null,"sup_m2":1503.4},"geometry":{"type":"Polygon","coordinates":[[[-58.601347,-34.334253],[-58.601547,-34.334253],[-58.601546,-34.333522],[-58.601346,-34.333511],[-58.601347,-34.334253]]]}},{"type":"Feature","properties":{"partida":null,"cca":"357000100000000000000058400F00000000003000","tipo":null,"sup_m2":1497.0},"geometry":{"type":"Polygon","coordinates":[[[-58.60115,-34.334254],[-58.601347,-34.334253],[-58.601346,-34.333511],[-58.601151,-34.333501],[-58.60115,-34.334254]]]}},{"type":"Feature","properties":{"partida":"357011880","cca":"357000100000000000000058400F00000000021000","tipo":"Urbano","sup_m2":1159.7},"geometry":{"type":"Polygon","coordinates":[[[-58.601347,-34.334253],[-58.60115,-34.334254],[-58.60115,-34.334829],[-58.601348,-34.334828],[-58.601347,-34.334253]]]}},{"type":"Feature","properties":{"partida":"357011881","cca":"357000100000000000000058400F00000000022000","tipo":"Urbano","sup_m2":1171.6},"geometry":{"type":"Polygon","coordinates":[[[-58.601547,-34.334253],[-58.601347,-34.334253],[-58.601348,-34.334828],[-58.601547,-34.334828],[-58.601547,-34.334253]]]}},{"type":"Feature","properties":{"partida":null,"cca":"357000100000000000000058400F00000000023000","tipo":null,"sup_m2":5666.1},"geometry":{"type":"Polygon","coordinates":[[[-58.601547,-34.334828],[-58.60248,-34.334826],[-58.602544,-34.334251],[-58.601547,-34.334253],[-58.601547,-34.334828]]]}},{"type":"Feature","properties":{"partida":"357011883","cca":"357000100000000000000058400G00000000001000","tipo":"Urbano","sup_m2":10878.6},"geometry":{"type":"Polygon","coordinates":[[[-58.606282,-34.335598],[-58.606286,-34.335371],[-58.606331,-34.33501],[-58.604522,-34.334996],[-58.604524,-34.335607],[-58.606282,-34.335598]]]}},{"type":"Feature","properties":{"partida":"357019999","cca":"357000100000000000000058400G00000000002000","tipo":"Urbano","sup_m2":1410.2},"geometry":{"type":"Polygon","coordinates":[[[-58.604298,-34.335608],[-58.604524,-34.335607],[-58.604522,-34.334996],[-58.604298,-34.334994],[-58.604298,-34.335608]]]}},{"type":"Feature","properties":{"partida":"357020000","cca":"357000100000000000000058400G00000000003000","tipo":"Urbano","sup_m2":1450.0},"geometry":{"type":"Polygon","coordinates":[[[-58.604068,-34.335609],[-58.604298,-34.335608],[-58.604298,-34.334994],[-58.604067,-34.334992],[-58.604068,-34.335609]]]}},{"type":"Feature","properties":{"partida":"357020001","cca":"357000100000000000000058400G00000000004000","tipo":"Urbano","sup_m2":1410.9},"geometry":{"type":"Polygon","coordinates":[[[-58.603844,-34.335611],[-58.604068,-34.335609],[-58.604067,-34.334992],[-58.603844,-34.33499],[-58.603844,-34.335611]]]}},{"type":"Feature","properties":{"partida":"357020002","cca":"357000100000000000000058400G00000000005000","tipo":"Urbano","sup_m2":1503.9},"geometry":{"type":"Polygon","coordinates":[[[-58.603608,-34.335612],[-58.603844,-34.335611],[-58.603844,-34.33499],[-58.603606,-34.334988],[-58.603608,-34.335612]]]}},{"type":"Feature","properties":{"partida":"357020003","cca":"357000100000000000000058400G00000000006000","tipo":"Urbano","sup_m2":1435.3},"geometry":{"type":"Polygon","coordinates":[[[-58.603383,-34.335613],[-58.603608,-34.335612],[-58.603606,-34.334988],[-58.603381,-34.334987],[-58.603383,-34.335613]]]}},{"type":"Feature","properties":{"partida":"357020004","cca":"357000100000000000000058400G00000000007000","tipo":"Urbano","sup_m2":1447.3},"geometry":{"type":"Polygon","coordinates":[[[-58.603383,-34.335613],[-58.603381,-34.334987],[-58.603157,-34.334985],[-58.603155,-34.335614],[-58.603383,-34.335613]]]}},{"type":"Feature","properties":{"partida":"357011890","cca":"357000100000000000000058400G00000000008000","tipo":"Urbano","sup_m2":1430.4},"geometry":{"type":"Polygon","coordinates":[[[-58.602934,-34.335615],[-58.603155,-34.335614],[-58.603157,-34.334985],[-58.602934,-34.334983],[-58.602934,-34.335615]]]}},{"type":"Feature","properties":{"partida":"357011891","cca":"357000100000000000000058400G00000000009000","tipo":"Urbano","sup_m2":1715.5},"geometry":{"type":"Polygon","coordinates":[[[-58.602678,-34.335617],[-58.602934,-34.335615],[-58.602934,-34.334983],[-58.602661,-34.334981],[-58.602678,-34.335617]]]}},{"type":"Feature","properties":{"partida":"357011892","cca":"357000100000000000000058400G00000000010000","tipo":"Urbano","sup_m2":1560.2},"geometry":{"type":"Polygon","coordinates":[[[-58.603456,-34.335805],[-58.603493,-34.335612],[-58.602678,-34.335617],[-58.602683,-34.335809],[-58.603456,-34.335805]]]}},{"type":"Feature","properties":{"partida":"357011893","cca":"357000100000000000000058400G00000000011000","tipo":"Urbano","sup_m2":1595.0},"geometry":{"type":"Polygon","coordinates":[[[-58.603405,-34.33607],[-58.603456,-34.335805],[-58.602683,-34.335809],[-58.602686,-34.335959],[-58.603405,-34.33607]]]}},{"type":"Feature","properties":{"partida":"357011894","cca":"357000100000000000000058400G00000000012000","tipo":"Urbano","sup_m2":1210.8},"geometry":{"type":"Polygon","coordinates":[[[-58.603631,-34.336106],[-58.603757,-34.335611],[-58.603493,-34.335612],[-58.603405,-34.33607],[-58.603631,-34.336106]]]}},{"type":"Feature","properties":{"partida":"357011895","cca":"357000100000000000000058400G00000000013000","tipo":"Urbano","sup_m2":1184.5},"geometry":{"type":"Polygon","coordinates":[[[-58.603757,-34.335611],[-58.603631,-34.336106],[-58.603851,-34.33614],[-58.603981,-34.33561],[-58.603757,-34.335611]]]}},{"type":"Feature","properties":{"partida":"357020005","cca":"357000100000000000000058400G00000000014000","tipo":"Urbano","sup_m2":1229.3},"geometry":{"type":"Polygon","coordinates":[[[-58.604203,-34.335609],[-58.603981,-34.33561],[-58.603851,-34.33614],[-58.604062,-34.336173],[-58.604203,-34.335609]]]}},{"type":"Feature","properties":{"partida":"357020006","cca":"357000100000000000000058400G00000000015000","tipo":"Urbano","sup_m2":1363.6},"geometry":{"type":"Polygon","coordinates":[[[-58.604203,-34.335609],[-58.604062,-34.336173],[-58.604286,-34.336207],[-58.60443,-34.335608],[-58.604203,-34.335609]]]}},{"type":"Feature","properties":{"partida":"357011898","cca":"357000100000000000000058400G00000000016000","tipo":"Urbano","sup_m2":1395.9},"geometry":{"type":"Polygon","coordinates":[[[-58.60443,-34.335608],[-58.604286,-34.336207],[-58.604498,-34.33624],[-58.604653,-34.335607],[-58.60443,-34.335608]]]}},{"type":"Feature","properties":{"partida":"357011899","cca":"357000100000000000000058400G00000000017000","tipo":"Urbano","sup_m2":1507.9},"geometry":{"type":"Polygon","coordinates":[[[-58.60488,-34.335605],[-58.604653,-34.335607],[-58.604498,-34.33624],[-58.604717,-34.336274],[-58.60488,-34.335605]]]}},{"type":"Feature","properties":{"partida":"357011900","cca":"357000100000000000000058400G00000000018000","tipo":"Urbano","sup_m2":3434.1},"geometry":{"type":"Polygon","coordinates":[[[-58.604743,-34.336166],[-58.604717,-34.336274],[-58.606173,-34.3365],[-58.606184,-34.336454],[-58.606232,-34.336158],[-58.604743,-34.336166]]]}},{"type":"Feature","properties":{"partida":"357011901","cca":"357000100000000000000058400G00000000019000","tipo":"Urbano","sup_m2":2771.9},"geometry":{"type":"Polygon","coordinates":[[[-58.606217,-34.335972],[-58.604789,-34.335978],[-58.604743,-34.336166],[-58.606232,-34.336158],[-58.606217,-34.335972]]]}},{"type":"Feature","properties":{"partida":"357011902","cca":"357000100000000000000058400G00000000020000","tipo":"Urbano","sup_m2":2680.6},"geometry":{"type":"Polygon","coordinates":[[[-58.604789,-34.335978],[-58.606217,-34.335972],[-58.606222,-34.33591],[-58.606279,-34.335779],[-58.605721,-34.335794],[-58.604833,-34.335797],[-58.604789,-34.335978]]]}},{"type":"Feature","properties":{"partida":"357011903","cca":"357000100000000000000058400G00000000021000","tipo":"Urbano","sup_m2":2762.4},"geometry":{"type":"Polygon","coordinates":[[[-58.604833,-34.335797],[-58.605721,-34.335794],[-58.606279,-34.335779],[-58.606282,-34.335598],[-58.60488,-34.335605],[-58.604833,-34.335797]]]}},{"type":"Feature","properties":{"partida":"357011904","cca":"357000100000000000000058400H00000000001000","tipo":"Urbano","sup_m2":1225.1},"geometry":{"type":"Polygon","coordinates":[[[-58.602489,-34.335539],[-58.602477,-34.33498],[-58.602265,-34.33498],[-58.602273,-34.335541],[-58.602489,-34.335539]]]}},{"type":"Feature","properties":{"partida":"357011905","cca":"357000100000000000000058400H00000000002000","tipo":"Urbano","sup_m2":1186.4},"geometry":{"type":"Polygon","coordinates":[[[-58.602273,-34.335541],[-58.602265,-34.33498],[-58.602057,-34.33498],[-58.602068,-34.335543],[-58.602273,-34.335541]]]}},{"type":"Feature","properties":{"partida":"357011906","cca":"357000100000000000000058400H00000000003000","tipo":"Urbano","sup_m2":1243.8},"geometry":{"type":"Polygon","coordinates":[[[-58.60185,-34.335546],[-58.602068,-34.335543],[-58.602057,-34.33498],[-58.601843,-34.33498],[-58.60185,-34.335546]]]}},{"type":"Feature","properties":{"partida":"357005262","cca":"357000100000000000000058400H00000000004000","tipo":"Urbano","sup_m2":1332.1},"geometry":{"type":"Polygon","coordinates":[[[-58.60185,-34.335593],[-58.601843,-34.33498],[-58.601631,-34.33498],[-58.601638,-34.335596],[-58.60185,-34.335593]]]}},{"type":"Feature","properties":{"partida":"357011907","cca":"357000100000000000000058400H00000000005000","tipo":"Urbano","sup_m2":1361.4},"geometry":{"type":"Polygon","coordinates":[[[-58.601638,-34.335596],[-58.601631,-34.33498],[-58.601414,-34.33498],[-58.601422,-34.335599],[-58.601638,-34.335596]]]}},{"type":"Feature","properties":{"partida":"357005263","cca":"357000100000000000000058400H00000000006000","tipo":"Urbano","sup_m2":1418.1},"geometry":{"type":"Polygon","coordinates":[[[-58.601198,-34.335602],[-58.601422,-34.335599],[-58.601414,-34.33498],[-58.601191,-34.33498],[-58.601198,-34.335602]]]}},{"type":"Feature","properties":{"partida":"357011908","cca":"357000100000000000000058400H00000000007000","tipo":"Urbano","sup_m2":1594.2},"geometry":{"type":"Polygon","coordinates":[[[-58.6012,-34.335728],[-58.601191,-34.33498],[-58.600977,-34.334979],[-58.600986,-34.335695],[-58.6012,-34.335728]]]}},{"type":"Feature","properties":{"partida":"357005264","cca":"357000100000000000000058400H00000000015000","tipo":"Urbano","sup_m2":1206.5},"geometry":{"type":"Polygon","coordinates":[[[-58.601853,-34.335829],[-58.60185,-34.335593],[-58.601198,-34.335602],[-58.6012,-34.335728],[-58.601853,-34.335829]]]}},{"type":"Feature","properties":{"partida":null,"cca":"357000100000000000000058400H00000000016000","tipo":null,"sup_m2":1046.8},"geometry":{"type":"Polygon","coordinates":[[[-58.602493,-34.335716],[-58.601852,-34.335723],[-58.601853,-34.335829],[-58.602498,-34.335929],[-58.602493,-34.335716]]]}},{"type":"Feature","properties":{"partida":"357011917","cca":"357000100000000000000058400H00000000017000","tipo":"Urbano","sup_m2":1156.9},"geometry":{"type":"Polygon","coordinates":[[[-58.602489,-34.335539],[-58.60185,-34.335546],[-58.601852,-34.335723],[-58.602493,-34.335716],[-58.602489,-34.335539]]]}},{"type":"Feature","properties":{"partida":"357011928","cca":"35700010000000000000005890000000000000100A","tipo":"Rural","sup_m2":241125.3},"geometry":{"type":"Polygon","coordinates":[[[-58.59867,-34.335405],[-58.598774,-34.335869],[-58.598829,-34.336429],[-58.598826,-34.336542],[-58.599192,-34.337785],[-58.599349,-34.339484],[-58.599365,-34.339936],[-58.606404,-34.338765],[-58.60624,-34.338416],[-58.606171,-34.337853],[-58.606152,-34.337783],[-58.606133,-34.337691],[-58.606161,-34.33764],[-58.605876,-34.337659],[-58.605757,-34.337637],[-58.605654,-34.337605],[-58.605379,-34.337547],[-58.6052,-34.337502],[-58.605056,-34.337461],[-58.605032,-34.337416],[-58.605022,-34.337348],[-58.604994,-34.337347],[-58.604987,-34.337312],[-58.605563,-34.33729],[-58.606158,-34.337295],[-58.606086,-34.336841],[-58.606156,-34.336566],[-58.59867,-34.335405]]]}},{"type":"Feature","properties":{"partida":"357017912","cca":"35700010000000000000005890000000000000100B","tipo":"Urbano","sup_m2":3257.3},"geometry":{"type":"Polygon","coordinates":[[[-58.606158,-34.337295],[-58.605563,-34.33729],[-58.604987,-34.337312],[-58.604994,-34.337347],[-58.605022,-34.337348],[-58.605032,-34.337416],[-58.605056,-34.337461],[-58.6052,-34.337502],[-58.605379,-34.337547],[-58.605654,-34.337605],[-58.605757,-34.337637],[-58.605876,-34.337659],[-58.605894,-34.337659],[-58.606161,-34.33764],[-58.606121,-34.337522],[-58.606158,-34.337295]]]}},{"type":"Feature","properties":{"partida":"357011929","cca":"35700010000000000000005890000000000000200A","tipo":"Rural","sup_m2":18689.4},"geometry":{"type":"Polygon","coordinates":[[[-58.599365,-34.339936],[-58.599374,-34.340169],[-58.60651,-34.339031],[-58.606404,-34.338765],[-58.599365,-34.339936]]]}},{"type":"Feature","properties":{"partida":"357011930","cca":"357000100000000000000058900000000000003000","tipo":"Rural","sup_m2":24834.4},"geometry":{"type":"Polygon","coordinates":[[[-58.599389,-34.340405],[-58.606626,-34.339451],[-58.606612,-34.339288],[-58.60651,-34.339031],[-58.599374,-34.340169],[-58.599389,-34.340405]]]}},{"type":"Feature","properties":{"partida":"357011931","cca":"357000100000000000000058900000000000004000","tipo":"Rural","sup_m2":20400.0},"geometry":{"type":"Polygon","coordinates":[[[-58.599329,-34.340684],[-58.606688,-34.339719],[-58.606626,-34.339451],[-58.599389,-34.340405],[-58.599385,-34.340487],[-58.599329,-34.340684]]]}},{"type":"Feature","properties":{"partida":"357011932","cca":"357000100000000000000058900000000000005000","tipo":"Rural","sup_m2":23247.8},"geometry":{"type":"Polygon","coordinates":[[[-58.599329,-34.340684],[-58.59925,-34.340959],[-58.606804,-34.340048],[-58.606776,-34.339877],[-58.606688,-34.339719],[-58.599329,-34.340684]]]}},{"type":"Feature","properties":{"partida":"357011933","cca":"357000100000000000000058900000000000006000","tipo":"Rural","sup_m2":28556.8},"geometry":{"type":"Polygon","coordinates":[[[-58.606945,-34.340414],[-58.606804,-34.340048],[-58.59925,-34.340959],[-58.599147,-34.341318],[-58.606945,-34.340414]]]}},{"type":"Feature","properties":{"partida":"357011934","cca":"357000100000000000000058900000000000007000","tipo":"Rural","sup_m2":32464.2},"geometry":{"type":"Polygon","coordinates":[[[-58.599015,-34.341706],[-58.606933,-34.340851],[-58.606932,-34.340655],[-58.606945,-34.340414],[-58.599147,-34.341318],[-58.599015,-34.341706]]]}},{"type":"Feature","properties":{"partida":"357011935","cca":"357000100000000000000058900000000000008000","tipo":"Rural","sup_m2":28649.6},"geometry":{"type":"Polygon","coordinates":[[[-58.599015,-34.341706],[-58.598905,-34.342029],[-58.606996,-34.341234],[-58.606933,-34.340851],[-58.599015,-34.341706]]]}},{"type":"Feature","properties":{"partida":"357012069","cca":"357000100000000000000059500000000000001000","tipo":"Rural","sup_m2":98808.3},"geometry":{"type":"Polygon","coordinates":[[[-58.598698,-34.342901],[-58.606249,-34.34287],[-58.60626,-34.342824],[-58.606472,-34.342523],[-58.606515,-34.34237],[-58.606677,-34.342104],[-58.606852,-34.341596],[-58.606996,-34.341234],[-58.598905,-34.342029],[-58.598853,-34.342183],[-58.598698,-34.342901]]]}},{"type":"Feature","properties":{"partida":"357012070","cca":"35700010000000000000005950000000000000200A","tipo":"Rural","sup_m2":9393.7},"geometry":{"type":"Polygon","coordinates":[[[-58.606249,-34.34287],[-58.603372,-34.342882],[-58.603285,-34.34321],[-58.606028,-34.343199],[-58.606249,-34.34287]]]}},{"type":"Feature","properties":{"partida":"357020373","cca":"35700010000000000000005950000000000000200B","tipo":"Rural","sup_m2":55054.5},"geometry":{"type":"Polygon","coordinates":[[[-58.598723,-34.3437],[-58.60309,-34.34394],[-58.603186,-34.343578],[-58.605631,-34.343723],[-58.605859,-34.343449],[-58.606028,-34.343199],[-58.603285,-34.34321],[-58.603372,-34.342882],[-58.598698,-34.342901],[-58.598723,-34.3437]]]}}]}