{"type":"FeatureCollection","features":[{"type":"Feature","properties":{"partida":null,"cca":"05702000000000000000000000000000000004900E","tipo":null,"sup_m2":1754789.5},"geometry":{"type":"Polygon","coordinates":[[[-58.624142,-34.504257],[-58.601965,-34.505736],[-58.602182,-34.506197],[-58.602231,-34.506326],[-58.602258,-34.50645],[-58.602268,-34.506585],[-58.602247,-34.507061],[-58.602284,-34.507487],[-58.602422,-34.507894],[-58.60256,-34.508229],[-58.602658,-34.5086],[-58.602738,-34.509163],[-58.602876,-34.509536],[-58.603169,-34.510659],[-58.603299,-34.511244],[-58.60339,-34.511669],[-58.60341,-34.511895],[-58.603391,-34.512141],[-58.603391,-34.512341],[-58.603332,-34.512562],[-58.603249,-34.513241],[-58.603195,-34.513633],[-58.624814,-34.512145],[-58.624142,-34.504257]]]}},{"type":"Feature","properties":{"partida":null,"cca":"05702000000000000000000000000000000004900F","tipo":null,"sup_m2":1720454.2},"geometry":{"type":"Polygon","coordinates":[[[-58.602656,-34.516075],[-58.602525,-34.516713],[-58.602374,-34.517734],[-58.602165,-34.518701],[-58.602193,-34.519299],[-58.602155,-34.520215],[-58.602143,-34.520667],[-58.602242,-34.52101],[-58.602618,-34.521478],[-58.603043,-34.522149],[-58.603236,-34.522476],[-58.603556,-34.522987],[-58.603882,-34.523336],[-58.604258,-34.52338],[-58.604787,-34.523105],[-58.605359,-34.523198],[-58.6059,-34.523695],[-58.606749,-34.524721],[-58.61933,-34.518272],[-58.624976,-34.51367],[-58.624814,-34.512145],[-58.603195,-34.513633],[-58.603062,-34.514363],[-58.602656,-34.516075]]]}},{"type":"Feature","properties":{"partida":"057116503","cca":"05702000000000000000000000000000000005500A","tipo":"Rural","sup_m2":191332.3},"geometry":{"type":"Polygon","coordinates":[[[-58.619655,-34.518198],[-58.622813,-34.520906],[-58.626368,-34.518002],[-58.623209,-34.515301],[-58.619655,-34.518198]]]}}]}