{"type":"FeatureCollection","features":[{"type":"Feature","properties":{"partida":"057060808","cca":"05702000000000000000000000000000000005500B","tipo":"Rural","sup_m2":1053390.3},"geometry":{"type":"Polygon","coordinates":[[[-58.606874,-34.526423],[-58.606071,-34.527075],[-58.605262,-34.527688],[-58.605412,-34.528399],[-58.605714,-34.528778],[-58.606088,-34.529164],[-58.606074,-34.529418],[-58.605452,-34.529707],[-58.60555,-34.530216],[-58.605607,-34.530756],[-58.605667,-34.531853],[-58.605748,-34.532181],[-58.605868,-34.532444],[-58.60602,-34.532631],[-58.606436,-34.533024],[-58.606848,-34.533467],[-58.622632,-34.521051],[-58.61948,-34.51834],[-58.606453,-34.525007],[-58.60652,-34.525935],[-58.606874,-34.526423]]]}}]}