{"type":"FeatureCollection","features":[{"type":"Feature","properties":{"partida":"057069837","cca":"057040D000000001010000000000010100A0018000","tipo":"Urbano","sup_m2":284.5},"geometry":{"type":"Polygon","coordinates":[[[-58.733021,-34.402018],[-58.733177,-34.401815],[-58.733166,-34.401774],[-58.733107,-34.401744],[-58.732933,-34.40197],[-58.733021,-34.402018]]]}},{"type":"Feature","properties":{"partida":"057069838","cca":"057040D000000001010000000000010100A0019000","tipo":"Urbano","sup_m2":304.1},"geometry":{"type":"Polygon","coordinates":[[[-58.733013,-34.401695],[-58.732838,-34.401921],[-58.732933,-34.40197],[-58.733107,-34.401744],[-58.733013,-34.401695]]]}},{"type":"Feature","properties":{"partida":"057067414","cca":"057040D00000000104000000000000000000001000","tipo":"Urbano","sup_m2":2391.0},"geometry":{"type":"Polygon","coordinates":[[[-58.733487,-34.4025],[-58.733772,-34.402124],[-58.733332,-34.401887],[-58.733041,-34.402256],[-58.733487,-34.4025]]]}},{"type":"Feature","properties":{"partida":"057002785","cca":"057040D0000000010400000000000000000000200C","tipo":"Urbano","sup_m2":1882.9},"geometry":{"type":"Polygon","coordinates":[[[-58.733729,-34.402632],[-58.733041,-34.402256],[-58.732895,-34.402442],[-58.73358,-34.402821],[-58.733729,-34.402632]]]}},{"type":"Feature","properties":{"partida":"057102385","cca":"057040D0000000010400000000000000000000200D","tipo":"Urbano","sup_m2":1840.4},"geometry":{"type":"Polygon","coordinates":[[[-58.73275,-34.402626],[-58.733437,-34.403004],[-58.73358,-34.402821],[-58.732895,-34.402442],[-58.73275,-34.402626]]]}},{"type":"Feature","properties":{"partida":"057120272","cca":"057040D0000000010400000000000000000000300C","tipo":"Urbano","sup_m2":979.3},"geometry":{"type":"Polygon","coordinates":[[[-58.733194,-34.40287],[-58.73275,-34.402626],[-58.732631,-34.402777],[-58.733075,-34.403022],[-58.733194,-34.40287]]]}},{"type":"Feature","properties":{"partida":"057067419","cca":"057040D00000000104000000000000000000008000","tipo":"Urbano","sup_m2":2415.1},"geometry":{"type":"Polygon","coordinates":[[[-58.732614,-34.403619],[-58.733053,-34.403859],[-58.733349,-34.403484],[-58.732905,-34.403243],[-58.732614,-34.403619]]]}},{"type":"Feature","properties":{"partida":"057067420","cca":"057040D00000000104000000000000000000009000","tipo":"Urbano","sup_m2":2404.5},"geometry":{"type":"Polygon","coordinates":[[[-58.732905,-34.403243],[-58.733349,-34.403484],[-58.73364,-34.403115],[-58.733194,-34.40287],[-58.732905,-34.403243]]]}},{"type":"Feature","properties":{"partida":"057006093","cca":"057040D00000000104000000000000000000011000","tipo":"Urbano","sup_m2":2436.1},"geometry":{"type":"Polygon","coordinates":[[[-58.733487,-34.4025],[-58.733933,-34.402742],[-58.734226,-34.40237],[-58.733772,-34.402124],[-58.733487,-34.4025]]]}}]}