{"type":"FeatureCollection","features":[{"type":"Feature","properties":{"nombre":"Pacheco Trade Center I","tipo":"Área industrial","sup_ha":21.9,"fuente":"GEOBASIG"},"geometry":{"type":"Polygon","coordinates":[[[-58.673252,-34.468489],[-58.677449,-34.470742],[-58.679226,-34.46998],[-58.680454,-34.469291],[-58.681431,-34.468691],[-58.675544,-34.46552],[-58.673252,-34.468489]]]}},{"type":"Feature","properties":{"nombre":"Pacheco Trade Center II","tipo":"Área industrial","sup_ha":6.9,"fuente":"GEOBASIG"},"geometry":{"type":"Polygon","coordinates":[[[-58.671213,-34.460251],[-58.677118,-34.463369],[-58.677732,-34.462573],[-58.671662,-34.459348],[-58.671522,-34.459728],[-58.671213,-34.460251]]]}},{"type":"Feature","properties":{"nombre":"Parque Industrial Tigre","tipo":"Parque Industrial","sup_ha":124.5,"fuente":"GEOBASIG"},"geometry":{"type":"Polygon","coordinates":[[[-58.618229,-34.424005],[-58.603162,-34.43753],[-58.602867,-34.437748],[-58.600916,-34.4393],[-58.599162,-34.440605],[-58.602537,-34.441346],[-58.605055,-34.442503],[-58.618705,-34.430458],[-58.622531,-34.427292],[-58.618229,-34.424005]]]}},{"type":"Feature","properties":{"nombre":"Centro Logístico Tigre","tipo":"Centro Logístico","sup_ha":14.7,"fuente":"GEOBASIG"},"geometry":{"type":"Polygon","coordinates":[[[-58.709787,-34.428676],[-58.712432,-34.430107],[-58.71324,-34.429071],[-58.713748,-34.428032],[-58.71533,-34.425778],[-58.713057,-34.424591],[-58.709787,-34.428676]]]}},{"type":"Feature","properties":{"nombre":"Centro Logístico Sir Home","tipo":"Centro Logístico","sup_ha":12.2,"fuente":"GEOBASIG"},"geometry":{"type":"Polygon","coordinates":[[[-58.663325,-34.483607],[-58.665476,-34.481808],[-58.665484,-34.481713],[-58.66233,-34.479144],[-58.662159,-34.479145],[-58.66011,-34.480892],[-58.660121,-34.480965],[-58.663325,-34.483607]]]}},{"type":"Feature","properties":{"nombre":"Plaza Logística S.R.L","tipo":"Área industrial","sup_ha":13.5,"fuente":"GEOBASIG"},"geometry":{"type":"Polygon","coordinates":[[[-58.683057,-34.443798],[-58.686139,-34.442239],[-58.681395,-34.439667],[-58.679629,-34.441941],[-58.683057,-34.443798]]]}},{"type":"Feature","properties":{"nombre":"Centro Industrial Pacheco","tipo":"Centro Industrial","sup_ha":7.6,"fuente":"GEOBASIG"},"geometry":{"type":"Polygon","coordinates":[[[-58.688859,-34.441106],[-58.682823,-34.437845],[-58.682113,-34.438757],[-58.687497,-34.441674],[-58.688859,-34.441106]]]}},{"type":"Feature","properties":{"nombre":"Parque Logístico Panamericana","tipo":"Parque Logístico","sup_ha":6.1,"fuente":"GEOBASIG"},"geometry":{"type":"Polygon","coordinates":[[[-58.634759,-34.478835],[-58.635075,-34.480087],[-58.635306,-34.481382],[-58.636311,-34.481274],[-58.636991,-34.48118],[-58.63807,-34.480968],[-58.637823,-34.480185],[-58.637493,-34.479668],[-58.636897,-34.47883],[-58.63673,-34.478801],[-58.635474,-34.479037],[-58.635198,-34.479008],[-58.634986,-34.478934],[-58.634823,-34.478835],[-58.634759,-34.478835]]]}}]}