{"type":"FeatureCollection","features":[{"type":"Feature","properties":{"nombre":"Gallardo y 9 de Julio · Don Torcuato","nombre_barrio":"Gallardo y 9 de Julio","localidad":"Don Torcuato","id_renabap":"56","tipo":"Asentamiento","decada":"1990","familias":220,"viviendas":200,"sup_ha":3.5,"dens_viv_ha":57.0,"energia_electrica":"Conexión formal a la red con medidor domiciliario con factura","agua_corriente":"Camión cisterna","efluentes_cloacales":"Desagüe sólo a pozo negro/ciego u hoyo","cocina":"Gas en garrafa","calefaccion":"Energía eléctrica","energia":"Formal con factura","agua":"Camión cisterna u otra fuente","cloaca":"Solo pozo ciego u hoyo","servicios_red":1,"titulo_propiedad":"NO","servicios_txt":"1 de 3 servicios","indice_servicios":"Medio"},"geometry":{"type":"Polygon","coordinates":[[[-58.610065,-34.475121],[-58.610317,-34.475058],[-58.610596,-34.474966],[-58.611276,-34.474773],[-58.61144,-34.474753],[-58.612137,-34.474717],[-58.61441,-34.474526],[-58.614426,-34.474596],[-58.613486,-34.475834],[-58.61217,-34.475126],[-58.611822,-34.475611],[-58.611532,-34.475474],[-58.611656,-34.475264],[-58.611065,-34.47522],[-58.610747,-34.475264],[-58.610617,-34.475448],[-58.610291,-34.475284],[-58.609883,-34.475828],[-58.609643,-34.476123],[-58.608516,-34.475553],[-58.608646,-34.475494],[-58.610013,-34.475186],[-58.610065,-34.475121]]]}},{"type":"Feature","properties":{"nombre":"Irsa · Benavídez","nombre_barrio":"Irsa","localidad":"Benavídez","id_renabap":"73","tipo":"Villa","decada":"1980","familias":176,"viviendas":160,"sup_ha":13.4,"dens_viv_ha":12.0,"energia_electrica":"Conexión irregular a la red","agua_corriente":"Bomba de agua de pozo domiciliaria","efluentes_cloacales":"Desagüe a cámara séptica y pozo ciego","cocina":"Gas en garrafa","calefaccion":"Energía eléctrica","energia":"Irregular","agua":"Bomba de pozo","cloaca":"Cámara séptica y pozo ciego","servicios_red":0,"titulo_propiedad":"NO","servicios_txt":"0 de 3 servicios","indice_servicios":"Medio"},"geometry":{"type":"MultiPolygon","coordinates":[[[[-58.688877,-34.403542],[-58.688815,-34.403423],[-58.687438,-34.40154],[-58.686983,-34.401757],[-58.686605,-34.401237],[-58.686056,-34.401464],[-58.685623,-34.400925],[-58.685019,-34.40133],[-58.685809,-34.402404],[-58.685409,-34.402644],[-58.684365,-34.403207],[-58.683451,-34.403747],[-58.683969,-34.404034],[-58.684696,-34.403698],[-58.684886,-34.40393],[-58.68532,-34.403656],[-58.685628,-34.403899],[-58.686067,-34.403635],[-58.68681,-34.404634],[-58.688814,-34.403652],[-58.688877,-34.403542]]],[[[-58.691758,-34.401963],[-58.689042,-34.403344],[-58.688928,-34.403455],[-58.68899,-34.403597],[-58.689676,-34.404483],[-58.692563,-34.402972],[-58.691758,-34.401963]]]]}},{"type":"Feature","properties":{"nombre":"Arroyo El Claro III · Benavídez","nombre_barrio":"Arroyo El Claro III","localidad":"Benavídez","id_renabap":"102","tipo":"Villa","decada":"1980","familias":187,"viviendas":170,"sup_ha":4.0,"dens_viv_ha":42.0,"energia_electrica":"Conexión formal a la red con medidor domiciliario con factura","agua_corriente":"Bomba de agua de pozo domiciliaria","efluentes_cloacales":"Desagüe a cámara séptica y pozo ciego","cocina":"Gas en garrafa","calefaccion":"Sin Datos","energia":"Formal con factura","agua":"Bomba de pozo","cloaca":"Cámara séptica y pozo ciego","servicios_red":1,"titulo_propiedad":"NO","servicios_txt":"1 de 3 servicios","indice_servicios":"Muy bajo"},"geometry":{"type":"Polygon","coordinates":[[[-58.699224,-34.431543],[-58.698939,-34.431367],[-58.699093,-34.431089],[-58.698782,-34.430899],[-58.698708,-34.430817],[-58.698794,-34.430557],[-58.698826,-34.43035],[-58.699351,-34.430625],[-58.699611,-34.430197],[-58.699698,-34.430173],[-58.700294,-34.429352],[-58.698809,-34.428558],[-58.69849,-34.429038],[-58.69798,-34.428792],[-58.697725,-34.429123],[-58.697969,-34.429266],[-58.697721,-34.429567],[-58.698542,-34.430031],[-58.698467,-34.430198],[-58.698203,-34.43059],[-58.698415,-34.430755],[-58.698215,-34.4311],[-58.698339,-34.431195],[-58.698352,-34.431306],[-58.698262,-34.431485],[-58.698468,-34.431584],[-58.698316,-34.431821],[-58.698813,-34.432027],[-58.699224,-34.431543]]]}},{"type":"Feature","properties":{"nombre":"Calle Gutiérrez · El Talar","nombre_barrio":"Calle Gutiérrez","localidad":"El Talar","id_renabap":"121","tipo":"Asentamiento","decada":"1970","familias":44,"viviendas":40,"sup_ha":0.5,"dens_viv_ha":80.0,"energia_electrica":"Conexión irregular a la red","agua_corriente":"Conexión formal a la red de agua con factura","efluentes_cloacales":"Desagüe sólo a pozo negro/ciego u hoyo","cocina":"Gas en garrafa","calefaccion":"Sin Datos","energia":"Irregular","agua":"Red formal con factura","cloaca":"Solo pozo ciego u hoyo","servicios_red":1,"titulo_propiedad":"NO","servicios_txt":"1 de 3 servicios","indice_servicios":"Bajo"},"geometry":{"type":"Polygon","coordinates":[[[-58.660858,-34.463994],[-58.660639,-34.463847],[-58.660652,-34.463831],[-58.660188,-34.46353],[-58.65998,-34.463769],[-58.660182,-34.463883],[-58.660299,-34.463743],[-58.660339,-34.463767],[-58.660188,-34.46394],[-58.659958,-34.46381],[-58.659927,-34.463847],[-58.659898,-34.463832],[-58.659814,-34.463932],[-58.659846,-34.463967],[-58.659817,-34.463995],[-58.660523,-34.464401],[-58.660858,-34.463994]]]}},{"type":"Feature","properties":{"nombre":"Arroyo El Claro · Benavídez","nombre_barrio":"Arroyo El Claro","localidad":"Benavídez","id_renabap":"310","tipo":"Villa","decada":"1980","familias":176,"viviendas":160,"sup_ha":4.8,"dens_viv_ha":33.0,"energia_electrica":"Conexión formal a la red con medidor domiciliario con factura","agua_corriente":"Bomba de agua de pozo domiciliaria","efluentes_cloacales":"Desagüe a cámara séptica y pozo ciego","cocina":"Gas en garrafa","calefaccion":"Energía eléctrica","energia":"Formal con factura","agua":"Bomba de pozo","cloaca":"Cámara séptica y pozo ciego","servicios_red":1,"titulo_propiedad":"NO","servicios_txt":"1 de 3 servicios","indice_servicios":"Bajo"},"geometry":{"type":"Polygon","coordinates":[[[-58.687879,-34.416994],[-58.686896,-34.416529],[-58.686693,-34.416492],[-58.686411,-34.416371],[-58.686049,-34.416823],[-58.685029,-34.416435],[-58.685049,-34.416383],[-58.684256,-34.416066],[-58.684573,-34.415639],[-58.684044,-34.415454],[-58.684268,-34.415131],[-58.685832,-34.415884],[-58.686319,-34.415274],[-58.687404,-34.415813],[-58.688365,-34.416325],[-58.689523,-34.416881],[-58.68897,-34.417544],[-58.687879,-34.416994]]]}},{"type":"Feature","properties":{"nombre":"Las Quintas · General Pacheco","nombre_barrio":"Las Quintas","localidad":"General Pacheco","id_renabap":"343","tipo":"Asentamiento","decada":"1980","familias":132,"viviendas":120,"sup_ha":3.3,"dens_viv_ha":36.0,"energia_electrica":"Conexión irregular a la red","agua_corriente":"Conexión formal a la red de agua con factura","efluentes_cloacales":"Desagüe a cámara séptica y pozo ciego","cocina":"Gas en garrafa","calefaccion":"Energía eléctrica","energia":"Irregular","agua":"Red formal con factura","cloaca":"Cámara séptica y pozo ciego","servicios_red":1,"titulo_propiedad":"NO","servicios_txt":"1 de 3 servicios","indice_servicios":"Medio"},"geometry":{"type":"Polygon","coordinates":[[[-58.671669,-34.444686],[-58.671991,-34.444257],[-58.670559,-34.443491],[-58.671044,-34.44288],[-58.672488,-34.443643],[-58.672827,-34.443197],[-58.67064,-34.442066],[-58.669498,-34.443516],[-58.671669,-34.444686]]]}},{"type":"Feature","properties":{"nombre":"Baires · Don Torcuato","nombre_barrio":"Baires","localidad":"Don Torcuato","id_renabap":"345","tipo":"Asentamiento","decada":"1970","familias":352,"viviendas":320,"sup_ha":5.0,"dens_viv_ha":64.0,"energia_electrica":"Conexión formal a la red con medidor domiciliario con factura","agua_corriente":"Conexión irregular a la red de agua","efluentes_cloacales":"Red cloacal conectada a la red pluvial","cocina":"Gas en garrafa","calefaccion":"Energía eléctrica","energia":"Formal con factura","agua":"Red irregular","cloaca":"A pluvial, intemperie o cuerpo de agua","servicios_red":1,"titulo_propiedad":"NO","servicios_txt":"1 de 3 servicios","indice_servicios":"Bajo"},"geometry":{"type":"Polygon","coordinates":[[[-58.618257,-34.479206],[-58.61685,-34.478738],[-58.615381,-34.481698],[-58.616806,-34.482179],[-58.618257,-34.479206]]]}},{"type":"Feature","properties":{"nombre":"La Villita · Rincón de Milberg","nombre_barrio":"La Villita","localidad":"Rincón de Milberg","id_renabap":"401","tipo":"Asentamiento","decada":"1990","familias":33,"viviendas":30,"sup_ha":1.2,"dens_viv_ha":25.0,"energia_electrica":"Conexión formal a la red con medidor domiciliario con factura","agua_corriente":"Conexión irregular a la red de agua","efluentes_cloacales":"Desagüe sólo a pozo negro/ciego u hoyo","cocina":"Gas en garrafa","calefaccion":"Leña o carbón","energia":"Formal con factura","agua":"Red irregular","cloaca":"Solo pozo ciego u hoyo","servicios_red":1,"titulo_propiedad":"NO","servicios_txt":"1 de 3 servicios","indice_servicios":"Medio"},"geometry":{"type":"Polygon","coordinates":[[[-58.596852,-34.427755],[-58.596913,-34.425702],[-58.596348,-34.425768],[-58.596234,-34.427707],[-58.596852,-34.427755]]]}},{"type":"Feature","properties":{"nombre":"La Esperanza · Benavídez","nombre_barrio":"La Esperanza","localidad":"Benavídez","id_renabap":"409","tipo":"Asentamiento","decada":"1990","familias":1650,"viviendas":1500,"sup_ha":23.9,"dens_viv_ha":63.0,"energia_electrica":"Conexión formal a la red con medidor domiciliario con factura","agua_corriente":"Bomba de agua de pozo comunitaria","efluentes_cloacales":"Desagüe a cámara séptica y pozo ciego","cocina":"Gas en garrafa","calefaccion":"Leña o carbón","energia":"Formal con factura","agua":"Bomba de pozo","cloaca":"Cámara séptica y pozo ciego","servicios_red":1,"titulo_propiedad":"NO","servicios_txt":"1 de 3 servicios","indice_servicios":"Medio"},"geometry":{"type":"Polygon","coordinates":[[[-58.680659,-34.419663],[-58.677105,-34.424178],[-58.679671,-34.425615],[-58.679771,-34.425611],[-58.679969,-34.425356],[-58.681001,-34.42591],[-58.684342,-34.421628],[-58.680659,-34.419663]]]}},{"type":"Feature","properties":{"nombre":"El Garrote · Tigre","nombre_barrio":"El Garrote","localidad":"Tigre","id_renabap":"423","tipo":"Villa","decada":"1950","familias":781,"viviendas":710,"sup_ha":9.1,"dens_viv_ha":78.0,"energia_electrica":"Conexión irregular a la red","agua_corriente":"Conexión irregular a la red de agua","efluentes_cloacales":"Desagüe a intemperie o cuerpo de agua","cocina":"Gas en garrafa","calefaccion":"Energía eléctrica","energia":"Irregular","agua":"Red irregular","cloaca":"A pluvial, intemperie o cuerpo de agua","servicios_red":0,"titulo_propiedad":"NO","servicios_txt":"0 de 3 servicios","indice_servicios":"Alto"},"geometry":{"type":"Polygon","coordinates":[[[-58.562522,-34.429638],[-58.562031,-34.429789],[-58.56175,-34.429796],[-58.561459,-34.429769],[-58.56106,-34.429669],[-58.560813,-34.429592],[-58.560676,-34.429539],[-58.560559,-34.429671],[-58.559664,-34.427878],[-58.559595,-34.427848],[-58.559365,-34.42731],[-58.559064,-34.425693],[-58.559109,-34.425656],[-58.559454,-34.425569],[-58.56017,-34.425568],[-58.560356,-34.425271],[-58.560268,-34.425122],[-58.560953,-34.424922],[-58.561605,-34.426627],[-58.561298,-34.426996],[-58.561253,-34.427135],[-58.561571,-34.427806],[-58.562522,-34.429638]]]}},{"type":"Feature","properties":{"nombre":"San Jorge · Don Torcuato Este","nombre_barrio":"San Jorge","localidad":"Don Torcuato Este","id_renabap":"436","tipo":"Asentamiento","decada":"1960","familias":497,"viviendas":452,"sup_ha":9.4,"dens_viv_ha":48.0,"energia_electrica":"Conexión irregular a la red","agua_corriente":"Bomba de agua de pozo comunitaria","efluentes_cloacales":"Conexión irregular a la red cloacal","cocina":"Gas en garrafa","calefaccion":"Energía eléctrica","energia":"Irregular","agua":"Bomba de pozo","cloaca":"Red cloacal (formal o irregular)","servicios_red":1,"titulo_propiedad":"NO","servicios_txt":"1 de 3 servicios","indice_servicios":"Medio"},"geometry":{"type":"Polygon","coordinates":[[[-58.635732,-34.504812],[-58.635804,-34.504292],[-58.635795,-34.503661],[-58.635634,-34.503333],[-58.631621,-34.503578],[-58.631649,-34.504268],[-58.631943,-34.505934],[-58.632197,-34.505921],[-58.633189,-34.506087],[-58.633445,-34.50618],[-58.635613,-34.505018],[-58.63569,-34.504943],[-58.635732,-34.504812]]]}},{"type":"Feature","properties":{"nombre":"Liniers · Rincón de Milberg","nombre_barrio":"Liniers","localidad":"Rincón de Milberg","id_renabap":"452","tipo":"Villa","decada":"1960","familias":880,"viviendas":800,"sup_ha":30.1,"dens_viv_ha":27.0,"energia_electrica":"Conexión irregular a la red","agua_corriente":"Conexión formal a la red de agua con factura","efluentes_cloacales":"Desagüe sólo a pozo negro/ciego u hoyo","cocina":"Gas en garrafa","calefaccion":"Sin Datos","energia":"Irregular","agua":"Red formal con factura","cloaca":"Solo pozo ciego u hoyo","servicios_red":1,"titulo_propiedad":"NO","servicios_txt":"1 de 3 servicios","indice_servicios":"Bajo"},"geometry":{"type":"Polygon","coordinates":[[[-58.598847,-34.42971],[-58.596282,-34.429679],[-58.596158,-34.433493],[-58.595319,-34.434404],[-58.593981,-34.435655],[-58.59449,-34.436882],[-58.595615,-34.439097],[-58.598683,-34.438175],[-58.598696,-34.432947],[-58.598847,-34.42971]]]}},{"type":"Feature","properties":{"nombre":"Colón y Calderón de La Barca · Don Torcuato","nombre_barrio":"Colón y Calderón de La Barca","localidad":"Don Torcuato","id_renabap":"457","tipo":"Villa","decada":"1970","familias":55,"viviendas":50,"sup_ha":0.8,"dens_viv_ha":62.0,"energia_electrica":"Conexión irregular a la red","agua_corriente":"Bomba de agua de pozo comunitaria","efluentes_cloacales":"Desagüe a cámara séptica y pozo ciego","cocina":"Gas en garrafa","calefaccion":"Energía eléctrica","energia":"Irregular","agua":"Bomba de pozo","cloaca":"Cámara séptica y pozo ciego","servicios_red":0,"titulo_propiedad":"NO","servicios_txt":"0 de 3 servicios","indice_servicios":"Alto"},"geometry":{"type":"Polygon","coordinates":[[[-58.655586,-34.48847],[-58.65573,-34.488269],[-58.655698,-34.488244],[-58.655999,-34.487901],[-58.655274,-34.487514],[-58.654651,-34.488322],[-58.655174,-34.4886],[-58.655368,-34.488357],[-58.655586,-34.48847]]]}},{"type":"Feature","properties":{"nombre":"La Casitas · Benavídez","nombre_barrio":"La Casitas","localidad":"Benavídez","id_renabap":"461","tipo":"Asentamiento","decada":"1990","familias":176,"viviendas":160,"sup_ha":3.5,"dens_viv_ha":46.0,"energia_electrica":"Conexión irregular a la red","agua_corriente":"Bomba de agua de pozo comunitaria","efluentes_cloacales":"Desagüe a cámara séptica y pozo ciego","cocina":"Gas en garrafa","calefaccion":"Energía eléctrica","energia":"Irregular","agua":"Bomba de pozo","cloaca":"Cámara séptica y pozo ciego","servicios_red":0,"titulo_propiedad":"NO","servicios_txt":"0 de 3 servicios","indice_servicios":"Alto"},"geometry":{"type":"Polygon","coordinates":[[[-58.693057,-34.414419],[-58.691984,-34.415765],[-58.6938,-34.416736],[-58.694834,-34.415367],[-58.693057,-34.414419]]]}},{"type":"Feature","properties":{"nombre":"Soeva · Rincón de Milberg","nombre_barrio":"Soeva","localidad":"Rincón de Milberg","id_renabap":"477","tipo":"Asentamiento","decada":"1960","familias":22,"viviendas":20,"sup_ha":2.8,"dens_viv_ha":7.0,"energia_electrica":"Conexión irregular a la red","agua_corriente":"Conexión irregular a la red de agua","efluentes_cloacales":"Desagüe a cámara séptica y pozo ciego","cocina":"Gas en garrafa","calefaccion":"Energía eléctrica","energia":"Irregular","agua":"Red irregular","cloaca":"Cámara séptica y pozo ciego","servicios_red":0,"titulo_propiedad":"NO","servicios_txt":"0 de 3 servicios","indice_servicios":"Medio"},"geometry":{"type":"Polygon","coordinates":[[[-58.633893,-34.387567],[-58.633865,-34.386969],[-58.632603,-34.387338],[-58.632527,-34.387499],[-58.632724,-34.387835],[-58.632424,-34.387897],[-58.631998,-34.387591],[-58.631767,-34.387734],[-58.631594,-34.388016],[-58.63166,-34.388215],[-58.6321,-34.389178],[-58.633318,-34.388538],[-58.633893,-34.387567]]]}},{"type":"Feature","properties":{"nombre":"Arroyo Sarandí · Benavídez","nombre_barrio":"Arroyo Sarandí","localidad":"Benavídez","id_renabap":"478","tipo":"Asentamiento","decada":"1980","familias":44,"viviendas":40,"sup_ha":1.5,"dens_viv_ha":27.0,"energia_electrica":"Conexión formal a la red con medidor domiciliario con factura","agua_corriente":"Camión cisterna","efluentes_cloacales":"Desagüe a cámara séptica y pozo ciego","cocina":"Gas en garrafa","calefaccion":"Leña o carbón","energia":"Formal con factura","agua":"Camión cisterna u otra fuente","cloaca":"Cámara séptica y pozo ciego","servicios_red":1,"titulo_propiedad":"NO","servicios_txt":"1 de 3 servicios","indice_servicios":"Alto"},"geometry":{"type":"Polygon","coordinates":[[[-58.651746,-34.397097],[-58.652118,-34.39727],[-58.651975,-34.39744],[-58.652368,-34.39766],[-58.652211,-34.397882],[-58.652672,-34.39811],[-58.652856,-34.397868],[-58.652979,-34.397934],[-58.652801,-34.398174],[-58.652963,-34.398258],[-58.653126,-34.398059],[-58.653324,-34.39815],[-58.653225,-34.398285],[-58.653343,-34.398359],[-58.653854,-34.397706],[-58.652048,-34.396748],[-58.651746,-34.397097]]]}},{"type":"Feature","properties":{"nombre":"La Escondida · Benavídez","nombre_barrio":"La Escondida","localidad":"Benavídez","id_renabap":"490","tipo":"Asentamiento","decada":"1980","familias":33,"viviendas":30,"sup_ha":1.6,"dens_viv_ha":19.0,"energia_electrica":"Conexión formal a la red con medidor domiciliario con factura","agua_corriente":"Camión cisterna","efluentes_cloacales":"Desagüe a cámara séptica y pozo ciego","cocina":"Gas en garrafa","calefaccion":"Leña o carbón","energia":"Formal con factura","agua":"Camión cisterna u otra fuente","cloaca":"Cámara séptica y pozo ciego","servicios_red":1,"titulo_propiedad":"NO","servicios_txt":"1 de 3 servicios","indice_servicios":"Alto"},"geometry":{"type":"Polygon","coordinates":[[[-58.66817,-34.396337],[-58.667336,-34.395853],[-58.667454,-34.395694],[-58.666076,-34.394954],[-58.665649,-34.39553],[-58.667882,-34.396697],[-58.66817,-34.396337]]]}},{"type":"Feature","properties":{"nombre":"La Mascota · Benavídez","nombre_barrio":"La Mascota","localidad":"Benavídez","id_renabap":"538","tipo":"Asentamiento","decada":"1990","familias":127,"viviendas":115,"sup_ha":10.7,"dens_viv_ha":11.0,"energia_electrica":"Conexión irregular a la red","agua_corriente":"Bomba de agua de pozo comunitaria","efluentes_cloacales":"Desagüe sólo a pozo negro/ciego u hoyo","cocina":"Gas en garrafa","calefaccion":"Gas en garrafa","energia":"Irregular","agua":"Bomba de pozo","cloaca":"Solo pozo ciego u hoyo","servicios_red":0,"titulo_propiedad":"NO","servicios_txt":"0 de 3 servicios","indice_servicios":"Alto"},"geometry":{"type":"MultiPolygon","coordinates":[[[[-58.704159,-34.401538],[-58.704,-34.401536],[-58.702728,-34.400858],[-58.7047,-34.399812],[-58.706054,-34.400537],[-58.704159,-34.401538]]],[[[-58.705772,-34.39845],[-58.708105,-34.399698],[-58.710641,-34.396436],[-58.709564,-34.395928],[-58.709395,-34.396061],[-58.707703,-34.398226],[-58.706399,-34.397484],[-58.704324,-34.398617],[-58.705044,-34.39902],[-58.705772,-34.39845]]]]}},{"type":"Feature","properties":{"nombre":"Basualdo · Don Torcuato (RENABAP 620)","nombre_barrio":"Basualdo","localidad":"Don Torcuato","id_renabap":"620","tipo":"Villa","decada":"1980","familias":385,"viviendas":350,"sup_ha":7.1,"dens_viv_ha":49.0,"energia_electrica":"Conexión formal a la red con medidor domiciliario con factura","agua_corriente":"Conexión irregular a la red de agua","efluentes_cloacales":"Desagüe sólo a pozo negro/ciego u hoyo","cocina":"Gas en garrafa","calefaccion":"Energía eléctrica","energia":"Formal con factura","agua":"Red irregular","cloaca":"Solo pozo ciego u hoyo","servicios_red":1,"titulo_propiedad":"NO","servicios_txt":"1 de 3 servicios","indice_servicios":"Bajo"},"geometry":{"type":"Polygon","coordinates":[[[-58.626028,-34.474087],[-58.625614,-34.474943],[-58.625644,-34.475002],[-58.628494,-34.476473],[-58.628725,-34.476584],[-58.631945,-34.478266],[-58.632158,-34.478389],[-58.632357,-34.478542],[-58.632525,-34.47873],[-58.632632,-34.478888],[-58.632775,-34.479145],[-58.634553,-34.4788],[-58.634385,-34.478599],[-58.633778,-34.478271],[-58.633269,-34.478268],[-58.631208,-34.477128],[-58.628824,-34.47588],[-58.627069,-34.474924],[-58.627141,-34.474765],[-58.626851,-34.474538],[-58.626028,-34.474087]]]}},{"type":"Feature","properties":{"nombre":"San Lorenzo · Ricardo Rojas","nombre_barrio":"San Lorenzo","localidad":"Ricardo Rojas","id_renabap":"736","tipo":"Villa","decada":"1980","familias":440,"viviendas":400,"sup_ha":10.0,"dens_viv_ha":40.0,"energia_electrica":"Conexión a la red con medidor comunitario","agua_corriente":"Conexión irregular a la red de agua","efluentes_cloacales":"Desagüe a cámara séptica y pozo ciego","cocina":"Gas en garrafa","calefaccion":"Energía eléctrica","energia":"Regular, sin factura o con medidor prepago o comunitario","agua":"Red irregular","cloaca":"Cámara séptica y pozo ciego","servicios_red":1,"titulo_propiedad":"NO","servicios_txt":"1 de 3 servicios","indice_servicios":"Medio"},"geometry":{"type":"Polygon","coordinates":[[[-58.671731,-34.45461],[-58.670621,-34.453974],[-58.669288,-34.452196],[-58.669842,-34.451912],[-58.669613,-34.451567],[-58.669974,-34.451366],[-58.670442,-34.452044],[-58.670963,-34.45178],[-58.670456,-34.451106],[-58.671707,-34.450463],[-58.672059,-34.45091],[-58.672416,-34.451425],[-58.672502,-34.451381],[-58.672623,-34.451567],[-58.673132,-34.451312],[-58.673606,-34.451924],[-58.673874,-34.45179],[-58.674335,-34.452411],[-58.67408,-34.452529],[-58.673528,-34.452267],[-58.672895,-34.453028],[-58.67303,-34.453119],[-58.672637,-34.453645],[-58.672529,-34.453605],[-58.671731,-34.45461]]]}},{"type":"Feature","properties":{"nombre":"Alge II · Rincón de Milberg","nombre_barrio":"Alge II","localidad":"Rincón de Milberg","id_renabap":"790","tipo":"Villa","decada":"2000","familias":28,"viviendas":25,"sup_ha":0.4,"dens_viv_ha":62.0,"energia_electrica":"Conexión irregular a la red","agua_corriente":"Conexión irregular a la red de agua","efluentes_cloacales":"Desagüe sólo a pozo negro/ciego u hoyo","cocina":"Gas en garrafa","calefaccion":"Sin Datos","energia":"Irregular","agua":"Red irregular","cloaca":"Solo pozo ciego u hoyo","servicios_red":0,"titulo_propiedad":"NO","servicios_txt":"0 de 3 servicios","indice_servicios":"Bajo"},"geometry":{"type":"Polygon","coordinates":[[[-58.639892,-34.395325],[-58.639443,-34.395477],[-58.639324,-34.395298],[-58.639127,-34.395358],[-58.638944,-34.395458],[-58.639002,-34.395582],[-58.638569,-34.395787],[-58.638675,-34.396013],[-58.640016,-34.395515],[-58.639892,-34.395325]]]}},{"type":"Feature","properties":{"nombre":"Andalucía · Rincón de Milberg (RENABAP 853)","nombre_barrio":"Andalucía","localidad":"Rincón de Milberg","id_renabap":"853","tipo":"Villa","decada":"1980","familias":132,"viviendas":120,"sup_ha":2.2,"dens_viv_ha":55.0,"energia_electrica":"Conexión regular a la red con medidor prepago","agua_corriente":"Conexión irregular a la red de agua","efluentes_cloacales":"Desagüe a cámara séptica y pozo ciego","cocina":"Gas en garrafa","calefaccion":"Energía eléctrica","energia":"Regular, sin factura o con medidor prepago o comunitario","agua":"Red irregular","cloaca":"Cámara séptica y pozo ciego","servicios_red":1,"titulo_propiedad":"NO","servicios_txt":"1 de 3 servicios","indice_servicios":"Bajo"},"geometry":{"type":"Polygon","coordinates":[[[-58.606262,-34.406421],[-58.606334,-34.406239],[-58.606395,-34.405849],[-58.606403,-34.405718],[-58.604819,-34.405787],[-58.604816,-34.406037],[-58.604868,-34.406747],[-58.604928,-34.407793],[-58.605007,-34.408196],[-58.605178,-34.408183],[-58.605165,-34.407725],[-58.605364,-34.407343],[-58.605582,-34.407135],[-58.605922,-34.406899],[-58.606262,-34.406421]]]}},{"type":"Feature","properties":{"nombre":"San Luis · Benavídez","nombre_barrio":"San Luis","localidad":"Benavídez","id_renabap":"872","tipo":"Asentamiento","decada":"1980","familias":110,"viviendas":100,"sup_ha":3.3,"dens_viv_ha":30.0,"energia_electrica":"Conexión irregular a la red","agua_corriente":"Conexión irregular a la red de agua","efluentes_cloacales":"Desagüe a cámara séptica y pozo ciego","cocina":"Gas en garrafa","calefaccion":"Leña o carbón","energia":"Irregular","agua":"Red irregular","cloaca":"Cámara séptica y pozo ciego","servicios_red":0,"titulo_propiedad":"NO","servicios_txt":"0 de 3 servicios","indice_servicios":"Alto"},"geometry":{"type":"Polygon","coordinates":[[[-58.661289,-34.396309],[-58.661323,-34.396342],[-58.661567,-34.396499],[-58.662671,-34.394967],[-58.662309,-34.394742],[-58.661665,-34.394401],[-58.66107,-34.394122],[-58.660796,-34.39446],[-58.659999,-34.395506],[-58.661344,-34.396222],[-58.661289,-34.396309]]]}},{"type":"Feature","properties":{"nombre":"Bolívar y Tedín · Benavídez","nombre_barrio":"Bolívar y Tedín","localidad":"Benavídez","id_renabap":"934","tipo":"Asentamiento","decada":"1980","familias":99,"viviendas":90,"sup_ha":1.6,"dens_viv_ha":56.0,"energia_electrica":"Conexión formal a la red con medidor domiciliario con factura","agua_corriente":"Bomba de agua de pozo domiciliaria","efluentes_cloacales":"Desagüe sólo a pozo negro/ciego u hoyo","cocina":"Gas en garrafa","calefaccion":"Sin Datos","energia":"Formal con factura","agua":"Bomba de pozo","cloaca":"Solo pozo ciego u hoyo","servicios_red":1,"titulo_propiedad":"NO","servicios_txt":"1 de 3 servicios","indice_servicios":"Muy bajo"},"geometry":{"type":"Polygon","coordinates":[[[-58.696805,-34.421929],[-58.695794,-34.423243],[-58.696617,-34.423675],[-58.696672,-34.423651],[-58.697658,-34.422377],[-58.697654,-34.422352],[-58.696853,-34.421931],[-58.696805,-34.421929]]]}},{"type":"Feature","properties":{"nombre":"Arroyo El Claro II · Benavídez","nombre_barrio":"Arroyo El Claro II","localidad":"Benavídez","id_renabap":"940","tipo":"Villa","decada":"1980","familias":79,"viviendas":72,"sup_ha":1.8,"dens_viv_ha":40.0,"energia_electrica":"Conexión formal a la red con medidor domiciliario con factura","agua_corriente":"Bomba de agua de pozo domiciliaria","efluentes_cloacales":"Desagüe a cámara séptica y pozo ciego","cocina":"Gas en garrafa","calefaccion":"Sin Datos","energia":"Formal con factura","agua":"Bomba de pozo","cloaca":"Cámara séptica y pozo ciego","servicios_red":1,"titulo_propiedad":"NO","servicios_txt":"1 de 3 servicios","indice_servicios":"Muy bajo"},"geometry":{"type":"Polygon","coordinates":[[[-58.699072,-34.425133],[-58.698501,-34.424819],[-58.697902,-34.425583],[-58.697878,-34.425643],[-58.697539,-34.426065],[-58.697919,-34.426274],[-58.697946,-34.426267],[-58.698922,-34.426794],[-58.698975,-34.42619],[-58.699048,-34.426075],[-58.699098,-34.425796],[-58.699034,-34.425247],[-58.699072,-34.425133]]]}},{"type":"Feature","properties":{"nombre":"Arroyo El Claro IV · Benavídez","nombre_barrio":"Arroyo El Claro IV","localidad":"Benavídez","id_renabap":"967","tipo":"Asentamiento","decada":"1980","familias":25,"viviendas":23,"sup_ha":0.5,"dens_viv_ha":46.0,"energia_electrica":"Conexión formal a la red con medidor domiciliario con factura","agua_corriente":"Bomba de agua de pozo domiciliaria","efluentes_cloacales":"Desagüe sólo a pozo negro/ciego u hoyo","cocina":"Gas en garrafa","calefaccion":"Leña o carbón","energia":"Formal con factura","agua":"Bomba de pozo","cloaca":"Solo pozo ciego u hoyo","servicios_red":1,"titulo_propiedad":"NO","servicios_txt":"1 de 3 servicios","indice_servicios":"Medio"},"geometry":{"type":"Polygon","coordinates":[[[-58.701392,-34.435682],[-58.700775,-34.43533],[-58.700714,-34.435314],[-58.70033,-34.435136],[-58.700283,-34.435289],[-58.700409,-34.435662],[-58.700405,-34.435804],[-58.700559,-34.436042],[-58.701392,-34.435682]]]}},{"type":"Feature","properties":{"nombre":"Lavalle y Perna · Benavídez","nombre_barrio":"Lavalle y Perna","localidad":"Benavídez","id_renabap":"968","tipo":"Asentamiento","decada":"1980","familias":127,"viviendas":115,"sup_ha":3.4,"dens_viv_ha":34.0,"energia_electrica":"Conexión formal a la red con medidor domiciliario con factura","agua_corriente":"Bomba de agua de pozo domiciliaria","efluentes_cloacales":"Desagüe a cámara séptica y pozo ciego","cocina":"Conexión formal a la red de gas con factura","calefaccion":"Conexión formal a la red de gas con factura","energia":"Formal con factura","agua":"Bomba de pozo","cloaca":"Cámara séptica y pozo ciego","servicios_red":1,"titulo_propiedad":"NO","servicios_txt":"1 de 3 servicios","indice_servicios":"Muy bajo"},"geometry":{"type":"MultiPolygon","coordinates":[[[[-58.703733,-34.433535],[-58.70305,-34.434425],[-58.701892,-34.433797],[-58.702554,-34.432887],[-58.703733,-34.433535]]],[[[-58.703937,-34.431242],[-58.702935,-34.432554],[-58.701918,-34.432001],[-58.702937,-34.430726],[-58.703937,-34.431242]]]]}},{"type":"Feature","properties":{"nombre":"Carlos y Avenida del Trabajo · Don Torcuato","nombre_barrio":"Carlos y Avenida del Trabajo","localidad":"Don Torcuato","id_renabap":"1152","tipo":"Asentamiento","decada":"1980","familias":18,"viviendas":16,"sup_ha":0.3,"dens_viv_ha":53.0,"energia_electrica":"Conexión irregular a la red","agua_corriente":"Bomba de agua de pozo domiciliaria","efluentes_cloacales":"Desagüe a cámara séptica y pozo ciego","cocina":"Gas en garrafa","calefaccion":"Energía eléctrica","energia":"Irregular","agua":"Bomba de pozo","cloaca":"Cámara séptica y pozo ciego","servicios_red":0,"titulo_propiedad":"NO","servicios_txt":"0 de 3 servicios","indice_servicios":"Medio"},"geometry":{"type":"Polygon","coordinates":[[[-58.640041,-34.502589],[-58.64056,-34.502557],[-58.641466,-34.502444],[-58.641433,-34.502228],[-58.640043,-34.502363],[-58.640041,-34.502589]]]}},{"type":"Feature","properties":{"nombre":"Sagrada Familia · los Troncos del Talar","nombre_barrio":"Sagrada Familia","localidad":"los Troncos del Talar","id_renabap":"1153","tipo":"Villa","decada":"1990","familias":275,"viviendas":250,"sup_ha":2.7,"dens_viv_ha":93.0,"energia_electrica":"Conexión irregular a la red","agua_corriente":"Conexión irregular a la red de agua","efluentes_cloacales":"Desagüe a cámara séptica y pozo ciego","cocina":"Gas en garrafa","calefaccion":"Energía eléctrica","energia":"Irregular","agua":"Red irregular","cloaca":"Cámara séptica y pozo ciego","servicios_red":0,"titulo_propiedad":"NO","servicios_txt":"0 de 3 servicios","indice_servicios":"Medio"},"geometry":{"type":"Polygon","coordinates":[[[-58.596745,-34.44645],[-58.596704,-34.446561],[-58.595938,-34.446508],[-58.595852,-34.446259],[-58.595697,-34.445875],[-58.595469,-34.445481],[-58.595435,-34.445297],[-58.595339,-34.445112],[-58.595324,-34.444842],[-58.595361,-34.444647],[-58.595444,-34.444524],[-58.595512,-34.444151],[-58.595623,-34.443771],[-58.595768,-34.443829],[-58.595637,-34.444269],[-58.596213,-34.444514],[-58.596234,-34.444485],[-58.596581,-34.444645],[-58.596497,-34.444773],[-58.596535,-34.44479],[-58.596532,-34.445072],[-58.596859,-34.44524],[-58.597062,-34.445376],[-58.596745,-34.44645]]]}},{"type":"Feature","properties":{"nombre":"Colombia · El Talar","nombre_barrio":"Colombia","localidad":"El Talar","id_renabap":"1171","tipo":"Villa","decada":"1940","familias":94,"viviendas":85,"sup_ha":1.9,"dens_viv_ha":45.0,"energia_electrica":"Conexión irregular a la red","agua_corriente":"Bomba de agua de pozo comunitaria","efluentes_cloacales":"Conexión irregular a la red cloacal","cocina":"Gas en garrafa","calefaccion":"Energía eléctrica","energia":"Irregular","agua":"Bomba de pozo","cloaca":"Red cloacal (formal o irregular)","servicios_red":1,"titulo_propiedad":"NO","servicios_txt":"1 de 3 servicios","indice_servicios":"Medio"},"geometry":{"type":"Polygon","coordinates":[[[-58.654277,-34.482985],[-58.65481,-34.483294],[-58.655004,-34.483026],[-58.655233,-34.483143],[-58.655027,-34.483419],[-58.655064,-34.48344],[-58.654986,-34.483576],[-58.656177,-34.484211],[-58.655663,-34.484636],[-58.654649,-34.484111],[-58.654377,-34.484013],[-58.653946,-34.483991],[-58.65343,-34.483718],[-58.654277,-34.482985]]]}},{"type":"Feature","properties":{"nombre":"El Ahorcado · Rincón de Milberg","nombre_barrio":"El Ahorcado","localidad":"Rincón de Milberg","id_renabap":"1178","tipo":"Villa","decada":"1970","familias":165,"viviendas":150,"sup_ha":4.6,"dens_viv_ha":33.0,"energia_electrica":"Conexión formal a la red con medidor domiciliario con factura","agua_corriente":"Bomba de agua de pozo domiciliaria","efluentes_cloacales":"Desagüe sólo a pozo negro/ciego u hoyo","cocina":"Gas en garrafa","calefaccion":"Leña o carbón","energia":"Formal con factura","agua":"Bomba de pozo","cloaca":"Solo pozo ciego u hoyo","servicios_red":1,"titulo_propiedad":"NO","servicios_txt":"1 de 3 servicios","indice_servicios":"Medio"},"geometry":{"type":"Polygon","coordinates":[[[-58.600482,-34.405013],[-58.599441,-34.405668],[-58.60022,-34.406473],[-58.600997,-34.407299],[-58.602872,-34.406168],[-58.602726,-34.404972],[-58.602461,-34.404895],[-58.601413,-34.405559],[-58.601196,-34.405648],[-58.601124,-34.405623],[-58.600482,-34.405013]]]}},{"type":"Feature","properties":{"nombre":"Costilla · Rincón de Milberg","nombre_barrio":"Costilla","localidad":"Rincón de Milberg","id_renabap":"1194","tipo":"Villa","decada":"1980","familias":88,"viviendas":80,"sup_ha":3.6,"dens_viv_ha":22.0,"energia_electrica":"Conexión irregular a la red","agua_corriente":"Conexión irregular a la red de agua","efluentes_cloacales":"Desagüe a cámara séptica y pozo ciego","cocina":"Gas en garrafa","calefaccion":"Leña o carbón","energia":"Irregular","agua":"Red irregular","cloaca":"Cámara séptica y pozo ciego","servicios_red":0,"titulo_propiedad":"NO","servicios_txt":"0 de 3 servicios","indice_servicios":"Alto"},"geometry":{"type":"Polygon","coordinates":[[[-58.597177,-34.407628],[-58.597064,-34.407692],[-58.597514,-34.408181],[-58.597756,-34.408021],[-58.597803,-34.408059],[-58.598267,-34.408567],[-58.598124,-34.408662],[-58.598432,-34.408997],[-58.597065,-34.409836],[-58.597006,-34.409451],[-58.59699,-34.409433],[-58.596544,-34.409431],[-58.596176,-34.409519],[-58.596096,-34.409034],[-58.596171,-34.408894],[-58.595914,-34.408681],[-58.596073,-34.408536],[-58.59585,-34.408293],[-58.596377,-34.407892],[-58.596291,-34.407827],[-58.59623,-34.407669],[-58.59657,-34.407547],[-58.596557,-34.407519],[-58.59691,-34.40728],[-58.597177,-34.407628]]]}},{"type":"Feature","properties":{"nombre":"Almirante Brown · El Talar","nombre_barrio":"Almirante Brown","localidad":"El Talar","id_renabap":"1208","tipo":"Villa","decada":"1970","familias":55,"viviendas":50,"sup_ha":0.3,"dens_viv_ha":167.0,"energia_electrica":"Conexión irregular a la red","agua_corriente":"Bomba de agua de pozo domiciliaria","efluentes_cloacales":"Desagüe sólo a pozo negro/ciego u hoyo","cocina":"Gas en garrafa","calefaccion":"Energía eléctrica","energia":"Irregular","agua":"Bomba de pozo","cloaca":"Solo pozo ciego u hoyo","servicios_red":0,"titulo_propiedad":"NO","servicios_txt":"0 de 3 servicios","indice_servicios":"Medio"},"geometry":{"type":"Polygon","coordinates":[[[-58.656746,-34.484802],[-58.657257,-34.485211],[-58.657623,-34.484897],[-58.657363,-34.484665],[-58.657128,-34.48448],[-58.656746,-34.484802]]]}},{"type":"Feature","properties":{"nombre":"Las Tunas · General Pacheco","nombre_barrio":"Las Tunas","localidad":"General Pacheco","id_renabap":"1210","tipo":"Villa","decada":"1990","familias":1122,"viviendas":1020,"sup_ha":38.4,"dens_viv_ha":27.0,"energia_electrica":"Conexión irregular a la red","agua_corriente":"Conexión formal a la red de agua con factura","efluentes_cloacales":"Desagüe a cámara séptica y pozo ciego","cocina":"Gas en garrafa","calefaccion":"Sin Datos","energia":"Irregular","agua":"Red formal con factura","cloaca":"Cámara séptica y pozo ciego","servicios_red":1,"titulo_propiedad":"NO","servicios_txt":"1 de 3 servicios","indice_servicios":"Bajo"},"geometry":{"type":"Polygon","coordinates":[[[-58.670142,-34.433468],[-58.668127,-34.4324],[-58.664024,-34.430162],[-58.661425,-34.428791],[-58.660649,-34.429487],[-58.660622,-34.429614],[-58.659857,-34.430263],[-58.661754,-34.432347],[-58.663753,-34.43449],[-58.663915,-34.434651],[-58.665709,-34.436572],[-58.665788,-34.436647],[-58.666719,-34.437662],[-58.66691,-34.437659],[-58.667809,-34.436488],[-58.668871,-34.435079],[-58.66894,-34.435025],[-58.670142,-34.433468]]]}},{"type":"Feature","properties":{"nombre":"El Claro · Benavídez","nombre_barrio":"El Claro","localidad":"Benavídez","id_renabap":"1310","tipo":"Asentamiento","decada":"2000","familias":77,"viviendas":70,"sup_ha":3.1,"dens_viv_ha":23.0,"energia_electrica":"Conexión irregular a la red","agua_corriente":"Bomba de agua de pozo domiciliaria","efluentes_cloacales":"Desagüe sólo a pozo negro/ciego u hoyo","cocina":"Gas en garrafa","calefaccion":"Sin Datos","energia":"Irregular","agua":"Bomba de pozo","cloaca":"Solo pozo ciego u hoyo","servicios_red":0,"titulo_propiedad":"NO","servicios_txt":"0 de 3 servicios","indice_servicios":"Bajo"},"geometry":{"type":"Polygon","coordinates":[[[-58.681698,-34.419221],[-58.678979,-34.417745],[-58.678644,-34.41755],[-58.678146,-34.418197],[-58.679746,-34.419032],[-58.681842,-34.420186],[-58.682138,-34.419771],[-58.681549,-34.419442],[-58.681698,-34.419221]]]}},{"type":"Feature","properties":{"nombre":"Arroyo Las Tunas · General Pacheco","nombre_barrio":"Arroyo Las Tunas","localidad":"General Pacheco","id_renabap":"1325","tipo":"Asentamiento","decada":"1960","familias":462,"viviendas":420,"sup_ha":11.1,"dens_viv_ha":38.0,"energia_electrica":"Conexión irregular a la red","agua_corriente":"Conexión formal a la red de agua con factura","efluentes_cloacales":"Desagüe a cámara séptica y pozo ciego","cocina":"Gas en garrafa","calefaccion":"Sin Datos","energia":"Irregular","agua":"Red formal con factura","cloaca":"Cámara séptica y pozo ciego","servicios_red":1,"titulo_propiedad":"NO","servicios_txt":"1 de 3 servicios","indice_servicios":"Bajo"},"geometry":{"type":"MultiPolygon","coordinates":[[[[-58.662562,-34.438249],[-58.661189,-34.438553],[-58.659683,-34.438936],[-58.659429,-34.438738],[-58.659287,-34.438659],[-58.658634,-34.438788],[-58.658709,-34.438939],[-58.659396,-34.439743],[-58.659854,-34.440375],[-58.659992,-34.440445],[-58.660401,-34.440707],[-58.661246,-34.440494],[-58.662025,-34.440318],[-58.662572,-34.441743],[-58.662914,-34.441671],[-58.66334,-34.442864],[-58.663693,-34.442738],[-58.66372,-34.442446],[-58.66336,-34.441553],[-58.663683,-34.44143],[-58.663154,-34.43997],[-58.662795,-34.438926],[-58.662772,-34.438777],[-58.662562,-34.438249]]],[[[-58.66688,-34.447313],[-58.666902,-34.447169],[-58.66703,-34.447061],[-58.667474,-34.44694],[-58.667175,-34.446092],[-58.666955,-34.4453],[-58.666488,-34.445446],[-58.666719,-34.44622],[-58.666824,-34.446683],[-58.666676,-34.447503],[-58.666622,-34.448224],[-58.666724,-34.448682],[-58.667177,-34.448575],[-58.66688,-34.447313]]],[[[-58.665965,-34.444995],[-58.665667,-34.444119],[-58.665559,-34.443943],[-58.665075,-34.444092],[-58.665067,-34.444198],[-58.665254,-34.444388],[-58.665458,-34.444526],[-58.66571,-34.444734],[-58.665873,-34.445023],[-58.665965,-34.444995]]]]}},{"type":"Feature","properties":{"nombre":"Basualdo · Don Torcuato (RENABAP 1332)","nombre_barrio":"Basualdo","localidad":"Don Torcuato","id_renabap":"1332","tipo":"Villa","decada":"1950","familias":77,"viviendas":70,"sup_ha":1.1,"dens_viv_ha":64.0,"energia_electrica":"Conexión regular a la red con medidor prepago","agua_corriente":"Bomba de agua de pozo comunitaria","efluentes_cloacales":"Desagüe sólo a pozo negro/ciego u hoyo","cocina":"Gas en garrafa","calefaccion":"Sin Datos","energia":"Regular, sin factura o con medidor prepago o comunitario","agua":"Bomba de pozo","cloaca":"Solo pozo ciego u hoyo","servicios_red":1,"titulo_propiedad":"NO","servicios_txt":"1 de 3 servicios","indice_servicios":"Bajo"},"geometry":{"type":"Polygon","coordinates":[[[-58.645001,-34.485239],[-58.645159,-34.485064],[-58.64467,-34.484258],[-58.644483,-34.484094],[-58.643928,-34.48382],[-58.643456,-34.484409],[-58.644268,-34.484843],[-58.644351,-34.484902],[-58.644491,-34.48498],[-58.644527,-34.484984],[-58.645001,-34.485239]]]}},{"type":"Feature","properties":{"nombre":"Corrientes y Arroyo Claro · Benavídez","nombre_barrio":"Corrientes y Arroyo Claro","localidad":"Benavídez","id_renabap":"1338","tipo":"Asentamiento","decada":"2000","familias":50,"viviendas":45,"sup_ha":0.8,"dens_viv_ha":56.0,"energia_electrica":"Conexión formal a la red con medidor domiciliario con factura","agua_corriente":"Bomba de agua de pozo domiciliaria","efluentes_cloacales":"Desagüe sólo a pozo negro/ciego u hoyo","cocina":"Gas en garrafa","calefaccion":"Sin Datos","energia":"Formal con factura","agua":"Bomba de pozo","cloaca":"Solo pozo ciego u hoyo","servicios_red":1,"titulo_propiedad":"NO","servicios_txt":"1 de 3 servicios","indice_servicios":"Muy bajo"},"geometry":{"type":"Polygon","coordinates":[[[-58.680136,-34.413731],[-58.679961,-34.413946],[-58.679799,-34.414382],[-58.68059,-34.414991],[-58.68089,-34.414657],[-58.680763,-34.414327],[-58.680367,-34.413857],[-58.680136,-34.413731]]]}},{"type":"Feature","properties":{"nombre":"Barrio sin nombre (RENABAP 1369) · Benavídez","nombre_barrio":"Sin Nombre","localidad":"Benavídez","id_renabap":"1369","tipo":"Asentamiento","decada":"1980","familias":330,"viviendas":300,"sup_ha":24.4,"dens_viv_ha":12.0,"energia_electrica":"Conexión formal a la red con medidor domiciliario con factura","agua_corriente":"Bomba de agua de pozo domiciliaria","efluentes_cloacales":"Desagüe sólo a pozo negro/ciego u hoyo","cocina":"Gas en garrafa","calefaccion":"Sin Datos","energia":"Formal con factura","agua":"Bomba de pozo","cloaca":"Solo pozo ciego u hoyo","servicios_red":1,"titulo_propiedad":"NO","servicios_txt":"1 de 3 servicios","indice_servicios":"Muy bajo"},"geometry":{"type":"Polygon","coordinates":[[[-58.697877,-34.418472],[-58.697339,-34.419186],[-58.695295,-34.418369],[-58.693776,-34.4202],[-58.700007,-34.423498],[-58.700063,-34.423347],[-58.699761,-34.422957],[-58.702739,-34.418999],[-58.700908,-34.418083],[-58.699829,-34.419436],[-58.697877,-34.418472]]]}},{"type":"Feature","properties":{"nombre":"Colombia y Libertad · El Talar","nombre_barrio":"Colombia y Libertad","localidad":"El Talar","id_renabap":"1460","tipo":"Villa","decada":"1990","familias":61,"viviendas":55,"sup_ha":1.3,"dens_viv_ha":42.0,"energia_electrica":"Conexión irregular a la red","agua_corriente":"Bomba de agua de pozo domiciliaria","efluentes_cloacales":"Desagüe a cámara séptica y pozo ciego","cocina":"Gas en garrafa","calefaccion":"Energía eléctrica","energia":"Irregular","agua":"Bomba de pozo","cloaca":"Cámara séptica y pozo ciego","servicios_red":0,"titulo_propiedad":"NO","servicios_txt":"0 de 3 servicios","indice_servicios":"Medio"},"geometry":{"type":"Polygon","coordinates":[[[-58.654371,-34.481673],[-58.655265,-34.482131],[-58.654727,-34.482904],[-58.653071,-34.481991],[-58.653274,-34.481774],[-58.653657,-34.481977],[-58.653793,-34.481781],[-58.654168,-34.481946],[-58.654371,-34.481673]]]}},{"type":"Feature","properties":{"nombre":"Parque Alegre · Rincón de Milberg","nombre_barrio":"Parque Alegre","localidad":"Rincón de Milberg","id_renabap":"1466","tipo":"Asentamiento","decada":"1950","familias":99,"viviendas":90,"sup_ha":14.0,"dens_viv_ha":6.0,"energia_electrica":"Conexión irregular a la red","agua_corriente":"Camión cisterna","efluentes_cloacales":"Desagüe sólo a pozo negro/ciego u hoyo","cocina":"Gas en garrafa","calefaccion":"Leña o carbón","energia":"Irregular","agua":"Camión cisterna u otra fuente","cloaca":"Solo pozo ciego u hoyo","servicios_red":0,"titulo_propiedad":"NO","servicios_txt":"0 de 3 servicios","indice_servicios":"Muy alto"},"geometry":{"type":"Polygon","coordinates":[[[-58.61186,-34.396236],[-58.611686,-34.396103],[-58.611662,-34.394678],[-58.611117,-34.395011],[-58.610502,-34.395332],[-58.610558,-34.396775],[-58.610029,-34.397093],[-58.609642,-34.397307],[-58.60962,-34.398841],[-58.609448,-34.399144],[-58.609365,-34.399386],[-58.609352,-34.399743],[-58.613532,-34.399727],[-58.613554,-34.396538],[-58.6129,-34.396712],[-58.612414,-34.396865],[-58.612155,-34.396859],[-58.611923,-34.396574],[-58.61186,-34.396576],[-58.61186,-34.396236]]]}},{"type":"Feature","properties":{"nombre":"Benavidez II · Benavídez","nombre_barrio":"Benavidez II","localidad":"Benavídez","id_renabap":"1513","tipo":"Asentamiento","decada":"1930","familias":528,"viviendas":480,"sup_ha":12.8,"dens_viv_ha":38.0,"energia_electrica":"Conexión formal a la red con medidor domiciliario con factura","agua_corriente":"Bomba de agua de pozo domiciliaria","efluentes_cloacales":"Desagüe sólo a pozo negro/ciego u hoyo","cocina":"Conexión formal a la red de gas con factura","calefaccion":"Conexión formal a la red de gas con factura","energia":"Formal con factura","agua":"Bomba de pozo","cloaca":"Solo pozo ciego u hoyo","servicios_red":1,"titulo_propiedad":"NO","servicios_txt":"1 de 3 servicios","indice_servicios":"Muy bajo"},"geometry":{"type":"Polygon","coordinates":[[[-58.680856,-34.404036],[-58.680232,-34.4049],[-58.679915,-34.405303],[-58.678746,-34.407003],[-58.679245,-34.407547],[-58.680511,-34.406715],[-58.681283,-34.407503],[-58.682163,-34.406839],[-58.683075,-34.406299],[-58.683751,-34.40706],[-58.684158,-34.407379],[-58.685896,-34.406228],[-58.685521,-34.405874],[-58.684663,-34.406405],[-58.683182,-34.404989],[-58.682549,-34.404298],[-58.682013,-34.403772],[-58.681027,-34.404023],[-58.680856,-34.404036]]]}},{"type":"Feature","properties":{"nombre":"Juan Pablo II · Rincón de Milberg","nombre_barrio":"Juan Pablo II","localidad":"Rincón de Milberg","id_renabap":"2904","tipo":"Asentamiento","decada":"1990","familias":781,"viviendas":710,"sup_ha":14.7,"dens_viv_ha":48.0,"energia_electrica":"Conexión formal a la red con medidor domiciliario con factura","agua_corriente":"Conexión irregular a la red de agua","efluentes_cloacales":"Desagüe a cámara séptica y pozo ciego","cocina":"Gas en garrafa","calefaccion":"Leña o carbón","energia":"Formal con factura","agua":"Red irregular","cloaca":"Cámara séptica y pozo ciego","servicios_red":1,"titulo_propiedad":"NO","servicios_txt":"1 de 3 servicios","indice_servicios":"Medio"},"geometry":{"type":"Polygon","coordinates":[[[-58.608464,-34.409515],[-58.609779,-34.409528],[-58.60978,-34.407491],[-58.609028,-34.407449],[-58.608965,-34.406878],[-58.608811,-34.40664],[-58.605109,-34.408345],[-58.604057,-34.40882],[-58.60424,-34.411356],[-58.6084,-34.409442],[-58.608464,-34.409515]]]}},{"type":"Feature","properties":{"nombre":"Los Tábanos · los Troncos del Talar","nombre_barrio":"Los Tábanos","localidad":"los Troncos del Talar","id_renabap":"2927","tipo":"Asentamiento","decada":"1950","familias":66,"viviendas":60,"sup_ha":1.5,"dens_viv_ha":40.0,"energia_electrica":"Conexión irregular a la red","agua_corriente":"Conexión irregular a la red de agua","efluentes_cloacales":"Desagüe a cámara séptica y pozo ciego","cocina":"Gas en garrafa","calefaccion":"Energía eléctrica","energia":"Irregular","agua":"Red irregular","cloaca":"Cámara séptica y pozo ciego","servicios_red":0,"titulo_propiedad":"NO","servicios_txt":"0 de 3 servicios","indice_servicios":"Medio"},"geometry":{"type":"Polygon","coordinates":[[[-58.588695,-34.439047],[-58.591233,-34.438951],[-58.591223,-34.438131],[-58.589518,-34.438472],[-58.589482,-34.438538],[-58.588698,-34.438691],[-58.588695,-34.439047]]]}},{"type":"Feature","properties":{"nombre":"Andalucía · Rincón de Milberg (RENABAP 2941)","nombre_barrio":"Andalucía","localidad":"Rincón de Milberg","id_renabap":"2941","tipo":"Villa","decada":"1980","familias":198,"viviendas":180,"sup_ha":4.0,"dens_viv_ha":45.0,"energia_electrica":"Conexión formal a la red con medidor domiciliario con factura","agua_corriente":"Conexión irregular a la red de agua","efluentes_cloacales":"Desagüe sólo a pozo negro/ciego u hoyo","cocina":"Gas en garrafa","calefaccion":"Energía eléctrica","energia":"Formal con factura","agua":"Red irregular","cloaca":"Solo pozo ciego u hoyo","servicios_red":1,"titulo_propiedad":"NO","servicios_txt":"1 de 3 servicios","indice_servicios":"Bajo"},"geometry":{"type":"Polygon","coordinates":[[[-58.603699,-34.405662],[-58.604029,-34.40876],[-58.604562,-34.408545],[-58.604983,-34.408345],[-58.604898,-34.407683],[-58.604846,-34.406789],[-58.604758,-34.40576],[-58.605514,-34.405705],[-58.605423,-34.404603],[-58.603699,-34.405662]]]}},{"type":"Feature","properties":{"nombre":"Villa La Ñata · Dique Luján","nombre_barrio":"Villa La Ñata","localidad":"Dique Luján","id_renabap":"4727","tipo":"Asentamiento","decada":"1990","familias":83,"viviendas":75,"sup_ha":14.5,"dens_viv_ha":5.0,"energia_electrica":"Conexión regular a la red con medidor prepago","agua_corriente":"Bomba de agua de pozo domiciliaria","efluentes_cloacales":"Desagüe a cámara séptica y pozo ciego","cocina":"Gas en garrafa","calefaccion":"Energía eléctrica","energia":"Regular, sin factura o con medidor prepago o comunitario","agua":"Bomba de pozo","cloaca":"Cámara séptica y pozo ciego","servicios_red":1,"titulo_propiedad":"NO","servicios_txt":"1 de 3 servicios","indice_servicios":"Bajo"},"geometry":{"type":"Polygon","coordinates":[[[-58.660305,-34.378403],[-58.659147,-34.377349],[-58.659914,-34.376866],[-58.661447,-34.375864],[-58.660666,-34.375455],[-58.659194,-34.376536],[-58.658714,-34.37629],[-58.658369,-34.376551],[-58.657537,-34.376049],[-58.656241,-34.377177],[-58.65558,-34.376783],[-58.656202,-34.376173],[-58.655871,-34.375958],[-58.656694,-34.375092],[-58.656879,-34.375185],[-58.658214,-34.374115],[-58.659218,-34.374658],[-58.66016,-34.373865],[-58.662424,-34.375098],[-58.661488,-34.375896],[-58.66278,-34.376605],[-58.660305,-34.378403]]]}},{"type":"Feature","properties":{"nombre":"Ricardo Rojas · Ricardo Rojas","nombre_barrio":"Ricardo Rojas","localidad":"Ricardo Rojas","id_renabap":"4731","tipo":"Villa","decada":"1990","familias":160,"viviendas":145,"sup_ha":2.8,"dens_viv_ha":52.0,"energia_electrica":"Conexión regular a la red con medidor prepago","agua_corriente":"Conexión irregular a la red de agua","efluentes_cloacales":"Desagüe a cámara séptica y pozo ciego","cocina":"Gas en garrafa","calefaccion":"Energía eléctrica","energia":"Regular, sin factura o con medidor prepago o comunitario","agua":"Red irregular","cloaca":"Cámara séptica y pozo ciego","servicios_red":1,"titulo_propiedad":"NO","servicios_txt":"1 de 3 servicios","indice_servicios":"Bajo"},"geometry":{"type":"Polygon","coordinates":[[[-58.680614,-34.463977],[-58.679235,-34.463223],[-58.680305,-34.461839],[-58.681693,-34.462583],[-58.680614,-34.463977]]]}},{"type":"Feature","properties":{"nombre":"Cina Cina · los Troncos del Talar","nombre_barrio":"Cina Cina","localidad":"los Troncos del Talar","id_renabap":"4732","tipo":"Asentamiento","decada":"1960","familias":385,"viviendas":350,"sup_ha":14.6,"dens_viv_ha":24.0,"energia_electrica":"Conexión regular a la red con medidor prepago","agua_corriente":"Conexión irregular a la red de agua","efluentes_cloacales":"Desagüe a cámara séptica y pozo ciego","cocina":"Gas en garrafa","calefaccion":"Energía eléctrica","energia":"Regular, sin factura o con medidor prepago o comunitario","agua":"Red irregular","cloaca":"Cámara séptica y pozo ciego","servicios_red":1,"titulo_propiedad":"NO","servicios_txt":"1 de 3 servicios","indice_servicios":"Bajo"},"geometry":{"type":"Polygon","coordinates":[[[-58.604221,-34.457349],[-58.603568,-34.45819],[-58.600299,-34.45649],[-58.599851,-34.457042],[-58.598711,-34.456313],[-58.596043,-34.452015],[-58.595972,-34.451836],[-58.595875,-34.451425],[-58.595933,-34.451194],[-58.598032,-34.452237],[-58.599063,-34.451011],[-58.599851,-34.451444],[-58.598875,-34.452711],[-58.597915,-34.453976],[-58.604221,-34.457349]]]}},{"type":"Feature","properties":{"nombre":"San Roque · Benavídez","nombre_barrio":"San Roque","localidad":"Benavídez","id_renabap":"5321","tipo":"Asentamiento","decada":"2010","familias":11,"viviendas":10,"sup_ha":0.6,"dens_viv_ha":17.0,"energia_electrica":"Conexión formal a la red con medidor domiciliario con factura","agua_corriente":"Conexión irregular a la red de agua","efluentes_cloacales":"Desagüe a intemperie o cuerpo de agua","cocina":"Gas en garrafa","calefaccion":"Leña o carbón","energia":"Formal con factura","agua":"Red irregular","cloaca":"A pluvial, intemperie o cuerpo de agua","servicios_red":1,"titulo_propiedad":"NO","servicios_txt":"1 de 3 servicios","indice_servicios":"Alto"},"geometry":{"type":"Polygon","coordinates":[[[-58.682901,-34.386383],[-58.683103,-34.386134],[-58.682613,-34.385875],[-58.681729,-34.387034],[-58.682066,-34.387223],[-58.682243,-34.387008],[-58.682085,-34.386923],[-58.682335,-34.386579],[-58.682676,-34.38675],[-58.682927,-34.386396],[-58.682901,-34.386383]]]}},{"type":"Feature","properties":{"nombre":"El Arco · Benavídez","nombre_barrio":"El Arco","localidad":"Benavídez","id_renabap":"5322","tipo":"Asentamiento","decada":"1970","familias":77,"viviendas":70,"sup_ha":2.8,"dens_viv_ha":25.0,"energia_electrica":"Conexión formal a la red con medidor domiciliario con factura","agua_corriente":"Bomba de agua de pozo domiciliaria","efluentes_cloacales":"Desagüe a cámara séptica y pozo ciego","cocina":"Gas en garrafa","calefaccion":"Energía eléctrica","energia":"Formal con factura","agua":"Bomba de pozo","cloaca":"Cámara séptica y pozo ciego","servicios_red":1,"titulo_propiedad":"NO","servicios_txt":"1 de 3 servicios","indice_servicios":"Bajo"},"geometry":{"type":"Polygon","coordinates":[[[-58.71972,-34.40959],[-58.719716,-34.409675],[-58.71941,-34.409757],[-58.71286,-34.406282],[-58.711367,-34.405512],[-58.711556,-34.405246],[-58.71972,-34.40959]]]}},{"type":"Feature","properties":{"nombre":"La Victoria · Dique Luján","nombre_barrio":"La Victoria","localidad":"Dique Luján","id_renabap":"5323","tipo":"Villa","decada":"2010","familias":40,"viviendas":36,"sup_ha":2.1,"dens_viv_ha":17.0,"energia_electrica":"Conexión regular a la red con medidor domiciliario pero sin factura","agua_corriente":"Conexión irregular a la red de agua","efluentes_cloacales":"Desagüe a cámara séptica y pozo ciego","cocina":"Gas en garrafa","calefaccion":"Energía eléctrica","energia":"Regular, sin factura o con medidor prepago o comunitario","agua":"Red irregular","cloaca":"Cámara séptica y pozo ciego","servicios_red":1,"titulo_propiedad":"NO","servicios_txt":"1 de 3 servicios","indice_servicios":"Bajo"},"geometry":{"type":"Polygon","coordinates":[[[-58.679669,-34.367848],[-58.680281,-34.368201],[-58.680166,-34.368369],[-58.680771,-34.368684],[-58.680669,-34.368826],[-58.680195,-34.368588],[-58.679937,-34.368949],[-58.678371,-34.368084],[-58.678845,-34.367472],[-58.678625,-34.367362],[-58.678914,-34.366984],[-58.679926,-34.367516],[-58.679669,-34.367848]]]}},{"type":"Feature","properties":{"nombre":"Don Federico · Dique Luján","nombre_barrio":"Don Federico","localidad":"Dique Luján","id_renabap":"5324","tipo":"Asentamiento","decada":"1980","familias":110,"viviendas":100,"sup_ha":10.9,"dens_viv_ha":9.0,"energia_electrica":"Conexión regular a la red con medidor domiciliario pero sin factura","agua_corriente":"Conexión irregular a la red de agua","efluentes_cloacales":"Desagüe sólo a pozo negro/ciego u hoyo","cocina":"Gas en garrafa","calefaccion":"Leña o carbón","energia":"Regular, sin factura o con medidor prepago o comunitario","agua":"Red irregular","cloaca":"Solo pozo ciego u hoyo","servicios_red":1,"titulo_propiedad":"NO","servicios_txt":"1 de 3 servicios","indice_servicios":"Medio"},"geometry":{"type":"Polygon","coordinates":[[[-58.697663,-34.354109],[-58.699387,-34.351738],[-58.696083,-34.350041],[-58.694253,-34.351999],[-58.697663,-34.354109]]]}},{"type":"Feature","properties":{"nombre":"Arenera · Dique Luján","nombre_barrio":"Arenera","localidad":"Dique Luján","id_renabap":"5325","tipo":"Asentamiento","decada":"2010","familias":44,"viviendas":40,"sup_ha":8.9,"dens_viv_ha":4.0,"energia_electrica":"Conexión regular a la red con medidor domiciliario pero sin factura","agua_corriente":"Conexión irregular a la red de agua","efluentes_cloacales":"Desagüe sólo a pozo negro/ciego u hoyo","cocina":"Gas en garrafa","calefaccion":"Leña o carbón","energia":"Regular, sin factura o con medidor prepago o comunitario","agua":"Red irregular","cloaca":"Solo pozo ciego u hoyo","servicios_red":1,"titulo_propiedad":"NO","servicios_txt":"1 de 3 servicios","indice_servicios":"Medio"},"geometry":{"type":"Polygon","coordinates":[[[-58.696084,-34.350035],[-58.694663,-34.351554],[-58.690374,-34.348988],[-58.690556,-34.348726],[-58.690672,-34.348787],[-58.691108,-34.348255],[-58.691991,-34.348701],[-58.692445,-34.348116],[-58.696084,-34.350035]]]}},{"type":"Feature","properties":{"nombre":"Rialto · Dique Luján","nombre_barrio":"Rialto","localidad":"Dique Luján","id_renabap":"5326","tipo":"Asentamiento","decada":"1980","familias":165,"viviendas":150,"sup_ha":15.1,"dens_viv_ha":10.0,"energia_electrica":"Conexión regular a la red con medidor domiciliario pero sin factura","agua_corriente":"Conexión formal a la red de agua con factura","efluentes_cloacales":"Desagüe sólo a pozo negro/ciego u hoyo","cocina":"Gas en garrafa","calefaccion":"Leña o carbón","energia":"Regular, sin factura o con medidor prepago o comunitario","agua":"Red formal con factura","cloaca":"Solo pozo ciego u hoyo","servicios_red":2,"titulo_propiedad":"NO","servicios_txt":"2 de 3 servicios","indice_servicios":"Bajo"},"geometry":{"type":"Polygon","coordinates":[[[-58.696919,-34.355108],[-58.693401,-34.352894],[-58.691695,-34.354698],[-58.693859,-34.35632],[-58.692673,-34.35789],[-58.694368,-34.358771],[-58.696919,-34.355108]]]}},{"type":"Feature","properties":{"nombre":"Mozart · Dique Luján","nombre_barrio":"Mozart","localidad":"Dique Luján","id_renabap":"5327","tipo":"Asentamiento","decada":"2000","familias":22,"viviendas":20,"sup_ha":1.0,"dens_viv_ha":20.0,"energia_electrica":"Conexión formal a la red con medidor domiciliario con factura","agua_corriente":"Conexión regular a la red de agua pero sin factura","efluentes_cloacales":"Desagüe sólo a pozo negro/ciego u hoyo","cocina":"Gas en garrafa","calefaccion":"Energía eléctrica","energia":"Formal con factura","agua":"Red regular sin factura","cloaca":"Solo pozo ciego u hoyo","servicios_red":2,"titulo_propiedad":"NO","servicios_txt":"2 de 3 servicios","indice_servicios":"Bajo"},"geometry":{"type":"Polygon","coordinates":[[[-58.680951,-34.367437],[-58.680796,-34.367656],[-58.681348,-34.367959],[-58.681151,-34.368206],[-58.680596,-34.36792],[-58.680429,-34.368127],[-58.680281,-34.368201],[-58.679669,-34.367848],[-58.680271,-34.367067],[-58.680951,-34.367437]]]}},{"type":"Feature","properties":{"nombre":"Pasaje Malvinas Argentinas · Don Torcuato","nombre_barrio":"Pasaje Malvinas Argentinas","localidad":"Don Torcuato","id_renabap":"5328","tipo":"Asentamiento","decada":"2010","familias":9,"viviendas":8,"sup_ha":0.2,"dens_viv_ha":40.0,"energia_electrica":"Conexión regular a la red con medidor domiciliario pero sin factura","agua_corriente":"Bomba de agua de pozo domiciliaria","efluentes_cloacales":"Desagüe a cámara séptica y pozo ciego","cocina":"Gas en garrafa","calefaccion":"Energía eléctrica","energia":"Regular, sin factura o con medidor prepago o comunitario","agua":"Bomba de pozo","cloaca":"Cámara séptica y pozo ciego","servicios_red":1,"titulo_propiedad":"NO","servicios_txt":"1 de 3 servicios","indice_servicios":"Bajo"},"geometry":{"type":"Polygon","coordinates":[[[-58.651959,-34.486763],[-58.651852,-34.486895],[-58.651088,-34.486497],[-58.651197,-34.486356],[-58.651293,-34.486404],[-58.651312,-34.486383],[-58.651706,-34.48661],[-58.651741,-34.486566],[-58.651821,-34.486609],[-58.651789,-34.486662],[-58.651959,-34.486763]]]}},{"type":"Feature","properties":{"nombre":"Barrio sin nombre (RENABAP 5329) · Don Torcuato","nombre_barrio":"Sin Nombre","localidad":"Don Torcuato","id_renabap":"5329","tipo":"Asentamiento","decada":"2010","familias":9,"viviendas":8,"sup_ha":0.4,"dens_viv_ha":20.0,"energia_electrica":"Conexión formal a la red con medidor domiciliario con factura","agua_corriente":"Bomba de agua de pozo domiciliaria","efluentes_cloacales":"Desagüe a cámara séptica y pozo ciego","cocina":"Gas en garrafa","calefaccion":"Energía eléctrica","energia":"Formal con factura","agua":"Bomba de pozo","cloaca":"Cámara séptica y pozo ciego","servicios_red":1,"titulo_propiedad":"NO","servicios_txt":"1 de 3 servicios","indice_servicios":"Bajo"},"geometry":{"type":"Polygon","coordinates":[[[-58.650116,-34.484165],[-58.649823,-34.484557],[-58.649198,-34.484213],[-58.649508,-34.483821],[-58.650116,-34.484165]]]}},{"type":"Feature","properties":{"nombre":"Bajo Puente · los Troncos del Talar","nombre_barrio":"Bajo Puente","localidad":"los Troncos del Talar","id_renabap":"5330","tipo":"Villa","decada":"1990","familias":22,"viviendas":20,"sup_ha":0.1,"dens_viv_ha":200.0,"energia_electrica":"Conexión irregular a la red","agua_corriente":"Conexión irregular a la red de agua","efluentes_cloacales":"Desagüe a cámara séptica y pozo ciego","cocina":"Gas en garrafa","calefaccion":"Energía eléctrica","energia":"Irregular","agua":"Red irregular","cloaca":"Cámara séptica y pozo ciego","servicios_red":0,"titulo_propiedad":"NO","servicios_txt":"0 de 3 servicios","indice_servicios":"Medio"},"geometry":{"type":"Polygon","coordinates":[[[-58.595958,-34.443709],[-58.59564,-34.443589],[-58.595765,-34.443326],[-58.595834,-34.443234],[-58.596171,-34.443352],[-58.595958,-34.443709]]]}},{"type":"Feature","properties":{"nombre":"Parque San Lorenzo · Ricardo Rojas","nombre_barrio":"Parque San Lorenzo","localidad":"Ricardo Rojas","id_renabap":"5331","tipo":"Asentamiento","decada":"1990","familias":9,"viviendas":8,"sup_ha":0.1,"dens_viv_ha":80.0,"energia_electrica":"Conexión irregular a la red","agua_corriente":"Conexión regular a la red de agua pero sin factura","efluentes_cloacales":"Desagüe sólo a pozo negro/ciego u hoyo","cocina":"Gas en garrafa","calefaccion":"Energía eléctrica","energia":"Irregular","agua":"Red regular sin factura","cloaca":"Solo pozo ciego u hoyo","servicios_red":1,"titulo_propiedad":"NO","servicios_txt":"1 de 3 servicios","indice_servicios":"Medio"},"geometry":{"type":"Polygon","coordinates":[[[-58.670676,-34.458927],[-58.67044,-34.45932],[-58.670135,-34.459156],[-58.670242,-34.459004],[-58.670332,-34.458909],[-58.670416,-34.458945],[-58.670506,-34.458842],[-58.670676,-34.458927]]]}},{"type":"Feature","properties":{"nombre":"La Paloma · Ricardo Rojas","nombre_barrio":"La Paloma","localidad":"Ricardo Rojas","id_renabap":"5332","tipo":"Villa","decada":"1960","familias":66,"viviendas":60,"sup_ha":1.4,"dens_viv_ha":43.0,"energia_electrica":"Conexión regular a la red con medidor domiciliario pero sin factura","agua_corriente":"Conexión formal a la red de agua con factura","efluentes_cloacales":"Desagüe a cámara séptica y pozo ciego","cocina":"Gas en garrafa","calefaccion":"Energía eléctrica","energia":"Regular, sin factura o con medidor prepago o comunitario","agua":"Red formal con factura","cloaca":"Cámara séptica y pozo ciego","servicios_red":2,"titulo_propiedad":"NO","servicios_txt":"2 de 3 servicios","indice_servicios":"Bajo"},"geometry":{"type":"Polygon","coordinates":[[[-58.668952,-34.459347],[-58.668545,-34.459973],[-58.667162,-34.459234],[-58.666984,-34.45913],[-58.667458,-34.458513],[-58.668952,-34.459347]]]}},{"type":"Feature","properties":{"nombre":"El Lucero · Rincón de Milberg","nombre_barrio":"El Lucero","localidad":"Rincón de Milberg","id_renabap":"5333","tipo":"Asentamiento","decada":"1980","familias":31,"viviendas":28,"sup_ha":1.3,"dens_viv_ha":22.0,"energia_electrica":"Conexión regular a la red con medidor domiciliario pero sin factura","agua_corriente":"Conexión formal a la red de agua con factura","efluentes_cloacales":"Desagüe sólo a pozo negro/ciego u hoyo","cocina":"Gas en garrafa","calefaccion":"Leña o carbón","energia":"Regular, sin factura o con medidor prepago o comunitario","agua":"Red formal con factura","cloaca":"Solo pozo ciego u hoyo","servicios_red":2,"titulo_propiedad":"NO","servicios_txt":"2 de 3 servicios","indice_servicios":"Bajo"},"geometry":{"type":"Polygon","coordinates":[[[-58.635522,-34.40287],[-58.635679,-34.403086],[-58.637171,-34.402638],[-58.636589,-34.401849],[-58.635117,-34.402328],[-58.635387,-34.402689],[-58.635895,-34.402425],[-58.635991,-34.402656],[-58.635522,-34.40287]]]}},{"type":"Feature","properties":{"nombre":"Arroyo Reconquista · Rincón de Milberg","nombre_barrio":"Arroyo Reconquista","localidad":"Rincón de Milberg","id_renabap":"5334","tipo":"Villa","decada":"2010","familias":17,"viviendas":15,"sup_ha":0.3,"dens_viv_ha":50.0,"energia_electrica":"Conexión regular a la red con medidor domiciliario pero sin factura","agua_corriente":"Conexión irregular a la red de agua","efluentes_cloacales":"Desagüe a cámara séptica y pozo ciego","cocina":"Gas en garrafa","calefaccion":"Energía eléctrica","energia":"Regular, sin factura o con medidor prepago o comunitario","agua":"Red irregular","cloaca":"Cámara séptica y pozo ciego","servicios_red":1,"titulo_propiedad":"NO","servicios_txt":"1 de 3 servicios","indice_servicios":"Bajo"},"geometry":{"type":"Polygon","coordinates":[[[-58.596569,-34.441],[-58.596675,-34.441226],[-58.596173,-34.441467],[-58.595909,-34.441624],[-58.595752,-34.441465],[-58.595884,-34.441073],[-58.596011,-34.441044],[-58.596068,-34.441163],[-58.596569,-34.441]]]}},{"type":"Feature","properties":{"nombre":"Nueva Esperanza · Tigre","nombre_barrio":"Nueva Esperanza","localidad":"Tigre","id_renabap":"5335","tipo":"Villa","decada":"2000","familias":77,"viviendas":70,"sup_ha":0.9,"dens_viv_ha":78.0,"energia_electrica":"Conexión regular a la red con medidor domiciliario pero sin factura","agua_corriente":"Conexión regular a la red de agua pero sin factura","efluentes_cloacales":"Conexión irregular a la red cloacal","cocina":"Gas en garrafa","calefaccion":"Energía eléctrica","energia":"Regular, sin factura o con medidor prepago o comunitario","agua":"Red regular sin factura","cloaca":"Red cloacal (formal o irregular)","servicios_red":3,"titulo_propiedad":"NO","servicios_txt":"3 de 3 servicios","indice_servicios":"Muy bajo"},"geometry":{"type":"Polygon","coordinates":[[[-58.564471,-34.431459],[-58.563888,-34.43094],[-58.563023,-34.431723],[-58.563564,-34.432158],[-58.564471,-34.431459]]]}},{"type":"Feature","properties":{"nombre":"Los Cordobeses · Tigre","nombre_barrio":"Los Cordobeses","localidad":"Tigre","id_renabap":"5336","tipo":"Asentamiento","decada":"1950","familias":41,"viviendas":37,"sup_ha":0.2,"dens_viv_ha":185.0,"energia_electrica":"Conexión regular a la red con medidor domiciliario pero sin factura","agua_corriente":"Conexión regular a la red de agua pero sin factura","efluentes_cloacales":"Conexión formal a la red cloacal","cocina":"Gas en garrafa","calefaccion":"Gas en garrafa","energia":"Regular, sin factura o con medidor prepago o comunitario","agua":"Red regular sin factura","cloaca":"Red cloacal (formal o irregular)","servicios_red":3,"titulo_propiedad":"NO","servicios_txt":"3 de 3 servicios","indice_servicios":"Muy bajo"},"geometry":{"type":"Polygon","coordinates":[[[-58.584076,-34.434361],[-58.583411,-34.434481],[-58.583465,-34.43476],[-58.583926,-34.434705],[-58.583926,-34.434686],[-58.584131,-34.434637],[-58.584076,-34.434361]]]}},{"type":"Feature","properties":{"nombre":"Bajo Pacheco · General Pacheco","nombre_barrio":"Bajo Pacheco","localidad":"General Pacheco","id_renabap":"6308","tipo":"Villa","decada":"1980","familias":88,"viviendas":80,"sup_ha":0.8,"dens_viv_ha":100.0,"energia_electrica":"Conexión irregular a la red","agua_corriente":"Conexión irregular a la red de agua","efluentes_cloacales":"Conexión irregular a la red cloacal","cocina":"Gas en garrafa","calefaccion":"Energía eléctrica","energia":"Irregular","agua":"Red irregular","cloaca":"Red cloacal (formal o irregular)","servicios_red":1,"titulo_propiedad":"NO","servicios_txt":"1 de 3 servicios","indice_servicios":"Medio"},"geometry":{"type":"Polygon","coordinates":[[[-58.629577,-34.451577],[-58.62984,-34.45124],[-58.629781,-34.451207],[-58.630343,-34.450412],[-58.629905,-34.450167],[-58.629032,-34.451282],[-58.629577,-34.451577]]]}},{"type":"Feature","properties":{"nombre":"ASTARSA · Tigre","nombre_barrio":"ASTARSA","localidad":"Tigre","id_renabap":"6309","tipo":"Villa","decada":"1970","familias":22,"viviendas":20,"sup_ha":1.6,"dens_viv_ha":12.0,"energia_electrica":"Conexión irregular a la red","agua_corriente":"Conexión regular a la red de agua pero sin factura","efluentes_cloacales":"Desagüe sólo a pozo negro/ciego u hoyo","cocina":"Gas en garrafa","calefaccion":"Energía eléctrica","energia":"Irregular","agua":"Red regular sin factura","cloaca":"Solo pozo ciego u hoyo","servicios_red":1,"titulo_propiedad":"NO","servicios_txt":"1 de 3 servicios","indice_servicios":"Medio"},"geometry":{"type":"Polygon","coordinates":[[[-58.564408,-34.427604],[-58.563701,-34.427448],[-58.563376,-34.427559],[-58.563206,-34.428028],[-58.563701,-34.428486],[-58.563463,-34.428695],[-58.563776,-34.429004],[-58.565089,-34.427708],[-58.564792,-34.427526],[-58.564408,-34.427604]]]}},{"type":"Feature","properties":{"nombre":"Ricardo Gutiérrez · Don Torcuato","nombre_barrio":"Ricardo Gutiérrez","localidad":"Don Torcuato","id_renabap":"6312","tipo":"Villa","decada":"1990","familias":44,"viviendas":40,"sup_ha":0.6,"dens_viv_ha":67.0,"energia_electrica":"Conexión regular a la red con medidor domiciliario pero sin factura","agua_corriente":"Bomba de agua de pozo domiciliaria","efluentes_cloacales":"Desagüe sólo a pozo negro/ciego u hoyo","cocina":"Gas en garrafa","calefaccion":"Energía eléctrica","energia":"Regular, sin factura o con medidor prepago o comunitario","agua":"Bomba de pozo","cloaca":"Solo pozo ciego u hoyo","servicios_red":1,"titulo_propiedad":"NO","servicios_txt":"1 de 3 servicios","indice_servicios":"Bajo"},"geometry":{"type":"Polygon","coordinates":[[[-58.650008,-34.485424],[-58.649315,-34.485098],[-58.648834,-34.485734],[-58.649512,-34.486051],[-58.650008,-34.485424]]]}}]}