{"type":"FeatureCollection","features":[{"type":"Feature","properties":{"nombre":"Bomberos Voluntarios de Tigre Destacamento N° 2 Bombero Oscar Alberto Suárez","tipo":"Bomberos Voluntarios","fuente":"OSM/Street View/Sitio web de la institución"},"geometry":{"type":"Point","coordinates":[-58.60916,-34.411733]}},{"type":"Feature","properties":{"nombre":"Bomberos Voluntarios de Tigre Destacamento N° 1 Ayudante de Primera Emilio Martínez","tipo":"Bomberos Voluntarios","fuente":"Street View/Sitio web de la institución"},"geometry":{"type":"Point","coordinates":[-58.603176,-34.44663]}},{"type":"Feature","properties":{"nombre":"Sociedad Bomberos Voluntarios de Benavídez","tipo":"Sociedad de Bomberos Voluntarios","fuente":"IGN/Consejo Nacional de Bomberos Voluntarios"},"geometry":{"type":"Point","coordinates":[-58.689324,-34.409229]}},{"type":"Feature","properties":{"nombre":"Bomberos Voluntarios de Don Torcuato - Cuartel Central","tipo":"Bomberos Voluntarios","fuente":"IGN/Consejo Nacional de Bomberos Voluntarios"},"geometry":{"type":"Point","coordinates":[-58.62053,-34.483178]}},{"type":"Feature","properties":{"nombre":"Bomberos Voluntarios de General Pacheco","tipo":"Bomberos Voluntarios","fuente":"Street View/Consejo Nacional de Bomberos Voluntarios"},"geometry":{"type":"Point","coordinates":[-58.62956,-34.45807]}},{"type":"Feature","properties":{"nombre":"Bomberos Voluntarios de Tigre - Cuartel Central","tipo":"Bomberos Voluntarios","fuente":"IGN/Consejo Nacional de Bomberos Voluntarios"},"geometry":{"type":"Point","coordinates":[-58.575689,-34.425899]}}]}