{"type":"FeatureCollection","features":[{"type":"Feature","properties":{"nombre":"Afluentes al río de la Plata en Buenos Aires","sistema":"Estuario Río de la Plata","region":"del Plata","sup_km2":1.7,"fuente":"COHIFE, vía IGN"},"geometry":{"type":"MultiPolygon","coordinates":[[[[-58.567926,-34.428478],[-58.570887,-34.421992],[-58.573566,-34.419454],[-58.579064,-34.416634],[-58.580051,-34.414237],[-58.580192,-34.413443],[-58.56783,-34.415809],[-58.563152,-34.419405],[-58.561864,-34.421868],[-58.558106,-34.424193],[-58.558432,-34.424402],[-58.559272,-34.42808],[-58.560342,-34.430001],[-58.561675,-34.431163],[-58.561838,-34.430952],[-58.565667,-34.433748],[-58.567926,-34.428478]]],[[[-58.555615,-34.425757],[-58.556016,-34.425537],[-58.556474,-34.425218],[-58.555615,-34.425757]]],[[[-58.544105,-34.430816],[-58.543858,-34.4311],[-58.544805,-34.430806],[-58.544105,-34.430816]]]]}},{"type":"Feature","properties":{"nombre":"Delta del río Paraná","sistema":"Paraná-Paraguay","region":"del Plata","sup_km2":231.6,"fuente":"COHIFE, vía IGN"},"geometry":{"type":"Polygon","coordinates":[[[-58.503723,-34.314392],[-58.49469,-34.323669],[-58.484985,-34.334595],[-58.4776,-34.349487],[-58.471985,-34.360291],[-58.464478,-34.370117],[-58.459595,-34.377197],[-58.454529,-34.386108],[-58.454529,-34.387989],[-58.45518,-34.387943],[-58.460205,-34.383728],[-58.460876,-34.379211],[-58.465027,-34.374878],[-58.465698,-34.377991],[-58.463806,-34.381104],[-58.465881,-34.38562],[-58.469788,-34.384583],[-58.4729,-34.382202],[-58.475891,-34.384399],[-58.48291,-34.384583],[-58.483826,-34.388977],[-58.482788,-34.390076],[-58.485107,-34.39209],[-58.486511,-34.395325],[-58.490479,-34.397888],[-58.492798,-34.400208],[-58.492126,-34.4021],[-58.494202,-34.403809],[-58.494995,-34.406921],[-58.496277,-34.407593],[-58.504089,-34.406494],[-58.505371,-34.407898],[-58.504089,-34.413025],[-58.502686,-34.416626],[-58.502502,-34.4198],[-58.505371,-34.419495],[-58.508179,-34.418518],[-58.511475,-34.418701],[-58.509277,-34.422791],[-58.509888,-34.42511],[-58.508789,-34.429077],[-58.509888,-34.431702],[-58.51239,-34.434692],[-58.513611,-34.438293],[-58.514155,-34.443526],[-58.516165,-34.443321],[-58.522149,-34.44391],[-58.523514,-34.443781],[-58.52839,-34.442159],[-58.530202,-34.441109],[-58.533426,-34.439058],[-58.536291,-34.436497],[-58.537371,-34.435099],[-58.53952,-34.43284],[-58.542057,-34.43166],[-58.543858,-34.4311],[-58.544105,-34.430816],[-58.544805,-34.430806],[-58.546219,-34.430366],[-58.549325,-34.429125],[-58.551687,-34.427985],[-58.555615,-34.425757],[-58.557233,-34.424689],[-58.557947,-34.424092],[-58.558106,-34.424193],[-58.561864,-34.421868],[-58.563152,-34.419405],[-58.56783,-34.415809],[-58.580679,-34.413349],[-58.587658,-34.410298],[-58.593329,-34.404856],[-58.604635,-34.399185],[-58.614172,-34.406428],[-58.623712,-34.400618],[-58.624474,-34.392622],[-58.625173,-34.38811],[-58.627695,-34.388138],[-58.633339,-34.389418],[-58.686835,-34.351041],[-58.689541,-34.347831],[-58.688142,-34.349119],[-58.687258,-34.350315],[-58.686457,-34.351111],[-58.686031,-34.351207],[-58.68531,-34.350822],[-58.684793,-34.350337],[-58.683085,-34.349145],[-58.680813,-34.347213],[-58.679814,-34.345687],[-58.679258,-34.344434],[-58.67844,-34.342995],[-58.678184,-34.341685],[-58.67546,-34.334123],[-58.673598,-34.327856],[-58.671048,-34.320402],[-58.66911,-34.314344],[-58.668628,-34.313129],[-58.666974,-34.308234],[-58.666289,-34.305759],[-58.665793,-34.304713],[-58.664483,-34.301029],[-58.663965,-34.299912],[-58.663714,-34.298775],[-58.66236,-34.295567],[-58.661395,-34.292425],[-58.659528,-34.287288],[-58.658995,-34.28614],[-58.658045,-34.283667],[-58.657628,-34.282204],[-58.656941,-34.280464],[-58.654375,-34.272532],[-58.653304,-34.270788],[-58.65015,-34.267874],[-58.649515,-34.266598],[-58.631842,-34.270083],[-58.6153,-34.272929],[-58.608303,-34.274427],[-58.597238,-34.277653],[-58.570004,-34.287941],[-58.549102,-34.297106],[-58.539706,-34.298376],[-58.538763,-34.305715],[-58.534623,-34.304573],[-58.528769,-34.303288],[-58.522773,-34.303145],[-58.518918,-34.30443],[-58.515492,-34.306001],[-58.510376,-34.308777],[-58.503723,-34.314392]]]}},{"type":"Feature","properties":{"nombre":"Afluentes al río Paraná en Buenos Aires","sistema":"Paraná-Paraguay","region":"del Plata","sup_km2":107.1,"fuente":"COHIFE, vía IGN"},"geometry":{"type":"Polygon","coordinates":[[[-58.633339,-34.389418],[-58.627695,-34.388138],[-58.625173,-34.38811],[-58.624474,-34.392622],[-58.623712,-34.400618],[-58.614172,-34.406428],[-58.604635,-34.399185],[-58.593329,-34.404856],[-58.587658,-34.410298],[-58.580679,-34.413349],[-58.580396,-34.413404],[-58.580477,-34.413548],[-58.586388,-34.416049],[-58.592299,-34.419913],[-58.595254,-34.426961],[-58.600256,-34.43469],[-58.602302,-34.441738],[-58.606394,-34.447421],[-58.61185,-34.455378],[-58.618897,-34.460379],[-58.622534,-34.461516],[-58.62549,-34.460606],[-58.629582,-34.460834],[-58.632082,-34.461516],[-58.635265,-34.461516],[-58.635544,-34.461599],[-58.635524,-34.461706],[-58.637227,-34.464735],[-58.638256,-34.465044],[-58.641345,-34.466471],[-58.642386,-34.466744],[-58.643483,-34.466869],[-58.644636,-34.466868],[-58.645706,-34.466682],[-58.646832,-34.466379],[-58.647982,-34.466225],[-58.649162,-34.466324],[-58.650193,-34.466817],[-58.651124,-34.467472],[-58.652675,-34.46881],[-58.653343,-34.469547],[-58.654445,-34.471407],[-58.655269,-34.473313],[-58.656433,-34.475048],[-58.658451,-34.477499],[-58.659246,-34.478152],[-58.661181,-34.479354],[-58.662073,-34.480045],[-58.662827,-34.480914],[-58.663247,-34.481847],[-58.664709,-34.486093],[-58.677012,-34.475759],[-58.678558,-34.474241],[-58.680209,-34.472237],[-58.682954,-34.468531],[-58.694651,-34.453472],[-58.696285,-34.451706],[-58.698648,-34.448477],[-58.699185,-34.447381],[-58.700301,-34.446244],[-58.705563,-34.439311],[-58.706568,-34.438561],[-58.711353,-34.432309],[-58.711392,-34.431866],[-58.714822,-34.427683],[-58.720686,-34.420071],[-58.726072,-34.413309],[-58.731993,-34.406105],[-58.734634,-34.40246],[-58.734254,-34.402317],[-58.722903,-34.396211],[-58.715909,-34.392543],[-58.721358,-34.390084],[-58.71869,-34.390035],[-58.717459,-34.389844],[-58.716669,-34.389593],[-58.71577,-34.389151],[-58.714621,-34.388227],[-58.714092,-34.387543],[-58.705329,-34.372973],[-58.721257,-34.364705],[-58.720619,-34.36329],[-58.719351,-34.362036],[-58.703917,-34.354201],[-58.690393,-34.347182],[-58.689541,-34.347831],[-58.686835,-34.351041],[-58.633339,-34.389418]]]}},{"type":"Feature","properties":{"nombre":"Río Reconquista","sistema":"Estuario Río de la Plata","region":"del Plata","sup_km2":40.9,"fuente":"COHIFE, vía IGN"},"geometry":{"type":"Polygon","coordinates":[[[-58.664709,-34.486093],[-58.663247,-34.481847],[-58.662827,-34.480914],[-58.662073,-34.480045],[-58.661181,-34.479354],[-58.659246,-34.478152],[-58.658451,-34.477499],[-58.656433,-34.475048],[-58.655269,-34.473313],[-58.654445,-34.471407],[-58.653343,-34.469547],[-58.652675,-34.46881],[-58.651124,-34.467472],[-58.650193,-34.466817],[-58.649162,-34.466324],[-58.647982,-34.466225],[-58.646832,-34.466379],[-58.645706,-34.466682],[-58.644636,-34.466868],[-58.643483,-34.466869],[-58.642386,-34.466744],[-58.641345,-34.466471],[-58.638256,-34.465044],[-58.637227,-34.464735],[-58.635524,-34.461706],[-58.635544,-34.461599],[-58.635265,-34.461516],[-58.632082,-34.461516],[-58.629582,-34.460834],[-58.62549,-34.460606],[-58.622534,-34.461516],[-58.618897,-34.460379],[-58.61185,-34.455378],[-58.606394,-34.447421],[-58.602302,-34.441738],[-58.600256,-34.43469],[-58.595254,-34.426961],[-58.592299,-34.419913],[-58.586388,-34.416049],[-58.580477,-34.413548],[-58.580396,-34.413404],[-58.580192,-34.413443],[-58.580051,-34.414237],[-58.579064,-34.416634],[-58.573566,-34.419454],[-58.570887,-34.421992],[-58.567926,-34.428478],[-58.565667,-34.433748],[-58.566562,-34.434387],[-58.566391,-34.434548],[-58.567153,-34.435139],[-58.568047,-34.435807],[-58.568188,-34.435679],[-58.570513,-34.437397],[-58.570315,-34.437607],[-58.573298,-34.439904],[-58.576351,-34.442068],[-58.578776,-34.44395],[-58.580396,-34.445],[-58.595171,-34.448343],[-58.594644,-34.449264],[-58.594548,-34.449623],[-58.593975,-34.450527],[-58.593472,-34.452482],[-58.593511,-34.452728],[-58.594619,-34.454959],[-58.594703,-34.456129],[-58.595153,-34.456721],[-58.595058,-34.457202],[-58.594729,-34.457895],[-58.594694,-34.458182],[-58.594799,-34.458949],[-58.594461,-34.459872],[-58.594462,-34.460066],[-58.594578,-34.460327],[-58.595985,-34.461413],[-58.59668,-34.462381],[-58.597058,-34.462669],[-58.598671,-34.463434],[-58.598758,-34.463556],[-58.598881,-34.465973],[-58.599022,-34.466901],[-58.599409,-34.467656],[-58.600082,-34.468699],[-58.60026,-34.469224],[-58.600207,-34.469611],[-58.599421,-34.470473],[-58.598932,-34.470871],[-58.598609,-34.471284],[-58.598597,-34.471776],[-58.599188,-34.472402],[-58.599215,-34.472658],[-58.599023,-34.473395],[-58.59927,-34.474414],[-58.599372,-34.474656],[-58.601241,-34.474852],[-58.601448,-34.475768],[-58.601796,-34.476102],[-58.602083,-34.47714],[-58.602044,-34.477691],[-58.601636,-34.478249],[-58.604113,-34.479498],[-58.604479,-34.479618],[-58.605412,-34.479629],[-58.605805,-34.479717],[-58.606341,-34.479973],[-58.606471,-34.480382],[-58.606488,-34.48067],[-58.606242,-34.481122],[-58.604251,-34.482941],[-58.602354,-34.484161],[-58.601572,-34.48418],[-58.600731,-34.484371],[-58.599057,-34.485646],[-58.59901,-34.486657],[-58.599604,-34.487918],[-58.600004,-34.489429],[-58.60023,-34.489832],[-58.600303,-34.490354],[-58.600517,-34.490616],[-58.600705,-34.491212],[-58.600936,-34.493087],[-58.600681,-34.494066],[-58.600469,-34.494377],[-58.599325,-34.495514],[-58.599025,-34.495972],[-58.598342,-34.498168],[-58.598412,-34.498762],[-58.598969,-34.49934],[-58.599384,-34.499973],[-58.599897,-34.501561],[-58.600542,-34.502417],[-58.601343,-34.503232],[-58.601326,-34.504236],[-58.601461,-34.504615],[-58.601466,-34.505341],[-58.601625,-34.50607],[-58.602549,-34.50891],[-58.602606,-34.509918],[-58.602489,-34.510344],[-58.602477,-34.511091],[-58.602965,-34.511818],[-58.603139,-34.51247],[-58.603069,-34.512857],[-58.602857,-34.513286],[-58.601662,-34.516843],[-58.601656,-34.517214],[-58.601947,-34.518394],[-58.601463,-34.519941],[-58.601399,-34.520603],[-58.601517,-34.521241],[-58.603101,-34.523281],[-58.604459,-34.526162],[-58.604535,-34.527153],[-58.604958,-34.529056],[-58.605153,-34.530629],[-58.605708,-34.53348],[-58.60587,-34.53403],[-58.606343,-34.534542],[-58.633563,-34.512396],[-58.639765,-34.507506],[-58.639636,-34.507369],[-58.642356,-34.505126],[-58.645914,-34.501917],[-58.661303,-34.488861],[-58.662269,-34.488168],[-58.664709,-34.486093]]]}}]}