{"type":"FeatureCollection","features":[{"type":"Feature","properties":{"nombre":"Parroquia El Salvador del Delta","tipo":"Parroquia","culto":"Católica","fuente":"Arquidiócesis Provincial"},"geometry":{"type":"Point","coordinates":[-58.686867,-34.358276]}},{"type":"Feature","properties":{"nombre":"Capilla San Francisco","tipo":"Capilla","culto":"Católica","fuente":"Arquidiócesis Provincial"},"geometry":{"type":"Point","coordinates":[-58.694787,-34.355688]}},{"type":"Feature","properties":{"nombre":"Capilla San Cayetano","tipo":"Capilla","culto":"Católica","fuente":"Arquidiócesis Provincial"},"geometry":{"type":"Point","coordinates":[-58.684125,-34.368299]}},{"type":"Feature","properties":{"nombre":"Parroquia Espíritu Santo","tipo":"Parroquia","culto":"Católica","fuente":"Arquidiócesis Provincial"},"geometry":{"type":"Point","coordinates":[-58.660318,-34.463549]}},{"type":"Feature","properties":{"nombre":"Capilla Santa Teresa de los Andes","tipo":"Capilla","culto":"Católica","fuente":"Arquidiócesis Provincial"},"geometry":{"type":"Point","coordinates":[-58.660881,-34.456822]}},{"type":"Feature","properties":{"nombre":"Capilla San Roque Gonzalez","tipo":"Capilla","culto":"Católica","fuente":"Arquidiócesis Provincial"},"geometry":{"type":"Point","coordinates":[-58.662249,-34.469624]}},{"type":"Feature","properties":{"nombre":"Capilla San Lorenzo","tipo":"Capilla","culto":"Católica","fuente":"Arquidiócesis Provincial"},"geometry":{"type":"Point","coordinates":[-58.667663,-34.457584]}},{"type":"Feature","properties":{"nombre":"Parroquia Inmaculada Concepción","tipo":"Parroquia","culto":"Católica","fuente":"Arquidiócesis Provincial"},"geometry":{"type":"Point","coordinates":[-58.589902,-34.424212]}},{"type":"Feature","properties":{"nombre":"Parroquia María de Guadalupe","tipo":"Parroquia","culto":"Católica","fuente":"Arquidiócesis Provincial"},"geometry":{"type":"Point","coordinates":[-58.602626,-34.450568]}},{"type":"Feature","properties":{"nombre":"Capilla Nuestra Señora de Luján","tipo":"Capilla","culto":"Católica","fuente":"Arquidiócesis Provincial"},"geometry":{"type":"Point","coordinates":[-58.602905,-34.4508]}},{"type":"Feature","properties":{"nombre":"Capilla Nuestra Señora de Fátima","tipo":"Capilla","culto":"Católica","fuente":"Arquidiócesis Provincial"},"geometry":{"type":"Point","coordinates":[-58.608582,-34.458068]}},{"type":"Feature","properties":{"nombre":"Capilla Sagrado Corazón","tipo":"Capilla","culto":"Católica","fuente":"Arquidiócesis Provincial"},"geometry":{"type":"Point","coordinates":[-58.616227,-34.458305]}},{"type":"Feature","properties":{"nombre":"Parroquia Medalla Milagrosa","tipo":"Parroquia","culto":"Católica","fuente":"Arquidiócesis Provincial"},"geometry":{"type":"Point","coordinates":[-58.649796,-34.466824]}},{"type":"Feature","properties":{"nombre":"Capilla Santa Mónica","tipo":"Capilla","culto":"Católica","fuente":"Arquidiócesis Provincial"},"geometry":{"type":"Point","coordinates":[-58.639131,-34.47186]}},{"type":"Feature","properties":{"nombre":"Capilla Santísima Trinidad","tipo":"Capilla","culto":"Católica","fuente":"Arquidiócesis Provincial"},"geometry":{"type":"Point","coordinates":[-58.651103,-34.474631]}},{"type":"Feature","properties":{"nombre":"Parroquia Nuestra Señora de Carupa","tipo":"Parroquia","culto":"Católica","fuente":"Arquidiócesis Provincial"},"geometry":{"type":"Point","coordinates":[-58.58183,-34.439321]}},{"type":"Feature","properties":{"nombre":"Capilla San José Obrero","tipo":"Capilla","culto":"Católica","fuente":"Arquidiócesis Provincial"},"geometry":{"type":"Point","coordinates":[-58.574592,-34.432306]}},{"type":"Feature","properties":{"nombre":"Capilla María Auxiliadora","tipo":"Capilla","culto":"Católica","fuente":"Arquidiócesis Provincial"},"geometry":{"type":"Point","coordinates":[-58.575168,-34.436143]}},{"type":"Feature","properties":{"nombre":"Capilla San Roque","tipo":"Capilla","culto":"Católica","fuente":"Arquidiócesis Provincial"},"geometry":{"type":"Point","coordinates":[-58.583676,-34.433286]}},{"type":"Feature","properties":{"nombre":"Capilla Marcelino Champagnat","tipo":"Capilla","culto":"Católica","fuente":"Arquidiócesis Provincial"},"geometry":{"type":"Point","coordinates":[-58.593614,-34.438739]}},{"type":"Feature","properties":{"nombre":"Parroquia Nuestra Señora de Luján","tipo":"Parroquia","culto":"Católica","fuente":"Arquidiócesis Provincial"},"geometry":{"type":"Point","coordinates":[-58.61528,-34.498991]}},{"type":"Feature","properties":{"nombre":"Capilla San José","tipo":"Capilla","culto":"Católica","fuente":"Arquidiócesis Provincial"},"geometry":{"type":"Point","coordinates":[-58.628655,-34.498013]}},{"type":"Feature","properties":{"nombre":"Capilla Nuestra Señora de Loreto","tipo":"Capilla","culto":"Católica","fuente":"Arquidiócesis Provincial"},"geometry":{"type":"Point","coordinates":[-58.611596,-34.488881]}},{"type":"Feature","properties":{"nombre":"Capilla Nuestra Señora del Rosario","tipo":"Capilla","culto":"Católica","fuente":"Arquidiócesis Provincial"},"geometry":{"type":"Point","coordinates":[-58.610547,-34.50158]}},{"type":"Feature","properties":{"nombre":"Capilla Nuestra Señora de Lourdes","tipo":"Capilla","culto":"Católica","fuente":"Arquidiócesis Provincial"},"geometry":{"type":"Point","coordinates":[-58.619817,-34.491502]}},{"type":"Feature","properties":{"nombre":"Parroquia Nuestra Señora del Carmen","tipo":"Parroquia","culto":"Católica","fuente":"Arquidiócesis Provincial"},"geometry":{"type":"Point","coordinates":[-58.689387,-34.411131]}},{"type":"Feature","properties":{"nombre":"Capilla Santa María Esperanza","tipo":"Capilla","culto":"Católica","fuente":"Arquidiócesis Provincial"},"geometry":{"type":"Point","coordinates":[-58.694685,-34.426116]}},{"type":"Feature","properties":{"nombre":"Capilla San Antonio","tipo":"Capilla","culto":"Católica","fuente":"Arquidiócesis Provincial"},"geometry":{"type":"Point","coordinates":[-58.684329,-34.423894]}},{"type":"Feature","properties":{"nombre":"Capilla Nuestra Señora de Itatí","tipo":"Capilla","culto":"Católica","fuente":"Arquidiócesis Provincial"},"geometry":{"type":"Point","coordinates":[-58.698898,-34.421015]}},{"type":"Feature","properties":{"nombre":"Capilla María, Salud de los Enfermos","tipo":"Capilla","culto":"Católica","fuente":"Arquidiócesis Provincial"},"geometry":{"type":"Point","coordinates":[-58.681715,-34.404589]}},{"type":"Feature","properties":{"nombre":"Capilla Sagrada Familia","tipo":"Capilla","culto":"Católica","fuente":"Arquidiócesis Provincial"},"geometry":{"type":"Point","coordinates":[-58.680462,-34.422776]}},{"type":"Feature","properties":{"nombre":"Capilla San Agustín","tipo":"Capilla","culto":"Católica","fuente":"Arquidiócesis Provincial"},"geometry":{"type":"Point","coordinates":[-58.680665,-34.417533]}},{"type":"Feature","properties":{"nombre":"Parroquia Nuestra Señora del Perpetuo Socorro","tipo":"Parroquia","culto":"Católica","fuente":"Arquidiócesis Provincial"},"geometry":{"type":"Point","coordinates":[-58.599318,-34.416975]}},{"type":"Feature","properties":{"nombre":"Capilla Niño Dios","tipo":"Capilla","culto":"Católica","fuente":"Arquidiócesis Provincial"},"geometry":{"type":"Point","coordinates":[-58.602755,-34.410032]}},{"type":"Feature","properties":{"nombre":"Capilla Sagrado Corazón de Jesús","tipo":"Capilla","culto":"Católica","fuente":"Arquidiócesis Provincial"},"geometry":{"type":"Point","coordinates":[-58.594519,-34.409618]}},{"type":"Feature","properties":{"nombre":"Parroquia Purísima Concepción","tipo":"Parroquia","culto":"Católica","fuente":"Arquidiócesis Provincial"},"geometry":{"type":"Point","coordinates":[-58.626173,-34.456345]}},{"type":"Feature","properties":{"nombre":"Capilla Santa Teresa de Jesús","tipo":"Capilla","culto":"Católica","fuente":"Arquidiócesis Provincial"},"geometry":{"type":"Point","coordinates":[-58.64203,-34.456116]}},{"type":"Feature","properties":{"nombre":"Capilla Santa María de la Salud","tipo":"Capilla","culto":"Católica","fuente":"Arquidiócesis Provincial"},"geometry":{"type":"Point","coordinates":[-58.627082,-34.466062]}},{"type":"Feature","properties":{"nombre":"Parroquia San Cayetano","tipo":"Parroquia","culto":"Católica","fuente":"Arquidiócesis Provincial"},"geometry":{"type":"Point","coordinates":[-58.613435,-34.480439]}},{"type":"Feature","properties":{"nombre":"Capilla Jesús Obrero","tipo":"Capilla","culto":"Católica","fuente":"Arquidiócesis Provincial"},"geometry":{"type":"Point","coordinates":[-58.620817,-34.476147]}},{"type":"Feature","properties":{"nombre":"Capilla Nuestra Señora del Valle","tipo":"Capilla","culto":"Católica","fuente":"Arquidiócesis Provincial"},"geometry":{"type":"Point","coordinates":[-58.611168,-34.475371]}},{"type":"Feature","properties":{"nombre":"Parroquia San Francisco de Asís","tipo":"Parroquia","culto":"Católica","fuente":"Arquidiócesis Provincial"},"geometry":{"type":"Point","coordinates":[-58.573497,-34.428079]}},{"type":"Feature","properties":{"nombre":"Capilla Cristo Rey","tipo":"Capilla","culto":"Católica","fuente":"Arquidiócesis Provincial"},"geometry":{"type":"Point","coordinates":[-58.575938,-34.424587]}},{"type":"Feature","properties":{"nombre":"Capilla San Pantaleón","tipo":"Capilla","culto":"Católica","fuente":"Arquidiócesis Provincial"},"geometry":{"type":"Point","coordinates":[-58.563874,-34.429554]}},{"type":"Feature","properties":{"nombre":"Capilla Nuestra Señora de Pompeya","tipo":"Capilla","culto":"Católica","fuente":"Arquidiócesis Provincial"},"geometry":{"type":"Point","coordinates":[-58.568525,-34.427449]}},{"type":"Feature","properties":{"nombre":"Capilla San Agustín","tipo":"Capilla","culto":"Católica","fuente":"Arquidiócesis Provincial"},"geometry":{"type":"Point","coordinates":[-58.670723,-34.454215]}},{"type":"Feature","properties":{"nombre":"Parroquia San Marcelo","tipo":"Parroquia","culto":"Católica","fuente":"Arquidiócesis Provincial"},"geometry":{"type":"Point","coordinates":[-58.639782,-34.498383]}},{"type":"Feature","properties":{"nombre":"Capilla Nuestra Señora de la Paz","tipo":"Capilla","culto":"Católica","fuente":"Arquidiócesis Provincial"},"geometry":{"type":"Point","coordinates":[-58.653141,-34.492915]}},{"type":"Feature","properties":{"nombre":"Capilla Sagrada Familia","tipo":"Capilla","culto":"Católica","fuente":"Arquidiócesis Provincial"},"geometry":{"type":"Point","coordinates":[-58.640358,-34.486277]}},{"type":"Feature","properties":{"nombre":"Capilla María de Nazareth","tipo":"Capilla","culto":"Católica","fuente":"Arquidiócesis Provincial"},"geometry":{"type":"Point","coordinates":[-58.6295,-34.489025]}},{"type":"Feature","properties":{"nombre":"Parroquia Santa Clara de Asís","tipo":"Parroquia","culto":"Católica","fuente":"Arquidiócesis Provincial"},"geometry":{"type":"Point","coordinates":[-58.660672,-34.485205]}},{"type":"Feature","properties":{"nombre":"Capilla San Lucas","tipo":"Capilla","culto":"Católica","fuente":"Arquidiócesis Provincial"},"geometry":{"type":"Point","coordinates":[-58.62721,-34.471242]}},{"type":"Feature","properties":{"nombre":"Capilla Santa Catalina de Siena","tipo":"Capilla","culto":"Católica","fuente":"Arquidiócesis Provincial"},"geometry":{"type":"Point","coordinates":[-58.669355,-34.478596]}},{"type":"Feature","properties":{"nombre":"Parroquia San Juan Diego","tipo":"Parroquia","culto":"Católica","fuente":"Arquidiócesis Provincial"},"geometry":{"type":"Point","coordinates":[-58.662721,-34.445338]}},{"type":"Feature","properties":{"nombre":"Capilla Jesús de Nazareth","tipo":"Capilla","culto":"Católica","fuente":"Arquidiócesis Provincial"},"geometry":{"type":"Point","coordinates":[-58.65253,-34.456442]}},{"type":"Feature","properties":{"nombre":"Capilla Santa Clotilde","tipo":"Capilla","culto":"Católica","fuente":"Arquidiócesis Provincial"},"geometry":{"type":"Point","coordinates":[-58.669046,-34.443099]}},{"type":"Feature","properties":{"nombre":"Asamblea Cristiana Filial 103","tipo":"Asamblea Cristiana","culto":"Evangélica y otras cristianas","fuente":"Registro Nacional de Cultos"},"geometry":{"type":"Point","coordinates":[-58.647004,-34.471638]}},{"type":"Feature","properties":{"nombre":"Asociación de los Testigos de Jehová Filial 273","tipo":"Asociación de los Testigos de Jehová","culto":"Testigos de Jehová","fuente":"Registro Nacional de Cultos"},"geometry":{"type":"Point","coordinates":[-58.654243,-34.467582]}},{"type":"Feature","properties":{"nombre":"Confederación Argentina de Iglesias Evangélicas Unidas Filial 122","tipo":"Confederación Argentina","culto":"Evangélica y otras cristianas","fuente":"Registro Nacional de Cultos"},"geometry":{"type":"Point","coordinates":[-58.655424,-34.478932]}},{"type":"Feature","properties":{"nombre":"Federacion Asamblea Cristiana Filial 24","tipo":"Federacion Asamblea Cristiana","culto":"Evangélica y otras cristianas","fuente":"Registro Nacional de Cultos"},"geometry":{"type":"Point","coordinates":[-58.661229,-34.464976]}},{"type":"Feature","properties":{"nombre":"Iglesia Cristiana Evangélica Pentecostal Los Obreros de Cristo Filial 1","tipo":"Iglesia Cristiana Evangélica Pentecostal","culto":"Evangélica y otras cristianas","fuente":"Registro Nacional de Cultos"},"geometry":{"type":"Point","coordinates":[-58.643485,-34.471957]}},{"type":"Feature","properties":{"nombre":"Iglesia Evangélica Los Seguidores de Cristo","tipo":"Iglesia Evangélica","culto":"Evangélica y otras cristianas","fuente":"Registro Nacional de Cultos"},"geometry":{"type":"Point","coordinates":[-58.649155,-34.453719]}},{"type":"Feature","properties":{"nombre":"Iglesia Evangélica Estrella de Oriente Filial 22","tipo":"Iglesia Evangélica Estrella de Oriente","culto":"Evangélica y otras cristianas","fuente":"Registro Nacional de Cultos"},"geometry":{"type":"Point","coordinates":[-58.663734,-34.465279]}},{"type":"Feature","properties":{"nombre":"Iglesia Evangélica Pentecostal Espíritu Santo","tipo":"Iglesia Evangélica Pentecostal","culto":"Evangélica y otras cristianas","fuente":"Registro Nacional de Cultos"},"geometry":{"type":"Point","coordinates":[-58.657885,-34.461858]}},{"type":"Feature","properties":{"nombre":"Iglesia Evangélica Pentecostal Espíritu Santo Filial 2","tipo":"Iglesia Evangélica Pentecostal","culto":"Evangélica y otras cristianas","fuente":"Registro Nacional de Cultos"},"geometry":{"type":"Point","coordinates":[-58.66364,-34.474045]}},{"type":"Feature","properties":{"nombre":"Iglesia Evangélica Pentecostal Los Mensajeros de Jesucristo","tipo":"Iglesia Evangélica Pentecostal","culto":"Evangélica y otras cristianas","fuente":"Registro Nacional de Cultos"},"geometry":{"type":"Point","coordinates":[-58.66571,-34.46218]}},{"type":"Feature","properties":{"nombre":"Iglesia Pentecostal del Nombre de Jesucristo Filial 4","tipo":"Iglesia Pentecostal del Nombre de Jesucristo","culto":"Evangélica y otras cristianas","fuente":"Registro Nacional de Cultos"},"geometry":{"type":"Point","coordinates":[-58.678429,-34.459793]}},{"type":"Feature","properties":{"nombre":"Ministerio Evangelístico Mensaje de Amor y Fe","tipo":"Ministerio Evangelístico","culto":"Evangélica y otras cristianas","fuente":"Registro Nacional de Cultos"},"geometry":{"type":"Point","coordinates":[-58.675876,-34.4522]}},{"type":"Feature","properties":{"nombre":"Misión Cristiana Evangélica Filial 4","tipo":"Misión Cristiana Evangélica","culto":"Evangélica y otras cristianas","fuente":"Registro Nacional de Cultos"},"geometry":{"type":"Point","coordinates":[-58.665102,-34.468329]}},{"type":"Feature","properties":{"nombre":"Sociedad Religiosa Africana Ila Bara Oxum","tipo":"Sociedad Religiosa Africana","culto":"Umbanda y religiones afro","fuente":"Registro Nacional de Cultos"},"geometry":{"type":"Point","coordinates":[-58.660282,-34.465142]}},{"type":"Feature","properties":{"nombre":"Unión Evangélica de la Argentina Filial 27","tipo":"Unión Evangélica de la Argentina","culto":"Evangélica y otras cristianas","fuente":"Registro Nacional de Cultos"},"geometry":{"type":"Point","coordinates":[-58.672076,-34.47658]}},{"type":"Feature","properties":{"nombre":"Misión Cristiana Evangélica Filial 3","tipo":"Misión Cristiana Evangélica","culto":"Evangélica y otras cristianas","fuente":"Registro Nacional de Cultos"},"geometry":{"type":"Point","coordinates":[-58.630012,-34.5006]}},{"type":"Feature","properties":{"nombre":"Asamblea Cristiana Filial 104","tipo":"Asamblea Cristiana","culto":"Evangélica y otras cristianas","fuente":"Registro Nacional de Cultos"},"geometry":{"type":"Point","coordinates":[-58.591567,-34.440303]}},{"type":"Feature","properties":{"nombre":"Asociación de la Iglesia de Dios en la Argentina Filial 4","tipo":"Asociación de la Iglesia de Dios en la Argentina","culto":"Evangélica y otras cristianas","fuente":"Registro Nacional de Cultos"},"geometry":{"type":"Point","coordinates":[-58.598054,-34.417343]}},{"type":"Feature","properties":{"nombre":"Asociación de los Testigos de Jehová Filial 933","tipo":"Asociación de los Testigos de Jehová","culto":"Testigos de Jehová","fuente":"Registro Nacional de Cultos"},"geometry":{"type":"Point","coordinates":[-58.580757,-34.42805]}},{"type":"Feature","properties":{"nombre":"Asociación Iglesia Evangélica Misionera Filial 42","tipo":"Asociación Iglesia Evangélica Misionera","culto":"Evangélica y otras cristianas","fuente":"Registro Nacional de Cultos"},"geometry":{"type":"Point","coordinates":[-58.597903,-34.434735]}},{"type":"Feature","properties":{"nombre":"Convención Evangélica Bautista Argentina Filial 786","tipo":"Convención Evangélica Bautista Argentina","culto":"Evangélica y otras cristianas","fuente":"Registro Nacional de Cultos"},"geometry":{"type":"Point","coordinates":[-58.579018,-34.43734]}},{"type":"Feature","properties":{"nombre":"Convención Evangélica Bautista Argentina Filial 953","tipo":"Convención Evangélica Bautista Argentina","culto":"Evangélica y otras cristianas","fuente":"Registro Nacional de Cultos"},"geometry":{"type":"Point","coordinates":[-58.604547,-34.402941]}},{"type":"Feature","properties":{"nombre":"Delegación Bonaerense de la Iglesia Adventista del Séptimo Día Filial 84","tipo":"Delegación Bonaerense","culto":"Evangélica y otras cristianas","fuente":"Registro Nacional de Cultos"},"geometry":{"type":"Point","coordinates":[-58.568613,-34.432002]}},{"type":"Feature","properties":{"nombre":"Convención Evangélica Bautista Argentina Filial 970","tipo":"Convención Evangélica Bautista Argentina","culto":"Evangélica y otras cristianas","fuente":"Registro Nacional de Cultos"},"geometry":{"type":"Point","coordinates":[-58.577389,-34.423215]}},{"type":"Feature","properties":{"nombre":"Iglesia Cristiana Evangélica Filial 1","tipo":"Iglesia Cristiana Evangélica","culto":"Evangélica y otras cristianas","fuente":"Registro Nacional de Cultos"},"geometry":{"type":"Point","coordinates":[-58.590543,-34.421088]}},{"type":"Feature","properties":{"nombre":"Iglesia Evangélica Cristiana El Sembrador Filial 5","tipo":"Iglesia Evangélica Cristiana","culto":"Evangélica y otras cristianas","fuente":"Registro Nacional de Cultos"},"geometry":{"type":"Point","coordinates":[-58.676025,-34.436991]}},{"type":"Feature","properties":{"nombre":"Iglesia Evangélica Los Seguidores de Cristo Filial 12","tipo":"Iglesia Evangélica Los Seguidores de Cristo","culto":"Evangélica y otras cristianas","fuente":"Registro Nacional de Cultos"},"geometry":{"type":"Point","coordinates":[-58.598207,-34.436012]}},{"type":"Feature","properties":{"nombre":"Iglesia Evangélica Pasión por el Reino","tipo":"Iglesia Evangélica","culto":"Evangélica y otras cristianas","fuente":"Registro Nacional de Cultos"},"geometry":{"type":"Point","coordinates":[-58.598192,-34.414438]}},{"type":"Feature","properties":{"nombre":"Iglesia Evangélica Pentecostal Los Misioneros de Cristo Filial 3","tipo":"Iglesia Evangélica Pentecostal","culto":"Evangélica y otras cristianas","fuente":"Registro Nacional de Cultos"},"geometry":{"type":"Point","coordinates":[-58.652331,-34.48754]}},{"type":"Feature","properties":{"nombre":"Iglesia Evangélica Pentecostal Nueva Victoria en Cristo","tipo":"Iglesia Evangélica Pentecostal","culto":"Evangélica y otras cristianas","fuente":"Registro Nacional de Cultos"},"geometry":{"type":"Point","coordinates":[-58.714892,-34.406917]}},{"type":"Feature","properties":{"nombre":"Iglesia Internacional del Evangelio Cuadrangular Filial 174","tipo":"Iglesia Internacional del Evangelio Cuadrangular","culto":"Evangélica y otras cristianas","fuente":"Registro Nacional de Cultos"},"geometry":{"type":"Point","coordinates":[-58.688984,-34.403481]}},{"type":"Feature","properties":{"nombre":"Iglesia Pentecostal de Benavídez Filial 1","tipo":"Iglesia Pentecostal de Benavídez","culto":"Evangélica y otras cristianas","fuente":"Registro Nacional de Cultos"},"geometry":{"type":"Point","coordinates":[-58.652409,-34.447574]}},{"type":"Feature","properties":{"nombre":"Iglesia Pentecostal de Benavídez Filial 5","tipo":"Iglesia Pentecostal de Benavídez","culto":"Evangélica y otras cristianas","fuente":"Registro Nacional de Cultos"},"geometry":{"type":"Point","coordinates":[-58.67521,-34.450698]}},{"type":"Feature","properties":{"nombre":"Templo Filadelfia Iglesia Evangélica Asamblea de Dios Filial 25","tipo":"Templo Filadelfia Iglesia Evangélica","culto":"Evangélica y otras cristianas","fuente":"Registro Nacional de Cultos"},"geometry":{"type":"Point","coordinates":[-58.589463,-34.439277]}},{"type":"Feature","properties":{"nombre":"Unión de las Asambleas de Dios Filial 1049","tipo":"Unión de las Asambleas de Dios","culto":"Evangélica y otras cristianas","fuente":"Registro Nacional de Cultos"},"geometry":{"type":"Point","coordinates":[-58.652501,-34.465084]}},{"type":"Feature","properties":{"nombre":"Unión de las Asambleas de Dios Filial 1054","tipo":"Unión de las Asambleas de Dios","culto":"Evangélica y otras cristianas","fuente":"Registro Nacional de Cultos"},"geometry":{"type":"Point","coordinates":[-58.681773,-34.460268]}},{"type":"Feature","properties":{"nombre":"Unión de las Asambleas de Dios Filial 446","tipo":"Unión de las Asambleas de Dios","culto":"Evangélica y otras cristianas","fuente":"Registro Nacional de Cultos"},"geometry":{"type":"Point","coordinates":[-58.58305,-34.433179]}},{"type":"Feature","properties":{"nombre":"Unión de las Asambleas de Dios Filial 833","tipo":"Unión de las Asambleas de Dios","culto":"Evangélica y otras cristianas","fuente":"Registro Nacional de Cultos"},"geometry":{"type":"Point","coordinates":[-58.637716,-34.471867]}},{"type":"Feature","properties":{"nombre":"Asamblea Cristiana Filial 63","tipo":"Asamblea Cristiana","culto":"Evangélica y otras cristianas","fuente":"Registro Nacional de Cultos"},"geometry":{"type":"Point","coordinates":[-58.627276,-34.475844]}},{"type":"Feature","properties":{"nombre":"Centro Espirita de Umbanda Reino de Xango y Oxun","tipo":"Centro Espirita de Umbanda","culto":"Umbanda y religiones afro","fuente":"Registro Nacional de Cultos"},"geometry":{"type":"Point","coordinates":[-58.655404,-34.478725]}},{"type":"Feature","properties":{"nombre":"Convención Evangélica Bautista Argentina Filial 31","tipo":"Convención Evangélica Bautista Argentina","culto":"Evangélica y otras cristianas","fuente":"Registro Nacional de Cultos"},"geometry":{"type":"Point","coordinates":[-58.639192,-34.499356]}},{"type":"Feature","properties":{"nombre":"Delegación Argentina del Sur de la Iglesia Adventisa del Séptimo Día Filial 32","tipo":"Delegación Argentina del Sur","culto":"Evangélica y otras cristianas","fuente":"Registro Nacional de Cultos"},"geometry":{"type":"Point","coordinates":[-58.623716,-34.496754]}},{"type":"Feature","properties":{"nombre":"Iglesia Biblia Abierta Misión Sudamericana Filial 118","tipo":"Iglesia Biblia Abierta Misión Sudamericana","culto":"Evangélica y otras cristianas","fuente":"Registro Nacional de Cultos"},"geometry":{"type":"Point","coordinates":[-58.617912,-34.490487]}},{"type":"Feature","properties":{"nombre":"Iglesia de Sion","tipo":"Iglesia","culto":"Evangélica y otras cristianas","fuente":"Registro Nacional de Cultos"},"geometry":{"type":"Point","coordinates":[-58.610954,-34.501029]}},{"type":"Feature","properties":{"nombre":"Iglesia Evangélica Cristiana Los Peregrinos","tipo":"Iglesia Evangélica Cristiana","culto":"Evangélica y otras cristianas","fuente":"Registro Nacional de Cultos"},"geometry":{"type":"Point","coordinates":[-58.609468,-34.478642]}},{"type":"Feature","properties":{"nombre":"Iglesia Evangélica Estrella de Oriente Filial 21","tipo":"Iglesia Evangélica Estrella de Oriente","culto":"Evangélica y otras cristianas","fuente":"Registro Nacional de Cultos"},"geometry":{"type":"Point","coordinates":[-58.627491,-34.502433]}},{"type":"Feature","properties":{"nombre":"Iglesia Evangélica Menonita Argentina Filial 12","tipo":"Iglesia Evangélica Menonita Argentina","culto":"Evangélica y otras cristianas","fuente":"Registro Nacional de Cultos"},"geometry":{"type":"Point","coordinates":[-58.652118,-34.489101]}},{"type":"Feature","properties":{"nombre":"Iglesia Evangélica Pentecostal Asamblea de Dios","tipo":"Iglesia Evangélica Pentecostal","culto":"Evangélica y otras cristianas","fuente":"Registro Nacional de Cultos"},"geometry":{"type":"Point","coordinates":[-58.612453,-34.487002]}},{"type":"Feature","properties":{"nombre":"Iglesia Evangélica Pentecostal El Propósito de Dios","tipo":"Iglesia Evangélica Pentecostal","culto":"Evangélica y otras cristianas","fuente":"Registro Nacional de Cultos"},"geometry":{"type":"Point","coordinates":[-58.616897,-34.49894]}},{"type":"Feature","properties":{"nombre":"Iglesia la Gloria de Jesús","tipo":"Iglesia la Gloria de Jesús","culto":"Evangélica y otras cristianas","fuente":"Registro Nacional de Cultos"},"geometry":{"type":"Point","coordinates":[-58.618422,-34.489404]}},{"type":"Feature","properties":{"nombre":"Iglesia Pentecostal de Santidad Filial 16","tipo":"Iglesia Pentecostal de Santidad","culto":"Evangélica y otras cristianas","fuente":"Registro Nacional de Cultos"},"geometry":{"type":"Point","coordinates":[-58.614273,-34.486626]}},{"type":"Feature","properties":{"nombre":"Iglesia Pentecostal de Santidad Filial 76","tipo":"Iglesia Pentecostal de Santidad","culto":"Evangélica y otras cristianas","fuente":"Registro Nacional de Cultos"},"geometry":{"type":"Point","coordinates":[-58.610684,-34.499944]}},{"type":"Feature","properties":{"nombre":"La Iglesia Universal del Reino de Dios Filial 184","tipo":"La Iglesia Universal del Reino de Dios","culto":"Evangélica y otras cristianas","fuente":"Registro Nacional de Cultos"},"geometry":{"type":"Point","coordinates":[-58.634149,-34.495756]}},{"type":"Feature","properties":{"nombre":"Alianza Pastoral de la República Argentina Filial 2","tipo":"Alianza Pastoral de la República Argentina","culto":"Evangélica y otras cristianas","fuente":"Registro Nacional de Cultos"},"geometry":{"type":"Point","coordinates":[-58.596322,-34.423716]}}]}