{"type":"FeatureCollection","features":[{"type":"Feature","properties":{"nombre":"Museo de la Reconquista","tipo":"Museo","categoria":"Museo","fuente":"Street View"},"geometry":{"type":"Point","coordinates":[-58.589536,-34.416477]}},{"type":"Feature","properties":{"nombre":"Biblioteca Popular Ricardo Güiraldes","tipo":"Biblioteca Popular","categoria":"Biblioteca popular","fuente":"Street View"},"geometry":{"type":"Point","coordinates":[-58.698557,-34.412552]}},{"type":"Feature","properties":{"nombre":"Biblioteca Popular López Camelo","tipo":"Biblioteca Popular","categoria":"Biblioteca popular","fuente":"Street View"},"geometry":{"type":"Point","coordinates":[-58.678365,-34.447199]}},{"type":"Feature","properties":{"nombre":"Biblioteca Popular José Ingenieros","tipo":"Biblioteca Popular","categoria":"Biblioteca popular","fuente":"Ministerio del Interior"},"geometry":{"type":"Point","coordinates":[-58.6349,-34.494]}},{"type":"Feature","properties":{"nombre":"Biblioteca Popular Juan José Castelli","tipo":"Biblioteca Popular","categoria":"Biblioteca popular","fuente":"Ministerio del Interior"},"geometry":{"type":"Point","coordinates":[-58.634612,-34.454172]}},{"type":"Feature","properties":{"nombre":"Biblioteca Popular y Museo del Cine Leonardo Favio","tipo":"Biblioteca Popular y del Cine","categoria":"Biblioteca popular","fuente":"Ministerio del Interior"},"geometry":{"type":"Point","coordinates":[-58.6206,-34.4849]}},{"type":"Feature","properties":{"nombre":"Biblioteca Popular Mariano Moreno","tipo":"Biblioteca Popular","categoria":"Biblioteca popular","fuente":"Street View"},"geometry":{"type":"Point","coordinates":[-58.638561,-34.497762]}},{"type":"Feature","properties":{"nombre":"Biblioteca Popular Troncos del Talar","tipo":"Biblioteca Popular","categoria":"Biblioteca popular","fuente":"Street View"},"geometry":{"type":"Point","coordinates":[-58.603626,-34.45106]}},{"type":"Feature","properties":{"nombre":"Biblioteca Popular Domingo Faustino Sarmiento","tipo":"Biblioteca Popular","categoria":"Biblioteca popular","fuente":"Ministerio del Interior"},"geometry":{"type":"Point","coordinates":[-58.5846,-34.4202]}},{"type":"Feature","properties":{"nombre":"Centro Cultural Comunitario y Biblioteca Popular Caraguata","tipo":"Centro Cultural","categoria":"Centro cultural","fuente":"Ministerio del Interior"},"geometry":{"type":"Point","coordinates":[-58.5809,-34.4227]}},{"type":"Feature","properties":{"nombre":"Biblioteca Popular Ricardo Rojas","tipo":"Biblioteca Popular","categoria":"Biblioteca popular","fuente":"Street View"},"geometry":{"type":"Point","coordinates":[-58.677044,-34.459004]}},{"type":"Feature","properties":{"nombre":"Biblioteca Popular y Centro Cultural El Talar","tipo":"Biblioteca Popular y Centro Cultural","categoria":"Biblioteca popular","fuente":"Street View"},"geometry":{"type":"Point","coordinates":[-58.649213,-34.464968]}},{"type":"Feature","properties":{"nombre":"Biblioteca Popular Unión de Educ. de Tigre","tipo":"Biblioteca Popular","categoria":"Biblioteca popular","fuente":"Street View"},"geometry":{"type":"Point","coordinates":[-58.642157,-34.455566]}},{"type":"Feature","properties":{"nombre":"Museo de Arte Tigre","tipo":"Museo de Arte","categoria":"Museo","fuente":"SINCA"},"geometry":{"type":"Point","coordinates":[-58.590971,-34.408949]}},{"type":"Feature","properties":{"nombre":"Museo Histórico de la Prefectura Naval Argentina","tipo":"Museo Histórico","categoria":"Museo","fuente":"SINCA"},"geometry":{"type":"Point","coordinates":[-58.587789,-34.420844]}},{"type":"Feature","properties":{"nombre":"Museo Naval de la Nación","tipo":"Museo","categoria":"Museo","fuente":"SINCA"},"geometry":{"type":"Point","coordinates":[-58.586232,-34.412853]}},{"type":"Feature","properties":{"nombre":"Teatro Niní Marshall","tipo":"Teatro","categoria":"Teatro","fuente":"SINCA"},"geometry":{"type":"Point","coordinates":[-58.57627,-34.41817]}},{"type":"Feature","properties":{"nombre":"Teatro Hindu","tipo":"Teatro","categoria":"Teatro","fuente":"SINCA"},"geometry":{"type":"Point","coordinates":[-58.643771,-34.500102]}},{"type":"Feature","properties":{"nombre":"Biblioteca Popular Mariano Moreno","tipo":"Biblioteca Popular","categoria":"Biblioteca popular","fuente":"OSM/Street View"},"geometry":{"type":"Point","coordinates":[-58.638663,-34.497841]}}]}