{"type":"FeatureCollection","features":[{"type":"Feature","properties":{"nombre":"Buenos Aires Rowing Club","tipo":"Club de remo","direccion":"Gral. Bartolomé Mitre 226, Tigre","localidad":"Tigre","descripcion":"Fundado en 1873","fuente":"Relevamiento IDEAR Tigre"},"geometry":{"type":"Point","coordinates":[-58.578636,-34.420792]}},{"type":"Feature","properties":{"nombre":"Tigre Boat Club","tipo":"Club de remo","direccion":"Paseo Victorica 156, Tigre","localidad":"Tigre","descripcion":"Fundado en 1888","fuente":"Relevamiento IDEAR Tigre"},"geometry":{"type":"Point","coordinates":[-58.581721,-34.415273]}},{"type":"Feature","properties":{"nombre":"Club de Regatas La Marina","tipo":"Club de remo","direccion":"Avenida Victorica, Colón &, Tigre","localidad":"Islas del Delta","descripcion":"Fundado en 1876","fuente":"Relevamiento IDEAR Tigre"},"geometry":{"type":"Point","coordinates":[-58.579922,-34.414194]}},{"type":"Feature","properties":{"nombre":"Rowing Club Argentino","tipo":"Club de remo","direccion":"Paseo Victorica 316, Tigre","localidad":"Tigre","descripcion":"Fundado en 1905","fuente":"Relevamiento IDEAR Tigre"},"geometry":{"type":"Point","coordinates":[-58.583096,-34.414742]}},{"type":"Feature","properties":{"nombre":"Club Canottieri Italiani","tipo":"Club de remo","direccion":"Gral. Bartolomé Mitre 74, Tigre","localidad":"Tigre","descripcion":"Fundado en 1910","fuente":"Relevamiento IDEAR Tigre"},"geometry":{"type":"Point","coordinates":[-58.578613,-34.419026]}},{"type":"Feature","properties":{"nombre":"Club de Remeros Escandinavos","tipo":"Club de remo","direccion":"Rio Lujan 10546 Delta 1ra Seccion. Delta","localidad":"Islas del Delta","descripcion":"Fundado en 1912","fuente":"Relevamiento IDEAR Tigre"},"geometry":{"type":"Point","coordinates":[-58.592245,-34.405657]}},{"type":"Feature","properties":{"nombre":"Club Suizo de Buenos Aires","tipo":"Club de remo","direccion":"Lavalle 115, Tigre","localidad":"Tigre","descripcion":"Fundado en 1913","fuente":"Relevamiento IDEAR Tigre"},"geometry":{"type":"Point","coordinates":[-58.579854,-34.417157]}},{"type":"Feature","properties":{"nombre":"Club de Regatas Hispano Argentino","tipo":"Club de remo","direccion":"Paseo Victorica 50 PB, Tigre","localidad":"Tigre","descripcion":"Fundado en 1913","fuente":"Relevamiento IDEAR Tigre"},"geometry":{"type":"Point","coordinates":[-58.580406,-34.415742]}},{"type":"Feature","properties":{"nombre":"Nahuel Rowing Club","tipo":"Club de remo","direccion":"Lavalle 235, Tigre","localidad":"Tigre","descripcion":"Fundado en 1916","fuente":"Relevamiento IDEAR Tigre"},"geometry":{"type":"Point","coordinates":[-58.579884,-34.418456]}},{"type":"Feature","properties":{"nombre":"Club de Regatas L'Aviron","tipo":"Club de remo","direccion":"Ayacucho 971,Tigre","localidad":"Tigre","descripcion":"Fundado en 1920","fuente":"Relevamiento IDEAR Tigre"},"geometry":{"type":"Point","coordinates":[-58.584978,-34.424566]}},{"type":"Feature","properties":{"nombre":"Club de Regatas América","tipo":"Club de remo","direccion":"Lavalle 167, Tigre","localidad":"Tigre","descripcion":"Fundado en 1920","fuente":"Relevamiento IDEAR Tigre"},"geometry":{"type":"Point","coordinates":[-58.579893,-34.417814]}},{"type":"Feature","properties":{"nombre":"Club Náutico Hacoaj","tipo":"Club de remo","direccion":"Montevideo 1590, Tigre","localidad":"Tigre","descripcion":"Fundado en 1935","fuente":"Relevamiento IDEAR Tigre"},"geometry":{"type":"Point","coordinates":[-58.584578,-34.428342]}},{"type":"Feature","properties":{"nombre":"Club Excursionista","tipo":"Club de remo","direccion":"Luis Pereyra 815, Tigre","localidad":"Tigre","descripcion":null,"fuente":"Relevamiento IDEAR Tigre"},"geometry":{"type":"Point","coordinates":[-58.575905,-34.431508]}},{"type":"Feature","properties":{"nombre":"Tigre Sailing Club","tipo":"Club de remo","direccion":null,"localidad":"Islas del Delta","descripcion":null,"fuente":"Relevamiento IDEAR Tigre"},"geometry":{"type":"Point","coordinates":[-58.57926,-34.414458]}},{"type":"Feature","properties":{"nombre":"Tigre Rugby Club","tipo":"Rugby y hockey","direccion":"Benito Lynch 1060, Troncos del Talar","localidad":"Tigre","descripcion":"Rugby, hockey, fútbol, fundado en 1981","fuente":"Relevamiento IDEAR Tigre"},"geometry":{"type":"Point","coordinates":[-58.59115,-34.436742]}},{"type":"Feature","properties":{"nombre":"Club Newman","tipo":"Rugby y hockey","direccion":"Av. Gral. Juan Domingo Perón 7245, Benavídez","localidad":"Benavídez","descripcion":"Rugby, hockey, fútbol","fuente":"Relevamiento IDEAR Tigre"},"geometry":{"type":"Point","coordinates":[-58.712862,-34.410943]}},{"type":"Feature","properties":{"nombre":"Club Pueyrredón","tipo":"Rugby y hockey","direccion":"Ruta Provincial 27 y Av. Benavídez s/n, Benavídez","localidad":"Benavídez","descripcion":"Rugby, hockey, fútbolBenavídez","fuente":"Relevamiento IDEAR Tigre"},"geometry":{"type":"Point","coordinates":[-58.660598,-34.393606]}},{"type":"Feature","properties":{"nombre":"Club San Andrés","tipo":"Rugby y hockey","direccion":"Av. Italia 4561, Dique Luján","localidad":"Dique Luján","descripcion":"Rugby, hockey, fútbol","fuente":"Relevamiento IDEAR Tigre"},"geometry":{"type":"Point","coordinates":[-58.68745,-34.381237]}},{"type":"Feature","properties":{"nombre":"Club Atlético de San Andrés","tipo":"Rugby y hockey","direccion":"España 100, Dique Luján","localidad":"Dique Luján","descripcion":"Rugby","fuente":"Relevamiento IDEAR Tigre"},"geometry":{"type":"Point","coordinates":[-58.700416,-34.350468]}},{"type":"Feature","properties":{"nombre":"Delta Rugby Club","tipo":"Rugby y hockey","direccion":null,"localidad":"Rincón de Milberg","descripcion":"Rugby, fundado en 2009","fuente":"Relevamiento IDEAR Tigre"},"geometry":{"type":"Point","coordinates":[-58.619912,-34.403939]}},{"type":"Feature","properties":{"nombre":"Hindú Club","tipo":"Rugby y hockey","direccion":"Regina Pacini de Alvear 600-698, Don Torcuato","localidad":"Don Torcuato","descripcion":"Rugby, hockey, fútbol, golf, tenis, natación","fuente":"Relevamiento IDEAR Tigre"},"geometry":{"type":"Point","coordinates":[-58.64252,-34.497542]}},{"type":"Feature","properties":{"nombre":"Club Atlético Tigre","tipo":"Club de fútbol","direccion":"Williams 2400, Rincón de Milberg","localidad":"Rincón de Milberg","descripcion":null,"fuente":"Relevamiento IDEAR Tigre"},"geometry":{"type":"Point","coordinates":[-58.598741,-34.434235]}},{"type":"Feature","properties":{"nombre":"El Chasqui","tipo":"Club de fútbol","direccion":null,"localidad":"General Pacheco","descripcion":"Fútbol","fuente":"Relevamiento IDEAR Tigre"},"geometry":{"type":"Point","coordinates":[-58.62554,-34.458105]}},{"type":"Feature","properties":{"nombre":"Club Atlético y Social Deportivo Tigre","tipo":"Club social y deportivo","direccion":"Ruperto Mazza 775,Tigre","localidad":"Tigre","descripcion":null,"fuente":"Relevamiento IDEAR Tigre"},"geometry":{"type":"Point","coordinates":[-58.570172,-34.435285]}},{"type":"Feature","properties":{"nombre":"Club Atlético y Social Estudiantes Solís","tipo":"Club social y deportivo","direccion":"Av. Dardo Rocha 442, Tigre","localidad":"Tigre","descripcion":null,"fuente":"Relevamiento IDEAR Tigre"},"geometry":{"type":"Point","coordinates":[-58.571436,-34.432832]}},{"type":"Feature","properties":{"nombre":"Club Social Alberdi","tipo":"Club social y deportivo","direccion":"Av. Cazón 1258, Tigre","localidad":"Tigre","descripcion":null,"fuente":"Relevamiento IDEAR Tigre"},"geometry":{"type":"Point","coordinates":[-58.576986,-34.425675]}},{"type":"Feature","properties":{"nombre":"Club Social y Deportivo San Roque","tipo":"Club social y deportivo","direccion":"Saavedra 1285, Tigre","localidad":"Tigre","descripcion":null,"fuente":"Relevamiento IDEAR Tigre"},"geometry":{"type":"Point","coordinates":[-58.580466,-34.434175]}},{"type":"Feature","properties":{"nombre":"Club Social y Fomento Leopoldo Lugones","tipo":"Club social y deportivo","direccion":"Caseros 3743, Gral. Pacheco","localidad":"General Pacheco","descripcion":null,"fuente":"Relevamiento IDEAR Tigre"},"geometry":{"type":"Point","coordinates":[-58.667422,-34.43693]}},{"type":"Feature","properties":{"nombre":"Club Alarcón Fútbol Infantil","tipo":"Club social y deportivo","direccion":"Juan Ruiz de Alarcón 2460, Don Torcuato","localidad":"Don Torcuato","descripcion":null,"fuente":"Relevamiento IDEAR Tigre"},"geometry":{"type":"Point","coordinates":[-58.633305,-34.478187]}},{"type":"Feature","properties":{"nombre":"Club Social y Deportivo 1º de Septiembre","tipo":"Club social y deportivo","direccion":"Paul Groussac 1499-1549, Gral. Pacheco","localidad":"El Talar","descripcion":null,"fuente":"Relevamiento IDEAR Tigre"},"geometry":{"type":"Point","coordinates":[-58.649054,-34.461662]}},{"type":"Feature","properties":{"nombre":"Club Social y Deportivo MOSAFI","tipo":"Club social y deportivo","direccion":"Canadá y ruta 197, El Talar","localidad":"El Talar","descripcion":null,"fuente":"Relevamiento IDEAR Tigre"},"geometry":{"type":"Point","coordinates":[-58.64334,-34.465792]}},{"type":"Feature","properties":{"nombre":"Club Atlético Caza y Pezca","tipo":"Club social y deportivo","direccion":"Av. Ángel T. de Alvear 2100, Don Torcuato","localidad":"Don Torcuato","descripcion":null,"fuente":"Relevamiento IDEAR Tigre"},"geometry":{"type":"Point","coordinates":[-58.625752,-34.490826]}},{"type":"Feature","properties":{"nombre":"Club Social y Deportivo Juventud Unida","tipo":"Club social y deportivo","direccion":"José Hernández 2168, Don Torcuato","localidad":"Don Torcuato","descripcion":null,"fuente":"Relevamiento IDEAR Tigre"},"geometry":{"type":"Point","coordinates":[-58.630541,-34.501885]}},{"type":"Feature","properties":{"nombre":"Asociación Civil Unión y Fuerza Tigre Junior","tipo":"Club social y deportivo","direccion":"José Manuel Estrada 549-699, Tigre","localidad":"Tigre","descripcion":null,"fuente":"Relevamiento IDEAR Tigre"},"geometry":{"type":"Point","coordinates":[-58.584938,-34.421089]}},{"type":"Feature","properties":{"nombre":"Club Social y Deportivo Vito Dumas","tipo":"Club social y deportivo","direccion":"Belgrano 633, Tigre","localidad":"Tigre","descripcion":null,"fuente":"Relevamiento IDEAR Tigre"},"geometry":{"type":"Point","coordinates":[-58.587205,-34.417441]}},{"type":"Feature","properties":{"nombre":"Club Social, Cultural y Deportivo Almirante Brown","tipo":"Club social y deportivo","direccion":"Gral. Juan Andrés Gelly y Obes, El Talar, Provincia de Buenos Aires","localidad":"El Talar","descripcion":"Ex Sociedad de Fomento Barrio Almirante Brown","fuente":"Relevamiento IDEAR Tigre"},"geometry":{"type":"Point","coordinates":[-58.661482,-34.484396]}},{"type":"Feature","properties":{"nombre":"Asociación de Fomento y Club Social de General Pacheco","tipo":"Club social y deportivo","direccion":"Santiago del Estero 185,Gral. Pacheco","localidad":"General Pacheco","descripcion":null,"fuente":"Relevamiento IDEAR Tigre"},"geometry":{"type":"Point","coordinates":[-58.633358,-34.457002]}},{"type":"Feature","properties":{"nombre":"Club El Zorzal","tipo":"Club social y deportivo","direccion":"Río de Janeiro 1850, Gral. Pacheco","localidad":"General Pacheco","descripcion":null,"fuente":"Relevamiento IDEAR Tigre"},"geometry":{"type":"Point","coordinates":[-58.646368,-34.455359]}},{"type":"Feature","properties":{"nombre":"Club 9 de Julio","tipo":"Club social y deportivo","direccion":"La Rioja 555, Gral. Pacheco","localidad":"General Pacheco","descripcion":null,"fuente":"Relevamiento IDEAR Tigre"},"geometry":{"type":"Point","coordinates":[-58.631304,-34.449988]}},{"type":"Feature","properties":{"nombre":"Club Andersen","tipo":"Rugby y hockey","direccion":null,"localidad":"General Pacheco","descripcion":null,"fuente":"Relevamiento IDEAR Tigre"},"geometry":{"type":"Point","coordinates":[-58.636404,-34.445942]}},{"type":"Feature","properties":{"nombre":"Club Deportivo Santa Bárbara","tipo":"Club de urbanización cerrada","direccion":"C. Marcos Paz, Troncos del Talar, Provincia de Buenos Aires","localidad":"Troncos del Talar","descripcion":null,"fuente":"Relevamiento IDEAR Tigre"},"geometry":{"type":"Point","coordinates":[-58.619283,-34.42948]}},{"type":"Feature","properties":{"nombre":"Centro y Deportivo Adolfo Alsina","tipo":"Club social y deportivo","direccion":"Adolfo Alsina 500, Gral. Pacheco","localidad":"General Pacheco","descripcion":null,"fuente":"Relevamiento IDEAR Tigre"},"geometry":{"type":"Point","coordinates":[-58.665547,-34.440819]}},{"type":"Feature","properties":{"nombre":"Club Deportivo Las Tunas","tipo":"Club social y deportivo","direccion":"Juárez Beaucheff 2549, Gral. Pacheco","localidad":"General Pacheco","descripcion":null,"fuente":"Relevamiento IDEAR Tigre"},"geometry":{"type":"Point","coordinates":[-58.671346,-34.446115]}},{"type":"Feature","properties":{"nombre":"Club Sarmiento","tipo":"Club social y deportivo","direccion":"Junín, B1617 Gral. Pacheco","localidad":"General Pacheco","descripcion":null,"fuente":"Relevamiento IDEAR Tigre"},"geometry":{"type":"Point","coordinates":[-58.663064,-34.443467]}},{"type":"Feature","properties":{"nombre":"Club Social y Deportivo El Talar","tipo":"Club social y deportivo","direccion":"Canadá y Ruta 197, El Talar","localidad":"El Talar","descripcion":null,"fuente":"Relevamiento IDEAR Tigre"},"geometry":{"type":"Point","coordinates":[-58.643286,-34.465833]}},{"type":"Feature","properties":{"nombre":"Club Social y Deportivo San Justo","tipo":"Club social y deportivo","direccion":null,"localidad":"Benavídez","descripcion":null,"fuente":"Relevamiento IDEAR Tigre"},"geometry":{"type":"Point","coordinates":[-58.683734,-34.409489]}},{"type":"Feature","properties":{"nombre":"Sociedad de Fomento Los Tábanos","tipo":"Club social y deportivo","direccion":null,"localidad":"Tigre","descripcion":null,"fuente":"Relevamiento IDEAR Tigre"},"geometry":{"type":"Point","coordinates":[-58.588601,-34.439127]}},{"type":"Feature","properties":{"nombre":"Club Rincón","tipo":"Club social y deportivo","direccion":"José C. Paz 1050, Rincón de Milberg","localidad":"Rincón de Milberg","descripcion":null,"fuente":"Relevamiento IDEAR Tigre"},"geometry":{"type":"Point","coordinates":[-58.592957,-34.422006]}},{"type":"Feature","properties":{"nombre":"Club América Social y Deportivo","tipo":"Club social y deportivo","direccion":"Fray Luis Beltrán 1516, Rincón de Milberg","localidad":"Rincón de Milberg","descripcion":null,"fuente":"Relevamiento IDEAR Tigre"},"geometry":{"type":"Point","coordinates":[-58.59691,-34.424804]}},{"type":"Feature","properties":{"nombre":"S.F. Villa Liniers","tipo":"Club social y deportivo","direccion":"Vértiz 107, Rincón de Milberg","localidad":"Rincón de Milberg","descripcion":null,"fuente":"Relevamiento IDEAR Tigre"},"geometry":{"type":"Point","coordinates":[-58.597153,-34.437868]}},{"type":"Feature","properties":{"nombre":"Club Social y Deportivo Juventud de Rincón de Milberg","tipo":"Club social y deportivo","direccion":"Av. Sta. María de las Conchas 2662, Rincón de Milberg","localidad":"Rincón de Milberg","descripcion":"Futsal y baby fútbol","fuente":"Relevamiento IDEAR Tigre"},"geometry":{"type":"Point","coordinates":[-58.597394,-34.417484]}},{"type":"Feature","properties":{"nombre":"Ecosol CLub","tipo":"Club social y deportivo","direccion":"Milberg 665, Rincón de Milberg","localidad":"Rincón de Milberg","descripcion":null,"fuente":"Relevamiento IDEAR Tigre"},"geometry":{"type":"Point","coordinates":[-58.591679,-34.41738]}},{"type":"Feature","properties":{"nombre":"Club Social y de Fomento Villa Carupá","tipo":"Club social y deportivo","direccion":"Jose Hernandez 2445, Tigre","localidad":"Tigre","descripcion":null,"fuente":"Relevamiento IDEAR Tigre"},"geometry":{"type":"Point","coordinates":[-58.588451,-34.4446]}},{"type":"Feature","properties":{"nombre":"Club Social Cultural y Deportivo Baires","tipo":"Club social y deportivo","direccion":"Emilio Lamarca 3049, Don Torcuato","localidad":"Don Torcuato","descripcion":null,"fuente":"Relevamiento IDEAR Tigre"},"geometry":{"type":"Point","coordinates":[-58.621809,-34.476786]}},{"type":"Feature","properties":{"nombre":"Club de Campo Hacoaj","tipo":"Club social y deportivo","direccion":"Av. Sta. María de las Conchas 4002, Rincón de Milberg","localidad":"Rincón de Milberg","descripcion":null,"fuente":"Relevamiento IDEAR Tigre"},"geometry":{"type":"Point","coordinates":[-58.614955,-34.415167]}},{"type":"Feature","properties":{"nombre":"Club Peñarol del Delta","tipo":"Club social y deportivo","direccion":"12 de Octubre 400-498, Dique Luján","localidad":"Dique Luján","descripcion":null,"fuente":"Relevamiento IDEAR Tigre"},"geometry":{"type":"Point","coordinates":[-58.689558,-34.357293]}},{"type":"Feature","properties":{"nombre":"A.C.A. Centro Recreativo Náutico Delta","tipo":"Club social y deportivo","direccion":"nan","localidad":"Islas del Delta","descripcion":null,"fuente":"Relevamiento IDEAR Tigre"},"geometry":{"type":"Point","coordinates":[-58.656191,-34.371382]}},{"type":"Feature","properties":{"nombre":"Sociedad de Fomento Dr. Ricardo Rojas","tipo":"Club social y deportivo","direccion":"Australia 2562, Ricardo Rojas","localidad":"Ricardo Rojas","descripcion":null,"fuente":"Relevamiento IDEAR Tigre"},"geometry":{"type":"Point","coordinates":[-58.678261,-34.458763]}},{"type":"Feature","properties":{"nombre":"Club Deportivo y Cultural Troncos del Talar","tipo":"Club social y deportivo","direccion":"Alexis Carrel 901, Troncos del Talar","localidad":"Troncos del Talar","descripcion":null,"fuente":"Relevamiento IDEAR Tigre"},"geometry":{"type":"Point","coordinates":[-58.608292,-34.455899]}},{"type":"Feature","properties":{"nombre":"Sociedad de Fomento May 24","tipo":"Club social y deportivo","direccion":"Independencia 1789, Troncos del Talar","localidad":"Troncos del Talar","descripcion":null,"fuente":"Relevamiento IDEAR Tigre"},"geometry":{"type":"Point","coordinates":[-58.602269,-34.450325]}},{"type":"Feature","properties":{"nombre":"Sociedad de Fomento Dique Luján","tipo":"Club social y deportivo","direccion":"12 de Octubre 700-818, Dique Luján","localidad":"Dique Luján","descripcion":null,"fuente":"Relevamiento IDEAR Tigre"},"geometry":{"type":"Point","coordinates":[-58.689597,-34.356732]}},{"type":"Feature","properties":{"nombre":"Club Sporting Villa La Ñata","tipo":"Club social y deportivo","direccion":"B1621 Dique Luján","localidad":"Dique Luján","descripcion":null,"fuente":"Relevamiento IDEAR Tigre"},"geometry":{"type":"Point","coordinates":[-58.656224,-34.374443]}},{"type":"Feature","properties":{"nombre":"Nordelta Golf Club","tipo":"Club de urbanización cerrada","direccion":"Avenida del Golf s/n, Tigre","localidad":"Nordelta","descripcion":"Único club de golf del partido; cancha de 18 hoyos diseñada por Jack Nicklaus (2007)","fuente":"Relevamiento IDEAR Tigre"},"geometry":{"type":"Point","coordinates":[-58.639457,-34.415091]}},{"type":"Feature","properties":{"nombre":"Club Nordelta","tipo":"Club de urbanización cerrada","direccion":"B1670 Rincón de Milberg","localidad":"Nordelta","descripcion":null,"fuente":"Relevamiento IDEAR Tigre"},"geometry":{"type":"Point","coordinates":[-58.655514,-34.405182]}},{"type":"Feature","properties":{"nombre":"Club Nordelta","tipo":"Club de urbanización cerrada","direccion":"Av. de los Lagos 3100, Nordelta","localidad":"Nordelta","descripcion":"Acceso por membresía","fuente":"Relevamiento IDEAR Tigre"},"geometry":{"type":"Point","coordinates":[-58.655698,-34.428078]}},{"type":"Feature","properties":{"nombre":"Unión Vecinal de Fomento Gral. Belgrano","tipo":"Club social y deportivo","direccion":"Gral. Bartolomé Mitre 2173, Don Torcuato","localidad":"Don Torcuato","descripcion":null,"fuente":"Relevamiento IDEAR Tigre"},"geometry":{"type":"Point","coordinates":[-58.628495,-34.50084]}},{"type":"Feature","properties":{"nombre":"Club Sociedad De Fomento Pedro Arata","tipo":"Club social y deportivo","direccion":"Ituzaingó 1427-1499, Don Torcuato","localidad":"Don Torcuato","descripcion":null,"fuente":"Relevamiento IDEAR Tigre"},"geometry":{"type":"Point","coordinates":[-58.636445,-34.489265]}},{"type":"Feature","properties":{"nombre":"Polideportivo General Belgrano","tipo":"Polideportivo municipal","direccion":null,"localidad":"El Talar","descripcion":null,"fuente":"IGN"},"geometry":{"type":"Point","coordinates":[-58.658535,-34.463488]}},{"type":"Feature","properties":{"nombre":"Polideportivo Sarmiento","tipo":"Polideportivo municipal","direccion":null,"localidad":"Tigre","descripcion":null,"fuente":"IGN"},"geometry":{"type":"Point","coordinates":[-58.590412,-34.434456]}},{"type":"Feature","properties":{"nombre":"Polideportivo Ricardo Rojas","tipo":"Polideportivo municipal","direccion":null,"localidad":"Ricardo Rojas","descripcion":null,"fuente":"IGN"},"geometry":{"type":"Point","coordinates":[-58.685934,-34.460851]}},{"type":"Feature","properties":{"nombre":"Polideportivo General Pacheco","tipo":"Polideportivo municipal","direccion":null,"localidad":"General Pacheco","descripcion":null,"fuente":"IGN"},"geometry":{"type":"Point","coordinates":[-58.67425,-34.447168]}},{"type":"Feature","properties":{"nombre":"Polideportivo El Zorzal","tipo":"Polideportivo municipal","direccion":null,"localidad":"General Pacheco","descripcion":null,"fuente":"IGN"},"geometry":{"type":"Point","coordinates":[-58.651996,-34.456003]}},{"type":"Feature","properties":{"nombre":"Polideportivo Ottorino Zanón","tipo":"Polideportivo municipal","direccion":null,"localidad":"Don Torcuato","descripcion":null,"fuente":"IGN"},"geometry":{"type":"Point","coordinates":[-58.613052,-34.476607]}},{"type":"Feature","properties":{"nombre":"Polideportivo Güemes","tipo":"Polideportivo municipal","direccion":null,"localidad":"Benavídez","descripcion":null,"fuente":"IGN"},"geometry":{"type":"Point","coordinates":[-58.69339,-34.412129]}},{"type":"Feature","properties":{"nombre":"Polideportivo San Martín","tipo":"Polideportivo municipal","direccion":null,"localidad":"Don Torcuato","descripcion":null,"fuente":"IGN"},"geometry":{"type":"Point","coordinates":[-58.61455,-34.499385]}},{"type":"Feature","properties":{"nombre":"Polideportivo Ricardo Gutiérrez","tipo":"Polideportivo municipal","direccion":null,"localidad":"Don Torcuato","descripcion":null,"fuente":"IGN"},"geometry":{"type":"Point","coordinates":[-58.648274,-34.487017]}},{"type":"Feature","properties":{"nombre":"Polideportivo Mariano Moreno","tipo":"Polideportivo municipal","direccion":null,"localidad":"Troncos del Talar","descripcion":null,"fuente":"IGN"},"geometry":{"type":"Point","coordinates":[-58.608332,-34.448702]}},{"type":"Feature","properties":{"nombre":"Polideportivo Zabala","tipo":"Polideportivo municipal","direccion":null,"localidad":"Benavídez","descripcion":null,"fuente":"IGN"},"geometry":{"type":"Point","coordinates":[-58.700192,-34.433026]}},{"type":"Feature","properties":{"nombre":"Polideportivo Delfo Cabrera","tipo":"Polideportivo municipal","direccion":null,"localidad":"El Talar","descripcion":null,"fuente":"IGN"},"geometry":{"type":"Point","coordinates":[-58.641075,-34.475487]}},{"type":"Feature","properties":{"nombre":"Pacheco Golf Club","tipo":"Club social y deportivo","direccion":null,"localidad":"General Pacheco","descripcion":null,"fuente":"IGN"},"geometry":{"type":"Point","coordinates":[-58.60852,-34.473372]}},{"type":"Feature","properties":{"nombre":"Buenos Aires Football","tipo":"Club social y deportivo","direccion":null,"localidad":"Dique Luján","descripcion":null,"fuente":"IGN"},"geometry":{"type":"Point","coordinates":[-58.685547,-34.388548]}}]}