{"type":"FeatureCollection","features":[{"type":"Feature","properties":{"nombre":"Centro de Formación Profesional N° 402","tipo":"Centro de Formación Profesional","nivel":"Adultos y formación profesional","fuente":"Mapa Educativo Nacional"},"geometry":{"type":"Point","coordinates":[-58.636379,-34.460371]}},{"type":"Feature","properties":{"nombre":"Jardín de Infantes N° 928 Horacio Butler","tipo":"Jardín de Infantes","nivel":"Inicial","fuente":"Mapa Educativo Nacional"},"geometry":{"type":"Point","coordinates":[-58.631944,-34.355642]}},{"type":"Feature","properties":{"nombre":"Centro Educativo de Nivel Secundario N° 454 Bachillerato Popular Raíces","tipo":"Centro Educativo de Nivel Secundario","nivel":"Secundario","fuente":"Mapa Educativo Nacional"},"geometry":{"type":"Point","coordinates":[-58.601395,-34.420007]}},{"type":"Feature","properties":{"nombre":"Centro Educativo de Nivel Secundario N° 453 Bachillerato Popular Simón Rodríguez","tipo":"Centro Educativo de Nivel Secundario","nivel":"Secundario","fuente":"Mapa Educativo Nacional"},"geometry":{"type":"Point","coordinates":[-58.6687,-34.4373]}},{"type":"Feature","properties":{"nombre":"Centro Educativo de Nivel Secundario N° 452","tipo":"Centro Educativo de Nivel Secundario","nivel":"Secundario","fuente":"Mapa Educativo Nacional"},"geometry":{"type":"Point","coordinates":[-58.5837,-34.4168]}},{"type":"Feature","properties":{"nombre":"Centro de Adultos N° 705","tipo":"Centro de Adultos","nivel":"Adultos y formación profesional","fuente":"Mapa Educativo Nacional"},"geometry":{"type":"Point","coordinates":[-58.667438,-34.43693]}},{"type":"Feature","properties":{"nombre":"Jardín de Infantes N° 944 Jorge Luis Borges","tipo":"Jardín de Infantes","nivel":"Inicial","fuente":"Mapa Educativo Nacional"},"geometry":{"type":"Point","coordinates":[-58.698,-34.4325]}},{"type":"Feature","properties":{"nombre":"Escuela de Educación Primaria N° 35 Rompehielos General San Martín","tipo":"Escuela de Educación Primaria","nivel":"Primario","fuente":"Mapa Educativo Nacional"},"geometry":{"type":"Point","coordinates":[-58.6648,-34.4656]}},{"type":"Feature","properties":{"nombre":"Escuela de Educación Primaria N° 47 San José de Calassanz","tipo":"Escuela de Educación Primaria","nivel":"Primario","fuente":"Mapa Educativo Nacional"},"geometry":{"type":"Point","coordinates":[-58.661299,-34.458324]}},{"type":"Feature","properties":{"nombre":"Escuela de Educación Primaria N° 36 José Hernández","tipo":"Escuela de Educación Primaria","nivel":"Primario","fuente":"Mapa Educativo Nacional"},"geometry":{"type":"Point","coordinates":[-58.6475,-34.455]}},{"type":"Feature","properties":{"nombre":"Escuela de Educación Primaria N° 16 Reconquista","tipo":"Escuela de Educación Primaria","nivel":"Primario","fuente":"Mapa Educativo Nacional"},"geometry":{"type":"Point","coordinates":[-58.68645,-34.358557]}},{"type":"Feature","properties":{"nombre":"Escuela de Educación Primaria N° 29 Gabriela Mistral","tipo":"Escuela de Educación Primaria","nivel":"Primario","fuente":"Mapa Educativo Nacional"},"geometry":{"type":"Point","coordinates":[-58.6166,-34.4932]}},{"type":"Feature","properties":{"nombre":"Escuela de Educación Primaria N° 39 Manuel Belgrano","tipo":"Escuela de Educación Primaria","nivel":"Primario","fuente":"Mapa Educativo Nacional"},"geometry":{"type":"Point","coordinates":[-58.568571,-34.427438]}},{"type":"Feature","properties":{"nombre":"Escuela de Educación Primaria N° 38 Miguel Cane","tipo":"Escuela de Educación Primaria","nivel":"Primario","fuente":"Mapa Educativo Nacional"},"geometry":{"type":"Point","coordinates":[-58.611646,-34.489017]}},{"type":"Feature","properties":{"nombre":"Escuela de Educación Secundaria N° 2 Brig. General J. M. de Rosas","tipo":"Escuela de Educación Secundaria","nivel":"Secundario","fuente":"Mapa Educativo Nacional"},"geometry":{"type":"Point","coordinates":[-58.631984,-34.454594]}},{"type":"Feature","properties":{"nombre":"Escuela de Educación Secundaria N° 4 Revolución Francesa","tipo":"Escuela de Educación Secundaria","nivel":"Secundario","fuente":"Mapa Educativo Nacional"},"geometry":{"type":"Point","coordinates":[-58.6831,-34.4126]}},{"type":"Feature","properties":{"nombre":"Jardín de Infantes N° 904","tipo":"Jardín de Infantes","nivel":"Inicial","fuente":"Mapa Educativo Nacional"},"geometry":{"type":"Point","coordinates":[-58.650566,-34.464862]}},{"type":"Feature","properties":{"nombre":"Jardín de Infantes N° 914 Los Álamos","tipo":"Jardín de Infantes","nivel":"Inicial","fuente":"Mapa Educativo Nacional"},"geometry":{"type":"Point","coordinates":[-58.6468,-34.379]}},{"type":"Feature","properties":{"nombre":"Escuela Especial N° 502 Taiñ Ruka","tipo":"Escuela Especial","nivel":"Educación especial","fuente":"Mapa Educativo Nacional"},"geometry":{"type":"Point","coordinates":[-58.6524,-34.457]}},{"type":"Feature","properties":{"nombre":"Centro de Adultos N° 706/07","tipo":"Centro de Adultos","nivel":"Adultos y formación profesional","fuente":"Mapa Educativo Nacional"},"geometry":{"type":"Point","coordinates":[-58.714,-34.4059]}},{"type":"Feature","properties":{"nombre":"Escuela Secundaria Básica N° 25","tipo":"Escuela Secundaria Básica","nivel":"Secundario","fuente":"Mapa Educativo Nacional"},"geometry":{"type":"Point","coordinates":[-58.6748,-34.4591]}},{"type":"Feature","properties":{"nombre":"Escuela de Educación Secundaria Técnica N° 2","tipo":"Escuela de Educación Secundaria Técnica","nivel":"Secundario","fuente":"Mapa Educativo Nacional"},"geometry":{"type":"Point","coordinates":[-58.6867,-34.4609]}},{"type":"Feature","properties":{"nombre":"Jardín de Infantes N° 918","tipo":"Jardín de Infantes","nivel":"Inicial","fuente":"Mapa Educativo Nacional"},"geometry":{"type":"Point","coordinates":[-58.5883,-34.4428]}},{"type":"Feature","properties":{"nombre":"Jardín de Infantes N° 903 Ricardo Ubieto","tipo":"Jardín de Infantes","nivel":"Inicial","fuente":"Mapa Educativo Nacional"},"geometry":{"type":"Point","coordinates":[-58.6826,-34.4127]}},{"type":"Feature","properties":{"nombre":"Jardín de Infantes N° 926","tipo":"Jardín de Infantes","nivel":"Inicial","fuente":"Mapa Educativo Nacional"},"geometry":{"type":"Point","coordinates":[-58.642738,-34.449005]}},{"type":"Feature","properties":{"nombre":"Escuela de Educación Secundaria N° 33","tipo":"Escuela de Educación Secundaria","nivel":"Secundario","fuente":"Mapa Educativo Nacional"},"geometry":{"type":"Point","coordinates":[-58.655195,-34.448943]}},{"type":"Feature","properties":{"nombre":"Escuela de Educación Secundaria N° 14","tipo":"Escuela de Educación Secundaria","nivel":"Secundario","fuente":"Mapa Educativo Nacional"},"geometry":{"type":"Point","coordinates":[-58.586249,-34.44217]}},{"type":"Feature","properties":{"nombre":"Escuela Secundaria Básica N° 9","tipo":"Escuela Secundaria Básica","nivel":"Secundario","fuente":"Mapa Educativo Nacional"},"geometry":{"type":"Point","coordinates":[-58.652434,-34.491422]}},{"type":"Feature","properties":{"nombre":"Escuela Secundaria Básica N° 44","tipo":"Escuela Secundaria Básica","nivel":"Secundario","fuente":"Mapa Educativo Nacional"},"geometry":{"type":"Point","coordinates":[-58.689976,-34.4213]}},{"type":"Feature","properties":{"nombre":"Escuela de Educación Primaria N° 27 Almafuerte","tipo":"Escuela de Educación Primaria","nivel":"Primario","fuente":"Mapa Educativo Nacional"},"geometry":{"type":"Point","coordinates":[-58.594468,-34.410313]}},{"type":"Feature","properties":{"nombre":"Escuela de Educación Primaria N° 3 General Don José de San Martín","tipo":"Escuela de Educación Primaria","nivel":"Primario","fuente":"Mapa Educativo Nacional"},"geometry":{"type":"Point","coordinates":[-58.5796,-34.4247]}},{"type":"Feature","properties":{"nombre":"Escuela de Educación Primaria N° 41 Rosario Vera Peñaloza","tipo":"Escuela de Educación Primaria","nivel":"Primario","fuente":"Mapa Educativo Nacional"},"geometry":{"type":"Point","coordinates":[-58.690076,-34.4214]}},{"type":"Feature","properties":{"nombre":"Extensión I de Escuela de Educación Secundaria N° 12","tipo":"Extensión I de Escuela de Educación Secundaria","nivel":"Secundario","fuente":"Mapa Educativo Nacional"},"geometry":{"type":"Point","coordinates":[-58.534443,-34.323707]}},{"type":"Feature","properties":{"nombre":"Jardín de Infantes N° 941 Florencio Molina Campos","tipo":"Jardín de Infantes","nivel":"Inicial","fuente":"Mapa Educativo Nacional"},"geometry":{"type":"Point","coordinates":[-58.685962,-34.418452]}},{"type":"Feature","properties":{"nombre":"Jardín de Infantes N° 942","tipo":"Jardín de Infantes","nivel":"Inicial","fuente":"Mapa Educativo Nacional"},"geometry":{"type":"Point","coordinates":[-58.568499,-34.427518]}},{"type":"Feature","properties":{"nombre":"Escuela de Educación Primaria N° 56 Nueve de Julio","tipo":"Escuela de Educación Primaria","nivel":"Primario","fuente":"Mapa Educativo Nacional"},"geometry":{"type":"Point","coordinates":[-58.694805,-34.415091]}},{"type":"Feature","properties":{"nombre":"Escuela de Educación Primaria N° 26 Sargento. Juan B. Cabral","tipo":"Escuela de Educación Primaria","nivel":"Primario","fuente":"Mapa Educativo Nacional"},"geometry":{"type":"Point","coordinates":[-58.6731,-34.4462]}},{"type":"Feature","properties":{"nombre":"Escuela de Educación Primaria N° 5 Juana Manso","tipo":"Escuela de Educación Primaria","nivel":"Primario","fuente":"Mapa Educativo Nacional"},"geometry":{"type":"Point","coordinates":[-58.7139,-34.4059]}},{"type":"Feature","properties":{"nombre":"Escuela de Educación Secundaria N° 8","tipo":"Escuela de Educación Secundaria","nivel":"Secundario","fuente":"Mapa Educativo Nacional"},"geometry":{"type":"Point","coordinates":[-58.625557,-34.455838]}},{"type":"Feature","properties":{"nombre":"Jardín de Infantes N° 901 Domingo Faustino Sarmiento","tipo":"Jardín de Infantes","nivel":"Inicial","fuente":"Mapa Educativo Nacional"},"geometry":{"type":"Point","coordinates":[-58.589241,-34.419752]}},{"type":"Feature","properties":{"nombre":"Jardín de Infantes N° 917","tipo":"Jardín de Infantes","nivel":"Inicial","fuente":"Mapa Educativo Nacional"},"geometry":{"type":"Point","coordinates":[-58.5946,-34.4084]}},{"type":"Feature","properties":{"nombre":"Jardín de Infantes N° 921 Pedro Norberto Arata","tipo":"Jardín de Infantes","nivel":"Inicial","fuente":"Mapa Educativo Nacional"},"geometry":{"type":"Point","coordinates":[-58.642,-34.489]}},{"type":"Feature","properties":{"nombre":"Escuela de Adultos N° 701 Sargento Manuel Diaz","tipo":"Escuela de Adultos","nivel":"Adultos y formación profesional","fuente":"Mapa Educativo Nacional"},"geometry":{"type":"Point","coordinates":[-58.681629,-34.360908]}},{"type":"Feature","properties":{"nombre":"Jardín de Infantes N° 940","tipo":"Jardín de Infantes","nivel":"Inicial","fuente":"Mapa Educativo Nacional"},"geometry":{"type":"Point","coordinates":[-58.670343,-34.455876]}},{"type":"Feature","properties":{"nombre":"Centro Educativo de Nivel Secundario N° 455","tipo":"Centro Educativo de Nivel Secundario","nivel":"Secundario","fuente":"Mapa Educativo Nacional"},"geometry":{"type":"Point","coordinates":[-58.602088,-34.449092]}},{"type":"Feature","properties":{"nombre":"Escuela Especial N° 504 Rotary Club de Tigre","tipo":"Escuela Especial","nivel":"Educación especial","fuente":"Mapa Educativo Nacional"},"geometry":{"type":"Point","coordinates":[-58.5792,-34.4298]}},{"type":"Feature","properties":{"nombre":"Jardín de Infantes N° 936 Horacio Quiroga","tipo":"Jardín de Infantes","nivel":"Inicial","fuente":"Mapa Educativo Nacional"},"geometry":{"type":"Point","coordinates":[-58.608838,-34.328028]}},{"type":"Feature","properties":{"nombre":"Jardín de Infantes N° 937 María Sánchez de Thompson","tipo":"Jardín de Infantes","nivel":"Inicial","fuente":"Mapa Educativo Nacional"},"geometry":{"type":"Point","coordinates":[-58.703,-34.4263]}},{"type":"Feature","properties":{"nombre":"Jardín de Infantes N° 902","tipo":"Jardín de Infantes","nivel":"Inicial","fuente":"Mapa Educativo Nacional"},"geometry":{"type":"Point","coordinates":[-58.579986,-34.437635]}},{"type":"Feature","properties":{"nombre":"Escuela Secundaria Básica N° 10","tipo":"Escuela Secundaria Básica","nivel":"Secundario","fuente":"Mapa Educativo Nacional"},"geometry":{"type":"Point","coordinates":[-58.661199,-34.458324]}},{"type":"Feature","properties":{"nombre":"Instituto de Formación Docente N° 140","tipo":"Instituto de Formación Docente","nivel":"Superior","fuente":"Mapa Educativo Nacional"},"geometry":{"type":"Point","coordinates":[-58.634028,-34.456714]}},{"type":"Feature","properties":{"nombre":"Centro Educativo de Nivel Secundario N° 451","tipo":"Centro Educativo de Nivel Secundario","nivel":"Secundario","fuente":"Mapa Educativo Nacional"},"geometry":{"type":"Point","coordinates":[-58.6941,-34.4481]}},{"type":"Feature","properties":{"nombre":"Jardín de Infantes N° 913 Mahatmas Karamchand Gandhi","tipo":"Jardín de Infantes","nivel":"Inicial","fuente":"Mapa Educativo Nacional"},"geometry":{"type":"Point","coordinates":[-58.5932,-34.3694]}},{"type":"Feature","properties":{"nombre":"Escuela de Educación Primaria N° 49 Alfonsina Storni","tipo":"Escuela de Educación Primaria","nivel":"Primario","fuente":"Mapa Educativo Nacional"},"geometry":{"type":"Point","coordinates":[-58.596259,-34.434063]}},{"type":"Feature","properties":{"nombre":"Jardín de Infantes N° 909 Mitai","tipo":"Jardín de Infantes","nivel":"Inicial","fuente":"Mapa Educativo Nacional"},"geometry":{"type":"Point","coordinates":[-58.593284,-34.427017]}},{"type":"Feature","properties":{"nombre":"Escuela Secundaria Básica N° 20","tipo":"Escuela Secundaria Básica","nivel":"Secundario","fuente":"Mapa Educativo Nacional"},"geometry":{"type":"Point","coordinates":[-58.594641,-34.410313]}},{"type":"Feature","properties":{"nombre":"Escuela Secundaria Básica N° 2","tipo":"Escuela Secundaria Básica","nivel":"Secundario","fuente":"Mapa Educativo Nacional"},"geometry":{"type":"Point","coordinates":[-58.56939,-34.433767]}},{"type":"Feature","properties":{"nombre":"Escuela de Educación Primaria N° 10 Leopoldo Lugones","tipo":"Escuela de Educación Primaria","nivel":"Primario","fuente":"Mapa Educativo Nacional"},"geometry":{"type":"Point","coordinates":[-58.6482,-34.3783]}},{"type":"Feature","properties":{"nombre":"Escuela de Educación Secundaria N° 21 Doctor René G. Favaloro","tipo":"Escuela de Educación Secundaria","nivel":"Secundario","fuente":"Mapa Educativo Nacional"},"geometry":{"type":"Point","coordinates":[-58.688767,-34.413495]}},{"type":"Feature","properties":{"nombre":"Escuela de Educación Primaria N° 13 Julian Anguiano","tipo":"Escuela de Educación Primaria","nivel":"Primario","fuente":"Mapa Educativo Nacional"},"geometry":{"type":"Point","coordinates":[-58.631529,-34.355657]}},{"type":"Feature","properties":{"nombre":"Escuela de Educación Primaria N° 12 General José I. Arias","tipo":"Escuela de Educación Primaria","nivel":"Primario","fuente":"Mapa Educativo Nacional"},"geometry":{"type":"Point","coordinates":[-58.55928,-34.381015]}},{"type":"Feature","properties":{"nombre":"Escuela de Educación Secundaria N° 12","tipo":"Escuela de Educación Secundaria","nivel":"Secundario","fuente":"Mapa Educativo Nacional"},"geometry":{"type":"Point","coordinates":[-58.559299,-34.380906]}},{"type":"Feature","properties":{"nombre":"Escuela de Educación Primaria N° 15 Juan Bautista Alberdi","tipo":"Escuela de Educación Primaria","nivel":"Primario","fuente":"Mapa Educativo Nacional"},"geometry":{"type":"Point","coordinates":[-58.6459,-34.4683]}},{"type":"Feature","properties":{"nombre":"Escuela de Educación Primaria N° 2 Bernardino Rivadavia","tipo":"Escuela de Educación Primaria","nivel":"Primario","fuente":"Mapa Educativo Nacional"},"geometry":{"type":"Point","coordinates":[-58.589777,-34.425057]}},{"type":"Feature","properties":{"nombre":"Escuela de Educación Primaria N° 50 Rafael Obligado","tipo":"Escuela de Educación Primaria","nivel":"Primario","fuente":"Mapa Educativo Nacional"},"geometry":{"type":"Point","coordinates":[-58.652252,-34.4575]}},{"type":"Feature","properties":{"nombre":"Escuela de Educación Primaria N° 24 Independencia","tipo":"Escuela de Educación Primaria","nivel":"Primario","fuente":"Mapa Educativo Nacional"},"geometry":{"type":"Point","coordinates":[-58.6253,-34.5017]}},{"type":"Feature","properties":{"nombre":"Escuela de Educación Primaria N° 37 Ricardo Güiraldes","tipo":"Escuela de Educación Primaria","nivel":"Primario","fuente":"Mapa Educativo Nacional"},"geometry":{"type":"Point","coordinates":[-58.652434,-34.491522]}},{"type":"Feature","properties":{"nombre":"Escuela de Educación Secundaria N° 10","tipo":"Escuela de Educación Secundaria","nivel":"Secundario","fuente":"Mapa Educativo Nacional"},"geometry":{"type":"Point","coordinates":[-58.575184,-34.425959]}},{"type":"Feature","properties":{"nombre":"Escuela de Educación Secundaria N° 11 Juana Azurduy","tipo":"Escuela de Educación Secundaria","nivel":"Secundario","fuente":"Mapa Educativo Nacional"},"geometry":{"type":"Point","coordinates":[-58.617586,-34.493947]}},{"type":"Feature","properties":{"nombre":"Jardín de Infantes N° 925","tipo":"Jardín de Infantes","nivel":"Inicial","fuente":"Mapa Educativo Nacional"},"geometry":{"type":"Point","coordinates":[-58.711519,-34.413048]}},{"type":"Feature","properties":{"nombre":"Jardín de Infantes N° 927 La Pachamama","tipo":"Jardín de Infantes","nivel":"Inicial","fuente":"Mapa Educativo Nacional"},"geometry":{"type":"Point","coordinates":[-58.608195,-34.447129]}},{"type":"Feature","properties":{"nombre":"Centro de Formación Laboral N° 1","tipo":"Centro de Formación Laboral","nivel":"Adultos y formación profesional","fuente":"Mapa Educativo Nacional"},"geometry":{"type":"Point","coordinates":[-58.6521,-34.4553]}},{"type":"Feature","properties":{"nombre":"Centro de Adultos N° 717/14","tipo":"Centro de Adultos","nivel":"Adultos y formación profesional","fuente":"Mapa Educativo Nacional"},"geometry":{"type":"Point","coordinates":[-58.6651,-34.4655]}},{"type":"Feature","properties":{"nombre":"Escuela de Adultos N° 703 Fragata Presidente Sarmiento","tipo":"Escuela de Adultos","nivel":"Adultos y formación profesional","fuente":"Mapa Educativo Nacional"},"geometry":{"type":"Point","coordinates":[-58.666062,-34.483481]}},{"type":"Feature","properties":{"nombre":"Escuela de Educación Secundaria N° 13","tipo":"Escuela de Educación Secundaria","nivel":"Secundario","fuente":"Mapa Educativo Nacional"},"geometry":{"type":"Point","coordinates":[-58.608052,-34.458738]}},{"type":"Feature","properties":{"nombre":"Escuela de Educación Secundaria N° 28","tipo":"Escuela de Educación Secundaria","nivel":"Secundario","fuente":"Mapa Educativo Nacional"},"geometry":{"type":"Point","coordinates":[-58.680589,-34.421719]}},{"type":"Feature","properties":{"nombre":"Escuela Especial N° 506 Delta de Tigre","tipo":"Escuela Especial","nivel":"Educación especial","fuente":"Mapa Educativo Nacional"},"geometry":{"type":"Point","coordinates":[-58.577,-34.4258]}},{"type":"Feature","properties":{"nombre":"Escuela Secundaria Básica N° 35","tipo":"Escuela Secundaria Básica","nivel":"Secundario","fuente":"Mapa Educativo Nacional"},"geometry":{"type":"Point","coordinates":[-58.596259,-34.433963]}},{"type":"Feature","properties":{"nombre":"Escuela Secundaria Básica N° 31","tipo":"Escuela Secundaria Básica","nivel":"Secundario","fuente":"Mapa Educativo Nacional"},"geometry":{"type":"Point","coordinates":[-58.6432,-34.4486]}},{"type":"Feature","properties":{"nombre":"Escuela de Educación Secundaria N° 25","tipo":"Escuela de Educación Secundaria","nivel":"Secundario","fuente":"Mapa Educativo Nacional"},"geometry":{"type":"Point","coordinates":[-58.593078,-34.369428]}},{"type":"Feature","properties":{"nombre":"Extensión de Escuela Secundaria Básica N° 45","tipo":"Extensión de Escuela Secundaria Básica","nivel":"Secundario","fuente":"Mapa Educativo Nacional"},"geometry":{"type":"Point","coordinates":[-58.608538,-34.327685]}},{"type":"Feature","properties":{"nombre":"Escuela de Educación Primaria N° 14 Jorge Newbery","tipo":"Escuela de Educación Primaria","nivel":"Primario","fuente":"Mapa Educativo Nacional"},"geometry":{"type":"Point","coordinates":[-58.6282,-34.4585]}},{"type":"Feature","properties":{"nombre":"Escuela de Educación Primaria N° 6 Bartolomé Mitre","tipo":"Escuela de Educación Primaria","nivel":"Primario","fuente":"Mapa Educativo Nacional"},"geometry":{"type":"Point","coordinates":[-58.5865,-34.4157]}},{"type":"Feature","properties":{"nombre":"Escuela de Educación Primaria N° 43 Héroes de Malvinas","tipo":"Escuela de Educación Primaria","nivel":"Primario","fuente":"Mapa Educativo Nacional"},"geometry":{"type":"Point","coordinates":[-58.6433,-34.4487]}},{"type":"Feature","properties":{"nombre":"Escuela de Educación Secundaria N° 1","tipo":"Escuela de Educación Secundaria","nivel":"Secundario","fuente":"Mapa Educativo Nacional"},"geometry":{"type":"Point","coordinates":[-58.6492,-34.4666]}},{"type":"Feature","properties":{"nombre":"Jardín de Infantes N° 906 Cecilia Grierson","tipo":"Jardín de Infantes","nivel":"Inicial","fuente":"Mapa Educativo Nacional"},"geometry":{"type":"Point","coordinates":[-58.5698,-34.4344]}},{"type":"Feature","properties":{"nombre":"Centro de Adultos N° 718/02","tipo":"Centro de Adultos","nivel":"Adultos y formación profesional","fuente":"Mapa Educativo Nacional"},"geometry":{"type":"Point","coordinates":[-58.647664,-34.455654]}},{"type":"Feature","properties":{"nombre":"Escuela de Adultos N° 702 Alfredo L. Palacios","tipo":"Escuela de Adultos","nivel":"Adultos y formación profesional","fuente":"Mapa Educativo Nacional"},"geometry":{"type":"Point","coordinates":[-58.628095,-34.458614]}},{"type":"Feature","properties":{"nombre":"Escuela Secundaria Básica N° 40","tipo":"Escuela Secundaria Básica","nivel":"Secundario","fuente":"Mapa Educativo Nacional"},"geometry":{"type":"Point","coordinates":[-58.697062,-34.432528]}},{"type":"Feature","properties":{"nombre":"Escuela Secundaria Básica N° 29","tipo":"Escuela Secundaria Básica","nivel":"Secundario","fuente":"Mapa Educativo Nacional"},"geometry":{"type":"Point","coordinates":[-58.661448,-34.461965]}},{"type":"Feature","properties":{"nombre":"Escuela de Educación Secundaria N° 24","tipo":"Escuela de Educación Secundaria","nivel":"Secundario","fuente":"Mapa Educativo Nacional"},"geometry":{"type":"Point","coordinates":[-58.60402,-34.450894]}},{"type":"Feature","properties":{"nombre":"Escuela de Educación Secundaria N° 32","tipo":"Escuela de Educación Secundaria","nivel":"Secundario","fuente":"Mapa Educativo Nacional"},"geometry":{"type":"Point","coordinates":[-58.7138,-34.4058]}},{"type":"Feature","properties":{"nombre":"Escuela de Educación Primaria N° 22 Patricias Argentinas","tipo":"Escuela de Educación Primaria","nivel":"Primario","fuente":"Mapa Educativo Nacional"},"geometry":{"type":"Point","coordinates":[-58.6395,-34.4941]}},{"type":"Feature","properties":{"nombre":"Escuela de Educación Secundaria N° 6","tipo":"Escuela de Educación Secundaria","nivel":"Secundario","fuente":"Mapa Educativo Nacional"},"geometry":{"type":"Point","coordinates":[-58.618722,-34.503689]}},{"type":"Feature","properties":{"nombre":"Jardín de Infantes N° 924 Nuestro Rincón","tipo":"Jardín de Infantes","nivel":"Inicial","fuente":"Mapa Educativo Nacional"},"geometry":{"type":"Point","coordinates":[-58.60347,-34.419708]}},{"type":"Feature","properties":{"nombre":"Centro de Adultos N° 749/47","tipo":"Centro de Adultos","nivel":"Adultos y formación profesional","fuente":"Mapa Educativo Nacional"},"geometry":{"type":"Point","coordinates":[-58.6065,-34.4491]}},{"type":"Feature","properties":{"nombre":"Centro de Formación Profesional N° 401","tipo":"Centro de Formación Profesional","nivel":"Adultos y formación profesional","fuente":"Mapa Educativo Nacional"},"geometry":{"type":"Point","coordinates":[-58.6616,-34.4843]}},{"type":"Feature","properties":{"nombre":"Escuela de Educación Primaria N° 17 Enrique Adamoli","tipo":"Escuela de Educación Primaria","nivel":"Primario","fuente":"Mapa Educativo Nacional"},"geometry":{"type":"Point","coordinates":[-58.5347,-34.3256]}},{"type":"Feature","properties":{"nombre":"Escuela de Educación Primaria N° 9 José Hernández","tipo":"Escuela de Educación Primaria","nivel":"Primario","fuente":"Mapa Educativo Nacional"},"geometry":{"type":"Point","coordinates":[-58.608634,-34.32777]}},{"type":"Feature","properties":{"nombre":"Escuela de Educación Primaria N° 18 Hipólito Yrigoyen","tipo":"Escuela de Educación Primaria","nivel":"Primario","fuente":"Mapa Educativo Nacional"},"geometry":{"type":"Point","coordinates":[-58.688867,-34.413595]}},{"type":"Feature","properties":{"nombre":"Escuela de Educación Primaria N° 4 José Manuel Estrada","tipo":"Escuela de Educación Primaria","nivel":"Primario","fuente":"Mapa Educativo Nacional"},"geometry":{"type":"Point","coordinates":[-58.60412,-34.450894]}},{"type":"Feature","properties":{"nombre":"Escuela de Educación Primaria N° 31 Ricardo Rojas","tipo":"Escuela de Educación Primaria","nivel":"Primario","fuente":"Mapa Educativo Nacional"},"geometry":{"type":"Point","coordinates":[-58.6143,-34.4552]}},{"type":"Feature","properties":{"nombre":"Escuela de Educación Primaria N° 48","tipo":"Escuela de Educación Primaria","nivel":"Primario","fuente":"Mapa Educativo Nacional"},"geometry":{"type":"Point","coordinates":[-58.63089,-34.472254]}},{"type":"Feature","properties":{"nombre":"Escuela de Educación Primaria N° 44 Henry Ford","tipo":"Escuela de Educación Primaria","nivel":"Primario","fuente":"Mapa Educativo Nacional"},"geometry":{"type":"Point","coordinates":[-58.685183,-34.461208]}},{"type":"Feature","properties":{"nombre":"Jardín de Infantes N° 923 Rosario Vera Peñaloza","tipo":"Jardín de Infantes","nivel":"Inicial","fuente":"Mapa Educativo Nacional"},"geometry":{"type":"Point","coordinates":[-58.6106,-34.5015]}},{"type":"Feature","properties":{"nombre":"Jardín de Infantes N° 915 Pucara","tipo":"Jardín de Infantes","nivel":"Inicial","fuente":"Mapa Educativo Nacional"},"geometry":{"type":"Point","coordinates":[-58.669976,-34.439691]}},{"type":"Feature","properties":{"nombre":"Jardín de Infantes N° 935 Hebe San Martín de Duprat","tipo":"Jardín de Infantes","nivel":"Inicial","fuente":"Mapa Educativo Nacional"},"geometry":{"type":"Point","coordinates":[-58.613921,-34.455222]}},{"type":"Feature","properties":{"nombre":"Escuela de Adultos N° 747","tipo":"Escuela de Adultos","nivel":"Adultos y formación profesional","fuente":"Mapa Educativo Nacional"},"geometry":{"type":"Point","coordinates":[-58.6224,-34.475175]}},{"type":"Feature","properties":{"nombre":"Escuela de Educación Secundaria N° 20","tipo":"Escuela de Educación Secundaria","nivel":"Secundario","fuente":"Mapa Educativo Nacional"},"geometry":{"type":"Point","coordinates":[-58.6798,-34.454852]}},{"type":"Feature","properties":{"nombre":"Escuela de Educación Secundaria N° 16","tipo":"Escuela de Educación Secundaria","nivel":"Secundario","fuente":"Mapa Educativo Nacional"},"geometry":{"type":"Point","coordinates":[-58.686389,-34.358361]}},{"type":"Feature","properties":{"nombre":"Escuela de Educación Primaria N° 8 Manuel Belgrano","tipo":"Escuela de Educación Primaria","nivel":"Primario","fuente":"Mapa Educativo Nacional"},"geometry":{"type":"Point","coordinates":[-58.593064,-34.36925]}},{"type":"Feature","properties":{"nombre":"Jardín de Infantes N° 912 Marcos Sastre","tipo":"Jardín de Infantes","nivel":"Inicial","fuente":"Mapa Educativo Nacional"},"geometry":{"type":"Point","coordinates":[-58.5624,-34.3867]}},{"type":"Feature","properties":{"nombre":"Escuela de Educación Primaria N° 28 Almirante Guillermo Brown","tipo":"Escuela de Educación Primaria","nivel":"Primario","fuente":"Mapa Educativo Nacional"},"geometry":{"type":"Point","coordinates":[-58.6226,-34.4752]}},{"type":"Feature","properties":{"nombre":"Jardín de Infantes N° 910","tipo":"Jardín de Infantes","nivel":"Inicial","fuente":"Mapa Educativo Nacional"},"geometry":{"type":"Point","coordinates":[-58.603514,-34.450954]}},{"type":"Feature","properties":{"nombre":"Jardín de Infantes N° 931 Velero Esperanza","tipo":"Jardín de Infantes","nivel":"Inicial","fuente":"Mapa Educativo Nacional"},"geometry":{"type":"Point","coordinates":[-58.630608,-34.472123]}},{"type":"Feature","properties":{"nombre":"Centro de Adultos N° 748/14","tipo":"Centro de Adultos","nivel":"Adultos y formación profesional","fuente":"Mapa Educativo Nacional"},"geometry":{"type":"Point","coordinates":[-58.661299,-34.458424]}},{"type":"Feature","properties":{"nombre":"Escuela de Adultos N° 707","tipo":"Escuela de Adultos","nivel":"Adultos y formación profesional","fuente":"Mapa Educativo Nacional"},"geometry":{"type":"Point","coordinates":[-58.688967,-34.413495]}},{"type":"Feature","properties":{"nombre":"Escuela de Educación Secundaria N° 27","tipo":"Escuela de Educación Secundaria","nivel":"Secundario","fuente":"Mapa Educativo Nacional"},"geometry":{"type":"Point","coordinates":[-58.6648,-34.4656]}},{"type":"Feature","properties":{"nombre":"Escuela Secundaria Básica N° 33","tipo":"Escuela Secundaria Básica","nivel":"Secundario","fuente":"Mapa Educativo Nacional"},"geometry":{"type":"Point","coordinates":[-58.659024,-34.483338]}},{"type":"Feature","properties":{"nombre":"Escuela de Educación Secundaria N° 18","tipo":"Escuela de Educación Secundaria","nivel":"Secundario","fuente":"Mapa Educativo Nacional"},"geometry":{"type":"Point","coordinates":[-58.653722,-34.482647]}},{"type":"Feature","properties":{"nombre":"Extensión de Escuela Secundaria Básica N° 46","tipo":"Extensión de Escuela Secundaria Básica","nivel":"Secundario","fuente":"Mapa Educativo Nacional"},"geometry":{"type":"Point","coordinates":[-58.6473,-34.3763]}},{"type":"Feature","properties":{"nombre":"Escuela de Educación Primaria N° 55 María Teresa de Calcuta","tipo":"Escuela de Educación Primaria","nivel":"Primario","fuente":"Mapa Educativo Nacional"},"geometry":{"type":"Point","coordinates":[-58.6799,-34.454852]}},{"type":"Feature","properties":{"nombre":"Instituto Superior El Devenir","tipo":"Instituto Superior","nivel":"Superior","fuente":"Mapa Educativo Nacional"},"geometry":{"type":"Point","coordinates":[-58.643602,-34.501338]}},{"type":"Feature","properties":{"nombre":"Escuela de Educación Primaria N° 25 Paula Albarracin","tipo":"Escuela de Educación Primaria","nivel":"Primario","fuente":"Mapa Educativo Nacional"},"geometry":{"type":"Point","coordinates":[-58.586349,-34.44217]}},{"type":"Feature","properties":{"nombre":"Escuela de Educación Secundaria N° 7","tipo":"Escuela de Educación Secundaria","nivel":"Secundario","fuente":"Mapa Educativo Nacional"},"geometry":{"type":"Point","coordinates":[-58.60357,-34.419708]}},{"type":"Feature","properties":{"nombre":"Escuela de Educación Secundaria N° 5","tipo":"Escuela de Educación Secundaria","nivel":"Secundario","fuente":"Mapa Educativo Nacional"},"geometry":{"type":"Point","coordinates":[-58.624344,-34.480516]}},{"type":"Feature","properties":{"nombre":"Escuela de Educación Secundaria Técnica N° 5 Raúl Escalabrini Ortiz","tipo":"Escuela de Educación Secundaria Técnica","nivel":"Secundario","fuente":"Mapa Educativo Nacional"},"geometry":{"type":"Point","coordinates":[-58.575244,-34.426517]}},{"type":"Feature","properties":{"nombre":"Jardín de Infantes N° 905 Crucero ARA Gral.belgrano","tipo":"Jardín de Infantes","nivel":"Inicial","fuente":"Mapa Educativo Nacional"},"geometry":{"type":"Point","coordinates":[-58.634371,-34.462164]}},{"type":"Feature","properties":{"nombre":"Jardín de Infantes N° 911 Antonio Berni","tipo":"Jardín de Infantes","nivel":"Inicial","fuente":"Mapa Educativo Nacional"},"geometry":{"type":"Point","coordinates":[-58.653671,-34.482758]}},{"type":"Feature","properties":{"nombre":"Escuela Secundaria Básica N° 26","tipo":"Escuela Secundaria Básica","nivel":"Secundario","fuente":"Mapa Educativo Nacional"},"geometry":{"type":"Point","coordinates":[-58.580286,-34.437535]}},{"type":"Feature","properties":{"nombre":"Escuela de Educación Secundaria N° 15","tipo":"Escuela de Educación Secundaria","nivel":"Secundario","fuente":"Mapa Educativo Nacional"},"geometry":{"type":"Point","coordinates":[-58.634128,-34.456714]}},{"type":"Feature","properties":{"nombre":"Jardín de Infantes N° 934","tipo":"Jardín de Infantes","nivel":"Inicial","fuente":"Mapa Educativo Nacional"},"geometry":{"type":"Point","coordinates":[-58.5343,-34.3254]}},{"type":"Feature","properties":{"nombre":"Jardín de Infantes N° 922 Florentino Ameghino","tipo":"Jardín de Infantes","nivel":"Inicial","fuente":"Mapa Educativo Nacional"},"geometry":{"type":"Point","coordinates":[-58.637999,-34.483458]}},{"type":"Feature","properties":{"nombre":"Jardín de Infantes N° 920 Sara Marino","tipo":"Jardín de Infantes","nivel":"Inicial","fuente":"Mapa Educativo Nacional"},"geometry":{"type":"Point","coordinates":[-58.661161,-34.483929]}},{"type":"Feature","properties":{"nombre":"Jardín de Infantes N° 919","tipo":"Jardín de Infantes","nivel":"Inicial","fuente":"Mapa Educativo Nacional"},"geometry":{"type":"Point","coordinates":[-58.6764,-34.4594]}},{"type":"Feature","properties":{"nombre":"Jardín de Infantes Niño Dios","tipo":"Jardín de Infantes","nivel":"Inicial","fuente":"Mapa Educativo Nacional"},"geometry":{"type":"Point","coordinates":[-58.602797,-34.409992]}},{"type":"Feature","properties":{"nombre":"Centro de Adultos N° 711/01","tipo":"Centro de Adultos","nivel":"Adultos y formación profesional","fuente":"Mapa Educativo Nacional"},"geometry":{"type":"Point","coordinates":[-58.586549,-34.442222]}},{"type":"Feature","properties":{"nombre":"Jardín de Infantes N° 943 María Teresa de Calcuta","tipo":"Jardín de Infantes","nivel":"Inicial","fuente":"Mapa Educativo Nacional"},"geometry":{"type":"Point","coordinates":[-58.665881,-34.432705]}},{"type":"Feature","properties":{"nombre":"Escuela de Educación Primaria N° 32 República Oriental del Uruguay","tipo":"Escuela de Educación Primaria","nivel":"Primario","fuente":"Mapa Educativo Nacional"},"geometry":{"type":"Point","coordinates":[-58.6111,-34.482]}},{"type":"Feature","properties":{"nombre":"Jardín de Infantes N° 933","tipo":"Jardín de Infantes","nivel":"Inicial","fuente":"Mapa Educativo Nacional"},"geometry":{"type":"Point","coordinates":[-58.621803,-34.4749]}},{"type":"Feature","properties":{"nombre":"Escuela de Educación Secundaria N° 17","tipo":"Escuela de Educación Secundaria","nivel":"Secundario","fuente":"Mapa Educativo Nacional"},"geometry":{"type":"Point","coordinates":[-58.685083,-34.461108]}},{"type":"Feature","properties":{"nombre":"Escuela de Educación Primaria N° 19 Martín Fierro","tipo":"Escuela de Educación Primaria","nivel":"Primario","fuente":"Mapa Educativo Nacional"},"geometry":{"type":"Point","coordinates":[-58.603532,-34.419595]}},{"type":"Feature","properties":{"nombre":"Escuela de Educación Primaria N° 30 Martín Miguel de Güemes","tipo":"Escuela de Educación Primaria","nivel":"Primario","fuente":"Mapa Educativo Nacional"},"geometry":{"type":"Point","coordinates":[-58.665962,-34.483481]}},{"type":"Feature","properties":{"nombre":"Escuela de Educación Primaria N° 21 Amado Bonpland","tipo":"Escuela de Educación Primaria","nivel":"Primario","fuente":"Mapa Educativo Nacional"},"geometry":{"type":"Point","coordinates":[-58.632388,-34.402541]}},{"type":"Feature","properties":{"nombre":"Centro de Formación Profesional N° 403","tipo":"Centro de Formación Profesional","nivel":"Adultos y formación profesional","fuente":"Mapa Educativo Nacional"},"geometry":{"type":"Point","coordinates":[-58.572659,-34.430246]}},{"type":"Feature","properties":{"nombre":"Centro de Formación Profesional N° 404","tipo":"Centro de Formación Profesional","nivel":"Adultos y formación profesional","fuente":"Mapa Educativo Nacional"},"geometry":{"type":"Point","coordinates":[-58.630714,-34.463864]}},{"type":"Feature","properties":{"nombre":"Jardín de Infantes N° 945","tipo":"Jardín de Infantes","nivel":"Inicial","fuente":"Mapa Educativo Nacional"},"geometry":{"type":"Point","coordinates":[-58.614468,-34.475257]}},{"type":"Feature","properties":{"nombre":"Jardín de Infantes N° 946","tipo":"Jardín de Infantes","nivel":"Inicial","fuente":"Mapa Educativo Nacional"},"geometry":{"type":"Point","coordinates":[-58.669546,-34.446291]}},{"type":"Feature","properties":{"nombre":"Instituto de Formación Técnica N° 199","tipo":"Instituto de Formación Técnica","nivel":"Superior","fuente":"Mapa Educativo Nacional"},"geometry":{"type":"Point","coordinates":[-58.646493,-34.468497]}},{"type":"Feature","properties":{"nombre":"Centro de Formación Profesional N° 405","tipo":"Centro de Formación Profesional","nivel":"Adultos y formación profesional","fuente":"Mapa Educativo Nacional"},"geometry":{"type":"Point","coordinates":[-58.6135,-34.4789]}},{"type":"Feature","properties":{"nombre":"Anexo A Escuela de Educación Secundaria N° 3","tipo":"Anexo A Escuela de Educación Secundaria","nivel":"Secundario","fuente":"Mapa Educativo Nacional"},"geometry":{"type":"Point","coordinates":[-58.639525,-34.494024]}},{"type":"Feature","properties":{"nombre":"Extensión Escuela de Educación Secundaria N° 3","tipo":"Extensión Escuela de Educación Secundaria","nivel":"Secundario","fuente":"Mapa Educativo Nacional"},"geometry":{"type":"Point","coordinates":[-58.638408,-34.498166]}},{"type":"Feature","properties":{"nombre":"Jardín de Infantes N° 947","tipo":"Jardín de Infantes","nivel":"Inicial","fuente":"Mapa Educativo Nacional"},"geometry":{"type":"Point","coordinates":[-58.6847,-34.424]}},{"type":"Feature","properties":{"nombre":"Jardín de Infantes N° 948","tipo":"Jardín de Infantes","nivel":"Inicial","fuente":"Mapa Educativo Nacional"},"geometry":{"type":"Point","coordinates":[-58.608024,-34.459119]}},{"type":"Feature","properties":{"nombre":"Jardín de Infantes N° 949","tipo":"Jardín de Infantes","nivel":"Inicial","fuente":"Mapa Educativo Nacional"},"geometry":{"type":"Point","coordinates":[-58.643,-34.4647]}},{"type":"Feature","properties":{"nombre":"Escuela de Educación Primaria N° 23 Pablo Pizzurno","tipo":"Escuela de Educación Primaria","nivel":"Primario","fuente":"Mapa Educativo Nacional"},"geometry":{"type":"Point","coordinates":[-58.6081,-34.5009]}},{"type":"Feature","properties":{"nombre":"Escuela de Educación Primaria N° 1 Domingo Faustino Sarmiento","tipo":"Escuela de Educación Primaria","nivel":"Primario","fuente":"Mapa Educativo Nacional"},"geometry":{"type":"Point","coordinates":[-58.56949,-34.433867]}},{"type":"Feature","properties":{"nombre":"Escuela de Educación Primaria N° 52","tipo":"Escuela de Educación Primaria","nivel":"Primario","fuente":"Mapa Educativo Nacional"},"geometry":{"type":"Point","coordinates":[-58.680732,-34.42188]}},{"type":"Feature","properties":{"nombre":"Escuela de Educación Secundaria Técnica N° 4","tipo":"Escuela de Educación Secundaria Técnica","nivel":"Secundario","fuente":"Mapa Educativo Nacional"},"geometry":{"type":"Point","coordinates":[-58.609884,-34.501376]}},{"type":"Feature","properties":{"nombre":"Jardín de Infantes N° 916 Alas Argentinas","tipo":"Jardín de Infantes","nivel":"Inicial","fuente":"Mapa Educativo Nacional"},"geometry":{"type":"Point","coordinates":[-58.635029,-34.456943]}},{"type":"Feature","properties":{"nombre":"Jardín de Infantes N° 930 Benito Quinquela Martín","tipo":"Jardín de Infantes","nivel":"Inicial","fuente":"Mapa Educativo Nacional"},"geometry":{"type":"Point","coordinates":[-58.610916,-34.478221]}},{"type":"Feature","properties":{"nombre":"Escuela de Adultos N° 714","tipo":"Escuela de Adultos","nivel":"Adultos y formación profesional","fuente":"Mapa Educativo Nacional"},"geometry":{"type":"Point","coordinates":[-58.6769,-34.4593]}},{"type":"Feature","properties":{"nombre":"Escuela Secundaria Básica N° 28","tipo":"Escuela Secundaria Básica","nivel":"Secundario","fuente":"Mapa Educativo Nacional"},"geometry":{"type":"Point","coordinates":[-58.6475,-34.4549]}},{"type":"Feature","properties":{"nombre":"Escuela de Educación Secundaria N° 23","tipo":"Escuela de Educación Secundaria","nivel":"Secundario","fuente":"Mapa Educativo Nacional"},"geometry":{"type":"Point","coordinates":[-58.63079,-34.472154]}},{"type":"Feature","properties":{"nombre":"Escuela Secundaria Básica N° 17","tipo":"Escuela Secundaria Básica","nivel":"Secundario","fuente":"Mapa Educativo Nacional"},"geometry":{"type":"Point","coordinates":[-58.632288,-34.402541]}},{"type":"Feature","properties":{"nombre":"Escuela de Educación Primaria N° 11 Carlos Octavio Bunge","tipo":"Escuela de Educación Primaria","nivel":"Primario","fuente":"Mapa Educativo Nacional"},"geometry":{"type":"Point","coordinates":[-58.6079,-34.4589]}},{"type":"Feature","properties":{"nombre":"Escuela de Educación Primaria N° 33 Contancio C. Vigil","tipo":"Escuela de Educación Primaria","nivel":"Primario","fuente":"Mapa Educativo Nacional"},"geometry":{"type":"Point","coordinates":[-58.675219,-34.459371]}},{"type":"Feature","properties":{"nombre":"Escuela de Educación Primaria N° 34 Antártida Argentina","tipo":"Escuela de Educación Primaria","nivel":"Primario","fuente":"Mapa Educativo Nacional"},"geometry":{"type":"Point","coordinates":[-58.580386,-34.437535]}},{"type":"Feature","properties":{"nombre":"Escuela Secundaria La Reconquista","tipo":"Escuela Secundaria","nivel":"Secundario","fuente":"Mapa Educativo Nacional"},"geometry":{"type":"Point","coordinates":[-58.6385,-34.4987]}},{"type":"Feature","properties":{"nombre":"Jardín de Infantes N° 938","tipo":"Jardín de Infantes","nivel":"Inicial","fuente":"Mapa Educativo Nacional"},"geometry":{"type":"Point","coordinates":[-58.693862,-34.414533]}},{"type":"Feature","properties":{"nombre":"Jardín de Infantes N° 907 Granaderos de San Martín","tipo":"Jardín de Infantes","nivel":"Inicial","fuente":"Mapa Educativo Nacional"},"geometry":{"type":"Point","coordinates":[-58.638425,-34.494242]}},{"type":"Feature","properties":{"nombre":"Escuela de Adultos N° 704 José Manuel Estrada","tipo":"Escuela de Adultos","nivel":"Adultos y formación profesional","fuente":"Mapa Educativo Nacional"},"geometry":{"type":"Point","coordinates":[-58.6166,-34.4933]}},{"type":"Feature","properties":{"nombre":"Centro de Adultos N° 715/04","tipo":"Centro de Adultos","nivel":"Adultos y formación profesional","fuente":"Mapa Educativo Nacional"},"geometry":{"type":"Point","coordinates":[-58.6254,-34.5017]}},{"type":"Feature","properties":{"nombre":"Jardín de Infantes N° 950","tipo":"Jardín de Infantes","nivel":"Inicial","fuente":"Mapa Educativo Nacional"},"geometry":{"type":"Point","coordinates":[-58.6783,-34.4541]}},{"type":"Feature","properties":{"nombre":"Extensión del Centro Especializado de Bachillerato con Orientación en Salud Pública","tipo":"Extensión del Centro Especializado","nivel":"Educación especial","fuente":"Mapa Educativo Nacional"},"geometry":{"type":"Point","coordinates":[-58.625971,-34.458814]}},{"type":"Feature","properties":{"nombre":"Anexo I Escuela de Educación Secundaria N° 24","tipo":"Anexo I Escuela de Educación Secundaria","nivel":"Secundario","fuente":"Mapa Educativo Nacional"},"geometry":{"type":"Point","coordinates":[-58.608248,-34.437191]}},{"type":"Feature","properties":{"nombre":"Extensión I del Centro Educativo de Nivel Secundario N° 455","tipo":"Extensión I del Centro Educativo","nivel":"Secundario","fuente":"Mapa Educativo Nacional"},"geometry":{"type":"Point","coordinates":[-58.655113,-34.448805]}},{"type":"Feature","properties":{"nombre":"Escuela de Educación Secundaria N° 9","tipo":"Escuela de Educación Secundaria","nivel":"Secundario","fuente":"Mapa Educativo Nacional"},"geometry":{"type":"Point","coordinates":[-58.587829,-34.418295]}},{"type":"Feature","properties":{"nombre":"Escuela Secundaria Básica N° 42","tipo":"Escuela Secundaria Básica","nivel":"Secundario","fuente":"Mapa Educativo Nacional"},"geometry":{"type":"Point","coordinates":[-58.694705,-34.414991]}},{"type":"Feature","properties":{"nombre":"Escuela de Educación Secundaria N° 26","tipo":"Escuela de Educación Secundaria","nivel":"Secundario","fuente":"Mapa Educativo Nacional"},"geometry":{"type":"Point","coordinates":[-58.652152,-34.4574]}},{"type":"Feature","properties":{"nombre":"Escuela de Educación Primaria N° 53","tipo":"Escuela de Educación Primaria","nivel":"Primario","fuente":"Mapa Educativo Nacional"},"geometry":{"type":"Point","coordinates":[-58.671038,-34.434148]}},{"type":"Feature","properties":{"nombre":"Escuela de Educación Primaria N° 54","tipo":"Escuela de Educación Primaria","nivel":"Primario","fuente":"Mapa Educativo Nacional"},"geometry":{"type":"Point","coordinates":[-58.697124,-34.432448]}},{"type":"Feature","properties":{"nombre":"Escuela de Educación Secundaria Técnica N° 3 Unión Industrial Argentina","tipo":"Escuela de Educación Secundaria Técnica","nivel":"Secundario","fuente":"Mapa Educativo Nacional"},"geometry":{"type":"Point","coordinates":[-58.695957,-34.41099]}},{"type":"Feature","properties":{"nombre":"Jardín de Infantes N° 939","tipo":"Jardín de Infantes","nivel":"Inicial","fuente":"Mapa Educativo Nacional"},"geometry":{"type":"Point","coordinates":[-58.6646,-34.4603]}},{"type":"Feature","properties":{"nombre":"Jardín de Infantes N° 929 El Ceibo","tipo":"Jardín de Infantes","nivel":"Inicial","fuente":"Mapa Educativo Nacional"},"geometry":{"type":"Point","coordinates":[-58.620825,-34.499927]}},{"type":"Feature","properties":{"nombre":"Jardín de Infantes N° 932 Azucena Villaflor","tipo":"Jardín de Infantes","nivel":"Inicial","fuente":"Mapa Educativo Nacional"},"geometry":{"type":"Point","coordinates":[-58.681233,-34.453733]}},{"type":"Feature","properties":{"nombre":"Jardín de Infantes N° 908 Xul Solar","tipo":"Jardín de Infantes","nivel":"Inicial","fuente":"Mapa Educativo Nacional"},"geometry":{"type":"Point","coordinates":[-58.686168,-34.3585]}},{"type":"Feature","properties":{"nombre":"Escuela Especial N° 505 Dr. René Favaloro","tipo":"Escuela Especial","nivel":"Educación especial","fuente":"Mapa Educativo Nacional"},"geometry":{"type":"Point","coordinates":[-58.632292,-34.454727]}},{"type":"Feature","properties":{"nombre":"Escuela de Educación Primaria N° 40 Belisario Roldan","tipo":"Escuela de Educación Primaria","nivel":"Primario","fuente":"Mapa Educativo Nacional"},"geometry":{"type":"Point","coordinates":[-58.661548,-34.462065]}},{"type":"Feature","properties":{"nombre":"Escuela de Educación Primaria N° 51 Soldado de Malvinas","tipo":"Escuela de Educación Primaria","nivel":"Primario","fuente":"Mapa Educativo Nacional"},"geometry":{"type":"Point","coordinates":[-58.609438,-34.447709]}},{"type":"Feature","properties":{"nombre":"Escuela de Educación Primaria N° 46 Fray Mamerto Esquiu","tipo":"Escuela de Educación Primaria","nivel":"Primario","fuente":"Mapa Educativo Nacional"},"geometry":{"type":"Point","coordinates":[-58.653871,-34.482758]}},{"type":"Feature","properties":{"nombre":"Escuela de Educación Secundaria Técnica N° 1 Manuel Nicolás Savio","tipo":"Escuela de Educación Secundaria Técnica","nivel":"Secundario","fuente":"Mapa Educativo Nacional"},"geometry":{"type":"Point","coordinates":[-58.644153,-34.468714]}},{"type":"Feature","properties":{"nombre":"Centro de Adultos N° 708/02","tipo":"Centro de Adultos","nivel":"Adultos y formación profesional","fuente":"Mapa Educativo Nacional"},"geometry":{"type":"Point","coordinates":[-58.6416,-34.4561]}},{"type":"Feature","properties":{"nombre":"Escuela de Educación Secundaria N° 22","tipo":"Escuela de Educación Secundaria","nivel":"Secundario","fuente":"Mapa Educativo Nacional"},"geometry":{"type":"Point","coordinates":[-58.670838,-34.434148]}},{"type":"Feature","properties":{"nombre":"Centro de Adultos N° 716 Amado Bonpland","tipo":"Centro de Adultos","nivel":"Adultos y formación profesional","fuente":"Mapa Educativo Nacional"},"geometry":{"type":"Point","coordinates":[-58.564867,-34.429323]}},{"type":"Feature","properties":{"nombre":"Escuela Secundaria Básica N° 50","tipo":"Escuela Secundaria Básica","nivel":"Secundario","fuente":"Mapa Educativo Nacional"},"geometry":{"type":"Point","coordinates":[-58.568471,-34.427338]}},{"type":"Feature","properties":{"nombre":"Escuela de Educación Primaria N° 7 Baldomero F. Moreno","tipo":"Escuela de Educación Primaria","nivel":"Primario","fuente":"Mapa Educativo Nacional"},"geometry":{"type":"Point","coordinates":[-58.655295,-34.448943]}},{"type":"Feature","properties":{"nombre":"Escuela de Educación Primaria N° 20 Doctor Ricardo Gutiérrez","tipo":"Escuela de Educación Primaria","nivel":"Primario","fuente":"Mapa Educativo Nacional"},"geometry":{"type":"Point","coordinates":[-58.634228,-34.456714]}},{"type":"Feature","properties":{"nombre":"Escuela de Educación Primaria N° 45 Saint-exupery","tipo":"Escuela de Educación Primaria","nivel":"Primario","fuente":"Mapa Educativo Nacional"},"geometry":{"type":"Point","coordinates":[-58.659124,-34.483438]}},{"type":"Feature","properties":{"nombre":"Escuela Secundaria Básica N° 23","tipo":"Escuela Secundaria Básica","nivel":"Secundario","fuente":"Mapa Educativo Nacional"},"geometry":{"type":"Point","coordinates":[-58.665862,-34.483481]}},{"type":"Feature","properties":{"nombre":"Escuela Secundaria Básica N° 8","tipo":"Escuela Secundaria Básica","nivel":"Secundario","fuente":"Mapa Educativo Nacional"},"geometry":{"type":"Point","coordinates":[-58.611,-34.4819]}},{"type":"Feature","properties":{"nombre":"Escuela de Educación Secundaria N° 19","tipo":"Escuela de Educación Secundaria","nivel":"Secundario","fuente":"Mapa Educativo Nacional"},"geometry":{"type":"Point","coordinates":[-58.6142,-34.4551]}},{"type":"Feature","properties":{"nombre":"Instituto San Francisco de la Paz","tipo":"Instituto","nivel":"Otros o varios niveles","fuente":"Mapa Educativo Nacional"},"geometry":{"type":"Point","coordinates":[-58.705599,-34.414599]}},{"type":"Feature","properties":{"nombre":"Colegio Campo del Norte Nordelta","tipo":"Colegio","nivel":"Otros o varios niveles","fuente":"Mapa Educativo Nacional"},"geometry":{"type":"Point","coordinates":[-58.678465,-34.41122]}},{"type":"Feature","properties":{"nombre":"Jardín Ezequiel Martínez Estrada","tipo":"Jardín","nivel":"Inicial","fuente":"Mapa Educativo Nacional"},"geometry":{"type":"Point","coordinates":[-58.692874,-34.408535]}},{"type":"Feature","properties":{"nombre":"Instituto Ezequiel Martínez Estrada","tipo":"Instituto","nivel":"Otros o varios niveles","fuente":"Mapa Educativo Nacional"},"geometry":{"type":"Point","coordinates":[-58.692978,-34.409058]}},{"type":"Feature","properties":{"nombre":"Colegio Almafuerte","tipo":"Colegio","nivel":"Otros o varios niveles","fuente":"Mapa Educativo Nacional"},"geometry":{"type":"Point","coordinates":[-58.685083,-34.412301]}},{"type":"Feature","properties":{"nombre":"Jardín de Infantes Almafuerte","tipo":"Jardín de Infantes","nivel":"Inicial","fuente":"Mapa Educativo Nacional"},"geometry":{"type":"Point","coordinates":[-58.684912,-34.412215]}},{"type":"Feature","properties":{"nombre":"Colegio A Descubrir","tipo":"Colegio","nivel":"Otros o varios niveles","fuente":"Mapa Educativo Nacional"},"geometry":{"type":"Point","coordinates":[-58.691513,-34.411628]}},{"type":"Feature","properties":{"nombre":"Colegio Justo José de Urquiza","tipo":"Colegio","nivel":"Otros o varios niveles","fuente":"Mapa Educativo Nacional"},"geometry":{"type":"Point","coordinates":[-58.69175,-34.411695]}},{"type":"Feature","properties":{"nombre":"Jardín de Infantes San Cayetano","tipo":"Jardín de Infantes","nivel":"Inicial","fuente":"Mapa Educativo Nacional"},"geometry":{"type":"Point","coordinates":[-58.715356,-34.404344]}},{"type":"Feature","properties":{"nombre":"Jardín Montessori","tipo":"Jardín","nivel":"Inicial","fuente":"Mapa Educativo Nacional"},"geometry":{"type":"Point","coordinates":[-58.733168,-34.403288]}},{"type":"Feature","properties":{"nombre":"Escuela Arcángel Gabriel","tipo":"Escuela","nivel":"Otros o varios niveles","fuente":"Mapa Educativo Nacional"},"geometry":{"type":"Point","coordinates":[-58.728219,-34.401156]}},{"type":"Feature","properties":{"nombre":"Instituto Marcos Sastre","tipo":"Instituto","nivel":"Otros o varios niveles","fuente":"Mapa Educativo Nacional"},"geometry":{"type":"Point","coordinates":[-58.722204,-34.396016]}},{"type":"Feature","properties":{"nombre":"Escuela Infancia 2000","tipo":"Escuela","nivel":"Otros o varios niveles","fuente":"Mapa Educativo Nacional"},"geometry":{"type":"Point","coordinates":[-58.702334,-34.413019]}},{"type":"Feature","properties":{"nombre":"Jardín de Infantes Nuestra Señora del Carmen","tipo":"Jardín de Infantes","nivel":"Inicial","fuente":"Mapa Educativo Nacional"},"geometry":{"type":"Point","coordinates":[-58.678314,-34.423727]}},{"type":"Feature","properties":{"nombre":"Colegio San Isidro Delta","tipo":"Colegio","nivel":"Otros o varios niveles","fuente":"Mapa Educativo Nacional"},"geometry":{"type":"Point","coordinates":[-58.671404,-34.390755]}},{"type":"Feature","properties":{"nombre":"Escuela Montessori de Tigre","tipo":"Escuela","nivel":"Otros o varios niveles","fuente":"Mapa Educativo Nacional"},"geometry":{"type":"Point","coordinates":[-58.712609,-34.41774]}},{"type":"Feature","properties":{"nombre":"Escuela Especial Melodía","tipo":"Escuela Especial","nivel":"Educación especial","fuente":"Mapa Educativo Nacional"},"geometry":{"type":"Point","coordinates":[-58.71762,-34.421438]}},{"type":"Feature","properties":{"nombre":"Escuela Especial Nuestra Señora de Luján","tipo":"Escuela Especial","nivel":"Educación especial","fuente":"Mapa Educativo Nacional"},"geometry":{"type":"Point","coordinates":[-58.695262,-34.43054]}},{"type":"Feature","properties":{"nombre":"Colegio de las Américas","tipo":"Colegio","nivel":"Otros o varios niveles","fuente":"Mapa Educativo Nacional"},"geometry":{"type":"Point","coordinates":[-58.622366,-34.479258]}},{"type":"Feature","properties":{"nombre":"Centro Educativo Complementario Nuestra Señora del Valle","tipo":"Centro Educativo Complementario","nivel":"Otros o varios niveles","fuente":"Mapa Educativo Nacional"},"geometry":{"type":"Point","coordinates":[-58.611488,-34.475564]}},{"type":"Feature","properties":{"nombre":"Instituto José Hernández","tipo":"Instituto","nivel":"Otros o varios niveles","fuente":"Mapa Educativo Nacional"},"geometry":{"type":"Point","coordinates":[-58.628053,-34.496978]}},{"type":"Feature","properties":{"nombre":"Instituto José Manuel Estrada","tipo":"Instituto","nivel":"Otros o varios niveles","fuente":"Mapa Educativo Nacional"},"geometry":{"type":"Point","coordinates":[-58.640923,-34.492629]}},{"type":"Feature","properties":{"nombre":"Jardín Los Girasoles","tipo":"Jardín","nivel":"Inicial","fuente":"Mapa Educativo Nacional"},"geometry":{"type":"Point","coordinates":[-58.641464,-34.492957]}},{"type":"Feature","properties":{"nombre":"Jardín de Infantes Santa Clara","tipo":"Jardín de Infantes","nivel":"Inicial","fuente":"Mapa Educativo Nacional"},"geometry":{"type":"Point","coordinates":[-58.646697,-34.488172]}},{"type":"Feature","properties":{"nombre":"Colegio Babar","tipo":"Colegio","nivel":"Otros o varios niveles","fuente":"Mapa Educativo Nacional"},"geometry":{"type":"Point","coordinates":[-58.630795,-34.485273]}},{"type":"Feature","properties":{"nombre":"Jardín Maternal Babar Niños","tipo":"Jardín Maternal","nivel":"Inicial","fuente":"Mapa Educativo Nacional"},"geometry":{"type":"Point","coordinates":[-58.631152,-34.485963]}},{"type":"Feature","properties":{"nombre":"Colegio San Martín","tipo":"Colegio","nivel":"Otros o varios niveles","fuente":"Mapa Educativo Nacional"},"geometry":{"type":"Point","coordinates":[-58.628987,-34.486355]}},{"type":"Feature","properties":{"nombre":"Escuela de Educación Primaria N° 42 Marcelo Torcuato de Alvear","tipo":"Escuela de Educación Primaria","nivel":"Primario","fuente":"Mapa Educativo Nacional"},"geometry":{"type":"Point","coordinates":[-58.6434,-34.499]}},{"type":"Feature","properties":{"nombre":"Jardín de Infantes Pequeño Mundo","tipo":"Jardín de Infantes","nivel":"Inicial","fuente":"Mapa Educativo Nacional"},"geometry":{"type":"Point","coordinates":[-58.640461,-34.50132]}},{"type":"Feature","properties":{"nombre":"Colegio San Martín","tipo":"Colegio","nivel":"Otros o varios niveles","fuente":"Mapa Educativo Nacional"},"geometry":{"type":"Point","coordinates":[-58.623677,-34.490302]}},{"type":"Feature","properties":{"nombre":"Jardín de Infantes Chaltel","tipo":"Jardín de Infantes","nivel":"Inicial","fuente":"Mapa Educativo Nacional"},"geometry":{"type":"Point","coordinates":[-58.629121,-34.494442]}},{"type":"Feature","properties":{"nombre":"Colegio Chaltel","tipo":"Colegio","nivel":"Otros o varios niveles","fuente":"Mapa Educativo Nacional"},"geometry":{"type":"Point","coordinates":[-58.629274,-34.494214]}},{"type":"Feature","properties":{"nombre":"Instituto Marcelo Torcuato de Alvear","tipo":"Instituto","nivel":"Otros o varios niveles","fuente":"Mapa Educativo Nacional"},"geometry":{"type":"Point","coordinates":[-58.629502,-34.492015]}},{"type":"Feature","properties":{"nombre":"Colegio San Felipe Apóstol","tipo":"Colegio","nivel":"Otros o varios niveles","fuente":"Mapa Educativo Nacional"},"geometry":{"type":"Point","coordinates":[-58.619386,-34.50195]}},{"type":"Feature","properties":{"nombre":"Colegio San Marcelo","tipo":"Colegio","nivel":"Otros o varios niveles","fuente":"Mapa Educativo Nacional"},"geometry":{"type":"Point","coordinates":[-58.639838,-34.498343]}},{"type":"Feature","properties":{"nombre":"Colegio Don Torcuato","tipo":"Colegio","nivel":"Otros o varios niveles","fuente":"Mapa Educativo Nacional"},"geometry":{"type":"Point","coordinates":[-58.64268,-34.503111]}},{"type":"Feature","properties":{"nombre":"Jardín de Infantes El Hornerito","tipo":"Jardín de Infantes","nivel":"Inicial","fuente":"Mapa Educativo Nacional"},"geometry":{"type":"Point","coordinates":[-58.629603,-34.49217]}},{"type":"Feature","properties":{"nombre":"Colegio Secundario Técnico María de Guadalupe","tipo":"Colegio Secundario Técnico","nivel":"Secundario","fuente":"Mapa Educativo Nacional"},"geometry":{"type":"Point","coordinates":[-58.615513,-34.488939]}},{"type":"Feature","properties":{"nombre":"Jardín de Infantes San Lucas","tipo":"Jardín de Infantes","nivel":"Inicial","fuente":"Mapa Educativo Nacional"},"geometry":{"type":"Point","coordinates":[-58.617631,-34.488356]}},{"type":"Feature","properties":{"nombre":"Colegio Cristiano San Lucas","tipo":"Colegio Cristiano","nivel":"Otros o varios niveles","fuente":"Mapa Educativo Nacional"},"geometry":{"type":"Point","coordinates":[-58.619641,-34.487417]}},{"type":"Feature","properties":{"nombre":"Instituto General Pacheco","tipo":"Instituto","nivel":"Otros o varios niveles","fuente":"Mapa Educativo Nacional"},"geometry":{"type":"Point","coordinates":[-58.652301,-34.470661]}},{"type":"Feature","properties":{"nombre":"Jardín de Infantes El Talarcito","tipo":"Jardín de Infantes","nivel":"Inicial","fuente":"Mapa Educativo Nacional"},"geometry":{"type":"Point","coordinates":[-58.652458,-34.470775]}},{"type":"Feature","properties":{"nombre":"Jardín de Infantes Terry","tipo":"Jardín de Infantes","nivel":"Inicial","fuente":"Mapa Educativo Nacional"},"geometry":{"type":"Point","coordinates":[-58.649024,-34.468398]}},{"type":"Feature","properties":{"nombre":"Jardín de Infantes Mickey","tipo":"Jardín de Infantes","nivel":"Inicial","fuente":"Mapa Educativo Nacional"},"geometry":{"type":"Point","coordinates":[-58.646904,-34.470654]}},{"type":"Feature","properties":{"nombre":"Instituto Primario Ayelén","tipo":"Instituto Primario","nivel":"Primario","fuente":"Mapa Educativo Nacional"},"geometry":{"type":"Point","coordinates":[-58.646728,-34.470911]}},{"type":"Feature","properties":{"nombre":"Colegio San Marcos","tipo":"Colegio","nivel":"Otros o varios niveles","fuente":"Mapa Educativo Nacional"},"geometry":{"type":"Point","coordinates":[-58.662221,-34.468455]}},{"type":"Feature","properties":{"nombre":"Jardín de Infantes La Ardillita","tipo":"Jardín de Infantes","nivel":"Inicial","fuente":"Mapa Educativo Nacional"},"geometry":{"type":"Point","coordinates":[-58.664493,-34.462769]}},{"type":"Feature","properties":{"nombre":"Jardín Maternal Aldea de Niños","tipo":"Jardín Maternal","nivel":"Inicial","fuente":"Mapa Educativo Nacional"},"geometry":{"type":"Point","coordinates":[-58.634688,-34.474301]}},{"type":"Feature","properties":{"nombre":"Instituto Superior de Formación Docente y Técnica Hans Cristan Andersen","tipo":"Instituto Superior de Formación Docente y Técnic","nivel":"Superior","fuente":"Mapa Educativo Nacional"},"geometry":{"type":"Point","coordinates":[-58.667408,-34.461091]}},{"type":"Feature","properties":{"nombre":"Colegio San Jorge","tipo":"Colegio","nivel":"Otros o varios niveles","fuente":"Mapa Educativo Nacional"},"geometry":{"type":"Point","coordinates":[-58.672115,-34.445215]}},{"type":"Feature","properties":{"nombre":"Colegio Pueblo Educativo","tipo":"Colegio","nivel":"Otros o varios niveles","fuente":"Mapa Educativo Nacional"},"geometry":{"type":"Point","coordinates":[-58.676633,-34.446114]}},{"type":"Feature","properties":{"nombre":"Colegio Sworn de Pachecho","tipo":"Colegio","nivel":"Otros o varios niveles","fuente":"Mapa Educativo Nacional"},"geometry":{"type":"Point","coordinates":[-58.676919,-34.446014]}},{"type":"Feature","properties":{"nombre":"Colegio Santa Ana","tipo":"Colegio","nivel":"Otros o varios niveles","fuente":"Mapa Educativo Nacional"},"geometry":{"type":"Point","coordinates":[-58.644427,-34.459227]}},{"type":"Feature","properties":{"nombre":"Instituto Mariano Moreno","tipo":"Instituto","nivel":"Otros o varios niveles","fuente":"Mapa Educativo Nacional"},"geometry":{"type":"Point","coordinates":[-58.637299,-34.4608]}},{"type":"Feature","properties":{"nombre":"Jardín de Infantes Colorín Colorado","tipo":"Jardín de Infantes","nivel":"Inicial","fuente":"Mapa Educativo Nacional"},"geometry":{"type":"Point","coordinates":[-58.648417,-34.457278]}},{"type":"Feature","properties":{"nombre":"Instituto San Antonio","tipo":"Instituto","nivel":"Otros o varios niveles","fuente":"Mapa Educativo Nacional"},"geometry":{"type":"Point","coordinates":[-58.662504,-34.447228]}},{"type":"Feature","properties":{"nombre":"Jardín de Infantes Manuelita","tipo":"Jardín de Infantes","nivel":"Inicial","fuente":"Mapa Educativo Nacional"},"geometry":{"type":"Point","coordinates":[-58.658176,-34.451085]}},{"type":"Feature","properties":{"nombre":"Colegio Santa Julia","tipo":"Colegio","nivel":"Otros o varios niveles","fuente":"Mapa Educativo Nacional"},"geometry":{"type":"Point","coordinates":[-58.661874,-34.451913]}},{"type":"Feature","properties":{"nombre":"Colegio Xul Solar","tipo":"Colegio","nivel":"Otros o varios niveles","fuente":"Mapa Educativo Nacional"},"geometry":{"type":"Point","coordinates":[-58.6251,-34.455008]}},{"type":"Feature","properties":{"nombre":"Jardín de Infantes Mi Molino","tipo":"Jardín de Infantes","nivel":"Inicial","fuente":"Mapa Educativo Nacional"},"geometry":{"type":"Point","coordinates":[-58.624901,-34.454879]}},{"type":"Feature","properties":{"nombre":"Colegio Expedicionarios al Desierto","tipo":"Colegio","nivel":"Otros o varios niveles","fuente":"Mapa Educativo Nacional"},"geometry":{"type":"Point","coordinates":[-58.625947,-34.458967]}},{"type":"Feature","properties":{"nombre":"Colegio San Lucas","tipo":"Colegio","nivel":"Otros o varios niveles","fuente":"Mapa Educativo Nacional"},"geometry":{"type":"Point","coordinates":[-58.672367,-34.448556]}},{"type":"Feature","properties":{"nombre":"Colegio del Sol","tipo":"Colegio","nivel":"Otros o varios niveles","fuente":"Mapa Educativo Nacional"},"geometry":{"type":"Point","coordinates":[-58.672329,-34.448251]}},{"type":"Feature","properties":{"nombre":"Jardín de Infantes Mi Jardín","tipo":"Jardín de Infantes","nivel":"Inicial","fuente":"Mapa Educativo Nacional"},"geometry":{"type":"Point","coordinates":[-58.656001,-34.452808]}},{"type":"Feature","properties":{"nombre":"Colegio Antonio Berni","tipo":"Colegio","nivel":"Otros o varios niveles","fuente":"Mapa Educativo Nacional"},"geometry":{"type":"Point","coordinates":[-58.630964,-34.4568]}},{"type":"Feature","properties":{"nombre":"Jardín de Infantes Fabulinos","tipo":"Jardín de Infantes","nivel":"Inicial","fuente":"Mapa Educativo Nacional"},"geometry":{"type":"Point","coordinates":[-58.630612,-34.457043]}},{"type":"Feature","properties":{"nombre":"Instituto El Portal de Belén","tipo":"Instituto","nivel":"Otros o varios niveles","fuente":"Mapa Educativo Nacional"},"geometry":{"type":"Point","coordinates":[-58.649455,-34.45035]}},{"type":"Feature","properties":{"nombre":"El Jardín de Chichi","tipo":"Establecimiento educativo","nivel":"Inicial","fuente":"Mapa Educativo Nacional"},"geometry":{"type":"Point","coordinates":[-58.62562,-34.458934]}},{"type":"Feature","properties":{"nombre":"Instituto General Pacheco","tipo":"Instituto","nivel":"Otros o varios niveles","fuente":"Mapa Educativo Nacional"},"geometry":{"type":"Point","coordinates":[-58.625085,-34.45913]}},{"type":"Feature","properties":{"nombre":"Colegio Pueblo Educativo","tipo":"Colegio","nivel":"Otros o varios niveles","fuente":"Mapa Educativo Nacional"},"geometry":{"type":"Point","coordinates":[-58.679099,-34.441804]}},{"type":"Feature","properties":{"nombre":"Instituto Privado San Antonio","tipo":"Instituto Privado","nivel":"Otros o varios niveles","fuente":"Mapa Educativo Nacional"},"geometry":{"type":"Point","coordinates":[-58.662652,-34.443845]}},{"type":"Feature","properties":{"nombre":"Jardín de Infantes María Guadalupe","tipo":"Jardín de Infantes","nivel":"Inicial","fuente":"Mapa Educativo Nacional"},"geometry":{"type":"Point","coordinates":[-58.669291,-34.442089]}},{"type":"Feature","properties":{"nombre":"Colegio San Pedro","tipo":"Colegio","nivel":"Otros o varios niveles","fuente":"Mapa Educativo Nacional"},"geometry":{"type":"Point","coordinates":[-58.615743,-34.470218]}},{"type":"Feature","properties":{"nombre":"Escuela Especial Casa Verde","tipo":"Escuela Especial","nivel":"Educación especial","fuente":"Mapa Educativo Nacional"},"geometry":{"type":"Point","coordinates":[-58.65655,-34.453974]}},{"type":"Feature","properties":{"nombre":"Escuela La Concepción","tipo":"Escuela","nivel":"Otros o varios niveles","fuente":"Mapa Educativo Nacional"},"geometry":{"type":"Point","coordinates":[-58.553437,-34.420984]}},{"type":"Feature","properties":{"nombre":"Colegio del Norte Nordelta","tipo":"Colegio","nivel":"Otros o varios niveles","fuente":"Mapa Educativo Nacional"},"geometry":{"type":"Point","coordinates":[-58.659291,-34.426233]}},{"type":"Feature","properties":{"nombre":"Colegio Cardenal Pironio","tipo":"Colegio","nivel":"Otros o varios niveles","fuente":"Mapa Educativo Nacional"},"geometry":{"type":"Point","coordinates":[-58.608008,-34.439108]}},{"type":"Feature","properties":{"nombre":"Instituto Fernado Fader","tipo":"Instituto","nivel":"Otros o varios niveles","fuente":"Mapa Educativo Nacional"},"geometry":{"type":"Point","coordinates":[-58.602183,-34.448822]}},{"type":"Feature","properties":{"nombre":"Jardín de Infantes Estrellitas","tipo":"Jardín de Infantes","nivel":"Inicial","fuente":"Mapa Educativo Nacional"},"geometry":{"type":"Point","coordinates":[-58.615699,-34.456861]}},{"type":"Feature","properties":{"nombre":"Jardín de Infantes Los Tilos","tipo":"Jardín de Infantes","nivel":"Inicial","fuente":"Mapa Educativo Nacional"},"geometry":{"type":"Point","coordinates":[-58.61463,-34.452871]}},{"type":"Feature","properties":{"nombre":"Colegio de Los Peregrinos","tipo":"Colegio","nivel":"Otros o varios niveles","fuente":"Mapa Educativo Nacional"},"geometry":{"type":"Point","coordinates":[-58.610775,-34.466435]}},{"type":"Feature","properties":{"nombre":"Escuela de Educación Secundaria Técnica Henry Ford","tipo":"Escuela de Educación Secundaria Técnica","nivel":"Secundario","fuente":"Mapa Educativo Nacional"},"geometry":{"type":"Point","coordinates":[-58.700013,-34.445221]}},{"type":"Feature","properties":{"nombre":"Jardín Comunitario Casa del Niño Amanecer","tipo":"Jardín Comunitario","nivel":"Inicial","fuente":"Mapa Educativo Nacional"},"geometry":{"type":"Point","coordinates":[-58.668687,-34.455686]}},{"type":"Feature","properties":{"nombre":"Jardín de Infantes Acuarela","tipo":"Jardín de Infantes","nivel":"Inicial","fuente":"Mapa Educativo Nacional"},"geometry":{"type":"Point","coordinates":[-58.664813,-34.45778]}},{"type":"Feature","properties":{"nombre":"Instituto San Pedro Claver","tipo":"Instituto","nivel":"Otros o varios niveles","fuente":"Mapa Educativo Nacional"},"geometry":{"type":"Point","coordinates":[-58.68585,-34.457668]}},{"type":"Feature","properties":{"nombre":"Jardín de Infantes Santa Ángela","tipo":"Jardín de Infantes","nivel":"Inicial","fuente":"Mapa Educativo Nacional"},"geometry":{"type":"Point","coordinates":[-58.595795,-34.425304]}},{"type":"Feature","properties":{"nombre":"Colegio Nuestras Raíces","tipo":"Colegio","nivel":"Otros o varios niveles","fuente":"Mapa Educativo Nacional"},"geometry":{"type":"Point","coordinates":[-58.591927,-34.417784]}},{"type":"Feature","properties":{"nombre":"Jardín de Infantes San Martín de Porres","tipo":"Jardín de Infantes","nivel":"Inicial","fuente":"Mapa Educativo Nacional"},"geometry":{"type":"Point","coordinates":[-58.595384,-34.437133]}},{"type":"Feature","properties":{"nombre":"Colegio Santa Teresa","tipo":"Colegio","nivel":"Otros o varios niveles","fuente":"Mapa Educativo Nacional"},"geometry":{"type":"Point","coordinates":[-58.582974,-34.42047]}},{"type":"Feature","properties":{"nombre":"Colegio Michael Ham Nordelta","tipo":"Colegio","nivel":"Otros o varios niveles","fuente":"Mapa Educativo Nacional"},"geometry":{"type":"Point","coordinates":[-58.662194,-34.422688]}},{"type":"Feature","properties":{"nombre":"Escuela de Artes y Oficios Don Orione","tipo":"Escuela","nivel":"Otros o varios niveles","fuente":"Mapa Educativo Nacional"},"geometry":{"type":"Point","coordinates":[-58.573757,-34.427885]}},{"type":"Feature","properties":{"nombre":"Jardín de Infantes San Francisco de Asís","tipo":"Jardín de Infantes","nivel":"Inicial","fuente":"Mapa Educativo Nacional"},"geometry":{"type":"Point","coordinates":[-58.574346,-34.427463]}},{"type":"Feature","properties":{"nombre":"Colegio Santa Cecilia","tipo":"Colegio","nivel":"Otros o varios niveles","fuente":"Mapa Educativo Nacional"},"geometry":{"type":"Point","coordinates":[-58.574367,-34.430586]}},{"type":"Feature","properties":{"nombre":"Escuela Hogar Don Orione","tipo":"Escuela Hogar","nivel":"Otros o varios niveles","fuente":"Mapa Educativo Nacional"},"geometry":{"type":"Point","coordinates":[-58.583263,-34.428265]}},{"type":"Feature","properties":{"nombre":"Instituto San Ramón","tipo":"Instituto","nivel":"Otros o varios niveles","fuente":"Mapa Educativo Nacional"},"geometry":{"type":"Point","coordinates":[-58.585697,-34.425866]}},{"type":"Feature","properties":{"nombre":"Instituto San José","tipo":"Instituto","nivel":"Otros o varios niveles","fuente":"Mapa Educativo Nacional"},"geometry":{"type":"Point","coordinates":[-58.573147,-34.422359]}},{"type":"Feature","properties":{"nombre":"Jardín de Infantes Taller de Niñas San José","tipo":"Jardín de Infantes","nivel":"Inicial","fuente":"Mapa Educativo Nacional"},"geometry":{"type":"Point","coordinates":[-58.572883,-34.422144]}},{"type":"Feature","properties":{"nombre":"Colegio La Reconquista","tipo":"Colegio","nivel":"Otros o varios niveles","fuente":"Mapa Educativo Nacional"},"geometry":{"type":"Point","coordinates":[-58.583212,-34.422069]}},{"type":"Feature","properties":{"nombre":"Jardín de Infantes San Francisco","tipo":"Jardín de Infantes","nivel":"Inicial","fuente":"Mapa Educativo Nacional"},"geometry":{"type":"Point","coordinates":[-58.582313,-34.439614]}}]}