{"type":"FeatureCollection","features":[{"type":"Feature","properties":{"nombre":"Plaza Cintio","tipo":"Plaza","sup_m2":766.0,"fuente":"OSM"},"geometry":{"type":"Polygon","coordinates":[[[-58.589086,-34.422398],[-58.589067,-34.422174],[-58.58871,-34.422283],[-58.588759,-34.422479],[-58.589086,-34.422398]]]}},{"type":"Feature","properties":{"nombre":"Espacio verde sin nombre","tipo":"Espacio verde","sup_m2":10187.0,"fuente":"OSM"},"geometry":{"type":"Polygon","coordinates":[[[-58.70058,-34.430732],[-58.700556,-34.430704],[-58.699749,-34.430272],[-58.699715,-34.430265],[-58.69969,-34.430278],[-58.699116,-34.431017],[-58.699115,-34.431049],[-58.699139,-34.431072],[-58.699941,-34.4315],[-58.699978,-34.431509],[-58.700002,-34.431494],[-58.700576,-34.430763],[-58.70058,-34.430732]]]}},{"type":"Feature","properties":{"nombre":"Espacio verde sin nombre","tipo":"Espacio verde","sup_m2":9931.0,"fuente":"OSM"},"geometry":{"type":"Polygon","coordinates":[[[-58.602599,-34.410656],[-58.602496,-34.40988],[-58.602469,-34.409842],[-58.602417,-34.409833],[-58.601468,-34.409924],[-58.601417,-34.409947],[-58.601403,-34.409996],[-58.601504,-34.410756],[-58.601532,-34.410798],[-58.601582,-34.410809],[-58.602549,-34.410712],[-58.602587,-34.410691],[-58.602599,-34.410656]]]}},{"type":"Feature","properties":{"nombre":"Espacio verde sin nombre","tipo":"Espacio verde","sup_m2":12043.0,"fuente":"OSM"},"geometry":{"type":"Polygon","coordinates":[[[-58.649792,-34.467105],[-58.649773,-34.467084],[-58.648999,-34.466674],[-58.648969,-34.466675],[-58.64894,-34.466689],[-58.648217,-34.467629],[-58.648205,-34.467658],[-58.648219,-34.467681],[-58.648973,-34.468077],[-58.649006,-34.468085],[-58.649036,-34.468073],[-58.649787,-34.467132],[-58.649792,-34.467105]]]}},{"type":"Feature","properties":{"nombre":"Espacio verde sin nombre","tipo":"Espacio verde","sup_m2":6003.0,"fuente":"OSM"},"geometry":{"type":"Polygon","coordinates":[[[-58.661799,-34.463462],[-58.661782,-34.46338],[-58.661757,-34.463324],[-58.661726,-34.463276],[-58.661677,-34.463223],[-58.661627,-34.463184],[-58.661533,-34.463134],[-58.661462,-34.46311],[-58.661376,-34.463096],[-58.661308,-34.463093],[-58.661235,-34.463099],[-58.66116,-34.463116],[-58.661086,-34.463145],[-58.661013,-34.463187],[-58.660965,-34.463225],[-58.660923,-34.46327],[-58.660866,-34.46337],[-58.660848,-34.463439],[-58.660845,-34.463513],[-58.660863,-34.463597],[-58.660893,-34.46366],[-58.66096,-34.463744],[-58.661008,-34.463784],[-58.661072,-34.463823],[-58.661142,-34.463852],[-58.661212,-34.46387],[-58.661286,-34.46388],[-58.661372,-34.463879],[-58.661483,-34.463858],[-58.661559,-34.463829],[-58.66164,-34.463781],[-58.661686,-34.463742],[-58.661753,-34.463657],[-58.661779,-34.463602],[-58.661798,-34.463528],[-58.661799,-34.463462]]]}},{"type":"Feature","properties":{"nombre":"Espacio verde sin nombre","tipo":"Espacio verde","sup_m2":8825.0,"fuente":"OSM"},"geometry":{"type":"Polygon","coordinates":[[[-58.647757,-34.457429],[-58.647751,-34.45741],[-58.647262,-34.456789],[-58.647208,-34.456765],[-58.647156,-34.456771],[-58.646379,-34.457196],[-58.646356,-34.457227],[-58.646365,-34.457261],[-58.646882,-34.457881],[-58.646922,-34.457882],[-58.647742,-34.457448],[-58.647757,-34.457429]]]}},{"type":"Feature","properties":{"nombre":"Plaza La Paz","tipo":"Plaza","sup_m2":7343.0,"fuente":"OSM"},"geometry":{"type":"Polygon","coordinates":[[[-58.680734,-34.422638],[-58.679917,-34.422205],[-58.679452,-34.422808],[-58.679462,-34.422836],[-58.67949,-34.422857],[-58.680248,-34.423263],[-58.680734,-34.422638]]]}},{"type":"Feature","properties":{"nombre":"Plaza Presidente Arturo Frondizi","tipo":"Plaza","sup_m2":6077.0,"fuente":"OSM"},"geometry":{"type":"Polygon","coordinates":[[[-58.680721,-34.416058],[-58.680286,-34.41578],[-58.68015,-34.415675],[-58.680119,-34.41566],[-58.680085,-34.415664],[-58.680056,-34.415692],[-58.679588,-34.416313],[-58.68025,-34.416664],[-58.680721,-34.416058]]]}},{"type":"Feature","properties":{"nombre":"Espacio verde sin nombre","tipo":"Espacio verde","sup_m2":878.0,"fuente":"OSM"},"geometry":{"type":"Polygon","coordinates":[[[-58.637349,-34.462087],[-58.637199,-34.461992],[-58.636923,-34.462355],[-58.637145,-34.462431],[-58.637349,-34.462087]]]}},{"type":"Feature","properties":{"nombre":"Espacio verde sin nombre","tipo":"Espacio verde","sup_m2":246.0,"fuente":"OSM"},"geometry":{"type":"Polygon","coordinates":[[[-58.683724,-34.446887],[-58.683718,-34.446861],[-58.683701,-34.446838],[-58.683646,-34.446812],[-58.683583,-34.446819],[-58.683557,-34.446835],[-58.68353,-34.446881],[-58.683532,-34.446908],[-58.683544,-34.446932],[-58.683592,-34.446966],[-58.683623,-34.446971],[-58.683684,-34.446956],[-58.683721,-34.446913],[-58.683724,-34.446887]]]}},{"type":"Feature","properties":{"nombre":"Espacio verde sin nombre","tipo":"Espacio verde","sup_m2":124.0,"fuente":"OSM"},"geometry":{"type":"Polygon","coordinates":[[[-58.583515,-34.427405],[-58.583454,-34.427301],[-58.583306,-34.42748],[-58.583421,-34.42743],[-58.583515,-34.427405]]]}},{"type":"Feature","properties":{"nombre":"Plaza Daniel María Cazón","tipo":"Plaza","sup_m2":10013.0,"fuente":"OSM"},"geometry":{"type":"Polygon","coordinates":[[[-58.590384,-34.416511],[-58.589968,-34.416413],[-58.589693,-34.417211],[-58.58966,-34.417252],[-58.589216,-34.41762],[-58.589006,-34.417783],[-58.588861,-34.417881],[-58.588904,-34.417925],[-58.58903,-34.417884],[-58.589262,-34.417833],[-58.589311,-34.417833],[-58.589634,-34.417894],[-58.589784,-34.417913],[-58.589943,-34.417921],[-58.59003,-34.417916],[-58.590111,-34.417875],[-58.590144,-34.417848],[-58.59022,-34.417715],[-58.590245,-34.41756],[-58.590245,-34.417136],[-58.590257,-34.416991],[-58.59034,-34.416591],[-58.590384,-34.416511]]]}},{"type":"Feature","properties":{"nombre":"Plaza Rivadavia","tipo":"Plaza","sup_m2":4342.0,"fuente":"OSM"},"geometry":{"type":"Polygon","coordinates":[[[-58.590457,-34.425643],[-58.590456,-34.425617],[-58.590436,-34.425587],[-58.590379,-34.425545],[-58.590029,-34.425025],[-58.589465,-34.425256],[-58.589544,-34.425337],[-58.5898,-34.42579],[-58.589817,-34.425805],[-58.589848,-34.425812],[-58.590053,-34.425766],[-58.59003,-34.425743],[-58.590428,-34.425664],[-58.590457,-34.425643]]]}},{"type":"Feature","properties":{"nombre":"Plaza Belgrano","tipo":"Plaza","sup_m2":8237.0,"fuente":"OSM"},"geometry":{"type":"Polygon","coordinates":[[[-58.627243,-34.501096],[-58.626985,-34.500955],[-58.626958,-34.500989],[-58.626839,-34.500924],[-58.626867,-34.500889],[-58.626624,-34.500756],[-58.625931,-34.501634],[-58.625921,-34.501659],[-58.625927,-34.501681],[-58.625939,-34.501701],[-58.626466,-34.501985],[-58.6265,-34.501992],[-58.626526,-34.501985],[-58.626552,-34.501972],[-58.627243,-34.501096]]]}},{"type":"Feature","properties":{"nombre":"Plaza Mariano Moreno","tipo":"Plaza","sup_m2":10882.0,"fuente":"OSM"},"geometry":{"type":"Polygon","coordinates":[[[-58.686401,-34.445764],[-58.686397,-34.44566],[-58.686375,-34.445558],[-58.686323,-34.445439],[-58.686257,-34.445336],[-58.686164,-34.445247],[-58.686066,-34.445179],[-58.685931,-34.445109],[-58.685818,-34.445074],[-58.685568,-34.44505],[-58.685422,-34.445062],[-58.685284,-34.445104],[-58.685047,-34.445239],[-58.684935,-34.445343],[-58.68485,-34.445459],[-58.684804,-34.445574],[-58.684776,-34.445759],[-58.686363,-34.44596],[-58.686401,-34.445764]]]}},{"type":"Feature","properties":{"nombre":"Espacio verde sin nombre","tipo":"Espacio verde","sup_m2":2812.0,"fuente":"OSM"},"geometry":{"type":"Polygon","coordinates":[[[-58.703965,-34.420805],[-58.703965,-34.42078],[-58.703947,-34.420763],[-58.703709,-34.42064],[-58.703685,-34.420641],[-58.703666,-34.420656],[-58.703195,-34.42128],[-58.70319,-34.421302],[-58.703201,-34.42132],[-58.703438,-34.42144],[-58.703464,-34.421446],[-58.703488,-34.421431],[-58.703965,-34.420805]]]}},{"type":"Feature","properties":{"nombre":"Plaza General José de San Martín","tipo":"Plaza","sup_m2":12100.0,"fuente":"OSM"},"geometry":{"type":"Polygon","coordinates":[[[-58.690742,-34.411447],[-58.690733,-34.411424],[-58.690702,-34.411402],[-58.689795,-34.410923],[-58.689743,-34.410923],[-58.689717,-34.410943],[-58.689137,-34.411681],[-58.689125,-34.411709],[-58.689131,-34.411731],[-58.68915,-34.411753],[-58.690055,-34.412235],[-58.690085,-34.412247],[-58.690118,-34.412243],[-58.690141,-34.412232],[-58.69073,-34.411477],[-58.690742,-34.411447]]]}},{"type":"Feature","properties":{"nombre":"Plaza Facundo Cabral","tipo":"Plaza","sup_m2":891.0,"fuente":"OSM"},"geometry":{"type":"Polygon","coordinates":[[[-58.596889,-34.414156],[-58.596758,-34.41393],[-58.596525,-34.414038],[-58.596503,-34.414058],[-58.596491,-34.414091],[-58.596495,-34.414148],[-58.596626,-34.414307],[-58.596889,-34.414156]]]}},{"type":"Feature","properties":{"nombre":"Espacio verde sin nombre","tipo":"Espacio verde","sup_m2":956.0,"fuente":"OSM"},"geometry":{"type":"Polygon","coordinates":[[[-58.687274,-34.358637],[-58.687273,-34.358612],[-58.68725,-34.358584],[-58.687183,-34.358547],[-58.687145,-34.358538],[-58.687062,-34.358547],[-58.686831,-34.358855],[-58.687023,-34.358954],[-58.687274,-34.358637]]]}},{"type":"Feature","properties":{"nombre":"Espacio verde sin nombre","tipo":"Espacio verde","sup_m2":9976.0,"fuente":"OSM"},"geometry":{"type":"Polygon","coordinates":[[[-58.676402,-34.458882],[-58.6764,-34.458853],[-58.676381,-34.458829],[-58.675394,-34.458301],[-58.675334,-34.45829],[-58.675295,-34.458315],[-58.674874,-34.458864],[-58.67486,-34.458893],[-58.674875,-34.458925],[-58.675897,-34.459464],[-58.675936,-34.459467],[-58.675965,-34.459455],[-58.676402,-34.458882]]]}},{"type":"Feature","properties":{"nombre":"Espacio verde sin nombre","tipo":"Espacio verde","sup_m2":701.0,"fuente":"OSM"},"geometry":{"type":"Polygon","coordinates":[[[-58.682154,-34.448112],[-58.682153,-34.448085],[-58.682139,-34.448052],[-58.682074,-34.447986],[-58.682023,-34.447955],[-58.681981,-34.447957],[-58.681889,-34.448011],[-58.681843,-34.44806],[-58.681826,-34.448093],[-58.681811,-34.448166],[-58.681831,-34.448199],[-58.681866,-34.448216],[-58.681902,-34.448225],[-58.681998,-34.448222],[-58.682067,-34.448206],[-58.682116,-34.448179],[-58.682134,-34.448158],[-58.682154,-34.448112]]]}},{"type":"Feature","properties":{"nombre":"Plaza General Ángel Pacheco","tipo":"Plaza","sup_m2":19098.0,"fuente":"OSM"},"geometry":{"type":"Polygon","coordinates":[[[-58.635245,-34.454668],[-58.635217,-34.454637],[-58.634033,-34.454007],[-58.633985,-34.454025],[-58.633209,-34.455001],[-58.633201,-34.455034],[-58.633224,-34.455061],[-58.634422,-34.455691],[-58.634459,-34.455692],[-58.634481,-34.455678],[-58.635239,-34.4547],[-58.635245,-34.454668]]]}},{"type":"Feature","properties":{"nombre":"Espacio verde sin nombre","tipo":"Espacio verde","sup_m2":10627.0,"fuente":"OSM"},"geometry":{"type":"Polygon","coordinates":[[[-58.615065,-34.475491],[-58.615058,-34.475463],[-58.615029,-34.475439],[-58.614239,-34.475019],[-58.614204,-34.475011],[-58.614149,-34.475035],[-58.613607,-34.475757],[-58.613597,-34.47579],[-58.613607,-34.475825],[-58.613632,-34.475855],[-58.614398,-34.476267],[-58.614438,-34.476275],[-58.614471,-34.476269],[-58.614496,-34.476246],[-58.615048,-34.475528],[-58.615065,-34.475491]]]}},{"type":"Feature","properties":{"nombre":"Espacio verde sin nombre","tipo":"Espacio verde","sup_m2":2068.0,"fuente":"OSM"},"geometry":{"type":"Polygon","coordinates":[[[-58.645263,-34.46198],[-58.644994,-34.461582],[-58.644914,-34.461546],[-58.644838,-34.461538],[-58.644768,-34.461577],[-58.6447,-34.461703],[-58.644709,-34.461743],[-58.64495,-34.462101],[-58.644999,-34.46212],[-58.645068,-34.462132],[-58.645157,-34.46214],[-58.645199,-34.462132],[-58.645237,-34.462104],[-58.645262,-34.462023],[-58.645263,-34.46198]]]}},{"type":"Feature","properties":{"nombre":"Espacio verde sin nombre","tipo":"Espacio verde","sup_m2":251.0,"fuente":"OSM"},"geometry":{"type":"Polygon","coordinates":[[[-58.66695,-34.415353],[-58.666929,-34.415313],[-58.666906,-34.415295],[-58.66684,-34.415283],[-58.666786,-34.415303],[-58.666763,-34.415328],[-58.666755,-34.415352],[-58.666756,-34.415379],[-58.666784,-34.415422],[-58.666807,-34.415435],[-58.666869,-34.415443],[-58.666898,-34.415435],[-58.666938,-34.415403],[-58.66695,-34.415353]]]}},{"type":"Feature","properties":{"nombre":"Espacio verde sin nombre","tipo":"Espacio verde","sup_m2":839.0,"fuente":"OSM"},"geometry":{"type":"Polygon","coordinates":[[[-58.667697,-34.41573],[-58.667673,-34.415679],[-58.667619,-34.415649],[-58.667555,-34.415646],[-58.667517,-34.41566],[-58.667439,-34.415709],[-58.667377,-34.415775],[-58.667342,-34.415853],[-58.667345,-34.415911],[-58.667381,-34.415954],[-58.667423,-34.415972],[-58.667468,-34.415975],[-58.667555,-34.41594],[-58.667603,-34.415909],[-58.667666,-34.415833],[-58.667687,-34.415794],[-58.667697,-34.41573]]]}},{"type":"Feature","properties":{"nombre":"Plazoleta Niño Esquilador","tipo":"Plazoleta","sup_m2":167.0,"fuente":"OSM"},"geometry":{"type":"Polygon","coordinates":[[[-58.622659,-34.46555],[-58.622558,-34.465486],[-58.622519,-34.465473],[-58.622499,-34.465473],[-58.622474,-34.465507],[-58.622496,-34.465561],[-58.622591,-34.465635],[-58.622659,-34.46555]]]}},{"type":"Feature","properties":{"nombre":"Plaza Miguel de Güemes","tipo":"Plaza","sup_m2":11631.0,"fuente":"OSM"},"geometry":{"type":"Polygon","coordinates":[[[-58.71776,-34.406377],[-58.71776,-34.406346],[-58.717744,-34.406314],[-58.717721,-34.406292],[-58.716535,-34.405666],[-58.716467,-34.405641],[-58.716418,-34.405633],[-58.716362,-34.40564],[-58.716314,-34.405663],[-58.716005,-34.406061],[-58.715987,-34.4061],[-58.715989,-34.406141],[-58.716006,-34.406177],[-58.716063,-34.406223],[-58.717211,-34.406835],[-58.717265,-34.406857],[-58.717306,-34.406863],[-58.717354,-34.406857],[-58.717397,-34.406841],[-58.717439,-34.40681],[-58.717747,-34.406409],[-58.71776,-34.406377]]]}},{"type":"Feature","properties":{"nombre":"Espacio verde sin nombre","tipo":"Espacio verde","sup_m2":978.0,"fuente":"OSM"},"geometry":{"type":"Polygon","coordinates":[[[-58.585317,-34.432722],[-58.585311,-34.432683],[-58.585285,-34.432633],[-58.585239,-34.432593],[-58.585195,-34.432572],[-58.585143,-34.432562],[-58.585081,-34.432565],[-58.585019,-34.432586],[-58.584979,-34.432614],[-58.584936,-34.43268],[-58.584929,-34.432727],[-58.584952,-34.432795],[-58.584977,-34.432826],[-58.58505,-34.432869],[-58.585123,-34.43288],[-58.585178,-34.432874],[-58.585226,-34.432856],[-58.585276,-34.432818],[-58.585308,-34.432767],[-58.585317,-34.432722]]]}},{"type":"Feature","properties":{"nombre":"Espacio verde sin nombre","tipo":"Espacio verde","sup_m2":2092.0,"fuente":"OSM"},"geometry":{"type":"Polygon","coordinates":[[[-58.59379,-34.429324],[-58.593772,-34.429271],[-58.593221,-34.429252],[-58.593418,-34.429718],[-58.593762,-34.429726],[-58.593756,-34.429608],[-58.593768,-34.42945],[-58.59379,-34.429324]]]}},{"type":"Feature","properties":{"nombre":"Plaza América Latina","tipo":"Plaza","sup_m2":2434.0,"fuente":"OSM"},"geometry":{"type":"Polygon","coordinates":[[[-58.568385,-34.427703],[-58.568377,-34.427681],[-58.56733,-34.427645],[-58.567316,-34.427654],[-58.567308,-34.427674],[-58.567311,-34.427691],[-58.567573,-34.42805],[-58.567595,-34.428062],[-58.568385,-34.427703]]]}},{"type":"Feature","properties":{"nombre":"Plaza Estrada","tipo":"Plaza","sup_m2":11464.0,"fuente":"OSM"},"geometry":{"type":"Polygon","coordinates":[[[-58.639603,-34.493548],[-58.639588,-34.493523],[-58.638693,-34.493042],[-58.638657,-34.493036],[-58.638621,-34.49305],[-58.638038,-34.49381],[-58.638033,-34.493836],[-58.63805,-34.49386],[-58.638934,-34.49433],[-58.638978,-34.494336],[-58.639016,-34.494316],[-58.639593,-34.493578],[-58.639603,-34.493548]]]}},{"type":"Feature","properties":{"nombre":"Plaza El Principito","tipo":"Plaza","sup_m2":8637.0,"fuente":"OSM"},"geometry":{"type":"Polygon","coordinates":[[[-58.666098,-34.483056],[-58.666098,-34.483032],[-58.666081,-34.483013],[-58.665178,-34.482286],[-58.665154,-34.482275],[-58.665112,-34.482281],[-58.664673,-34.482655],[-58.66465,-34.48271],[-58.664662,-34.482738],[-58.665556,-34.483453],[-58.665586,-34.483466],[-58.665644,-34.483456],[-58.666085,-34.483084],[-58.666098,-34.483056]]]}},{"type":"Feature","properties":{"nombre":"Espacio verde sin nombre","tipo":"Espacio verde","sup_m2":919.0,"fuente":"OSM"},"geometry":{"type":"Polygon","coordinates":[[[-58.687209,-34.40829],[-58.687142,-34.408248],[-58.686691,-34.408538],[-58.686786,-34.408639],[-58.686904,-34.408697],[-58.687209,-34.40829]]]}},{"type":"Feature","properties":{"nombre":"Plazoleta Reservistas Argentinos","tipo":"Plazoleta","sup_m2":3010.0,"fuente":"IGN/Ordenanza N° 14/76"},"geometry":{"type":"Polygon","coordinates":[[[-58.57532,-34.430894],[-58.575373,-34.431037],[-58.575441,-34.43108],[-58.576819,-34.430516],[-58.576812,-34.430477],[-58.576644,-34.430452],[-58.576444,-34.430437],[-58.576219,-34.430544],[-58.57532,-34.430894]]]}},{"type":"Feature","properties":{"nombre":"Bomberos Voluntarios","tipo":"Espacio verde","sup_m2":1571.0,"fuente":"IGN/Ordenanza N° 171/81"},"geometry":{"type":"Polygon","coordinates":[[[-58.580685,-34.42257],[-58.580656,-34.422634],[-58.580663,-34.422727],[-58.580725,-34.422808],[-58.580825,-34.42285],[-58.580944,-34.422855],[-58.581022,-34.422838],[-58.581113,-34.422774],[-58.581151,-34.422686],[-58.581144,-34.422593],[-58.581077,-34.422517],[-58.581027,-34.422479],[-58.58093,-34.422465],[-58.580842,-34.422465],[-58.580739,-34.422508],[-58.580685,-34.42257]]]}},{"type":"Feature","properties":{"nombre":"Espacio verde sin nombre","tipo":"Espacio verde","sup_m2":10441.0,"fuente":"OSM"},"geometry":{"type":"Polygon","coordinates":[[[-58.623184,-34.474226],[-58.62318,-34.474208],[-58.62316,-34.474194],[-58.622208,-34.473875],[-58.622172,-34.473875],[-58.62215,-34.473884],[-58.622132,-34.473904],[-58.621741,-34.474698],[-58.622788,-34.475053],[-58.623184,-34.474226]]]}},{"type":"Feature","properties":{"nombre":"Espacio verde sin nombre","tipo":"Espacio verde","sup_m2":7234.0,"fuente":"OSM"},"geometry":{"type":"Polygon","coordinates":[[[-58.564196,-34.429685],[-58.563983,-34.429433],[-58.563883,-34.429191],[-58.563268,-34.429722],[-58.563258,-34.429877],[-58.562949,-34.430142],[-58.562834,-34.430096],[-58.561967,-34.430837],[-58.561996,-34.430866],[-58.564196,-34.429685]]]}},{"type":"Feature","properties":{"nombre":"Espacio verde sin nombre","tipo":"Espacio verde","sup_m2":10682.0,"fuente":"OSM"},"geometry":{"type":"Polygon","coordinates":[[[-58.62217,-34.499758],[-58.622154,-34.499742],[-58.621585,-34.499449],[-58.621555,-34.499443],[-58.621534,-34.499457],[-58.620646,-34.50058],[-58.620639,-34.500598],[-58.620653,-34.500617],[-58.621224,-34.500925],[-58.621254,-34.500933],[-58.621273,-34.500919],[-58.622167,-34.499781],[-58.62217,-34.499758]]]}},{"type":"Feature","properties":{"nombre":"Espacio verde sin nombre","tipo":"Espacio verde","sup_m2":1265.0,"fuente":"OSM"},"geometry":{"type":"Polygon","coordinates":[[[-58.596683,-34.416423],[-58.596495,-34.416014],[-58.596475,-34.416003],[-58.596453,-34.416001],[-58.59643,-34.416013],[-58.596192,-34.416233],[-58.5965,-34.416489],[-58.596683,-34.416423]]]}},{"type":"Feature","properties":{"nombre":"Espacio verde sin nombre","tipo":"Espacio verde","sup_m2":258.0,"fuente":"OSM"},"geometry":{"type":"Polygon","coordinates":[[[-58.687327,-34.446116],[-58.687309,-34.446078],[-58.687282,-34.446056],[-58.687224,-34.446043],[-58.687172,-34.446057],[-58.68715,-34.446073],[-58.687128,-34.446118],[-58.687131,-34.446145],[-58.687157,-34.446183],[-58.687193,-34.446202],[-58.687223,-34.446207],[-58.687258,-34.446203],[-58.687304,-34.446178],[-58.687319,-34.446158],[-58.687327,-34.446116]]]}},{"type":"Feature","properties":{"nombre":"Espacio verde sin nombre","tipo":"Espacio verde","sup_m2":259.0,"fuente":"OSM"},"geometry":{"type":"Polygon","coordinates":[[[-58.684008,-34.445665],[-58.684003,-34.445643],[-58.683973,-34.445607],[-58.683913,-34.445588],[-58.683863,-34.445597],[-58.683837,-34.445613],[-58.683812,-34.445649],[-58.683809,-34.44567],[-58.683821,-34.445709],[-58.683839,-34.445729],[-58.68389,-34.445751],[-58.683923,-34.445751],[-58.683975,-34.445731],[-58.683994,-34.445712],[-58.684008,-34.445665]]]}},{"type":"Feature","properties":{"nombre":"Espacio verde sin nombre","tipo":"Espacio verde","sup_m2":2392.0,"fuente":"OSM"},"geometry":{"type":"Polygon","coordinates":[[[-58.704252,-34.420964],[-58.704236,-34.420938],[-58.704061,-34.42084],[-58.704027,-34.420839],[-58.704,-34.420856],[-58.703541,-34.421464],[-58.703538,-34.421483],[-58.70355,-34.421499],[-58.703756,-34.421601],[-58.703788,-34.421604],[-58.703818,-34.421591],[-58.704242,-34.42099],[-58.704252,-34.420964]]]}},{"type":"Feature","properties":{"nombre":"Espacio verde sin nombre","tipo":"Espacio verde","sup_m2":7515.0,"fuente":"OSM"},"geometry":{"type":"Polygon","coordinates":[[[-58.641536,-34.44795],[-58.641523,-34.447924],[-58.641501,-34.447909],[-58.640228,-34.447352],[-58.640178,-34.447345],[-58.640156,-34.447364],[-58.640319,-34.448342],[-58.640348,-34.448378],[-58.64037,-34.448389],[-58.640399,-34.448392],[-58.640432,-34.448384],[-58.641511,-34.44798],[-58.641531,-34.447965],[-58.641536,-34.44795]]]}},{"type":"Feature","properties":{"nombre":"Espacio verde sin nombre","tipo":"Espacio verde","sup_m2":21900.0,"fuente":"OSM"},"geometry":{"type":"Polygon","coordinates":[[[-58.692437,-34.434574],[-58.690805,-34.433708],[-58.690251,-34.434418],[-58.690807,-34.434713],[-58.690546,-34.435047],[-58.691622,-34.435618],[-58.692437,-34.434574]]]}},{"type":"Feature","properties":{"nombre":"Espacio verde sin nombre","tipo":"Espacio verde","sup_m2":2196.0,"fuente":"OSM"},"geometry":{"type":"Polygon","coordinates":[[[-58.572611,-34.420293],[-58.572401,-34.420011],[-58.571957,-34.420206],[-58.572263,-34.42065],[-58.572611,-34.420293]]]}},{"type":"Feature","properties":{"nombre":"Espacio verde sin nombre","tipo":"Espacio verde","sup_m2":4311.0,"fuente":"OSM"},"geometry":{"type":"Polygon","coordinates":[[[-58.56073,-34.399929],[-58.56055,-34.399401],[-58.560097,-34.399505],[-58.559809,-34.399771],[-58.559931,-34.400114],[-58.56073,-34.399929]]]}},{"type":"Feature","properties":{"nombre":"Espacio verde sin nombre","tipo":"Espacio verde","sup_m2":5600.0,"fuente":"OSM"},"geometry":{"type":"Polygon","coordinates":[[[-58.66443,-34.440491],[-58.6643,-34.440124],[-58.663955,-34.440217],[-58.663853,-34.439922],[-58.663274,-34.440057],[-58.663505,-34.440719],[-58.66443,-34.440491]]]}},{"type":"Feature","properties":{"nombre":"Espacio verde sin nombre","tipo":"Espacio verde","sup_m2":125.0,"fuente":"OSM"},"geometry":{"type":"Polygon","coordinates":[[[-58.640457,-34.462059],[-58.640408,-34.461927],[-58.640252,-34.46201],[-58.640457,-34.462059]]]}},{"type":"Feature","properties":{"nombre":"Plaza de la Amistad","tipo":"Plaza","sup_m2":5371.0,"fuente":"OSM"},"geometry":{"type":"Polygon","coordinates":[[[-58.6839,-34.422136],[-58.683897,-34.422114],[-58.683881,-34.422096],[-58.683028,-34.421628],[-58.682989,-34.421618],[-58.682955,-34.421618],[-58.682929,-34.421629],[-58.682695,-34.421931],[-58.682683,-34.421959],[-58.682693,-34.422003],[-58.683567,-34.422469],[-58.683601,-34.422477],[-58.683655,-34.422458],[-58.6839,-34.422136]]]}},{"type":"Feature","properties":{"nombre":"Plaza de las Américas","tipo":"Plaza","sup_m2":9665.0,"fuente":"OSM"},"geometry":{"type":"Polygon","coordinates":[[[-58.682654,-34.40899],[-58.682649,-34.408964],[-58.681993,-34.408277],[-58.68196,-34.408262],[-58.681926,-34.408273],[-58.6812,-34.408751],[-58.681191,-34.408768],[-58.681195,-34.408785],[-58.681861,-34.409479],[-58.68189,-34.409489],[-58.681914,-34.409485],[-58.682636,-34.409015],[-58.682654,-34.40899]]]}},{"type":"Feature","properties":{"nombre":"Plaza Combatientes de Malvinas","tipo":"Plaza","sup_m2":3705.0,"fuente":"OSM"},"geometry":{"type":"Polygon","coordinates":[[[-58.579985,-34.437372],[-58.57982,-34.436786],[-58.579809,-34.43677],[-58.579772,-34.436758],[-58.57959,-34.436754],[-58.579536,-34.436781],[-58.579524,-34.436799],[-58.579272,-34.437499],[-58.579277,-34.437522],[-58.579316,-34.43753],[-58.579948,-34.437432],[-58.579971,-34.437418],[-58.579983,-34.437397],[-58.579985,-34.437372]]]}},{"type":"Feature","properties":{"nombre":"Plaza San Martín","tipo":"Plaza","sup_m2":7010.0,"fuente":"OSM"},"geometry":{"type":"Polygon","coordinates":[[[-58.576032,-34.425572],[-58.576032,-34.425545],[-58.575666,-34.42429],[-58.575648,-34.424269],[-58.575618,-34.424258],[-58.57558,-34.424262],[-58.574955,-34.424578],[-58.574939,-34.424617],[-58.574948,-34.424635],[-58.575856,-34.425618],[-58.575909,-34.425652],[-58.575969,-34.425658],[-58.57599,-34.42565],[-58.576015,-34.425627],[-58.576032,-34.425572]]]}},{"type":"Feature","properties":{"nombre":"Plaza Domingo Faustino Sarmiento","tipo":"Plaza","sup_m2":8011.0,"fuente":"OSM"},"geometry":{"type":"Polygon","coordinates":[[[-58.613991,-34.455118],[-58.61389,-34.454299],[-58.613881,-34.454265],[-58.613865,-34.454248],[-58.613837,-34.454234],[-58.613805,-34.454232],[-58.613088,-34.45422],[-58.61306,-34.454226],[-58.613042,-34.454247],[-58.613036,-34.454269],[-58.613156,-34.455192],[-58.613991,-34.455118]]]}},{"type":"Feature","properties":{"nombre":"Plaza Deportiva El Salvador Di Tomasso","tipo":"Plaza","sup_m2":10533.0,"fuente":"OSM"},"geometry":{"type":"Polygon","coordinates":[[[-58.696054,-34.427056],[-58.695114,-34.426551],[-58.694489,-34.427369],[-58.69494,-34.427627],[-58.695283,-34.427813],[-58.695551,-34.42749],[-58.695655,-34.427556],[-58.696054,-34.427056]]]}},{"type":"Feature","properties":{"nombre":"Plaza Sarmiento y José Hernández","tipo":"Plaza","sup_m2":5217.0,"fuente":"OSM"},"geometry":{"type":"Polygon","coordinates":[[[-58.583829,-34.443644],[-58.583227,-34.443508],[-58.582909,-34.444462],[-58.583301,-34.444546],[-58.583397,-34.444194],[-58.583521,-34.444217],[-58.58357,-34.44405],[-58.583684,-34.44407],[-58.583829,-34.443644]]]}},{"type":"Feature","properties":{"nombre":"Plaza Virgen del Talar","tipo":"Plaza","sup_m2":5576.0,"fuente":"OSM"},"geometry":{"type":"Polygon","coordinates":[[[-58.704191,-34.426138],[-58.703326,-34.425683],[-58.70298,-34.426124],[-58.703852,-34.426592],[-58.704191,-34.426138]]]}},{"type":"Feature","properties":{"nombre":"Plazoleta Jorge Cafrune","tipo":"Plazoleta","sup_m2":2155.0,"fuente":"OSM"},"geometry":{"type":"Polygon","coordinates":[[[-58.685654,-34.404832],[-58.68511,-34.404163],[-58.68479,-34.404335],[-58.684773,-34.404359],[-58.684766,-34.404387],[-58.684777,-34.404408],[-58.685563,-34.404833],[-58.685616,-34.40485],[-58.685646,-34.404852],[-58.685654,-34.404832]]]}},{"type":"Feature","properties":{"nombre":"Espacio verde sin nombre","tipo":"Espacio verde","sup_m2":5115.0,"fuente":"OSM"},"geometry":{"type":"Polygon","coordinates":[[[-58.611089,-34.456977],[-58.609744,-34.456288],[-58.609548,-34.456557],[-58.610875,-34.457247],[-58.611089,-34.456977]]]}},{"type":"Feature","properties":{"nombre":"Espacio verde sin nombre","tipo":"Espacio verde","sup_m2":6634.0,"fuente":"OSM"},"geometry":{"type":"Polygon","coordinates":[[[-58.676517,-34.434119],[-58.676488,-34.433915],[-58.676321,-34.433744],[-58.675939,-34.433556],[-58.67583,-34.433579],[-58.675545,-34.433851],[-58.675492,-34.433988],[-58.675492,-34.434163],[-58.675598,-34.43431],[-58.675891,-34.434414],[-58.676163,-34.434414],[-58.676411,-34.434307],[-58.676517,-34.434119]]]}},{"type":"Feature","properties":{"nombre":"Espacio verde sin nombre","tipo":"Espacio verde","sup_m2":5718.0,"fuente":"OSM"},"geometry":{"type":"Polygon","coordinates":[[[-58.67261,-34.431983],[-58.672573,-34.431822],[-58.672471,-34.431691],[-58.672089,-34.431477],[-58.672,-34.43152],[-58.671711,-34.431836],[-58.671699,-34.431993],[-58.671764,-34.432141],[-58.671923,-34.432258],[-58.672146,-34.432328],[-58.672325,-34.432342],[-58.672492,-34.432278],[-58.672593,-34.432124],[-58.67261,-34.431983]]]}},{"type":"Feature","properties":{"nombre":"Espacio verde sin nombre","tipo":"Espacio verde","sup_m2":4157.0,"fuente":"OSM"},"geometry":{"type":"Polygon","coordinates":[[[-58.706343,-34.398855],[-58.705708,-34.398524],[-58.705153,-34.398987],[-58.70556,-34.399226],[-58.706343,-34.398855]]]}},{"type":"Feature","properties":{"nombre":"Espacio verde sin nombre","tipo":"Espacio verde","sup_m2":3831.0,"fuente":"OSM"},"geometry":{"type":"Polygon","coordinates":[[[-58.698652,-34.421824],[-58.698299,-34.421639],[-58.698217,-34.421641],[-58.697773,-34.422192],[-58.697773,-34.422248],[-58.697796,-34.422281],[-58.698158,-34.422469],[-58.698652,-34.421824]]]}},{"type":"Feature","properties":{"nombre":"Plaza Aviadores de Malvinas","tipo":"Plaza","sup_m2":8672.0,"fuente":"OSM"},"geometry":{"type":"Polygon","coordinates":[[[-58.611678,-34.489442],[-58.611676,-34.48941],[-58.611647,-34.489393],[-58.610412,-34.489109],[-58.610362,-34.489109],[-58.610336,-34.489142],[-58.610177,-34.489647],[-58.610179,-34.489685],[-58.610203,-34.489703],[-58.611452,-34.489985],[-58.611485,-34.489982],[-58.611502,-34.489966],[-58.611678,-34.489442]]]}},{"type":"Feature","properties":{"nombre":"Espacio verde sin nombre","tipo":"Espacio verde","sup_m2":12219.0,"fuente":"OSM"},"geometry":{"type":"Polygon","coordinates":[[[-58.681956,-34.459742],[-58.680603,-34.45902],[-58.680101,-34.459659],[-58.68147,-34.460352],[-58.681956,-34.459742]]]}},{"type":"Feature","properties":{"nombre":"Espacio verde sin nombre","tipo":"Espacio verde","sup_m2":10735.0,"fuente":"OSM"},"geometry":{"type":"Polygon","coordinates":[[[-58.633912,-34.449205],[-58.632584,-34.448486],[-58.633058,-34.450327],[-58.633912,-34.449205]]]}},{"type":"Feature","properties":{"nombre":"Espacio verde sin nombre","tipo":"Espacio verde","sup_m2":24575.0,"fuente":"OSM"},"geometry":{"type":"Polygon","coordinates":[[[-58.709386,-34.396129],[-58.70935,-34.395911],[-58.706391,-34.397514],[-58.706669,-34.397726],[-58.707692,-34.398264],[-58.709386,-34.396129]]]}},{"type":"Feature","properties":{"nombre":"Plaza del Propietario","tipo":"Plaza","sup_m2":7497.0,"fuente":"OSM"},"geometry":{"type":"Polygon","coordinates":[[[-58.681726,-34.434412],[-58.680628,-34.433814],[-58.680254,-34.43428],[-58.681352,-34.434878],[-58.681726,-34.434412]]]}},{"type":"Feature","properties":{"nombre":"Plaza General Manuel Belgrano","tipo":"Plaza","sup_m2":6136.0,"fuente":"OSM"},"geometry":{"type":"Polygon","coordinates":[[[-58.591292,-34.409607],[-58.59083,-34.409239],[-58.590824,-34.409244],[-58.590761,-34.409194],[-58.590767,-34.409189],[-58.590615,-34.409068],[-58.590438,-34.409212],[-58.590225,-34.409405],[-58.590317,-34.409477],[-58.59029,-34.409501],[-58.590423,-34.409603],[-58.590399,-34.409624],[-58.590532,-34.40973],[-58.590324,-34.409909],[-58.590867,-34.410078],[-58.590899,-34.410051],[-58.59092,-34.410044],[-58.590978,-34.410046],[-58.591292,-34.409607]]]}}]}