{"type":"FeatureCollection","features":[{"type":"Feature","properties":{"nombre":"Estacionamientos Tigre S A (YPF)","bandera":"YPF","fuente":"Secretaria de Gobierno de Energía"},"geometry":{"type":"Point","coordinates":[-58.58436,-34.44103]}},{"type":"Feature","properties":{"nombre":"Automóvil Club Argentino Tigre (YPF)","bandera":"YPF","fuente":"Secretaria de Gobierno de Energía"},"geometry":{"type":"Point","coordinates":[-58.57424,-34.42717]}},{"type":"Feature","properties":{"nombre":"Puente Vanguardia S.A. (YPF)","bandera":"YPF","fuente":"Secretaria de Gobierno de Energía"},"geometry":{"type":"Point","coordinates":[-58.579524,-34.418174]}},{"type":"Feature","properties":{"nombre":"Tomaselli Ricardo Víctor (YPF)","bandera":"YPF","fuente":"Secretaria de Gobierno de Energía"},"geometry":{"type":"Point","coordinates":[-58.561664,-34.387106]}},{"type":"Feature","properties":{"nombre":"Axion Energy Argentina S.A.","bandera":"Axion Energy","fuente":"Secretaria de Gobierno de Energía"},"geometry":{"type":"Point","coordinates":[-58.617574,-34.486549]}},{"type":"Feature","properties":{"nombre":"Axion Energy Argentina S.A.","bandera":"Axion Energy","fuente":"Secretaria de Gobierno de Energía"},"geometry":{"type":"Point","coordinates":[-58.628153,-34.45721]}},{"type":"Feature","properties":{"nombre":"Pro Excel S.A. (Puma Energy)","bandera":"Puma Energy","fuente":"Secretaria de Gobierno de Energía"},"geometry":{"type":"Point","coordinates":[-58.622959,-34.489767]}},{"type":"Feature","properties":{"nombre":"Petro Norte GNC S.R.L. (Puma Energy)","bandera":"Puma Energy","fuente":"Secretaria de Gobierno de Energía"},"geometry":{"type":"Point","coordinates":[-58.663223,-34.47607]}},{"type":"Feature","properties":{"nombre":"Eg3 Red S.A.","bandera":"Sin bandera identificada","fuente":"Secretaria de Gobierno de Energía"},"geometry":{"type":"Point","coordinates":[-58.615328,-34.48593]}},{"type":"Feature","properties":{"nombre":"Cazón S.R.L. (Puma Energy)","bandera":"Puma Energy","fuente":"Secretaria de Gobierno de Energía"},"geometry":{"type":"Point","coordinates":[-58.57079,-34.43028]}},{"type":"Feature","properties":{"nombre":"Dual Tigre S.A. (Puma Energy)","bandera":"Puma Energy","fuente":"Secretaria de Gobierno de Energía"},"geometry":{"type":"Point","coordinates":[-58.581582,-34.440607]}},{"type":"Feature","properties":{"nombre":"Automóvil Club Argentino Delta (YPF)","bandera":"YPF","fuente":"Secretaria de Gobierno de Energía"},"geometry":{"type":"Point","coordinates":[-58.65666,-34.37252]}},{"type":"Feature","properties":{"nombre":"Floripo S.A. (YPF)","bandera":"YPF","fuente":"Secretaria de Gobierno de Energía"},"geometry":{"type":"Point","coordinates":[-58.636074,-34.482788]}},{"type":"Feature","properties":{"nombre":"Automóvil Club Argentino Don Torcuato Filial 32 (YPF)","bandera":"YPF","fuente":"Secretaria de Gobierno de Energía"},"geometry":{"type":"Point","coordinates":[-58.64511,-34.50183]}},{"type":"Feature","properties":{"nombre":"Operadora de Estaciones de Servicios S.A. (YPF)","bandera":"YPF","fuente":"Secretaria de Gobierno de Energía"},"geometry":{"type":"Point","coordinates":[-58.61433,-34.48466]}},{"type":"Feature","properties":{"nombre":"Super Servicios S.A. (YPF)","bandera":"YPF","fuente":"Secretaria de Gobierno de Energía"},"geometry":{"type":"Point","coordinates":[-58.67051,-34.47261]}},{"type":"Feature","properties":{"nombre":"Operadora de Estaciones de Servicios S.A. (YPF)","bandera":"YPF","fuente":"Secretaria de Gobierno de Energía"},"geometry":{"type":"Point","coordinates":[-58.63425,-34.4607]}},{"type":"Feature","properties":{"nombre":"El Curvón S.R.L. (YPF)","bandera":"YPF","fuente":"Secretaria de Gobierno de Energía"},"geometry":{"type":"Point","coordinates":[-58.7298,-34.40728]}},{"type":"Feature","properties":{"nombre":"Estación de Servicio El Talar S.A.","bandera":"Sin bandera identificada","fuente":"Secretaria de Gobierno de Energía"},"geometry":{"type":"Point","coordinates":[-58.652527,-34.469793]}},{"type":"Feature","properties":{"nombre":"Ericktrans S.A.","bandera":"Sin bandera identificada","fuente":"Secretaria de Gobierno de Energía"},"geometry":{"type":"Point","coordinates":[-58.629836,-34.493424]}},{"type":"Feature","properties":{"nombre":"Mirefuen S.A.","bandera":"Sin bandera identificada","fuente":"Secretaria de Gobierno de Energía"},"geometry":{"type":"Point","coordinates":[-58.59773,-34.44503]}},{"type":"Feature","properties":{"nombre":"Talar Combustible","bandera":"Sin bandera identificada","fuente":"Secretaria de Gobierno de Energía"},"geometry":{"type":"Point","coordinates":[-58.661044,-34.450404]}},{"type":"Feature","properties":{"nombre":"Distribuidora Hoval S.R.L.","bandera":"Sin bandera identificada","fuente":"Secretaria de Gobierno de Energía"},"geometry":{"type":"Point","coordinates":[-58.62463,-34.47754]}},{"type":"Feature","properties":{"nombre":"Combustibles Alternativos S.A.","bandera":"Sin bandera identificada","fuente":"Secretaria de Gobierno de Energía"},"geometry":{"type":"Point","coordinates":[-58.597658,-34.445092]}},{"type":"Feature","properties":{"nombre":"Viento al Sur S.R.L. (PDVSUR)","bandera":"PDVSUR","fuente":"Secretaria de Gobierno de Energía"},"geometry":{"type":"Point","coordinates":[-58.613522,-34.484873]}},{"type":"Feature","properties":{"nombre":"Greti S.A. (AGIRA)","bandera":"AGIRA","fuente":"Secretaria de Gobierno de Energía"},"geometry":{"type":"Point","coordinates":[-58.599525,-34.41672]}},{"type":"Feature","properties":{"nombre":"GNC Pacheco S.R.L. (Axion Energy)","bandera":"Axion Energy","fuente":"Secretaria de Gobierno de Energía"},"geometry":{"type":"Point","coordinates":[-58.640902,-34.454273]}},{"type":"Feature","properties":{"nombre":"GNC 197 S.R.L. (ASPRO)","bandera":"ASPRO","fuente":"Secretaria de Gobierno de Energía"},"geometry":{"type":"Point","coordinates":[-58.66146,-34.475107]}},{"type":"Feature","properties":{"nombre":"Tigre GNC S.A.","bandera":"Sin bandera identificada","fuente":"Secretaria de Gobierno de Energía"},"geometry":{"type":"Point","coordinates":[-58.567714,-34.434967]}},{"type":"Feature","properties":{"nombre":"GNC El Talar S.A. (ASPRO)","bandera":"ASPRO","fuente":"Secretaria de Gobierno de Energía"},"geometry":{"type":"Point","coordinates":[-58.645556,-34.46602]}},{"type":"Feature","properties":{"nombre":"Kinien S.A. (OIL)","bandera":"OIL","fuente":"Secretaria de Gobierno de Energía"},"geometry":{"type":"Point","coordinates":[-58.619956,-34.486154]}},{"type":"Feature","properties":{"nombre":"Gral. Pacheco Combustibles S.R.L. (YPF)","bandera":"YPF","fuente":"Secretaria de Gobierno de Energía"},"geometry":{"type":"Point","coordinates":[-58.642186,-34.453309]}},{"type":"Feature","properties":{"nombre":"Servicios Benavídez S.A. (Axion Energy)","bandera":"Axion Energy","fuente":"Secretaria de Gobierno de Energía"},"geometry":{"type":"Point","coordinates":[-58.725569,-34.408792]}},{"type":"Feature","properties":{"nombre":"Operadora de Estaciones de Servicios S.A. (YPF)","bandera":"YPF","fuente":"Secretaria de Gobierno de Energía"},"geometry":{"type":"Point","coordinates":[-58.643006,-34.440037]}},{"type":"Feature","properties":{"nombre":"Servicentro Los Remeros S.R.L. (Shell)","bandera":"Shell","fuente":"Secretaria de Gobierno de Energía"},"geometry":{"type":"Point","coordinates":[-58.64639,-34.399189]}},{"type":"Feature","properties":{"nombre":"Combustibles Ruta 26","bandera":"Sin bandera identificada","fuente":"Secretaria de Gobierno de Energía"},"geometry":{"type":"Point","coordinates":[-58.676884,-34.445978]}},{"type":"Feature","properties":{"nombre":"Enerse S.A. (Shell)","bandera":"Shell","fuente":"Secretaria de Gobierno de Energía"},"geometry":{"type":"Point","coordinates":[-58.698527,-34.447869]}},{"type":"Feature","properties":{"nombre":"Dagward S.A. (Shell)","bandera":"Shell","fuente":"Secretaria de Gobierno de Energía"},"geometry":{"type":"Point","coordinates":[-58.671858,-34.478565]}},{"type":"Feature","properties":{"nombre":"Emeco S.A. (Shell)","bandera":"Shell","fuente":"Secretaria de Gobierno de Energía"},"geometry":{"type":"Point","coordinates":[-58.619241,-34.487243]}},{"type":"Feature","properties":{"nombre":"Folgen S.A. (Shell)","bandera":"Shell","fuente":"Secretaria de Gobierno de Energía"},"geometry":{"type":"Point","coordinates":[-58.643442,-34.500768]}},{"type":"Feature","properties":{"nombre":"Estación Paraná S.R.L. (Shell)","bandera":"Shell","fuente":"Secretaria de Gobierno de Energía"},"geometry":{"type":"Point","coordinates":[-58.578514,-34.424571]}},{"type":"Feature","properties":{"nombre":"Lopema S.A. (Shell)","bandera":"Shell","fuente":"Secretaria de Gobierno de Energía"},"geometry":{"type":"Point","coordinates":[-58.659844,-34.473661]}},{"type":"Feature","properties":{"nombre":"Zayco S.R.L. (OIL)","bandera":"OIL","fuente":"Secretaria de Gobierno de Energía"},"geometry":{"type":"Point","coordinates":[-58.63829,-34.457937]}},{"type":"Feature","properties":{"nombre":"Eg3 Red S.A.","bandera":"Sin bandera identificada","fuente":"Secretaria de Gobierno de Energía"},"geometry":{"type":"Point","coordinates":[-58.650957,-34.398288]}},{"type":"Feature","properties":{"nombre":"Rincón de Milberg S.R.L. (Shell)","bandera":"Shell","fuente":"Secretaria de Gobierno de Energía"},"geometry":{"type":"Point","coordinates":[-58.592734,-34.421527]}},{"type":"Feature","properties":{"nombre":"Vilches Juan Carlos (OIL)","bandera":"OIL","fuente":"Secretaria de Gobierno de Energía"},"geometry":{"type":"Point","coordinates":[-58.584536,-34.432546]}}]}