{"type":"FeatureCollection","features":[{"type":"Feature","properties":{"nombre":"Ferrocarril Nacional General Bartolomé Mitre Ramal Capilla del Señor","linea":"Mitre","fuente":"IGN/Tren Mitre"},"geometry":{"type":"MultiLineString","coordinates":[[[-58.606557,-34.474627],[-58.603345,-34.479078]],[[-58.606557,-34.474627],[-58.601257,-34.474922]],[[-58.711382,-34.431982],[-58.687021,-34.442024],[-58.667434,-34.452037],[-58.645234,-34.463173],[-58.630434,-34.469003],[-58.61925,-34.473048],[-58.615799,-34.473775],[-58.611847,-34.474225],[-58.606557,-34.474627]]]}},{"type":"Feature","properties":{"nombre":"Ferrocarril Nacional General Bartolomé Mitre Ramal GM1/Rosario","linea":"Mitre","fuente":"IGN/Ministerio de Transporte de la Nación"},"geometry":{"type":"LineString","coordinates":[[-58.720328,-34.390066],[-58.715672,-34.392117],[-58.687848,-34.40724],[-58.679354,-34.41257],[-58.678087,-34.413453],[-58.658105,-34.431273],[-58.63274,-34.447667],[-58.619796,-34.455876],[-58.618011,-34.45728],[-58.616417,-34.458946],[-58.606557,-34.474627]]}},{"type":"Feature","properties":{"nombre":"Ferrocarril Nacional General Bartolomé Mitre Ramal Tigre","linea":"Mitre","fuente":"IGN/Tren Mitre"},"geometry":{"type":"LineString","coordinates":[[-58.568933,-34.436217],[-58.569125,-34.436062],[-58.570482,-34.433111],[-58.571148,-34.43204],[-58.572314,-34.431065],[-58.573956,-34.429827],[-58.576866,-34.427512],[-58.581563,-34.423678]]}},{"type":"Feature","properties":{"nombre":"Ferrocarril Nacional General Belgrano Norte Ramal Villa Rosa","linea":"Belgrano Norte","fuente":"IGN/Tren Belgrano Norte"},"geometry":{"type":"LineString","coordinates":[[-58.645293,-34.502506],[-58.643403,-34.502572],[-58.601467,-34.505345]]}},{"type":"Feature","properties":{"nombre":"Tren de la Costa","linea":"Tren de la Costa","fuente":"IGN/Tren de la Costa"},"geometry":{"type":"LineString","coordinates":[[-58.576766,-34.418644],[-58.573711,-34.420785],[-58.571998,-34.422075],[-58.567451,-34.425884],[-58.561599,-34.431096]]}}]}