{"type":"FeatureCollection","features":[{"type":"Feature","properties":{"nombre":"Fiscalía / UFI Distrito Tigre (sede principal)","tipo":"Fiscalía","direccion":"Entre Ríos 559, Gral. Pacheco","localidad":"General Pacheco","descripcion":"Sede principal del Ministerio Público Fiscal para el distrito Tigre, Depto. Judicial San Isidro"},"geometry":{"type":"Point","coordinates":[-58.63258,-34.454625]}},{"type":"Feature","properties":{"nombre":"Fiscalía especializada en trata de personas y violencia de género de Tigre","tipo":"Fiscalía","direccion":"Entre Ríos 559, Gral. Pacheco","localidad":"General Pacheco","descripcion":"Mismo edificio que la fiscalía principal, unidad temática especializada"},"geometry":{"type":"Point","coordinates":[-58.63246,-34.454625]}},{"type":"Feature","properties":{"nombre":"UFI Descentralizada Don Torcuato","tipo":"Fiscalía","direccion":"Av. 202 (Ruta 202) 637, Don Torcuato","localidad":"Don Torcuato","descripcion":null},"geometry":{"type":"Point","coordinates":[-58.640633,-34.499258]}},{"type":"Feature","properties":{"nombre":"UFI El Talar / Troncos del Talar. Instrucción y juicio de violencia de género","tipo":"Fiscalía","direccion":"Lisandro de la Torre 314, Troncos del Talar","localidad":"Troncos del Talar","descripcion":null},"geometry":{"type":"Point","coordinates":[-58.61736,-34.453008]}},{"type":"Feature","properties":{"nombre":"UFI Benavídez / Rincón","tipo":"Fiscalía","direccion":"Av. Santa María 2490, Rincón de Milberg","localidad":"Rincón de Milberg","descripcion":null},"geometry":{"type":"Point","coordinates":[-58.595687,-34.418868]}},{"type":"Feature","properties":{"nombre":"Juzgado de Paz - Tigre","tipo":"Juzgado","direccion":"Av. Libertador Gral. San Martín 254, Tigre","localidad":"Tigre","descripcion":"Único Juzgado de Paz del partido, según Suprema Corte de Justicia de la Pcia. de Buenos Aires"},"geometry":{"type":"Point","coordinates":[-58.584199,-34.420773]}}]}