{"type":"FeatureCollection","features":[{"type":"Feature","properties":{"nombre":"Benavídez","codigo":"0680501001","fuente":"INDEC","codigo_2022":"99899914","sup_km2":25.5},"geometry":{"type":"Point","coordinates":[-58.689928,-34.411573]}},{"type":"Feature","properties":{"nombre":"Dique Luján","codigo":"0680501002","fuente":"INDEC","codigo_2022":"99899913","sup_km2":19.4},"geometry":{"type":"Point","coordinates":[-58.686561,-34.361305]}},{"type":"Feature","properties":{"nombre":"Don Torcuato Este","codigo":"0680501003","fuente":"INDEC"},"geometry":{"type":"Point","coordinates":[-58.615576,-34.487529]}},{"type":"Feature","properties":{"nombre":"Don Torcuato Oeste","codigo":"0680501004","fuente":"INDEC"},"geometry":{"type":"Point","coordinates":[-58.626698,-34.501312]}},{"type":"Feature","properties":{"nombre":"El Talar","codigo":"0680501005","fuente":"INDEC","codigo_2022":"99899969","sup_km2":8.7},"geometry":{"type":"Point","coordinates":[-58.661352,-34.463581]}},{"type":"Feature","properties":{"nombre":"General Pacheco","codigo":"0680501006","fuente":"INDEC","codigo_2022":"99899960","sup_km2":15.1},"geometry":{"type":"Point","coordinates":[-58.634149,-34.454923]}},{"type":"Feature","properties":{"nombre":"Troncos del Talar","codigo":"0680501007","fuente":"INDEC","codigo_2022":"99899919","sup_km2":11.6},"geometry":{"type":"Point","coordinates":[-58.613341,-34.45481]}},{"type":"Feature","properties":{"nombre":"Ricardo Rojas","codigo":"0680501008","fuente":"INDEC","codigo_2022":"99899915","sup_km2":7.2},"geometry":{"type":"Point","coordinates":[-58.683043,-34.458453]}},{"type":"Feature","properties":{"nombre":"Rincón de Milberg","codigo":"0680501009","fuente":"INDEC","codigo_2022":"99899917","sup_km2":16.2},"geometry":{"type":"Point","coordinates":[-58.601996,-34.41046]}},{"type":"Feature","properties":{"nombre":"Tigre","codigo":"0680501010","fuente":"INDEC","codigo_2022":"99899916","sup_km2":8.5},"geometry":{"type":"Point","coordinates":[-58.575528,-34.424813]}}]}