{"type":"FeatureCollection","features":[{"type":"Feature","properties":{"nombre":"ANSES Tigre (UDAI)","nivel":"Nacional","direccion":"Av. Hipólito Yrigoyen 520, Gral. Pacheco","telefono":null,"localidad":"General Pacheco","descripcion":"Unidad de Atención Integral"},"geometry":{"type":"Point","coordinates":[-58.629476,-34.457882]}},{"type":"Feature","properties":{"nombre":"RENAPER · Delegación Registro Provincial de las Personas Tigre","nivel":"Nacional","direccion":"Av. Cazón 1378, Tigre","telefono":null,"localidad":"Tigre","descripcion":"Trámites de DNI y pasaporte"},"geometry":{"type":"Point","coordinates":[-58.578367,-34.424739]}},{"type":"Feature","properties":{"nombre":"ARCA (ex AFIP) · Agencia Tigre","nivel":"Nacional","direccion":"Av. Cazón 783, Tigre","telefono":null,"localidad":"Tigre","descripcion":"La AFIP fue renombrada ARCA (Agencia de Recaudación y Control Aduanero) en 2024"},"geometry":{"type":"Point","coordinates":[-58.572547,-34.428891]}},{"type":"Feature","properties":{"nombre":"Correo Argentino · Sucursal Tigre","nivel":"Nacional","direccion":"Av. Cazón 1140, Tigre","telefono":null,"localidad":"Tigre","descripcion":null},"geometry":{"type":"Point","coordinates":[-58.575848,-34.4266]}},{"type":"Feature","properties":{"nombre":"Dirección Nacional de Migraciones · Delegación Tigre","nivel":"Nacional","direccion":"Lavalle, 538","telefono":null,"localidad":"Tigre","descripcion":null},"geometry":{"type":"Point","coordinates":[-58.581008,-34.421308]}},{"type":"Feature","properties":{"nombre":"PAMI · Agencia Tigre","nivel":"Nacional","direccion":"Av. Cazón 966, Tigre","telefono":null,"localidad":"Tigre","descripcion":null},"geometry":{"type":"Point","coordinates":[-58.574538,-34.427801]}},{"type":"Feature","properties":{"nombre":"PAMI · Agencia Gral. Pacheco","nivel":"Nacional","direccion":"Pasteur 1099-1199, El Talar","telefono":null,"localidad":"El Talar","descripcion":null},"geometry":{"type":"Point","coordinates":[-58.648158,-34.467466]}},{"type":"Feature","properties":{"nombre":"IOMA · Delegación Tigre","nivel":"Provincial","direccion":"Montes de Oca 442, Tigre","telefono":null,"localidad":"Tigre","descripcion":"Obra social de empleados públicos de la Provincia de Buenos Aires"},"geometry":{"type":"Point","coordinates":[-58.578168,-34.423547]}},{"type":"Feature","properties":{"nombre":"Municipalidad","nivel":"Municipal","direccion":"Av. Cazón 1514, Tigre","telefono":null,"localidad":"Tigre","descripcion":null},"geometry":{"type":"Point","coordinates":[-58.579904,-34.423656]}},{"type":"Feature","properties":{"nombre":"Honorable Concejo Deliberante","nivel":"Municipal","direccion":"Paseo Victorica 902, Tigre","telefono":null,"localidad":"Tigre","descripcion":null},"geometry":{"type":"Point","coordinates":[-58.590132,-34.409598]}},{"type":"Feature","properties":{"nombre":"Delegación · Tigre Centro","nivel":"Municipal","direccion":"Av. Italia 1119, Tigre","telefono":"4512-4516","localidad":"Tigre","descripcion":null},"geometry":{"type":"Point","coordinates":[-58.573898,-34.424878]}},{"type":"Feature","properties":{"nombre":"Delegación · Tigre Norte","nivel":"Municipal","direccion":"Av. Crisologo Larralde 2800 y J.B. Alberdi","telefono":null,"localidad":"Tigre","descripcion":null},"geometry":{"type":"Point","coordinates":[-58.590329,-34.442904]}},{"type":"Feature","properties":{"nombre":"Delegación · Don Torcuato Este","nivel":"Municipal","direccion":"A.T. De Alvear (ex ruta 202) 2681, Don Torcuato","telefono":"4513-2524","localidad":"Don Torcuato","descripcion":null},"geometry":{"type":"Point","coordinates":[-58.619494,-34.487931]}},{"type":"Feature","properties":{"nombre":"Delegación · Las Tunas","nivel":"Municipal","direccion":"Junín 29, Gral. Pacheco","telefono":"4512-9993","localidad":"General Pacheco","descripcion":null},"geometry":{"type":"Point","coordinates":[-58.664071,-34.448935]}},{"type":"Feature","properties":{"nombre":"Delegación · Don Torcuato Oeste","nivel":"Municipal","direccion":"Av. Ángel T. de Alvear 450 (Galería del Sol), Don Torcuato","telefono":"4512-2523","localidad":"Don Torcuato","descripcion":null},"geometry":{"type":"Point","coordinates":[-58.638333,-34.493385]}},{"type":"Feature","properties":{"nombre":"Delegación · Dique Luján","nivel":"Municipal","direccion":"12 de Octubre 973, Dique Luján","telefono":"03488-444644","localidad":"Dique Luján","descripcion":null},"geometry":{"type":"Point","coordinates":[-58.687693,-34.359899]}},{"type":"Feature","properties":{"nombre":"Delegación · Delta Tigre (Estación Fluvial)","nivel":"Municipal","direccion":"Mitre 345 – Tigre (Estación Fluvial)","telefono":"4512-4545/ 4506-9291","localidad":"Tigre","descripcion":null},"geometry":{"type":"Point","coordinates":[-58.579332,-34.421582]}},{"type":"Feature","properties":{"nombre":"Subdelegación Alte Brown (El Talar)","nivel":"Municipal","direccion":"Alemania 420, El Talar","telefono":"4512-9960","localidad":"El Talar","descripcion":null},"geometry":{"type":"Point","coordinates":[-58.660228,-34.484452]}},{"type":"Feature","properties":{"nombre":"Delegación · El Talar","nivel":"Municipal","direccion":"Pasteur 1319, El Talar","telefono":"4512-9974","localidad":"El Talar","descripcion":null},"geometry":{"type":"Point","coordinates":[-58.649892,-34.465386]}},{"type":"Feature","properties":{"nombre":"Delegación · Benavidez","nivel":"Municipal","direccion":"Ituzaingó 2950, Benavídez","telefono":"03327-481201","localidad":"Benavídez","descripcion":null},"geometry":{"type":"Point","coordinates":[-58.683048,-34.421599]}},{"type":"Feature","properties":{"nombre":"Delegación · La Paloma","nivel":"Municipal","direccion":"Juan José Valle 1871","telefono":"4512-9916","localidad":"El Talar","descripcion":null},"geometry":{"type":"Point","coordinates":[-58.659573,-34.461167]}},{"type":"Feature","properties":{"nombre":"Delegación · General Pacheco","nivel":"Municipal","direccion":"Santiago del Estero 350, Gral. Pacheco","telefono":"4512-9970/71","localidad":"General Pacheco","descripcion":null},"geometry":{"type":"Point","coordinates":[-58.634863,-34.455205]}},{"type":"Feature","properties":{"nombre":"Delegación · Ricardo Rojas","nivel":"Municipal","direccion":"Blandengues 2525, Ricardo Rojas","telefono":"4513-2525","localidad":"Ricardo Rojas","descripcion":null},"geometry":{"type":"Point","coordinates":[-58.675129,-34.458343]}},{"type":"Feature","properties":{"nombre":"Delegación · Nuevo Delta","nivel":"Municipal","direccion":"Agustín García 8852 (ex Ruta Provincial 27), Benavídez","telefono":"6261-5821/2","localidad":"Nordelta","descripcion":null},"geometry":{"type":"Point","coordinates":[-58.646048,-34.398902]}},{"type":"Feature","properties":{"nombre":"Delegación · Rincón de Milberg","nivel":"Municipal","direccion":"Av. Santa María de las Conchas 2089, Rincón de Milberg","telefono":"4512-4490","localidad":"Rincón de Milberg","descripcion":null},"geometry":{"type":"Point","coordinates":[-58.591164,-34.422797]}},{"type":"Feature","properties":{"nombre":"Delegación · Troncos del Talar","nivel":"Municipal","direccion":"Independencia 1789 esq. Marconi, Troncos del Talar","telefono":"4512-9976","localidad":"Troncos del Talar","descripcion":null},"geometry":{"type":"Point","coordinates":[-58.603492,-34.450706]}},{"type":"Feature","properties":{"nombre":"Centro de Atención al Vecino (CAV) / Dirección Gral. de Discapacidad","nivel":"Municipal","direccion":"Lisandro de la Torre 2500, Troncos del Talar","telefono":null,"localidad":"Troncos del Talar","descripcion":null},"geometry":{"type":"Point","coordinates":[-58.598492,-34.444308]}},{"type":"Feature","properties":{"nombre":"Subsecretaría de Tránsito y de Faltas","nivel":"Municipal","direccion":"Av. Crisólogo Larralde 2257, Troncos del Talar","telefono":null,"localidad":"Tigre","descripcion":null},"geometry":{"type":"Point","coordinates":[-58.588362,-34.441894]}}]}