{"type":"FeatureCollection","features":[{"type":"Feature","properties":{"nombre":"Escuelas de Arte y Oficios Don Orione","tipo":"Escuela y formación","direccion":"Av. Cazón 927, Tigre Centro","localidad":"Tigre","descripcion":null},"geometry":{"type":"Point","coordinates":[-58.573749,-34.427967]}},{"type":"Feature","properties":{"nombre":"Asociación Civil Marcos Sastre","tipo":"Asociación civil","direccion":"Av. Santiago de Liniers 1024, Tigre Centro","localidad":"Tigre","descripcion":null},"geometry":{"type":"Point","coordinates":[-58.588174,-34.418105]}},{"type":"Feature","properties":{"nombre":"Fundación Nordelta","tipo":"Fundación","direccion":"Espigon 12, Nordelta","localidad":"Nordelta","descripcion":null},"geometry":{"type":"Point","coordinates":[-58.642917,-34.390641]}},{"type":"Feature","properties":{"nombre":"Centro de Capacitación Educativa - Casa de Las Tunas - Fundación Nordelta","tipo":"Fundación","direccion":"Donato Álvarez 1617, Gral. Pacheco","localidad":"General Pacheco","descripcion":null},"geometry":{"type":"Point","coordinates":[-58.670047,-34.441464]}},{"type":"Feature","properties":{"nombre":"Asociación El Telar","tipo":"Asociación civil","direccion":"Saavedra 556, Don Torcuato","localidad":"Don Torcuato","descripcion":null},"geometry":{"type":"Point","coordinates":[-58.62251,-34.477624]}},{"type":"Feature","properties":{"nombre":"Escuela de Educación Técnica \"Henry Ford\" (ETHF)","tipo":"Escuela y formación","direccion":"Colectora Este N° 34603, Gral. Pacheco","localidad":"Ricardo Rojas","descripcion":"General Pacheco, dentro del predio de Planta Ford. Fundada en 1965, +210 alumnos"},"geometry":{"type":"Point","coordinates":[-58.700277,-34.444771]}},{"type":"Feature","properties":{"nombre":"Fundación Proyectar","tipo":"Fundación","direccion":"Marcos Sastre 1031, El Talar","localidad":"El Talar","descripcion":null},"geometry":{"type":"Point","coordinates":[-58.664149,-34.477318]}},{"type":"Feature","properties":{"nombre":"Fundación Oficios","tipo":"Fundación","direccion":"Av. Luis Vernet 250, Benavidez","localidad":"Benavídez","descripcion":null},"geometry":{"type":"Point","coordinates":[-58.68278,-34.407416]}},{"type":"Feature","properties":{"nombre":"Casa Angelman","tipo":"Otras organizaciones","direccion":"Esmeralda 280, Tigre","localidad":"Tigre","descripcion":"Asistencia a familias con Síndrome de Angelman"},"geometry":{"type":"Point","coordinates":[-58.59026,-34.425954]}},{"type":"Feature","properties":{"nombre":"Centro CONIN / CEPAN Las Tunas","tipo":"Nutrición infantil (CONIN)","direccion":"Av. Constituyentes 3284, Gral. Pacheco","localidad":"General Pacheco","descripcion":"Centro de Prevención y Asistencia en Nutrición, gestionado por Fundación Nordelta y el Municipio"},"geometry":{"type":"Point","coordinates":[-58.672473,-34.44747]}},{"type":"Feature","properties":{"nombre":"Nutriendonos CONIN Troncos de El Talar","tipo":"Nutrición infantil (CONIN)","direccion":"Leónardo Da Vinci 1653, Troncos del Talar","localidad":"Troncos del Talar","descripcion":null},"geometry":{"type":"Point","coordinates":[-58.60045,-34.45527]}},{"type":"Feature","properties":{"nombre":"Centro CONIN Bancalari","tipo":"Nutrición infantil (CONIN)","direccion":"Gallardo 3822, Don Torcuato","localidad":"Don Torcuato","descripcion":null},"geometry":{"type":"Point","coordinates":[-58.611354,-34.475745]}},{"type":"Feature","properties":{"nombre":"Nuevos Pasos en General Pacheco (T.A.C.A.)","tipo":"Otras organizaciones","direccion":"Boulogne Sur Mer 647-687, Gral. Pacheco","localidad":"General Pacheco","descripcion":"Terapia Asistida con Animales"},"geometry":{"type":"Point","coordinates":[-58.626047,-34.470199]}},{"type":"Feature","properties":{"nombre":"CAF Santa Clotilde","tipo":"Otras organizaciones","direccion":"Freire 3326, Gral. Pacheco","localidad":"General Pacheco","descripcion":null},"geometry":{"type":"Point","coordinates":[-58.669047,-34.442943]}},{"type":"Feature","properties":{"nombre":"Sociedad de San Vicente de Paúl / Hogar de Ancianos San José","tipo":"Asociación civil","direccion":"Arata 1555, Don Torcuato","localidad":"Don Torcuato","descripcion":null},"geometry":{"type":"Point","coordinates":[-58.631367,-34.494911]}},{"type":"Feature","properties":{"nombre":"Fundación Rotary Club de Tigre","tipo":"Fundación","direccion":"Av. Cazón 1266, Tigre Centro","localidad":"Tigre","descripcion":null},"geometry":{"type":"Point","coordinates":[-58.577082,-34.42558]}},{"type":"Feature","properties":{"nombre":"Agrupación de Jubilados y Pensionados Nuestra Señora de Luján","tipo":"Asociación civil","direccion":"Esteban Echeverría 2599-2699, Don Torcuato","localidad":"Don Torcuato","descripcion":null},"geometry":{"type":"Point","coordinates":[-58.615581,-34.497214]}},{"type":"Feature","properties":{"nombre":"Asociación Comunitaria Juan Diego","tipo":"Asociación civil","direccion":"Triunvirato 650, Troncos del Talar","localidad":"Troncos del Talar","descripcion":null},"geometry":{"type":"Point","coordinates":[-58.608902,-34.458134]}},{"type":"Feature","properties":{"nombre":"Asociación Mutualista y de Fomento de Don Torcuato","tipo":"Asociación civil","direccion":"Av. Ángel T. de Alvear 840, Don Torcuato","localidad":"Don Torcuato","descripcion":null},"geometry":{"type":"Point","coordinates":[-58.63866,-34.497913]}},{"type":"Feature","properties":{"nombre":"LAS TUNAS ONG","tipo":"Otras organizaciones","direccion":"Luis María Campos 3725, Gral. Pacheco","localidad":"General Pacheco","descripcion":null},"geometry":{"type":"Point","coordinates":[-58.674639,-34.440745]}},{"type":"Feature","properties":{"nombre":"Sociedad de Fomento Juncal","tipo":"Asociación civil","direccion":"Albarellos 682, Tigre Centro","localidad":"Tigre","descripcion":null},"geometry":{"type":"Point","coordinates":[-58.578973,-34.427369]}},{"type":"Feature","properties":{"nombre":"Fundación Judaica Norte","tipo":"Fundación","direccion":"Av. de los Lagos 1250, Nordelta","localidad":"Nordelta","descripcion":null},"geometry":{"type":"Point","coordinates":[-58.643241,-34.431121]}},{"type":"Feature","properties":{"nombre":"Rosas del Plata","tipo":"Otras organizaciones","direccion":"Av. de los Lagos 3100, Nordelta","localidad":"Nordelta","descripcion":null},"geometry":{"type":"Point","coordinates":[-58.654172,-34.426264]}},{"type":"Feature","properties":{"nombre":"Una Posta en el Camino","tipo":"Otras organizaciones","direccion":"Bolivia 1187, Don Torcuato","localidad":"Don Torcuato","descripcion":null},"geometry":{"type":"Point","coordinates":[-58.632986,-34.498784]}},{"type":"Feature","properties":{"nombre":"Compromiso con Tigre","tipo":"Otras organizaciones","direccion":"Islas Orcadas 765, Gral. Pacheco","localidad":"General Pacheco","descripcion":null},"geometry":{"type":"Point","coordinates":[-58.63974,-34.462613]}},{"type":"Feature","properties":{"nombre":"Fundación Más Humanidad","tipo":"Fundación","direccion":"Galarza 1850, Rincón de Milberg","localidad":"Rincón de Milberg","descripcion":null},"geometry":{"type":"Point","coordinates":[-58.599112,-34.405976]}},{"type":"Feature","properties":{"nombre":"Fundación Nosotros","tipo":"Fundación","direccion":"Vicente López 444, Tigre","localidad":"Tigre","descripcion":null},"geometry":{"type":"Point","coordinates":[-58.583022,-34.420279]}},{"type":"Feature","properties":{"nombre":"Los Naranjos","tipo":"Otras organizaciones","direccion":"Félix Frías 2819, Don Torcuato","localidad":"Don Torcuato","descripcion":null},"geometry":{"type":"Point","coordinates":[-58.627705,-34.476181]}},{"type":"Feature","properties":{"nombre":"Banco de Alimentos (convenio con el Municipio de Tigre)","tipo":"Otras organizaciones","direccion":"Chilavert 275, Benavidez","localidad":"Benavídez","descripcion":"Cobertura en todo el partido: asiste a más de 200 comedores y merenderos del distrito, según convenio 2024 con el Municipio"},"geometry":{"type":"Point","coordinates":[-58.7195,-34.414895]}},{"type":"Feature","properties":{"nombre":"Fundación María de Guadalupe","tipo":"Fundación","direccion":"Av. Constituyentes 2920, Gral. Pacheco","localidad":"General Pacheco","descripcion":null},"geometry":{"type":"Point","coordinates":[-58.669349,-34.44958]}},{"type":"Feature","properties":{"nombre":"Centro Integración Social \"Almirante Brown\"","tipo":"Centro de integración social","direccion":"Almirante Brown 18, Tigre","localidad":"Tigre","descripcion":"Sede de apoyo escolar municipal (programa Tigre Te Acompaña)"},"geometry":{"type":"Point","coordinates":[-58.561251,-34.425876]}},{"type":"Feature","properties":{"nombre":"Centro Integración Social Barrionuevo","tipo":"Centro de integración social","direccion":"Pampa 2100, Rincón de Milberg","localidad":"Rincón de Milberg","descripcion":"Sede de apoyo escolar municipal"},"geometry":{"type":"Point","coordinates":[-58.605633,-34.404542]}},{"type":"Feature","properties":{"nombre":"Centro Integración Social San Pablo","tipo":"Centro de integración social","direccion":"Libertad 2618, El Talar","localidad":"El Talar","descripcion":"Sede de apoyo escolar municipal"},"geometry":{"type":"Point","coordinates":[-58.654855,-34.48343]}},{"type":"Feature","properties":{"nombre":"Centro Popular de Desarrollo - Centro de Desarrollo Infantil \"Lunas y Soles\"","tipo":"Otras organizaciones","direccion":"B1617 Gral. Pacheco","localidad":"General Pacheco","descripcion":null},"geometry":{"type":"Point","coordinates":[-58.668401,-34.434173]}},{"type":"Feature","properties":{"nombre":"Asociación Amigos del Museo de Arte Tigre","tipo":"Asociación civil","direccion":"Saldias 1289, B1648 Tigre Centro","localidad":"Tigre","descripcion":null},"geometry":{"type":"Point","coordinates":[-58.591231,-34.409434]}}]}