{"type":"FeatureCollection","features":[{"type":"Feature","properties":{"nombre":"Puerto Dique Lujan","alerta_m":2.3,"evacuacion_m":2.8,"en_tigre":"Sí","fuente":"Prefectura Naval Argentina, vía IGN"},"geometry":{"type":"Point","coordinates":[-58.686435,-34.353387]}},{"type":"Feature","properties":{"nombre":"Puerto Tigre","alerta_m":3.3,"evacuacion_m":3.8,"en_tigre":"Sí","fuente":"Prefectura Naval Argentina, vía IGN"},"geometry":{"type":"Point","coordinates":[-58.580138,-34.420004]}},{"type":"Feature","properties":{"nombre":"Puerto San Fernando","alerta_m":3.0,"evacuacion_m":3.5,"en_tigre":"Cerca, fuera del partido","fuente":"Prefectura Naval Argentina, vía IGN"},"geometry":{"type":"Point","coordinates":[-58.550694,-34.429875]}},{"type":"Feature","properties":{"nombre":"Puerto San Isidro","alerta_m":3.0,"evacuacion_m":3.5,"en_tigre":"Cerca, fuera del partido","fuente":"Prefectura Naval Argentina, vía IGN"},"geometry":{"type":"Point","coordinates":[-58.509797,-34.459933]}}]}