{"type":"FeatureCollection","features":[{"type":"Feature","properties":{"nombre":"Centro de Reciclaje Cooperativa Creando Conciencia","tipo":"Centro de Reciclaje","fuente":"IGN/OPDS","sup_ha":null,"en_tigre":"Sí, completo"},"geometry":{"type":"Point","coordinates":[-58.688404,-34.40392]}},{"type":"Feature","properties":{"nombre":"CEAMSE","tipo":"Predio del CEAMSE","sup_ha":1009.2,"en_tigre":"Parcialmente: 19 % del predio","fuente":"Predio dibujado por el equipo de IDEAR Tigre"},"geometry":{"type":"Polygon","coordinates":[[[-58.617727,-34.551592],[-58.611357,-34.551353],[-58.606588,-34.549114],[-58.59996,-34.539217],[-58.594367,-34.529585],[-58.594176,-34.525578],[-58.601615,-34.520156],[-58.617036,-34.515992],[-58.619515,-34.520392],[-58.628289,-34.518506],[-58.631532,-34.528406],[-58.634583,-34.528563],[-58.635156,-34.531078],[-58.632867,-34.53202],[-58.63382,-34.535949],[-58.628671,-34.541291],[-58.622567,-34.552602],[-58.617727,-34.551592]]]}}]}