{"type":"FeatureCollection","features":[{"type":"Feature","properties":{"partido":"Escobar","cabecera":"Belén de Escobar","sup_km2":301.8,"perim_km":101.2,"compacidad":0.37,"es_tigre":"Partido vecino","dengue_2024":123,"dengue_cat_2024":"Altos registros","inmat_1":62.0,"inmat_4":6.1,"inmat_cat":"Muy bajo","sincob_pct":35.7,"sincob_cat":"Medio","ivsd":37.4},"geometry":{"type":"Polygon","coordinates":[[[-58.71521,-34.2476],[-58.70353,-34.25041],[-58.69087,-34.25419],[-58.6734,-34.25867],[-58.64828,-34.26622],[-58.65342,-34.27086],[-58.65441,-34.2724],[-58.65827,-34.28402],[-58.66114,-34.29107],[-58.66136,-34.29262],[-58.66468,-34.30112],[-58.66905,-34.31356],[-58.67835,-34.34241],[-58.67968,-34.34534],[-58.68083,-34.34703],[-58.68238,-34.34853],[-58.68605,-34.35128],[-58.68904,-34.34805],[-58.69029,-34.34705],[-58.71897,-34.36175],[-58.72042,-34.36308],[-58.72105,-34.36461],[-58.70499,-34.37298],[-58.71455,-34.38842],[-58.71625,-34.38973],[-58.71907,-34.39042],[-58.71531,-34.39218],[-58.73417,-34.40225],[-58.70558,-34.43933],[-58.72506,-34.45011],[-58.73736,-34.45646],[-58.77817,-34.40398],[-58.78887,-34.3994],[-58.78845,-34.39986],[-58.78852,-34.40011],[-58.79016,-34.40135],[-58.79114,-34.40156],[-58.79221,-34.40464],[-58.79286,-34.40517],[-58.79268,-34.40554],[-58.79291,-34.40598],[-58.79415,-34.40724],[-58.79462,-34.40733],[-58.79807,-34.41029],[-58.80109,-34.41078],[-58.80182,-34.41119],[-58.80287,-34.41125],[-58.80336,-34.4116],[-58.80431,-34.41172],[-58.80679,-34.41262],[-58.80754,-34.41328],[-58.80877,-34.41376],[-58.81032,-34.41383],[-58.81223,-34.41357],[-58.81319,-34.41418],[-58.81522,-34.41492],[-58.81649,-34.41505],[-58.81702,-34.41544],[-58.83577,-34.39088],[-58.83553,-34.39069],[-58.83743,-34.38883],[-58.83967,-34.3859],[-58.84287,-34.38753],[-58.90108,-34.31092],[-58.90071,-34.31068],[-58.90008,-34.30946],[-58.90049,-34.30834],[-58.89949,-34.30759],[-58.899,-34.30772],[-58.89874,-34.30814],[-58.89838,-34.30801],[-58.89864,-34.30732],[-58.8982,-34.30676],[-58.89645,-34.30725],[-58.89557,-34.30715],[-58.89507,-34.30656],[-58.89443,-34.30669],[-58.89215,-34.30634],[-58.89198,-34.30583],[-58.89242,-34.30511],[-58.89371,-34.30457],[-58.8933,-34.30394],[-58.89217,-34.30385],[-58.89111,-34.3031],[-58.89059,-34.30338],[-58.89052,-34.30423],[-58.8898,-34.30457],[-58.88939,-34.3051],[-58.88876,-34.30478],[-58.88865,-34.30436],[-58.88905,-34.3029],[-58.88818,-34.30231],[-58.88811,-34.30195],[-58.88927,-34.30187],[-58.88979,-34.30167],[-58.88982,-34.30139],[-58.88873,-34.3001],[-58.88824,-34.3],[-58.88763,-34.30045],[-58.88556,-34.30098],[-58.88508,-34.30088],[-58.88476,-34.30073],[-58.88464,-34.30014],[-58.88524,-34.29924],[-58.88527,-34.29876],[-58.8847,-34.29886],[-58.88412,-34.29931],[-58.88377,-34.29921],[-58.88372,-34.29814],[-58.88236,-34.29858],[-58.88124,-34.29829],[-58.88078,-34.29787],[-58.88067,-34.29727],[-58.88092,-34.29632],[-58.88237,-34.29617],[-58.88244,-34.2957],[-58.88162,-34.29502],[-58.88133,-34.29353],[-58.88089,-34.29294],[-58.8797,-34.29197],[-58.87854,-34.29233],[-58.87833,-34.2915],[-58.87956,-34.29054],[-58.88112,-34.29146],[-58.88145,-34.29131],[-58.88166,-34.2909],[-58.88168,-34.28972],[-58.88238,-34.28962],[-58.883,-34.28901],[-58.88228,-34.28812],[-58.88312,-34.28687],[-58.88298,-34.28644],[-58.88244,-34.28621],[-58.88157,-34.2863],[-58.88104,-34.28732],[-58.88114,-34.28854],[-58.87945,-34.28847],[-58.87893,-34.28804],[-58.87854,-34.28699],[-58.87873,-34.28673],[-58.88034,-34.28651],[-58.8805,-34.28601],[-58.8798,-34.28558],[-58.87766,-34.2852],[-58.87697,-34.28437],[-58.87689,-34.28407],[-58.87738,-34.28366],[-58.87949,-34.2841],[-58.88092,-34.28364],[-58.88087,-34.2832],[-58.8797,-34.2815],[-58.87934,-34.28051],[-58.87863,-34.28028],[-58.87775,-34.28064],[-58.87746,-34.2804],[-58.87736,-34.27902],[-58.87915,-34.27774],[-58.87882,-34.27727],[-58.877,-34.27757],[-58.87643,-34.27729],[-58.87665,-34.27652],[-58.87796,-34.27515],[-58.87797,-34.27479],[-58.87774,-34.27452],[-58.87719,-34.27449],[-58.87627,-34.27483],[-58.87559,-34.27548],[-58.87494,-34.27562],[-58.87473,-34.27519],[-58.87579,-34.27425],[-58.87566,-34.27338],[-58.87484,-34.27351],[-58.87369,-34.27434],[-58.8726,-34.27439],[-58.87186,-34.27382],[-58.87167,-34.27297],[-58.8706,-34.27273],[-58.86835,-34.27543],[-58.8669,-34.27676],[-58.86507,-34.27748],[-58.86392,-34.27742],[-58.86354,-34.2771],[-58.86316,-34.27445],[-58.86054,-34.27372],[-58.86029,-34.27323],[-58.86036,-34.2729],[-58.86148,-34.27226],[-58.86297,-34.27073],[-58.86282,-34.26801],[-58.86432,-34.26736],[-58.86451,-34.26682],[-58.86423,-34.26614],[-58.86274,-34.26439],[-58.86188,-34.26408],[-58.86002,-34.26402],[-58.85826,-34.26208],[-58.8558,-34.26195],[-58.85492,-34.26277],[-58.85388,-34.26287],[-58.8502,-34.26421],[-58.84893,-34.26664],[-58.84665,-34.26842],[-58.84415,-34.26992],[-58.84375,-34.2697],[-58.84362,-34.26918],[-58.84329,-34.26907],[-58.84256,-34.26963],[-58.84141,-34.26932],[-58.84105,-34.26894],[-58.84098,-34.2681],[-58.84055,-34.26807],[-58.83928,-34.26921],[-58.8391,-34.27003],[-58.83875,-34.27026],[-58.83696,-34.27089],[-58.83547,-34.27189],[-58.83332,-34.27263],[-58.831,-34.27443],[-58.83014,-34.27484],[-58.82803,-34.27493],[-58.82568,-34.27385],[-58.82436,-34.27363],[-58.82321,-34.27275],[-58.82243,-34.27252],[-58.82227,-34.27287],[-58.82287,-34.27356],[-58.82261,-34.27373],[-58.8217,-34.2737],[-58.82058,-34.27464],[-58.81796,-34.27589],[-58.81636,-34.27702],[-58.81266,-34.27845],[-58.81083,-34.27971],[-58.81039,-34.28056],[-58.80825,-34.28159],[-58.80635,-34.28086],[-58.80372,-34.28105],[-58.80172,-34.27916],[-58.80038,-34.2786],[-58.80022,-34.27833],[-58.80039,-34.2771],[-58.7999,-34.2769],[-58.79863,-34.27741],[-58.79749,-34.2774],[-58.79557,-34.27845],[-58.79433,-34.27951],[-58.79325,-34.28008],[-58.79085,-34.28246],[-58.79038,-34.28266],[-58.78823,-34.28257],[-58.78576,-34.28372],[-58.78387,-34.28493],[-58.78047,-34.28606],[-58.77864,-34.28635],[-58.77782,-34.28567],[-58.77588,-34.28527],[-58.77453,-34.28112],[-58.77477,-34.27893],[-58.77594,-34.27652],[-58.77625,-34.27433],[-58.77655,-34.2738],[-58.77814,-34.27219],[-58.7794,-34.27174],[-58.78049,-34.27165],[-58.78129,-34.27102],[-58.7816,-34.26795],[-58.78214,-34.26706],[-58.7835,-34.26577],[-58.78466,-34.2639],[-58.78705,-34.2585],[-58.78785,-34.25542],[-58.7896,-34.25403],[-58.79176,-34.25323],[-58.79318,-34.25214],[-58.79359,-34.25146],[-58.79359,-34.24957],[-58.79473,-34.24754],[-58.79652,-34.24509],[-58.79793,-34.24407],[-58.79914,-34.2428],[-58.80294,-34.23711],[-58.80308,-34.23652],[-58.80285,-34.23603],[-58.79977,-34.23407],[-58.79907,-34.2318],[-58.79863,-34.23128],[-58.79815,-34.23097],[-58.79579,-34.23051],[-58.79425,-34.22895],[-58.78835,-34.23171],[-58.77894,-34.2351],[-58.77477,-34.23637],[-58.76501,-34.23811],[-58.75069,-34.24156],[-58.71521,-34.2476]]]}},{"type":"Feature","properties":{"partido":"General San Martín","cabecera":"General San Martín","sup_km2":56.4,"perim_km":34.8,"compacidad":0.59,"es_tigre":"Partido vecino","dengue_2024":156,"dengue_cat_2024":"Muy altos registros","inmat_1":65.5,"inmat_4":6.6,"inmat_cat":"Muy bajo","sincob_pct":31.5,"sincob_cat":"Bajo","ivsd":25.3},"geometry":{"type":"Polygon","coordinates":[[[-58.50989,-34.56921],[-58.52282,-34.59722],[-58.56244,-34.59132],[-58.56412,-34.5897],[-58.61845,-34.54702],[-58.61769,-34.54681],[-58.61719,-34.54592],[-58.61536,-34.545],[-58.6147,-34.54419],[-58.61283,-34.54308],[-58.61134,-34.541],[-58.61086,-34.53965],[-58.60859,-34.53604],[-58.60804,-34.53541],[-58.60621,-34.53442],[-58.60548,-34.53321],[-58.60422,-34.52563],[-58.6028,-34.52293],[-58.60145,-34.52111],[-58.60132,-34.52031],[-58.60177,-34.51792],[-58.60158,-34.51674],[-58.60301,-34.51239],[-58.60233,-34.51081],[-58.60242,-34.50866],[-58.60141,-34.50553],[-58.60108,-34.50303],[-58.59986,-34.50152],[-58.59921,-34.49967],[-58.59845,-34.49873],[-58.59857,-34.49714],[-58.59898,-34.4958],[-58.60054,-34.49421],[-58.60079,-34.49357],[-58.60088,-34.49271],[-58.60033,-34.49004],[-58.53775,-34.54417],[-58.53368,-34.53981],[-58.5298,-34.53733],[-58.5275,-34.54167],[-58.52905,-34.54239],[-58.52662,-34.54507],[-58.52462,-34.55045],[-58.51316,-34.56589],[-58.51083,-34.56802],[-58.50989,-34.56921]]]}},{"type":"Feature","properties":{"partido":"Malvinas Argentinas","cabecera":"Los Polvorines","sup_km2":63.1,"perim_km":35.4,"compacidad":0.63,"es_tigre":"Partido vecino","dengue_2024":138,"dengue_cat_2024":"Altos registros","inmat_1":57.4,"inmat_4":5.6,"inmat_cat":"Muy bajo","sincob_pct":40.5,"sincob_cat":"Medio","ivsd":42.2},"geometry":{"type":"Polygon","coordinates":[[[-58.7319,-34.45374],[-58.70558,-34.43933],[-58.67815,-34.47458],[-58.6459,-34.50194],[-58.64771,-34.50237],[-58.68546,-34.52766],[-58.68805,-34.52962],[-58.68908,-34.52962],[-58.6932,-34.52619],[-58.69415,-34.52619],[-58.70128,-34.53285],[-58.71995,-34.51926],[-58.72386,-34.51555],[-58.72932,-34.50815],[-58.74311,-34.50287],[-58.76081,-34.49509],[-58.77137,-34.48875],[-58.7774,-34.48242],[-58.78336,-34.47706],[-58.78474,-34.47614],[-58.77828,-34.47274],[-58.77859,-34.47233],[-58.77119,-34.46834],[-58.76943,-34.46573],[-58.77013,-34.46481],[-58.76473,-34.46719],[-58.76441,-34.46678],[-58.75623,-34.46237],[-58.75204,-34.46771],[-58.74427,-34.46356],[-58.74454,-34.46004],[-58.7319,-34.45374]]]}},{"type":"Feature","properties":{"partido":"San Fernando","cabecera":"San Fernando","sup_km2":952.3,"perim_km":164.7,"compacidad":0.44,"es_tigre":"Partido vecino","dengue_2024":132,"dengue_cat_2024":"Altos registros","inmat_1":68.6,"inmat_4":6.5,"inmat_cat":"Muy bajo","sincob_pct":30.9,"sincob_cat":"Bajo","ivsd":24.3},"geometry":{"type":"MultiPolygon","coordinates":[[[[-58.43701,-34.00311],[-58.4278,-34.00409],[-58.41931,-34.00378],[-58.4162,-34.00269],[-58.41382,-34.00909],[-58.4129,-34.01093],[-58.4101,-34.01208],[-58.39862,-34.01489],[-58.39581,-34.01831],[-58.39221,-34.02533],[-58.3866,-34.0321],[-58.38373,-34.03607],[-58.37903,-34.0412],[-58.37439,-34.04468],[-58.36829,-34.04779],[-58.36469,-34.05029],[-58.36218,-34.0545],[-58.36102,-34.06012],[-58.36292,-34.06293],[-58.36603,-34.0647],[-58.36462,-34.065],[-58.3642,-34.06531],[-58.36267,-34.06989],[-58.36212,-34.07349],[-58.36359,-34.0791],[-58.36157,-34.09009],[-58.36279,-34.0946],[-58.3645,-34.10358],[-58.36572,-34.11139],[-58.36621,-34.11761],[-58.3645,-34.11591],[-58.3631,-34.11688],[-58.36359,-34.12061],[-58.36542,-34.12219],[-58.36609,-34.12433],[-58.36768,-34.12561],[-58.36798,-34.13348],[-58.36871,-34.1369],[-58.36792,-34.1394],[-58.3681,-34.14178],[-58.36969,-34.1424],[-58.37109,-34.14478],[-58.37073,-34.14728],[-58.36871,-34.15192],[-58.3692,-34.15338],[-58.3717,-34.15588],[-58.37329,-34.15808],[-58.37311,-34.16119],[-58.37109,-34.17169],[-58.36639,-34.1759],[-58.36548,-34.17719],[-58.36359,-34.17853],[-58.3623,-34.18121],[-58.35999,-34.1842],[-58.35663,-34.18921],[-58.35541,-34.19031],[-58.35638,-34.1922],[-58.3595,-34.19281],[-58.36108,-34.19409],[-58.36389,-34.19287],[-58.3656,-34.19092],[-58.36603,-34.18848],[-58.36719,-34.1889],[-58.36768,-34.1911],[-58.36713,-34.19312],[-58.36798,-34.19781],[-58.3728,-34.19958],[-58.37512,-34.19928],[-58.37628,-34.19843],[-58.38,-34.20099],[-58.38232,-34.20331],[-58.38062,-34.20367],[-58.37939,-34.20258],[-58.37927,-34.2038],[-58.38263,-34.20551],[-58.38281,-34.20648],[-58.3811,-34.2063],[-58.38019,-34.20551],[-58.38,-34.20642],[-58.37817,-34.20569],[-58.37738,-34.2066],[-58.37848,-34.20813],[-58.3772,-34.20941],[-58.37878,-34.21039],[-58.3847,-34.21588],[-58.3866,-34.22021],[-58.388,-34.22101],[-58.3894,-34.2226],[-58.3974,-34.22272],[-58.40082,-34.22443],[-58.40363,-34.22522],[-58.40308,-34.22998],[-58.40057,-34.23059],[-58.3985,-34.2326],[-58.39862,-34.23468],[-58.40472,-34.2395],[-58.40448,-34.24481],[-58.40503,-34.24579],[-58.40649,-34.2467],[-58.40417,-34.2464],[-58.40369,-34.24799],[-58.40399,-34.25079],[-58.40741,-34.25537],[-58.41022,-34.25769],[-58.4118,-34.26068],[-58.41431,-34.26312],[-58.41669,-34.2644],[-58.42078,-34.2652],[-58.42621,-34.26532],[-58.42938,-34.26489],[-58.4317,-34.26562],[-58.43469,-34.2652],[-58.43549,-34.26379],[-58.43628,-34.263],[-58.43683,-34.26331],[-58.43719,-34.26642],[-58.44269,-34.26642],[-58.44598,-34.2655],[-58.45148,-34.26581],[-58.4527,-34.26331],[-58.45367,-34.26489],[-58.45361,-34.26788],[-58.4563,-34.27118],[-58.46271,-34.2738],[-58.4696,-34.27448],[-58.4754,-34.27338],[-58.48761,-34.26703],[-58.4895,-34.26727],[-58.48938,-34.26862],[-58.49139,-34.26782],[-58.49249,-34.26599],[-58.49738,-34.26569],[-58.50189,-34.26477],[-58.50659,-34.26617],[-58.5094,-34.26758],[-58.51141,-34.26819],[-58.5144,-34.271],[-58.51208,-34.27393],[-58.51019,-34.2749],[-58.50781,-34.27679],[-58.50403,-34.28052],[-58.50403,-34.2832],[-58.50317,-34.28528],[-58.5,-34.28827],[-58.50458,-34.29321],[-58.50677,-34.29419],[-58.50958,-34.29498],[-58.51009,-34.30373],[-58.52274,-34.29903],[-58.54535,-34.29963],[-58.58361,-34.2819],[-58.60579,-34.27455],[-58.61343,-34.27254],[-58.63242,-34.269],[-58.64283,-34.26743],[-58.64828,-34.26622],[-58.6734,-34.25867],[-58.69087,-34.25419],[-58.70353,-34.25041],[-58.71138,-34.24842],[-58.71185,-34.24485],[-58.71173,-34.24258],[-58.71142,-34.24126],[-58.71139,-34.23874],[-58.70956,-34.22906],[-58.70998,-34.22553],[-58.7112,-34.22041],[-58.71107,-34.21962],[-58.70926,-34.21803],[-58.70366,-34.21499],[-58.70063,-34.21245],[-58.69902,-34.21019],[-58.69623,-34.20415],[-58.69513,-34.2023],[-58.6944,-34.20048],[-58.69407,-34.1987],[-58.6938,-34.19441],[-58.69492,-34.18946],[-58.69511,-34.18733],[-58.69437,-34.18482],[-58.69429,-34.1838],[-58.69356,-34.18178],[-58.69305,-34.17603],[-58.69158,-34.17235],[-58.7063,-34.17137],[-58.71861,-34.16861],[-58.7202,-34.16851],[-58.72536,-34.16906],[-58.72969,-34.1692],[-58.73443,-34.16874],[-58.73881,-34.168],[-58.74633,-34.16575],[-58.74709,-34.16479],[-58.74733,-34.16361],[-58.74652,-34.15759],[-58.74641,-34.15549],[-58.7466,-34.15466],[-58.74714,-34.15425],[-58.75281,-34.15363],[-58.75816,-34.15198],[-58.76011,-34.15059],[-58.7626,-34.14767],[-58.76429,-34.14495],[-58.76644,-34.13847],[-58.76782,-34.13306],[-58.76845,-34.13205],[-58.76846,-34.13146],[-58.76459,-34.12829],[-58.76374,-34.12712],[-58.76428,-34.12624],[-58.76905,-34.12332],[-58.77284,-34.12009],[-58.78482,-34.10848],[-58.79181,-34.10033],[-58.79405,-34.09835],[-58.79959,-34.09417],[-58.80178,-34.09203],[-58.80378,-34.08989],[-58.80467,-34.08802],[-58.80498,-34.08626],[-58.80501,-34.08426],[-58.80462,-34.08125],[-58.80434,-34.08089],[-58.80017,-34.07965],[-58.79586,-34.07921],[-58.79354,-34.07838],[-58.76707,-34.06625],[-58.75975,-34.06322],[-58.68278,-34.02882],[-58.67566,-34.02602],[-58.67515,-34.02557],[-58.67072,-34.0285],[-58.66351,-34.0321],[-58.66047,-34.03335],[-58.65048,-34.03668],[-58.64477,-34.03763],[-58.63787,-34.0393],[-58.63049,-34.03977],[-58.61931,-34.03835],[-58.6124,-34.03787],[-58.60717,-34.03787],[-58.60336,-34.03668],[-58.59599,-34.03549],[-58.59266,-34.03383],[-58.58861,-34.03264],[-58.58385,-34.02978],[-58.57862,-34.02716],[-58.57053,-34.02597],[-58.56101,-34.02716],[-58.55316,-34.02669],[-58.54816,-34.02502],[-58.53959,-34.02169],[-58.53364,-34.0205],[-58.52002,-34.0163],[-58.51379,-34.01538],[-58.50671,-34.013],[-58.49823,-34.00861],[-58.48639,-34.005],[-58.47729,-34.00262],[-58.47119,-34.00208],[-58.45618,-34.00189],[-58.44318,-34.0022],[-58.43701,-34.00311]]],[[[-58.57792,-34.47599],[-58.57877,-34.47757],[-58.57895,-34.47741],[-58.58476,-34.48007],[-58.58621,-34.48235],[-58.6,-34.48944],[-58.59903,-34.48661],[-58.59927,-34.48557],[-58.60095,-34.4843],[-58.60277,-34.48389],[-58.60382,-34.48331],[-58.60653,-34.48068],[-58.60615,-34.4798],[-58.60461,-34.47958],[-58.60245,-34.47847],[-58.60214,-34.47694],[-58.60126,-34.4755],[-58.60112,-34.47473],[-58.59859,-34.47168],[-58.59851,-34.47132],[-58.59888,-34.4708],[-58.60018,-34.46954],[-58.60017,-34.46907],[-58.59897,-34.46664],[-58.5989,-34.46382],[-58.59675,-34.46241],[-58.59632,-34.46159],[-58.59482,-34.46029],[-58.59473,-34.45988],[-58.59538,-34.45673],[-58.59497,-34.45615],[-58.59481,-34.45495],[-58.5938,-34.45305],[-58.59375,-34.45192],[-58.59415,-34.4504],[-58.59537,-34.44837],[-58.58049,-34.44507],[-58.56556,-34.43406],[-58.56584,-34.43382],[-58.5605,-34.42967],[-58.55948,-34.42775],[-58.55884,-34.42398],[-58.55482,-34.42789],[-58.55251,-34.42924],[-58.54979,-34.43058],[-58.5473,-34.43077],[-58.54521,-34.43131],[-58.54242,-34.43276],[-58.54141,-34.43452],[-58.53999,-34.43622],[-58.53782,-34.43757],[-58.529,-34.4423],[-58.52628,-34.44341],[-58.52128,-34.44493],[-58.51848,-34.44633],[-58.51737,-34.44718],[-58.53625,-34.45698],[-58.55471,-34.46566],[-58.57489,-34.47558],[-58.57792,-34.47599]]]]}},{"type":"Feature","properties":{"partido":"San Isidro","cabecera":"San Isidro","sup_km2":52.3,"perim_km":30.7,"compacidad":0.7,"es_tigre":"Partido vecino","dengue_2024":145,"dengue_cat_2024":"Muy altos registros","inmat_1":76.6,"inmat_4":6.6,"inmat_cat":"Muy bajo","sincob_pct":19.3,"sincob_cat":"Muy bajo","ivsd":14.4},"geometry":{"type":"Polygon","coordinates":[[[-58.48033,-34.48867],[-58.48117,-34.48857],[-58.48104,-34.49041],[-58.49113,-34.49479],[-58.53127,-34.51305],[-58.5306,-34.51404],[-58.5371,-34.51855],[-58.5387,-34.51727],[-58.55376,-34.5302],[-58.60033,-34.49004],[-58.6,-34.48944],[-58.58621,-34.48235],[-58.58476,-34.48007],[-58.57895,-34.47741],[-58.57877,-34.47757],[-58.57792,-34.47599],[-58.57489,-34.47558],[-58.55471,-34.46566],[-58.53625,-34.45698],[-58.51737,-34.44718],[-58.5144,-34.44592],[-58.51099,-34.44647],[-58.50818,-34.44647],[-58.5069,-34.44769],[-58.50677,-34.45099],[-58.50458,-34.45288],[-58.50342,-34.45477],[-58.50311,-34.45691],[-58.50177,-34.4588],[-58.5,-34.46057],[-58.49347,-34.46442],[-58.49323,-34.4657],[-58.49341,-34.46619],[-58.49249,-34.46667],[-58.49323,-34.46753],[-58.49268,-34.46991],[-58.492,-34.47058],[-58.49103,-34.47101],[-58.49042,-34.47198],[-58.4873,-34.47321],[-58.48669,-34.47388],[-58.48639,-34.47467],[-58.48462,-34.4762],[-58.483,-34.47874],[-58.48219,-34.4785],[-58.48161,-34.47987],[-58.48208,-34.48033],[-58.4817,-34.48166],[-58.48101,-34.48223],[-58.48041,-34.48352],[-58.48029,-34.48486],[-58.48065,-34.48697],[-58.48033,-34.48867]]]}},{"type":"Feature","properties":{"partido":"San Miguel","cabecera":"San Miguel","sup_km2":82.8,"perim_km":44.3,"compacidad":0.53,"es_tigre":"Partido vecino","dengue_2024":144,"dengue_cat_2024":"Muy altos registros","inmat_1":61.1,"inmat_4":6.6,"inmat_cat":"Muy bajo","sincob_pct":35.7,"sincob_cat":"Medio","ivsd":34.0},"geometry":{"type":"Polygon","coordinates":[[[-58.60621,-34.53442],[-58.60804,-34.53541],[-58.60859,-34.53604],[-58.61086,-34.53965],[-58.61134,-34.541],[-58.61283,-34.54308],[-58.6147,-34.54419],[-58.61536,-34.545],[-58.61719,-34.54592],[-58.61769,-34.54681],[-58.61845,-34.54702],[-58.61889,-34.54668],[-58.61966,-34.54665],[-58.62055,-34.5458],[-58.62146,-34.54578],[-58.62262,-34.54666],[-58.62388,-34.54586],[-58.62423,-34.54595],[-58.6251,-34.54704],[-58.62714,-34.54667],[-58.62785,-34.54819],[-58.63082,-34.54974],[-58.63127,-34.5521],[-58.63221,-34.55265],[-58.63315,-34.55366],[-58.63397,-34.55399],[-58.63566,-34.55398],[-58.63721,-34.55453],[-58.63828,-34.55539],[-58.63952,-34.55593],[-58.64003,-34.5567],[-58.64034,-34.55806],[-58.64077,-34.55855],[-58.64224,-34.55916],[-58.64317,-34.55917],[-58.64361,-34.55951],[-58.64411,-34.55994],[-58.64509,-34.56219],[-58.64705,-34.56348],[-58.64749,-34.56373],[-58.64841,-34.56372],[-58.65018,-34.5645],[-58.65109,-34.5645],[-58.65252,-34.56491],[-58.6543,-34.56488],[-58.65548,-34.56615],[-58.65653,-34.56638],[-58.6585,-34.5662],[-58.6592,-34.56753],[-58.66131,-34.56801],[-58.66156,-34.56933],[-58.66404,-34.56992],[-58.66433,-34.57134],[-58.66527,-34.57185],[-58.66625,-34.57285],[-58.66774,-34.57354],[-58.66877,-34.57336],[-58.66979,-34.57271],[-58.67057,-34.57253],[-58.67116,-34.57325],[-58.67151,-34.57486],[-58.67334,-34.57563],[-58.67447,-34.5772],[-58.6747,-34.57789],[-58.67728,-34.57883],[-58.67874,-34.5799],[-58.67921,-34.58088],[-58.68116,-34.58145],[-58.68179,-34.58245],[-58.68311,-34.58351],[-58.68352,-34.58408],[-58.6835,-34.58646],[-58.68435,-34.58828],[-58.68594,-34.58883],[-58.68677,-34.58857],[-58.68932,-34.58915],[-58.6898,-34.58971],[-58.68975,-34.59044],[-58.69048,-34.59124],[-58.69247,-34.59101],[-58.69336,-34.59143],[-58.69382,-34.59214],[-58.69348,-34.59279],[-58.6936,-34.59332],[-58.69419,-34.59394],[-58.69539,-34.59449],[-58.6964,-34.59571],[-58.69918,-34.5965],[-58.69999,-34.597],[-58.70266,-34.59755],[-58.70322,-34.5979],[-58.70374,-34.5988],[-58.70565,-34.59935],[-58.70861,-34.60104],[-58.7101,-34.60146],[-58.71036,-34.60315],[-58.71145,-34.60334],[-58.71217,-34.60466],[-58.71344,-34.60552],[-58.75988,-34.57098],[-58.77682,-34.5579],[-58.76814,-34.54995],[-58.76614,-34.55142],[-58.76148,-34.54713],[-58.75635,-34.55086],[-58.7538,-34.54845],[-58.75323,-34.54885],[-58.72863,-34.52593],[-58.7288,-34.52577],[-58.72416,-34.52138],[-58.72436,-34.5212],[-58.7225,-34.51935],[-58.72097,-34.51827],[-58.71995,-34.51926],[-58.70128,-34.53285],[-58.69415,-34.52619],[-58.6932,-34.52619],[-58.68908,-34.52962],[-58.68805,-34.52962],[-58.68546,-34.52766],[-58.64771,-34.50237],[-58.6459,-34.50194],[-58.60621,-34.53442]]]}},{"type":"Feature","properties":{"partido":"Tigre","cabecera":"Tigre","sup_km2":383.2,"perim_km":99.2,"compacidad":0.49,"es_tigre":"Tigre","dengue_2024":140,"dengue_cat_2024":"Muy altos registros","inmat_1":67.1,"inmat_4":5.6,"inmat_cat":"Muy bajo","sincob_pct":31.2,"sincob_cat":"Bajo","ivsd":31.0},"geometry":{"type":"Polygon","coordinates":[[[-58.51009,-34.30373],[-58.51038,-34.30878],[-58.50372,-34.31439],[-58.49469,-34.32367],[-58.48499,-34.33459],[-58.47198,-34.36029],[-58.46448,-34.37012],[-58.45959,-34.3772],[-58.45453,-34.38611],[-58.45453,-34.38849],[-58.46021,-34.38373],[-58.46088,-34.37921],[-58.46503,-34.37488],[-58.4657,-34.37799],[-58.46381,-34.3811],[-58.46588,-34.38562],[-58.46979,-34.38458],[-58.4729,-34.3822],[-58.47589,-34.3844],[-58.48291,-34.38458],[-58.48383,-34.38898],[-58.48279,-34.39008],[-58.48511,-34.39209],[-58.48651,-34.39532],[-58.49048,-34.39789],[-58.4928,-34.40021],[-58.49213,-34.4021],[-58.4942,-34.40381],[-58.495,-34.40692],[-58.49628,-34.40759],[-58.50409,-34.40649],[-58.50537,-34.4079],[-58.50409,-34.41302],[-58.50269,-34.41663],[-58.5025,-34.4198],[-58.50537,-34.41949],[-58.50818,-34.41852],[-58.51147,-34.4187],[-58.50928,-34.42279],[-58.50989,-34.42511],[-58.50879,-34.42908],[-58.50989,-34.4317],[-58.51239,-34.43469],[-58.51361,-34.43829],[-58.5144,-34.44592],[-58.51737,-34.44718],[-58.51848,-34.44633],[-58.52128,-34.44493],[-58.52628,-34.44341],[-58.529,-34.4423],[-58.53999,-34.43622],[-58.54141,-34.43452],[-58.54242,-34.43276],[-58.54521,-34.43131],[-58.5473,-34.43077],[-58.54979,-34.43058],[-58.55482,-34.42789],[-58.55884,-34.42398],[-58.55948,-34.42775],[-58.5605,-34.42967],[-58.56584,-34.43382],[-58.56556,-34.43406],[-58.58049,-34.44507],[-58.59537,-34.44837],[-58.59415,-34.4504],[-58.59375,-34.45192],[-58.5938,-34.45305],[-58.59481,-34.45495],[-58.59497,-34.45615],[-58.59538,-34.45673],[-58.59473,-34.45988],[-58.59482,-34.46029],[-58.59632,-34.46159],[-58.59675,-34.46241],[-58.5989,-34.46382],[-58.59897,-34.46664],[-58.60017,-34.46907],[-58.60018,-34.46954],[-58.59888,-34.4708],[-58.59851,-34.47132],[-58.59859,-34.47168],[-58.60112,-34.47473],[-58.60126,-34.4755],[-58.60214,-34.47694],[-58.60245,-34.47847],[-58.60461,-34.47958],[-58.60615,-34.4798],[-58.60655,-34.48041],[-58.60632,-34.48103],[-58.60382,-34.48331],[-58.60277,-34.48389],[-58.60095,-34.4843],[-58.5991,-34.48581],[-58.59903,-34.48661],[-58.6005,-34.49036],[-58.60088,-34.49271],[-58.60054,-34.49421],[-58.59898,-34.4958],[-58.59857,-34.49714],[-58.59845,-34.49873],[-58.59921,-34.49967],[-58.59986,-34.50152],[-58.60108,-34.50303],[-58.60141,-34.50553],[-58.60242,-34.50866],[-58.60233,-34.51081],[-58.60301,-34.51239],[-58.60158,-34.51674],[-58.60177,-34.51792],[-58.60132,-34.52031],[-58.60145,-34.52111],[-58.6028,-34.52293],[-58.60422,-34.52563],[-58.60548,-34.53321],[-58.60621,-34.53442],[-58.6459,-34.50194],[-58.67815,-34.47458],[-58.73417,-34.40225],[-58.71531,-34.39218],[-58.71907,-34.39042],[-58.71625,-34.38973],[-58.71455,-34.38842],[-58.70499,-34.37298],[-58.72105,-34.36461],[-58.72042,-34.36308],[-58.71897,-34.36175],[-58.69029,-34.34705],[-58.68904,-34.34805],[-58.68605,-34.35128],[-58.68238,-34.34853],[-58.68083,-34.34703],[-58.67968,-34.34534],[-58.67835,-34.34241],[-58.66905,-34.31356],[-58.66468,-34.30112],[-58.66136,-34.29262],[-58.66114,-34.29107],[-58.65827,-34.28402],[-58.65441,-34.2724],[-58.65342,-34.27086],[-58.64828,-34.26622],[-58.64283,-34.26743],[-58.63242,-34.269],[-58.61343,-34.27254],[-58.60579,-34.27455],[-58.58361,-34.2819],[-58.54535,-34.29963],[-58.52274,-34.29903],[-58.51009,-34.30373]]]}}]}