{"type":"FeatureCollection","features":[{"type":"Feature","properties":{"nombre":"Ruta Nacional 8","jurisdiccion":"Nacional","fuente":"Dirección Nacional de Vialidad"},"geometry":{"type":"MultiLineString","coordinates":[[[-58.68027,-34.4711],[-58.681238,-34.470834]],[[-58.68127,-34.469302],[-58.682234,-34.468836],[-58.682934,-34.468558]]]}},{"type":"Feature","properties":{"nombre":"Ruta Nacional 9","jurisdiccion":"Nacional","fuente":"Dirección Nacional de Vialidad"},"geometry":{"type":"MultiLineString","coordinates":[[[-58.681362,-34.470667],[-58.68027,-34.4711],[-58.676217,-34.471833],[-58.674434,-34.472305],[-58.659505,-34.476549],[-58.646905,-34.479726],[-58.642416,-34.480719],[-58.638336,-34.481547],[-58.631634,-34.482888],[-58.62606,-34.483804],[-58.614156,-34.485508],[-58.607692,-34.486376],[-58.605066,-34.486674],[-58.601577,-34.48714],[-58.599272,-34.487308]],[[-58.734538,-34.402424],[-58.733054,-34.404471],[-58.731001,-34.407168],[-58.729029,-34.409631],[-58.725755,-34.413489],[-58.724485,-34.415196],[-58.71494,-34.427528]],[[-58.599048,-34.486754],[-58.602047,-34.486552],[-58.60398,-34.48652],[-58.606096,-34.486389],[-58.610643,-34.485834],[-58.623469,-34.484021],[-58.631329,-34.482783],[-58.6423,-34.480595],[-58.645452,-34.4799],[-58.659485,-34.476364],[-58.676354,-34.471584],[-58.678474,-34.470761],[-58.680118,-34.469957],[-58.68127,-34.469302],[-58.682216,-34.46869],[-58.682927,-34.468181],[-58.683749,-34.467508]],[[-58.714204,-34.428421],[-58.714784,-34.427438],[-58.718144,-34.423021],[-58.719077,-34.421874],[-58.724925,-34.414323],[-58.725926,-34.41308],[-58.730049,-34.408203],[-58.73235,-34.405172],[-58.734396,-34.40237]]]}},{"type":"Feature","properties":{"nombre":"Ruta Nacional A003","jurisdiccion":"Nacional","fuente":"Dirección Nacional de Vialidad"},"geometry":{"type":"MultiLineString","coordinates":[[[-58.592311,-34.431279],[-58.592245,-34.431185],[-58.59208,-34.431085],[-58.59195,-34.431036],[-58.591704,-34.431034],[-58.591445,-34.431137],[-58.591085,-34.431436],[-58.5891,-34.433871],[-58.586424,-34.437311],[-58.585274,-34.43853],[-58.583715,-34.43983],[-58.583184,-34.440337],[-58.581623,-34.442032],[-58.5796,-34.444519]],[[-58.579514,-34.444467],[-58.580861,-34.442761],[-58.583036,-34.44036],[-58.583712,-34.4395],[-58.584177,-34.438823],[-58.584462,-34.438297],[-58.584728,-34.437627],[-58.585348,-34.436648],[-58.585687,-34.436301],[-58.586352,-34.435765],[-58.587332,-34.435196],[-58.587855,-34.434821],[-58.588889,-34.43394],[-58.590759,-34.431621],[-58.591409,-34.430748],[-58.591634,-34.430306],[-58.591726,-34.429818],[-58.59164,-34.429312],[-58.591735,-34.429225]]]}},{"type":"Feature","properties":{"nombre":"Ruta Provincial 23","jurisdiccion":"Provincial","fuente":"DVP Buenos Aires"},"geometry":{"type":"MultiLineString","coordinates":[[[-58.623902,-34.490091],[-58.631765,-34.494296]],[[-58.631765,-34.494296],[-58.63482,-34.495882],[-58.645939,-34.501897]],[[-58.645881,-34.501948],[-58.635835,-34.496548],[-58.631848,-34.494386],[-58.631765,-34.494296]],[[-58.614525,-34.485286],[-58.60678,-34.481108],[-58.606365,-34.480942]],[[-58.606405,-34.480869],[-58.606794,-34.48103],[-58.613709,-34.48473],[-58.61477,-34.485251]],[[-58.623902,-34.490091],[-58.62375,-34.490052],[-58.622848,-34.489585],[-58.619422,-34.487721],[-58.617079,-34.486612],[-58.614779,-34.485418]],[[-58.615027,-34.485383],[-58.615766,-34.485833],[-58.617148,-34.486563],[-58.619373,-34.487609],[-58.622892,-34.489529],[-58.62374,-34.489948],[-58.623902,-34.490091]],[[-58.614779,-34.485418],[-58.614525,-34.485286]],[[-58.61477,-34.485251],[-58.615027,-34.485383]]]}},{"type":"Feature","properties":{"nombre":"Ruta Provincial 24","jurisdiccion":"Provincial","fuente":"DVP Buenos Aires"},"geometry":{"type":"MultiLineString","coordinates":[[[-58.631256,-34.458696],[-58.631163,-34.458645]],[[-58.662494,-34.47552],[-58.662281,-34.475395],[-58.662137,-34.475218]],[[-58.66262,-34.475485],[-58.662137,-34.475218]],[[-58.662137,-34.475218],[-58.662488,-34.47531],[-58.66275,-34.475448]],[[-58.663331,-34.475859],[-58.663659,-34.475968],[-58.66689,-34.477694],[-58.672623,-34.478418],[-58.673372,-34.478536],[-58.673603,-34.478627]],[[-58.673505,-34.47871],[-58.673161,-34.478593],[-58.666835,-34.477786],[-58.663493,-34.476026],[-58.663331,-34.475859]],[[-58.631163,-34.458645],[-58.624592,-34.455086],[-58.623916,-34.454882],[-58.617777,-34.453585],[-58.617221,-34.45339],[-58.600557,-34.445922],[-58.598191,-34.444881],[-58.597739,-34.444698],[-58.597536,-34.444671]],[[-58.597589,-34.444404],[-58.597865,-34.444611],[-58.600602,-34.445857],[-58.617465,-34.453392],[-58.618223,-34.453611],[-58.619948,-34.453996],[-58.62403,-34.454843],[-58.624669,-34.455047],[-58.62582,-34.455625],[-58.634815,-34.460512]],[[-58.583221,-34.441257],[-58.589638,-34.442464],[-58.592995,-34.443143],[-58.595124,-34.443485],[-58.595825,-34.443716],[-58.597162,-34.44434],[-58.597378,-34.44436]],[[-58.597304,-34.444603],[-58.597041,-34.444358],[-58.595794,-34.443764],[-58.595105,-34.443538],[-58.593101,-34.44323],[-58.583425,-34.441332],[-58.583221,-34.441257]],[[-58.572645,-34.438888],[-58.573169,-34.439205],[-58.573497,-34.43933],[-58.5783,-34.440219],[-58.581573,-34.440875],[-58.581675,-34.440932]],[[-58.581675,-34.440932],[-58.581479,-34.440958],[-58.579418,-34.44058],[-58.573684,-34.439487],[-58.572848,-34.43921],[-58.572645,-34.43923]],[[-58.564363,-34.432717],[-58.565392,-34.433455],[-58.567435,-34.435035],[-58.567621,-34.43527],[-58.5677,-34.43553]],[[-58.570457,-34.437457],[-58.57081,-34.437727],[-58.572577,-34.438846]],[[-58.572443,-34.438817],[-58.572262,-34.438872],[-58.57216,-34.439028]],[[-58.572506,-34.439294],[-58.572645,-34.43923]],[[-58.572645,-34.43923],[-58.572728,-34.439059],[-58.572645,-34.438888]],[[-58.572645,-34.438888],[-58.572577,-34.438846]],[[-58.572577,-34.438846],[-58.572443,-34.438817]],[[-58.597455,-34.444341],[-58.597378,-34.44436]],[[-58.597378,-34.44436],[-58.597291,-34.444456],[-58.597304,-34.444603]],[[-58.597304,-34.444603],[-58.597395,-34.44468],[-58.597536,-34.444671]],[[-58.597536,-34.444671],[-58.597627,-34.444546],[-58.597589,-34.444404]],[[-58.597589,-34.444404],[-58.597455,-34.444341]],[[-58.581675,-34.440932],[-58.58236,-34.44108]],[[-58.662137,-34.475218],[-58.661958,-34.475186],[-58.659419,-34.473831],[-58.643849,-34.465414],[-58.638253,-34.462477],[-58.634788,-34.460598]],[[-58.634909,-34.460566],[-58.655112,-34.471379],[-58.66209,-34.475146],[-58.662137,-34.475218]],[[-58.634815,-34.460512],[-58.634909,-34.460566]],[[-58.634788,-34.460598],[-58.631256,-34.458696]],[[-58.663331,-34.475859],[-58.662718,-34.475636]],[[-58.663331,-34.475859],[-58.662841,-34.475601]],[[-58.662973,-34.475563],[-58.663209,-34.475692],[-58.663331,-34.475859]],[[-58.662718,-34.475636],[-58.662494,-34.47552]],[[-58.662841,-34.475601],[-58.66262,-34.475485]],[[-58.66275,-34.475448],[-58.662973,-34.475563]],[[-58.582477,-34.441104],[-58.583221,-34.441257]],[[-58.58236,-34.44108],[-58.582477,-34.441104]]]}},{"type":"Feature","properties":{"nombre":"Ruta Provincial 26","jurisdiccion":"Provincial","fuente":"DVP Buenos Aires"},"geometry":{"type":"LineString","coordinates":[[-58.719353,-34.365714],[-58.714992,-34.360552],[-58.713808,-34.359257]]}},{"type":"Feature","properties":{"nombre":"Ruta Provincial 27","jurisdiccion":"Provincial","fuente":"DVP Buenos Aires"},"geometry":{"type":"MultiLineString","coordinates":[[[-58.664474,-34.393831],[-58.664217,-34.393557],[-58.66212,-34.39245],[-58.661941,-34.392395],[-58.661651,-34.392394]],[[-58.661748,-34.392063],[-58.662156,-34.392384],[-58.664131,-34.393427],[-58.664649,-34.393573]],[[-58.655984,-34.3996],[-58.661135,-34.392638],[-58.661312,-34.39249],[-58.66158,-34.392412]],[[-58.655856,-34.399321],[-58.656028,-34.399258],[-58.656169,-34.399127],[-58.661142,-34.392458],[-58.661257,-34.392128],[-58.66136,-34.392037]],[[-58.655624,-34.399679],[-58.655139,-34.399609],[-58.65123,-34.397579],[-58.650862,-34.397538],[-58.650452,-34.39762],[-58.649606,-34.397982]],[[-58.689335,-34.406819],[-58.691829,-34.408181],[-58.701201,-34.413135],[-58.701791,-34.413332]],[[-58.689282,-34.407015],[-58.689531,-34.407042],[-58.700706,-34.41298],[-58.701516,-34.413366],[-58.701677,-34.413521]],[[-58.680716,-34.402154],[-58.680906,-34.402373],[-58.686376,-34.405299],[-58.687265,-34.405727]],[[-58.687149,-34.405853],[-58.687004,-34.405712],[-58.680671,-34.402338]],[[-58.671032,-34.39701],[-58.671217,-34.39719],[-58.680325,-34.402031],[-58.680478,-34.402059]],[[-58.680383,-34.402224],[-58.68019,-34.402041],[-58.67127,-34.397308],[-58.670945,-34.397204]],[[-58.670687,-34.39682],[-58.670362,-34.396726],[-58.665178,-34.393978],[-58.664835,-34.393699]],[[-58.670608,-34.397068],[-58.670329,-34.3968],[-58.665143,-34.394055],[-58.664742,-34.393935]],[[-58.649408,-34.397667],[-58.650053,-34.397607],[-58.650694,-34.397464],[-58.651292,-34.39751],[-58.652226,-34.39796],[-58.655077,-34.399482],[-58.655364,-34.399532],[-58.6556,-34.3994]],[[-58.649151,-34.398128],[-58.648561,-34.398172],[-58.648182,-34.398252],[-58.639128,-34.40085],[-58.638135,-34.401229],[-58.63749,-34.401333],[-58.633902,-34.402368],[-58.632404,-34.402819],[-58.63182,-34.403153],[-58.631442,-34.403288],[-58.630172,-34.403639],[-58.629064,-34.403775],[-58.627217,-34.404317],[-58.626691,-34.404393]],[[-58.626691,-34.404393],[-58.627077,-34.404246],[-58.637368,-34.401277],[-58.638184,-34.400936],[-58.639344,-34.400708],[-58.64745,-34.398373],[-58.64823,-34.398126],[-58.64906,-34.397792]],[[-58.620862,-34.40664],[-58.624985,-34.404784],[-58.62563,-34.404589],[-58.626691,-34.404393]],[[-58.620862,-34.40664],[-58.619156,-34.407477],[-58.618887,-34.407699],[-58.618751,-34.408]],[[-58.618479,-34.407789],[-58.61863,-34.407746],[-58.619321,-34.407324],[-58.620614,-34.406711],[-58.620862,-34.40664]],[[-58.618479,-34.407789],[-58.618654,-34.40786],[-58.618751,-34.408]],[[-58.618751,-34.408],[-58.618731,-34.408171],[-58.618599,-34.408295],[-58.618412,-34.408335],[-58.618225,-34.40828]],[[-58.618148,-34.407908],[-58.618273,-34.407816],[-58.618352,-34.407792],[-58.618415,-34.407786],[-58.618479,-34.407789]],[[-58.618225,-34.40828],[-58.617958,-34.408184],[-58.617349,-34.40829],[-58.603664,-34.41457],[-58.602262,-34.415189],[-58.602115,-34.415209]],[[-58.618225,-34.40828],[-58.618109,-34.408147],[-58.618148,-34.407908]],[[-58.602115,-34.415209],[-58.617311,-34.408213],[-58.617905,-34.408077],[-58.618148,-34.407908]],[[-58.58441,-34.426639],[-58.585573,-34.426156],[-58.588423,-34.424522],[-58.590363,-34.4235],[-58.594534,-34.419632],[-58.596647,-34.417736],[-58.602115,-34.415209]],[[-58.58441,-34.426639],[-58.584228,-34.426845],[-58.584035,-34.427221]],[[-58.583794,-34.426958],[-58.58441,-34.426639]],[[-58.583607,-34.427391],[-58.583191,-34.427588]],[[-58.583191,-34.427588],[-58.583521,-34.427174]],[[-58.583191,-34.427588],[-58.582634,-34.428145],[-58.580851,-34.429036],[-58.578937,-34.429615],[-58.576921,-34.430464]],[[-58.564185,-34.432689],[-58.564363,-34.432717]],[[-58.689122,-34.406935],[-58.688964,-34.406746],[-58.688659,-34.406574],[-58.687555,-34.405986],[-58.68734,-34.405933]],[[-58.68924,-34.406774],[-58.689145,-34.406819],[-58.689122,-34.406935]],[[-58.689122,-34.406935],[-58.689178,-34.407006],[-58.68924,-34.407023],[-58.689282,-34.407015]],[[-58.689282,-34.407015],[-58.689357,-34.406941],[-58.689335,-34.406819]],[[-58.689335,-34.406819],[-58.689247,-34.406775]],[[-58.689247,-34.406775],[-58.68924,-34.406774]],[[-58.583683,-34.426987],[-58.583521,-34.427174]],[[-58.583521,-34.427174],[-58.583532,-34.427308],[-58.583607,-34.427391]],[[-58.583607,-34.427391],[-58.58385,-34.427409],[-58.583962,-34.427339],[-58.584035,-34.427221]],[[-58.584035,-34.427221],[-58.583987,-34.427023],[-58.583794,-34.426958]],[[-58.583794,-34.426958],[-58.583683,-34.426987]],[[-58.649259,-34.397695],[-58.64906,-34.397792]],[[-58.64906,-34.397792],[-58.648959,-34.397902],[-58.648944,-34.39801],[-58.649017,-34.398093],[-58.649151,-34.398128]],[[-58.649151,-34.398128],[-58.649381,-34.3981],[-58.649606,-34.397982]],[[-58.649606,-34.397982],[-58.649691,-34.39787],[-58.649677,-34.397747],[-58.649572,-34.397681],[-58.649408,-34.397667]],[[-58.649408,-34.397667],[-58.649259,-34.397695]],[[-58.655779,-34.399306],[-58.6556,-34.3994]],[[-58.6556,-34.3994],[-58.65556,-34.399525],[-58.655624,-34.399679]],[[-58.655624,-34.399679],[-58.655817,-34.399741],[-58.655984,-34.3996]],[[-58.655984,-34.3996],[-58.655984,-34.39945],[-58.655856,-34.399321]],[[-58.655856,-34.399321],[-58.655779,-34.399306]],[[-58.661559,-34.391969],[-58.66136,-34.392037]],[[-58.66136,-34.392037],[-58.661296,-34.392153],[-58.661316,-34.392281],[-58.661435,-34.39239],[-58.66158,-34.392412]],[[-58.66158,-34.392412],[-58.661651,-34.392394]],[[-58.661651,-34.392394],[-58.661789,-34.39225],[-58.661748,-34.392063]],[[-58.661748,-34.392063],[-58.661559,-34.391969]],[[-58.664654,-34.393573],[-58.664649,-34.393573]],[[-58.664649,-34.393573],[-58.664488,-34.393669],[-58.664474,-34.393831]],[[-58.664474,-34.393831],[-58.664589,-34.393946],[-58.664742,-34.393935]],[[-58.664742,-34.393935],[-58.664835,-34.393831],[-58.664835,-34.393699]],[[-58.664835,-34.393699],[-58.664778,-34.393618],[-58.664654,-34.393573]],[[-58.670886,-34.396864],[-58.670687,-34.39682]],[[-58.670687,-34.39682],[-58.670566,-34.396903],[-58.670608,-34.397068]],[[-58.670608,-34.397068],[-58.67077,-34.397185],[-58.670945,-34.397204]],[[-58.670945,-34.397204],[-58.671036,-34.39714],[-58.671032,-34.39701]],[[-58.671032,-34.39701],[-58.670886,-34.396864]],[[-58.680554,-34.402041],[-58.680478,-34.402059]],[[-58.680478,-34.402059],[-58.680383,-34.402224]],[[-58.680383,-34.402224],[-58.680495,-34.402375],[-58.680671,-34.402338]],[[-58.680671,-34.402338],[-58.680716,-34.402154]],[[-58.680716,-34.402154],[-58.68064,-34.402064],[-58.680554,-34.402041]],[[-58.687265,-34.405727],[-58.687176,-34.405768],[-58.687149,-34.405853]],[[-58.687149,-34.405853],[-58.687225,-34.405953],[-58.68734,-34.405933]],[[-58.68734,-34.405933],[-58.687375,-34.405804]],[[-58.687375,-34.405804],[-58.687265,-34.405727]],[[-58.687375,-34.405804],[-58.689247,-34.406775]]]}},{"type":"Feature","properties":{"nombre":"Ruta Provincial 9","jurisdiccion":"Provincial","fuente":"DVP Buenos Aires"},"geometry":{"type":"MultiLineString","coordinates":[[[-58.631316,-34.458621],[-58.631256,-34.458696]],[[-58.631163,-34.458645],[-58.631223,-34.45857]],[[-58.634909,-34.460566],[-58.634788,-34.460598]],[[-58.73003,-34.40841],[-58.729928,-34.408355]],[[-58.631256,-34.458696],[-58.623822,-34.468186],[-58.62377,-34.468424],[-58.623812,-34.468652],[-58.624566,-34.470126],[-58.624896,-34.470864],[-58.625116,-34.471547]],[[-58.625116,-34.471547],[-58.623696,-34.468662],[-58.623655,-34.468483],[-58.623687,-34.468208],[-58.631163,-34.458645]],[[-58.731945,-34.405927],[-58.731765,-34.406384]],[[-58.730085,-34.40844],[-58.73003,-34.40841]],[[-58.728436,-34.407957],[-58.723424,-34.408921],[-58.722134,-34.4091],[-58.72091,-34.409359],[-58.71973,-34.409681],[-58.712931,-34.41111],[-58.702277,-34.413316],[-58.701956,-34.413331]],[[-58.728436,-34.407957],[-58.724988,-34.40872],[-58.702319,-34.413397],[-58.702024,-34.413547]],[[-58.675966,-34.446482],[-58.683566,-34.436739],[-58.686123,-34.433531],[-58.686492,-34.433001],[-58.689421,-34.429251],[-58.692628,-34.425211],[-58.701221,-34.414132],[-58.701651,-34.413702],[-58.701898,-34.413622]],[[-58.675728,-34.446353],[-58.67636,-34.445831],[-58.684529,-34.435349],[-58.685172,-34.434596],[-58.685359,-34.43424],[-58.685581,-34.433452],[-58.685667,-34.43331],[-58.685852,-34.433107],[-58.686702,-34.432415],[-58.687306,-34.431191],[-58.688053,-34.43086],[-58.701166,-34.414079],[-58.701629,-34.413617],[-58.701699,-34.413468]],[[-58.634815,-34.460512],[-58.639038,-34.456915],[-58.64148,-34.453802],[-58.641921,-34.45354],[-58.642147,-34.453494],[-58.647009,-34.453589],[-58.648488,-34.453572],[-58.6586,-34.450688],[-58.674558,-34.446833],[-58.675088,-34.446666],[-58.67568,-34.44639]],[[-58.625116,-34.471547],[-58.625904,-34.473684],[-58.625929,-34.47412],[-58.624877,-34.476204],[-58.620942,-34.484365]],[[-58.701874,-34.413312],[-58.70175,-34.413358],[-58.701699,-34.413468]],[[-58.701699,-34.413468],[-58.70175,-34.413578],[-58.701898,-34.413622]],[[-58.701898,-34.413622],[-58.702024,-34.413547]],[[-58.702024,-34.413547],[-58.702045,-34.413438],[-58.701956,-34.413331]],[[-58.701956,-34.413331],[-58.701874,-34.413312]],[[-58.729046,-34.407929],[-58.729547,-34.407936],[-58.729694,-34.407878],[-58.730615,-34.407111],[-58.731787,-34.405927]],[[-58.675787,-34.446334],[-58.675728,-34.446353]],[[-58.675728,-34.446353],[-58.67568,-34.44639]],[[-58.67568,-34.44639],[-58.675653,-34.446523],[-58.675765,-34.446613]],[[-58.675765,-34.446613],[-58.67591,-34.44658],[-58.675966,-34.446482]],[[-58.675966,-34.446482],[-58.675929,-34.446379],[-58.675787,-34.446334]],[[-58.675765,-34.446613],[-58.659076,-34.450676],[-58.648422,-34.45368],[-58.642926,-34.453604],[-58.642375,-34.453675],[-58.641529,-34.454031],[-58.641269,-34.454223],[-58.639117,-34.456973],[-58.634909,-34.460566]],[[-58.634788,-34.460598],[-58.634815,-34.460512]],[[-58.729928,-34.408355],[-58.729303,-34.408017],[-58.729046,-34.407929]],[[-58.729046,-34.407929],[-58.728663,-34.407919],[-58.728436,-34.407957]],[[-58.620859,-34.484537],[-58.619373,-34.487609]],[[-58.620942,-34.484365],[-58.620859,-34.484537]]]}}]}