{"type":"FeatureCollection","features":[{"type":"Feature","properties":{"nombre":"Hospital Comunal Tigre","tipo":"Hospital Comunal","categoria":"Hospital","fuente":"IGN/SISA"},"geometry":{"type":"Point","coordinates":[-58.587422,-34.414393]}},{"type":"Feature","properties":{"nombre":"Centro de Salud Baires","tipo":"Centro de Salud","categoria":"Atención primaria","fuente":"IGN/SISA"},"geometry":{"type":"Point","coordinates":[-58.615439,-34.480906]}},{"type":"Feature","properties":{"nombre":"Centro de Salud General Pacheco","tipo":"Centro de Salud","categoria":"Atención primaria","fuente":"IGN/SISA"},"geometry":{"type":"Point","coordinates":[-58.575653,-34.42285]}},{"type":"Feature","properties":{"nombre":"Centro de Salud Las Tunas y A. del Talar","tipo":"Centro de Salud","categoria":"Atención primaria","fuente":"IGN/SISA"},"geometry":{"type":"Point","coordinates":[-58.664127,-34.439991]}},{"type":"Feature","properties":{"nombre":"Hospital Municipal Odontológico Profesor Doctor Ricardo Guardo","tipo":"Hospital Municipal Odontológico","categoria":"Hospital","fuente":"IGN/SISA"},"geometry":{"type":"Point","coordinates":[-58.638965,-34.463002]}},{"type":"Feature","properties":{"nombre":"Centro de Salud Río Capitán","tipo":"Centro de Salud","categoria":"Atención primaria","fuente":"IGN/SISA"},"geometry":{"type":"Point","coordinates":[-58.564885,-34.349569]}},{"type":"Feature","properties":{"nombre":"Centro de Salud Río Carapachay","tipo":"Centro de Salud","categoria":"Atención primaria","fuente":"IGN/SISA"},"geometry":{"type":"Point","coordinates":[-58.631936,-34.355644]}},{"type":"Feature","properties":{"nombre":"Centro de Atención Primaria de la Salud El Arco","tipo":"Centro de Atención Primaria de la Salud","categoria":"Atención primaria","fuente":"IGN/SISA"},"geometry":{"type":"Point","coordinates":[-58.716707,-34.404961]}},{"type":"Feature","properties":{"nombre":"Centro de Salud Benavídez","tipo":"Centro de Salud","categoria":"Atención primaria","fuente":"IGN/SISA"},"geometry":{"type":"Point","coordinates":[-58.693384,-34.414269]}},{"type":"Feature","properties":{"nombre":"Centro de Salud Troncos del Talar","tipo":"Centro de Salud","categoria":"Atención primaria","fuente":"IGN/SISA"},"geometry":{"type":"Point","coordinates":[-58.609063,-34.458303]}},{"type":"Feature","properties":{"nombre":"Centro de Salud Almirante Brown","tipo":"Centro de Salud","categoria":"Atención primaria","fuente":"IGN/SISA"},"geometry":{"type":"Point","coordinates":[-58.660769,-34.484035]}},{"type":"Feature","properties":{"nombre":"Centro de Prevención y Asistencia en Nutrición","tipo":"Centro de Prevención y Asistencia en Nutrición","categoria":"Centro especializado","fuente":"IGN/SISA"},"geometry":{"type":"Point","coordinates":[-58.672435,-34.447556]}},{"type":"Feature","properties":{"nombre":"Centro de Atención Primaria de la Salud Carupá","tipo":"Centro de Atención Primaria de la Salud","categoria":"Atención primaria","fuente":"IGN/SISA"},"geometry":{"type":"Point","coordinates":[-58.575188,-34.436435]}},{"type":"Feature","properties":{"nombre":"Posta Barrio Lucero de Tigre","tipo":"Posta","categoria":"Atención primaria","fuente":"IGN/SISA"},"geometry":{"type":"Point","coordinates":[-58.632604,-34.402625]}},{"type":"Feature","properties":{"nombre":"Posta Liniers","tipo":"Posta","categoria":"Atención primaria","fuente":"IGN/SISA"},"geometry":{"type":"Point","coordinates":[-58.595043,-34.43776]}},{"type":"Feature","properties":{"nombre":"Posta Prado","tipo":"Posta","categoria":"Atención primaria","fuente":"IGN/SISA"},"geometry":{"type":"Point","coordinates":[-58.702986,-34.426097]}},{"type":"Feature","properties":{"nombre":"Posta Talar","tipo":"Posta","categoria":"Atención primaria","fuente":"IGN/SISA"},"geometry":{"type":"Point","coordinates":[-58.701153,-34.435629]}},{"type":"Feature","properties":{"nombre":"Centro de Salud La Paloma","tipo":"Centro de Salud","categoria":"Atención primaria","fuente":"IGN/SISA"},"geometry":{"type":"Point","coordinates":[-58.660761,-34.463466]}},{"type":"Feature","properties":{"nombre":"Centro de Atención Familiar y de Salud Juana Manso","tipo":"Centro de Atención Familiar y de Salud","categoria":"Atención primaria","fuente":"IGN/SISA"},"geometry":{"type":"Point","coordinates":[-58.631897,-34.40339]}},{"type":"Feature","properties":{"nombre":"Centro de Salud N° 9 Dique Luján","tipo":"Centro de Salud","categoria":"Atención primaria","fuente":"IGN/SISA"},"geometry":{"type":"Point","coordinates":[-58.688172,-34.358838]}},{"type":"Feature","properties":{"nombre":"Centro de Salud General Pacheco","tipo":"Centro de Salud","categoria":"Atención primaria","fuente":"IGN/SISA"},"geometry":{"type":"Point","coordinates":[-58.635552,-34.452335]}},{"type":"Feature","properties":{"nombre":"Centro de Atención Familiar y de Salud Eva Perón","tipo":"Centro de Atención Familiar y de Salud","categoria":"Atención primaria","fuente":"IGN/SISA/Street View"},"geometry":{"type":"Point","coordinates":[-58.654371,-34.449797]}},{"type":"Feature","properties":{"nombre":"Hospital Zonal General de Agudos Magdalena Villegas de Martínez","tipo":"Hospital Zonal General de Agudos","categoria":"Hospital","fuente":"IGN/SISA"},"geometry":{"type":"Point","coordinates":[-58.638397,-34.456819]}},{"type":"Feature","properties":{"nombre":"Hospital Municipal Oftalmológico Doctor Ramón Carrillo","tipo":"Hospital Municipal Oftalmológico","categoria":"Hospital","fuente":"IGN/SISA"},"geometry":{"type":"Point","coordinates":[-58.607964,-34.448684]}},{"type":"Feature","properties":{"nombre":"Hospital Municipal Materno Infantil Doctor Florencio Escardó","tipo":"Hospital Municipal Materno Infantil","categoria":"Hospital","fuente":"IGN/SISA"},"geometry":{"type":"Point","coordinates":[-58.581982,-34.437601]}},{"type":"Feature","properties":{"nombre":"Hospital Municipal de Diagnóstico","tipo":"Hospital Municipal de Diagnóstico","categoria":"Hospital","fuente":"IGN/SISA"},"geometry":{"type":"Point","coordinates":[-58.61888,-34.485425]}},{"type":"Feature","properties":{"nombre":"Centro de Salud Don Torcuato","tipo":"Centro de Salud","categoria":"Atención primaria","fuente":"IGN/SISA"},"geometry":{"type":"Point","coordinates":[-58.626968,-34.500857]}},{"type":"Feature","properties":{"nombre":"Posta La Esperanza","tipo":"Posta","categoria":"Atención primaria","fuente":"IGN/SISA"},"geometry":{"type":"Point","coordinates":[-58.68024,-34.422262]}},{"type":"Feature","properties":{"nombre":"Centro de Atención Primaria de la Salud Belgrano","tipo":"Centro de Atención Primaria de la Salud","categoria":"Atención primaria","fuente":"IGN/SISA"},"geometry":{"type":"Point","coordinates":[-58.638058,-34.483441]}},{"type":"Feature","properties":{"nombre":"Centro de Atención Primaria de la Salud Canal Almirante Brown","tipo":"Centro de Atención Primaria de la Salud","categoria":"Atención primaria","fuente":"IGN/SISA"},"geometry":{"type":"Point","coordinates":[-58.563202,-34.431661]}},{"type":"Feature","properties":{"nombre":"Centro de Salud Rincón de Milberg","tipo":"Centro de Salud","categoria":"Atención primaria","fuente":"IGN/SISA"},"geometry":{"type":"Point","coordinates":[-58.603083,-34.414983]}},{"type":"Feature","properties":{"nombre":"Centro de Salud El Arco","tipo":"Centro de Salud","categoria":"Atención primaria","fuente":"IGN/SISA"},"geometry":{"type":"Point","coordinates":[-58.71491,-34.406261]}},{"type":"Feature","properties":{"nombre":"Centro de Atención Primaria de la Salud Troncos del Talar","tipo":"Centro de Atención Primaria de la Salud","categoria":"Atención primaria","fuente":"IGN/SISA"},"geometry":{"type":"Point","coordinates":[-58.615312,-34.459601]}},{"type":"Feature","properties":{"nombre":"Centro de Rehabilitación Frida Kahlo","tipo":"Centro de Rehabilitación","categoria":"Centro especializado","fuente":"IGN/SISA"},"geometry":{"type":"Point","coordinates":[-58.640539,-34.463814]}}]}