{"type":"FeatureCollection","features":[{"type":"Feature","properties":{"nombre":"Prefectura Naval Argentina Prefectura Tigre","tipo":"Prefectura Naval Argentina","fuente":"IGN/Prefectura Naval Argentina"},"geometry":{"type":"Point","coordinates":[-58.579531,-34.42135]}},{"type":"Feature","properties":{"nombre":"Prefectura Naval Argentina Zona Delta","tipo":"Prefectura Naval Argentina","fuente":"IGN/Prefectura Naval Argentina"},"geometry":{"type":"Point","coordinates":[-58.579914,-34.415912]}},{"type":"Feature","properties":{"nombre":"Prefectura Naval Argentina Prefectura Dique Luján","tipo":"Prefectura Naval Argentina","fuente":"IGN/Prefectura Naval Argentina"},"geometry":{"type":"Point","coordinates":[-58.686954,-34.351039]}},{"type":"Feature","properties":{"nombre":"Gendarmería Nacional Escuadrón Especial 4","tipo":"Gendarmería Nacional","fuente":"IGN/Open Street View"},"geometry":{"type":"Point","coordinates":[-58.626345,-34.465654]}},{"type":"Feature","properties":{"nombre":"Subcomisaría Ricardo Rojas","tipo":"Subcomisaría","fuente":"Street View/Datos Abiertos de Buenos Aires"},"geometry":{"type":"Point","coordinates":[-58.688768,-34.456425]}},{"type":"Feature","properties":{"nombre":"Comisaría Tigre 5ª","tipo":"Comisaría","fuente":"Street View/Datos Abiertos de Buenos Aires"},"geometry":{"type":"Point","coordinates":[-58.661295,-34.484083]}},{"type":"Feature","properties":{"nombre":"Comisaría Tigre 6ª","tipo":"Comisaría","fuente":"Street View/Datos Abiertos de Buenos Aires"},"geometry":{"type":"Point","coordinates":[-58.609954,-34.481901]}},{"type":"Feature","properties":{"nombre":"Comisaría Tigre 2ª","tipo":"Comisaría","fuente":"Street View/Datos Abiertos de Buenos Aires"},"geometry":{"type":"Point","coordinates":[-58.632677,-34.459155]}},{"type":"Feature","properties":{"nombre":"Comisaría Tigre 1ª","tipo":"Comisaría","fuente":"Street View/Datos Abiertos de Buenos Aires"},"geometry":{"type":"Point","coordinates":[-58.579826,-34.424199]}},{"type":"Feature","properties":{"nombre":"Subcomisaría Delta","tipo":"Subcomisaría","fuente":"Street View/Datos Abiertos de Buenos Aires"},"geometry":{"type":"Point","coordinates":[-58.57546,-34.422964]}},{"type":"Feature","properties":{"nombre":"Comisaría Tigre 4ª","tipo":"Comisaría","fuente":"Street View/Datos Abiertos de Buenos Aires"},"geometry":{"type":"Point","coordinates":[-58.693245,-34.411188]}},{"type":"Feature","properties":{"nombre":"Comisaría Tigre 3ª","tipo":"Comisaría","fuente":"Street View/Datos Abiertos de Buenos Aires"},"geometry":{"type":"Point","coordinates":[-58.640705,-34.499324]}},{"type":"Feature","properties":{"nombre":"Jefatura Departamental Conurbano Norte","tipo":"Jefatura","fuente":"OSM/Street View"},"geometry":{"type":"Point","coordinates":[-58.578691,-34.424283]}},{"type":"Feature","properties":{"nombre":"Dependencia de seguridad","tipo":"Otra dependencia","fuente":"OSM/Street View"},"geometry":{"type":"Point","coordinates":[-58.615662,-34.485565]}},{"type":"Feature","properties":{"nombre":"Comisaría de la Mujer y la Familia Tigre","tipo":"Comisaría de la Mujer y la Familia","fuente":"Street View/Policía Provincial"},"geometry":{"type":"Point","coordinates":[-58.639461,-34.456834]}}]}