{"type":"FeatureCollection","features":[{"type":"Feature","properties":{"nombre":"Tigre","cabecera":"Tigre","sup_km2":383.2,"perim_km":99.2},"geometry":{"type":"Polygon","coordinates":[[[-58.510086,-34.303735],[-58.510376,-34.308777],[-58.503723,-34.314392],[-58.49469,-34.323669],[-58.484985,-34.334595],[-58.4776,-34.349487],[-58.471985,-34.360291],[-58.464478,-34.370117],[-58.459595,-34.377197],[-58.454529,-34.386108],[-58.454529,-34.388489],[-58.460205,-34.383728],[-58.460876,-34.379211],[-58.465027,-34.374878],[-58.465698,-34.377991],[-58.463806,-34.381104],[-58.465881,-34.38562],[-58.469788,-34.384583],[-58.4729,-34.382202],[-58.475891,-34.384399],[-58.48291,-34.384583],[-58.483826,-34.388977],[-58.482788,-34.390076],[-58.485107,-34.39209],[-58.486511,-34.395325],[-58.490479,-34.397888],[-58.492798,-34.400208],[-58.492126,-34.4021],[-58.494202,-34.403809],[-58.494995,-34.406921],[-58.496277,-34.407593],[-58.504089,-34.406494],[-58.505371,-34.407898],[-58.504089,-34.413025],[-58.502686,-34.416626],[-58.502502,-34.4198],[-58.505371,-34.419495],[-58.508179,-34.418518],[-58.511475,-34.418701],[-58.509277,-34.422791],[-58.509888,-34.42511],[-58.508789,-34.429077],[-58.509888,-34.431702],[-58.51239,-34.434692],[-58.513611,-34.438293],[-58.514404,-34.445923],[-58.517372,-34.44718],[-58.518476,-34.44633],[-58.521279,-34.444934],[-58.523917,-34.444175],[-58.526284,-34.443406],[-58.529001,-34.442304],[-58.531527,-34.440793],[-58.537818,-34.437566],[-58.539987,-34.436218],[-58.541415,-34.434519],[-58.542415,-34.432763],[-58.54521,-34.431312],[-58.547298,-34.430767],[-58.549791,-34.430579],[-58.552514,-34.429237],[-58.554824,-34.427894],[-58.556797,-34.426039],[-58.558841,-34.423976],[-58.558929,-34.424847],[-58.559246,-34.426723],[-58.559479,-34.427746],[-58.560501,-34.429668],[-58.561752,-34.430828],[-58.565838,-34.433815],[-58.565559,-34.434055],[-58.568764,-34.436409],[-58.572659,-34.439453],[-58.580494,-34.445072],[-58.595367,-34.448372],[-58.594883,-34.449024],[-58.594688,-34.449528],[-58.594154,-34.450401],[-58.593746,-34.451923],[-58.593796,-34.453049],[-58.594814,-34.454948],[-58.594841,-34.455608],[-58.594967,-34.456146],[-58.595383,-34.456734],[-58.594975,-34.458126],[-58.594955,-34.458607],[-58.59502,-34.459114],[-58.594727,-34.459877],[-58.594822,-34.460293],[-58.595337,-34.460808],[-58.596321,-34.461586],[-58.596752,-34.46241],[-58.597504,-34.462852],[-58.598896,-34.463818],[-58.598991,-34.465576],[-58.598972,-34.466637],[-58.599224,-34.46743],[-58.599552,-34.467896],[-58.60017,-34.469067],[-58.600178,-34.469536],[-58.599964,-34.469929],[-58.598877,-34.470798],[-58.598511,-34.471317],[-58.598595,-34.471684],[-58.599888,-34.473213],[-58.600204,-34.473522],[-58.600731,-34.474159],[-58.601116,-34.474731],[-58.601265,-34.475502],[-58.601917,-34.476414],[-58.602142,-34.47694],[-58.602329,-34.478218],[-58.602451,-34.47847],[-58.602772,-34.478725],[-58.603745,-34.479244],[-58.604607,-34.47958],[-58.605537,-34.479584],[-58.606148,-34.479801],[-58.606419,-34.480095],[-58.606552,-34.480408],[-58.606525,-34.480679],[-58.606319,-34.481026],[-58.605331,-34.481918],[-58.604389,-34.482872],[-58.603817,-34.483311],[-58.602772,-34.483894],[-58.600952,-34.484299],[-58.600388,-34.484623],[-58.599571,-34.485249],[-58.599098,-34.485806],[-58.59903,-34.486607],[-58.599178,-34.487175],[-58.599457,-34.487671],[-58.599865,-34.48914],[-58.600121,-34.489704],[-58.600498,-34.490364],[-58.600883,-34.492706],[-58.600712,-34.493919],[-58.60054,-34.494213],[-58.599422,-34.495186],[-58.598976,-34.4958],[-58.598797,-34.496525],[-58.598568,-34.497143],[-58.598446,-34.498734],[-58.598888,-34.499146],[-58.599209,-34.499672],[-58.59967,-34.501194],[-58.599861,-34.501522],[-58.600281,-34.502136],[-58.601082,-34.503033],[-58.601162,-34.503315],[-58.601189,-34.504009],[-58.601337,-34.50452],[-58.601406,-34.505531],[-58.601662,-34.506435],[-58.602417,-34.508656],[-58.602516,-34.509354],[-58.602322,-34.510456],[-58.602325,-34.510807],[-58.602509,-34.511364],[-58.602699,-34.511616],[-58.603008,-34.512394],[-58.602036,-34.515495],[-58.601738,-34.516186],[-58.601578,-34.516743],[-58.601528,-34.517151],[-58.601772,-34.517918],[-58.601734,-34.518703],[-58.601562,-34.519165],[-58.601322,-34.520313],[-58.601448,-34.521111],[-58.602375,-34.522427],[-58.602798,-34.522934],[-58.603584,-34.524334],[-58.604218,-34.525627],[-58.604507,-34.526455],[-58.604576,-34.52763],[-58.604931,-34.530121],[-58.605484,-34.533207],[-58.606209,-34.53442],[-58.645901,-34.501942],[-58.678146,-34.474579],[-58.705578,-34.439331],[-58.734173,-34.402248],[-58.715305,-34.392181],[-58.717518,-34.391079],[-58.719074,-34.390423],[-58.718739,-34.390263],[-58.71796,-34.390217],[-58.717201,-34.390072],[-58.716248,-34.389729],[-58.715401,-34.389229],[-58.715031,-34.388927],[-58.71455,-34.388416],[-58.70499,-34.372982],[-58.721054,-34.364613],[-58.720425,-34.363075],[-58.719524,-34.362137],[-58.718967,-34.361752],[-58.713173,-34.358871],[-58.690292,-34.347046],[-58.689041,-34.348053],[-58.688465,-34.348667],[-58.687855,-34.349476],[-58.687279,-34.350143],[-58.686516,-34.350937],[-58.686054,-34.35128],[-58.683819,-34.349689],[-58.682381,-34.348526],[-58.681179,-34.347477],[-58.680828,-34.347031],[-58.679676,-34.345345],[-58.678623,-34.343121],[-58.678349,-34.342415],[-58.678009,-34.341328],[-58.676357,-34.336674],[-58.675232,-34.333065],[-58.674637,-34.331348],[-58.674168,-34.329426],[-58.673759,-34.328075],[-58.673054,-34.326416],[-58.672768,-34.325123],[-58.669914,-34.316689],[-58.669052,-34.313564],[-58.667248,-34.30883],[-58.666553,-34.306553],[-58.665836,-34.304802],[-58.664677,-34.301117],[-58.663986,-34.2994],[-58.662254,-34.294537],[-58.661362,-34.292618],[-58.66114,-34.291065],[-58.660522,-34.289654],[-58.659458,-34.28664],[-58.658272,-34.284016],[-58.657894,-34.282772],[-58.656578,-34.279076],[-58.655457,-34.275326],[-58.654827,-34.273457],[-58.654411,-34.2724],[-58.654003,-34.271606],[-58.653419,-34.270863],[-58.65274,-34.270302],[-58.649342,-34.267017],[-58.648285,-34.266224],[-58.642826,-34.267426],[-58.639267,-34.268005],[-58.632423,-34.269001],[-58.628727,-34.269665],[-58.624805,-34.270527],[-58.617279,-34.27182],[-58.613434,-34.272545],[-58.609417,-34.273544],[-58.605785,-34.274551],[-58.598606,-34.276958],[-58.591789,-34.279167],[-58.588318,-34.280376],[-58.583614,-34.2819],[-58.563786,-34.291004],[-58.545346,-34.29963],[-58.522741,-34.299035],[-58.510086,-34.303735]]]}}]}