{"type":"FeatureCollection","features":[{"type":"Feature","properties":{"partida":"057000501","cca":"057040000000000000000000000000000000250000","tipo":"Rural","sup_m2":299927.6},"geometry":{"type":"Polygon","coordinates":[[[-58.693655,-34.366168],[-58.697705,-34.360995],[-58.697283,-34.360325],[-58.694132,-34.358715],[-58.689812,-34.364125],[-58.693655,-34.366168]]]}},{"type":"Feature","properties":{"partida":"057004987","cca":"05704000000000000000000000000000000025100A","tipo":"Urbano","sup_m2":145146.1},"geometry":{"type":"Polygon","coordinates":[[[-58.692187,-34.366228],[-58.6893,-34.364705],[-58.686745,-34.368576],[-58.689311,-34.369944],[-58.689754,-34.369338],[-58.692187,-34.366228]]]}},{"type":"Feature","properties":{"partida":"057065036","cca":"05704000000000000000000000000000000025800K","tipo":"Rural","sup_m2":52625.8},"geometry":{"type":"Polygon","coordinates":[[[-58.700215,-34.360752],[-58.698386,-34.361601],[-58.69975,-34.363801],[-58.70156,-34.362962],[-58.700215,-34.360752]]]}},{"type":"Feature","properties":{"partida":"057000537","cca":"057040000000000000000000000000000000259000","tipo":"Rural","sup_m2":404646.7},"geometry":{"type":"Polygon","coordinates":[[[-58.697705,-34.360995],[-58.693655,-34.366168],[-58.703586,-34.371445],[-58.704047,-34.371153],[-58.697705,-34.360995]]]}},{"type":"Feature","properties":{"partida":"057065041","cca":"05704000000000000000000000000000000026500E","tipo":"Rural","sup_m2":46298.0},"geometry":{"type":"Polygon","coordinates":[[[-58.700679,-34.36125],[-58.701948,-34.363382],[-58.703655,-34.361694],[-58.701623,-34.360285],[-58.700679,-34.36125]]]}},{"type":"Feature","properties":{"partida":"057065046","cca":"05704000000000000000000000000000000026500K","tipo":"Rural","sup_m2":36086.1},"geometry":{"type":"Polygon","coordinates":[[[-58.703755,-34.361764],[-58.705761,-34.363154],[-58.706809,-34.362118],[-58.704803,-34.360727],[-58.703755,-34.361764]]]}},{"type":"Feature","properties":{"partida":"057065047","cca":"05704000000000000000000000000000000026500M","tipo":"Rural","sup_m2":36079.9},"geometry":{"type":"Polygon","coordinates":[[[-58.704714,-34.36419],[-58.705761,-34.363154],[-58.703755,-34.361764],[-58.702708,-34.3628],[-58.704714,-34.36419]]]}},{"type":"Feature","properties":{"partida":"057065048","cca":"05704000000000000000000000000000000026500N","tipo":"Rural","sup_m2":36754.5},"geometry":{"type":"Polygon","coordinates":[[[-58.702708,-34.3628],[-58.702011,-34.363488],[-58.703276,-34.365612],[-58.704714,-34.36419],[-58.702708,-34.3628]]]}},{"type":"Feature","properties":{"partida":"057065049","cca":"05704000000000000000000000000000000026500P","tipo":"Rural","sup_m2":70693.3},"geometry":{"type":"Polygon","coordinates":[[[-58.70156,-34.362962],[-58.69975,-34.363801],[-58.701786,-34.367085],[-58.703212,-34.365675],[-58.70156,-34.362962]]]}},{"type":"Feature","properties":{"partida":"057008518","cca":"057040000000000000000000000000000000272000","tipo":"Rural","sup_m2":88390.5},"geometry":{"type":"Polygon","coordinates":[[[-58.711577,-34.3619],[-58.709116,-34.360194],[-58.707021,-34.362266],[-58.709473,-34.363966],[-58.711577,-34.3619]]]}},{"type":"Feature","properties":{"partida":"057008065","cca":"057040000000000000000000000000000000273000","tipo":"Rural","sup_m2":88062.7},"geometry":{"type":"Polygon","coordinates":[[[-58.704926,-34.364338],[-58.70737,-34.366032],[-58.709473,-34.363966],[-58.707021,-34.362266],[-58.704926,-34.364338]]]}},{"type":"Feature","properties":{"partida":"057008519","cca":"057040000000000000000000000000000000274000","tipo":"Rural","sup_m2":83612.4},"geometry":{"type":"Polygon","coordinates":[[[-58.702888,-34.366354],[-58.705409,-34.367958],[-58.70737,-34.366032],[-58.704926,-34.364338],[-58.702888,-34.366354]]]}},{"type":"Feature","properties":{"partida":"057085747","cca":"05704000000000000000000000000000000027500A","tipo":"Rural","sup_m2":19120.0},"geometry":{"type":"Polygon","coordinates":[[[-58.703897,-34.366996],[-58.702888,-34.366354],[-58.701924,-34.367307],[-58.702543,-34.368306],[-58.703897,-34.366996]]]}},{"type":"Feature","properties":{"partida":"057008079","cca":"05704000000000000000000000000000000027500D","tipo":"Rural","sup_m2":506779.3},"geometry":{"type":"Polygon","coordinates":[[[-58.702543,-34.368306],[-58.704262,-34.371079],[-58.704658,-34.370948],[-58.705249,-34.370823],[-58.705854,-34.370773],[-58.706606,-34.370781],[-58.707504,-34.371045],[-58.707904,-34.371312],[-58.714551,-34.367897],[-58.710698,-34.362764],[-58.705409,-34.367958],[-58.703897,-34.366996],[-58.702543,-34.368306]]]}},{"type":"Feature","properties":{"partida":"057013664","cca":"05704000000000000000000000000000000032100B","tipo":"Rural","sup_m2":1730.7},"geometry":{"type":"Polygon","coordinates":[[[-58.70683,-34.371863],[-58.707042,-34.371754],[-58.706667,-34.371221],[-58.706366,-34.37117],[-58.70683,-34.371863]]]}},{"type":"Feature","properties":{"partida":"057010447","cca":"05704000000000000000000000000000000032100C","tipo":"Urbano","sup_m2":4178.4},"geometry":{"type":"Polygon","coordinates":[[[-58.70683,-34.371863],[-58.706366,-34.37117],[-58.706007,-34.371151],[-58.705834,-34.371157],[-58.70646,-34.372053],[-58.70683,-34.371863]]]}},{"type":"Feature","properties":{"partida":"057018611","cca":"05704000000000000000000000000000000032100D","tipo":"Urbano","sup_m2":2638.1},"geometry":{"type":"Polygon","coordinates":[[[-58.706258,-34.372157],[-58.70646,-34.372053],[-58.705834,-34.371157],[-58.705805,-34.371121],[-58.705565,-34.371139],[-58.706258,-34.372157]]]}},{"type":"Feature","properties":{"partida":"057010448","cca":"05704000000000000000000000000000000032100E","tipo":"Urbano","sup_m2":4791.7},"geometry":{"type":"Polygon","coordinates":[[[-58.705926,-34.372328],[-58.706258,-34.372157],[-58.705565,-34.371139],[-58.705323,-34.371174],[-58.705184,-34.37121],[-58.705926,-34.372328]]]}},{"type":"Feature","properties":{"partida":"057008051","cca":"05704000000000000000000000000000000032100F","tipo":"Urbano","sup_m2":10105.5},"geometry":{"type":"Polygon","coordinates":[[[-58.705926,-34.372328],[-58.705184,-34.37121],[-58.704758,-34.371337],[-58.704713,-34.371319],[-58.704483,-34.371435],[-58.705069,-34.372379],[-58.705477,-34.372558],[-58.705926,-34.372328]]]}},{"type":"Feature","properties":{"partida":"057013473","cca":"05704000000000000000000000000000000032100G","tipo":"Urbano","sup_m2":428.4},"geometry":{"type":"Polygon","coordinates":[[[-58.707041,-34.371331],[-58.707266,-34.371639],[-58.707463,-34.371536],[-58.707041,-34.371331]]]}},{"type":"Feature","properties":{"partida":"057027038","cca":"05704000000000000000000000000000000032100H","tipo":"Urbano","sup_m2":1292.2},"geometry":{"type":"Polygon","coordinates":[[[-58.707041,-34.371331],[-58.706667,-34.371221],[-58.707042,-34.371754],[-58.707266,-34.371639],[-58.707041,-34.371331]]]}},{"type":"Feature","properties":{"partida":"057000928","cca":"057040E00000000114000000100000000000015000","tipo":"Urbano","sup_m2":3715.6},"geometry":{"type":"Polygon","coordinates":[[[-58.691289,-34.362198],[-58.69143,-34.362011],[-58.690056,-34.361272],[-58.689909,-34.361459],[-58.691289,-34.362198]]]}},{"type":"Feature","properties":{"partida":"057068125","cca":"057040E00000000114000000100000000000016000","tipo":"Urbano","sup_m2":3136.8},"geometry":{"type":"Polygon","coordinates":[[[-58.689909,-34.361459],[-58.689792,-34.361615],[-58.690628,-34.362066],[-58.69116,-34.362358],[-58.691289,-34.362198],[-58.689909,-34.361459]]]}},{"type":"Feature","properties":{"partida":"057020856","cca":"057040E00000000114000000200000000000001000","tipo":"Urbano","sup_m2":519.0},"geometry":{"type":"Polygon","coordinates":[[[-58.689735,-34.361707],[-58.690173,-34.361935],[-58.690235,-34.361856],[-58.689802,-34.361621],[-58.689735,-34.361707]]]}},{"type":"Feature","properties":{"partida":"057012577","cca":"057040E00000000114000000200000000000002000","tipo":"Urbano","sup_m2":488.9},"geometry":{"type":"Polygon","coordinates":[[[-58.689676,-34.361783],[-58.690112,-34.362015],[-58.690173,-34.361935],[-58.689735,-34.361707],[-58.689676,-34.361783]]]}},{"type":"Feature","properties":{"partida":"057068127","cca":"057040E00000000114000000200000000000003000","tipo":"Urbano","sup_m2":460.5},"geometry":{"type":"Polygon","coordinates":[[[-58.690112,-34.362015],[-58.689676,-34.361783],[-58.68962,-34.361856],[-58.690054,-34.362088],[-58.690112,-34.362015]]]}},{"type":"Feature","properties":{"partida":"057012576","cca":"057040E00000000114000000200000000000004000","tipo":"Urbano","sup_m2":489.7},"geometry":{"type":"Polygon","coordinates":[[[-58.68962,-34.361856],[-58.68956,-34.361934],[-58.689994,-34.362167],[-58.690054,-34.362088],[-58.68962,-34.361856]]]}},{"type":"Feature","properties":{"partida":"057012579","cca":"057040E00000000114000000200000000000005000","tipo":"Urbano","sup_m2":476.8},"geometry":{"type":"Polygon","coordinates":[[[-58.689501,-34.36201],[-58.689936,-34.362243],[-58.689994,-34.362167],[-58.68956,-34.361934],[-58.689501,-34.36201]]]}},{"type":"Feature","properties":{"partida":"057012575","cca":"057040E00000000114000000200000000000006000","tipo":"Urbano","sup_m2":498.8},"geometry":{"type":"Polygon","coordinates":[[[-58.689501,-34.36201],[-58.68944,-34.362089],[-58.689875,-34.362323],[-58.689936,-34.362243],[-58.689501,-34.36201]]]}},{"type":"Feature","properties":{"partida":"057012574","cca":"057040E00000000114000000200000000000007000","tipo":"Urbano","sup_m2":494.0},"geometry":{"type":"Polygon","coordinates":[[[-58.68944,-34.362089],[-58.689379,-34.362168],[-58.689811,-34.3624],[-58.689875,-34.362323],[-58.68944,-34.362089]]]}},{"type":"Feature","properties":{"partida":"057012871","cca":"057040E00000000114000000200000000000008000","tipo":"Urbano","sup_m2":455.4},"geometry":{"type":"Polygon","coordinates":[[[-58.689811,-34.3624],[-58.689379,-34.362168],[-58.689323,-34.36224],[-58.689756,-34.362475],[-58.689811,-34.3624]]]}},{"type":"Feature","properties":{"partida":"057012573","cca":"057040E00000000114000000200000000000009000","tipo":"Urbano","sup_m2":485.0},"geometry":{"type":"Polygon","coordinates":[[[-58.689262,-34.362319],[-58.689694,-34.36255],[-58.689756,-34.362475],[-58.689323,-34.36224],[-58.689262,-34.362319]]]}},{"type":"Feature","properties":{"partida":"057012572","cca":"057040E00000000114000000200000000000010000","tipo":"Urbano","sup_m2":445.0},"geometry":{"type":"Polygon","coordinates":[[[-58.689694,-34.36255],[-58.689262,-34.362319],[-58.68921,-34.362387],[-58.689637,-34.362625],[-58.689694,-34.36255]]]}},{"type":"Feature","properties":{"partida":"057012870","cca":"057040E00000000114000000200000000000011000","tipo":"Urbano","sup_m2":482.4},"geometry":{"type":"Polygon","coordinates":[[[-58.68921,-34.362387],[-58.689148,-34.362467],[-58.689579,-34.3627],[-58.689637,-34.362625],[-58.68921,-34.362387]]]}},{"type":"Feature","properties":{"partida":"057012571","cca":"057040E00000000114000000200000000000012000","tipo":"Urbano","sup_m2":510.9},"geometry":{"type":"Polygon","coordinates":[[[-58.689086,-34.362548],[-58.689514,-34.362782],[-58.689579,-34.3627],[-58.689148,-34.362467],[-58.689086,-34.362548]]]}},{"type":"Feature","properties":{"partida":"057012570","cca":"057040E00000000114000000200000000000013000","tipo":"Urbano","sup_m2":462.6},"geometry":{"type":"Polygon","coordinates":[[[-58.689514,-34.362782],[-58.689086,-34.362548],[-58.689028,-34.362623],[-58.689456,-34.362856],[-58.689514,-34.362782]]]}},{"type":"Feature","properties":{"partida":"057020854","cca":"057040E00000000114000000200000000000014000","tipo":"Urbano","sup_m2":477.6},"geometry":{"type":"Polygon","coordinates":[[[-58.688968,-34.3627],[-58.689397,-34.362932],[-58.689456,-34.362856],[-58.689028,-34.362623],[-58.688968,-34.3627]]]}},{"type":"Feature","properties":{"partida":"057012569","cca":"057040E00000000114000000200000000000015000","tipo":"Urbano","sup_m2":481.6},"geometry":{"type":"Polygon","coordinates":[[[-58.688968,-34.3627],[-58.688907,-34.362779],[-58.689338,-34.363009],[-58.689397,-34.362932],[-58.688968,-34.3627]]]}},{"type":"Feature","properties":{"partida":"057068128","cca":"057040E00000000114000000200000000000016000","tipo":"Urbano","sup_m2":499.2},"geometry":{"type":"Polygon","coordinates":[[[-58.688846,-34.362859],[-58.689276,-34.36309],[-58.689338,-34.363009],[-58.688907,-34.362779],[-58.688846,-34.362859]]]}},{"type":"Feature","properties":{"partida":"057012566","cca":"057040E00000000114000000200000000000020000","tipo":"Urbano","sup_m2":702.7},"geometry":{"type":"Polygon","coordinates":[[[-58.688836,-34.363546],[-58.689216,-34.363058],[-58.689115,-34.363004],[-58.688738,-34.363494],[-58.688836,-34.363546]]]}},{"type":"Feature","properties":{"partida":"057012565","cca":"057040E00000000114000000200000000000021000","tipo":"Urbano","sup_m2":627.7},"geometry":{"type":"Polygon","coordinates":[[[-58.689304,-34.363106],[-58.689216,-34.363058],[-58.688836,-34.363546],[-58.688923,-34.363597],[-58.689304,-34.363106]]]}},{"type":"Feature","properties":{"partida":"057012564","cca":"057040E00000000114000000200000000000022000","tipo":"Urbano","sup_m2":678.8},"geometry":{"type":"Polygon","coordinates":[[[-58.689304,-34.363106],[-58.688923,-34.363597],[-58.689019,-34.363646],[-58.689401,-34.363157],[-58.689304,-34.363106]]]}},{"type":"Feature","properties":{"partida":"057012563","cca":"057040E00000000114000000200000000000023000","tipo":"Urbano","sup_m2":623.7},"geometry":{"type":"Polygon","coordinates":[[[-58.689019,-34.363646],[-58.689107,-34.363695],[-58.689487,-34.363204],[-58.689401,-34.363157],[-58.689019,-34.363646]]]}},{"type":"Feature","properties":{"partida":"057020855","cca":"057040E00000000114000000200000000000024000","tipo":"Urbano","sup_m2":627.6},"geometry":{"type":"Polygon","coordinates":[[[-58.689107,-34.363695],[-58.689194,-34.363741],[-58.689577,-34.363253],[-58.689487,-34.363204],[-58.689107,-34.363695]]]}},{"type":"Feature","properties":{"partida":"057012578","cca":"057040E00000000114000000200000000000025000","tipo":"Urbano","sup_m2":656.8},"geometry":{"type":"Polygon","coordinates":[[[-58.689194,-34.363741],[-58.689287,-34.363792],[-58.689669,-34.363302],[-58.689577,-34.363253],[-58.689194,-34.363741]]]}},{"type":"Feature","properties":{"partida":"057018578","cca":"057040E0000000011400000020000000000002600A","tipo":"Urbano","sup_m2":453.9},"geometry":{"type":"Polygon","coordinates":[[[-58.689276,-34.36309],[-58.689669,-34.363302],[-58.68973,-34.363223],[-58.689338,-34.363009],[-58.689276,-34.36309]]]}},{"type":"Feature","properties":{"partida":"057018579","cca":"057040E0000000011400000020000000000002600B","tipo":"Urbano","sup_m2":441.6},"geometry":{"type":"Polygon","coordinates":[[[-58.689338,-34.363009],[-58.68973,-34.363223],[-58.689792,-34.363145],[-58.689397,-34.362932],[-58.689338,-34.363009]]]}},{"type":"Feature","properties":{"partida":"057018580","cca":"057040E0000000011400000020000000000002600C","tipo":"Urbano","sup_m2":438.1},"geometry":{"type":"Polygon","coordinates":[[[-58.689456,-34.362856],[-58.689397,-34.362932],[-58.689792,-34.363145],[-58.689852,-34.363069],[-58.689456,-34.362856]]]}},{"type":"Feature","properties":{"partida":"057018581","cca":"057040E0000000011400000020000000000002600D","tipo":"Urbano","sup_m2":418.1},"geometry":{"type":"Polygon","coordinates":[[[-58.689906,-34.362995],[-58.689514,-34.362782],[-58.689456,-34.362856],[-58.689852,-34.363069],[-58.689906,-34.362995]]]}},{"type":"Feature","properties":{"partida":"057018582","cca":"057040E0000000011400000020000000000002600E","tipo":"Urbano","sup_m2":473.9},"geometry":{"type":"Polygon","coordinates":[[[-58.689906,-34.362995],[-58.689973,-34.362913],[-58.689579,-34.3627],[-58.689514,-34.362782],[-58.689906,-34.362995]]]}},{"type":"Feature","properties":{"partida":"057018583","cca":"057040E0000000011400000020000000000002600F","tipo":"Urbano","sup_m2":434.0},"geometry":{"type":"Polygon","coordinates":[[[-58.690033,-34.362836],[-58.689637,-34.362625],[-58.689579,-34.3627],[-58.689973,-34.362913],[-58.690033,-34.362836]]]}},{"type":"Feature","properties":{"partida":"057018584","cca":"057040E0000000011400000020000000000002600G","tipo":"Urbano","sup_m2":421.6},"geometry":{"type":"Polygon","coordinates":[[[-58.689637,-34.362625],[-58.690033,-34.362836],[-58.690089,-34.362763],[-58.689694,-34.36255],[-58.689637,-34.362625]]]}},{"type":"Feature","properties":{"partida":"057018585","cca":"057040E0000000011400000020000000000002600H","tipo":"Urbano","sup_m2":438.9},"geometry":{"type":"Polygon","coordinates":[[[-58.690089,-34.362763],[-58.690149,-34.362685],[-58.689756,-34.362475],[-58.689694,-34.36255],[-58.690089,-34.362763]]]}},{"type":"Feature","properties":{"partida":"057018586","cca":"057040E0000000011400000020000000000002600J","tipo":"Urbano","sup_m2":428.1},"geometry":{"type":"Polygon","coordinates":[[[-58.689756,-34.362475],[-58.690149,-34.362685],[-58.690208,-34.362608],[-58.689811,-34.3624],[-58.689756,-34.362475]]]}},{"type":"Feature","properties":{"partida":"057018587","cca":"057040E0000000011400000020000000000002600K","tipo":"Urbano","sup_m2":431.6},"geometry":{"type":"Polygon","coordinates":[[[-58.690208,-34.362608],[-58.690267,-34.362536],[-58.689875,-34.362323],[-58.689811,-34.3624],[-58.690208,-34.362608]]]}},{"type":"Feature","properties":{"partida":"057018588","cca":"057040E0000000011400000020000000000002600M","tipo":"Urbano","sup_m2":459.2},"geometry":{"type":"Polygon","coordinates":[[[-58.690267,-34.362536],[-58.69033,-34.362453],[-58.689936,-34.362243],[-58.689875,-34.362323],[-58.690267,-34.362536]]]}},{"type":"Feature","properties":{"partida":"057018589","cca":"057040E0000000011400000020000000000002600N","tipo":"Urbano","sup_m2":434.2},"geometry":{"type":"Polygon","coordinates":[[[-58.689936,-34.362243],[-58.69033,-34.362453],[-58.690388,-34.362375],[-58.689994,-34.362167],[-58.689936,-34.362243]]]}},{"type":"Feature","properties":{"partida":"057018590","cca":"057040E0000000011400000020000000000002600P","tipo":"Urbano","sup_m2":436.0},"geometry":{"type":"Polygon","coordinates":[[[-58.690447,-34.362301],[-58.690054,-34.362088],[-58.689994,-34.362167],[-58.690388,-34.362375],[-58.690447,-34.362301]]]}},{"type":"Feature","properties":{"partida":"057018591","cca":"057040E0000000011400000020000000000002600R","tipo":"Urbano","sup_m2":421.2},"geometry":{"type":"Polygon","coordinates":[[[-58.690054,-34.362088],[-58.690447,-34.362301],[-58.690505,-34.362227],[-58.690112,-34.362015],[-58.690054,-34.362088]]]}},{"type":"Feature","properties":{"partida":"057018592","cca":"057040E0000000011400000020000000000002600S","tipo":"Urbano","sup_m2":456.6},"geometry":{"type":"Polygon","coordinates":[[[-58.690112,-34.362015],[-58.690505,-34.362227],[-58.690567,-34.362146],[-58.690173,-34.361935],[-58.690112,-34.362015]]]}},{"type":"Feature","properties":{"partida":"057018593","cca":"057040E0000000011400000020000000000002600T","tipo":"Urbano","sup_m2":450.2},"geometry":{"type":"Polygon","coordinates":[[[-58.690567,-34.362146],[-58.690628,-34.362066],[-58.690235,-34.361856],[-58.690173,-34.361935],[-58.690567,-34.362146]]]}},{"type":"Feature","properties":{"partida":"057018566","cca":"057040E0000000011400000030000000000000100A","tipo":"Urbano","sup_m2":452.1},"geometry":{"type":"Polygon","coordinates":[[[-58.691102,-34.362434],[-58.69116,-34.362358],[-58.690764,-34.36214],[-58.6907,-34.36222],[-58.691102,-34.362434]]]}},{"type":"Feature","properties":{"partida":"057018567","cca":"057040E0000000011400000030000000000000100B","tipo":"Urbano","sup_m2":439.5},"geometry":{"type":"Polygon","coordinates":[[[-58.691043,-34.36251],[-58.691102,-34.362434],[-58.6907,-34.36222],[-58.690641,-34.362296],[-58.691043,-34.36251]]]}},{"type":"Feature","properties":{"partida":"057018568","cca":"057040E0000000011400000030000000000000100C","tipo":"Urbano","sup_m2":439.5},"geometry":{"type":"Polygon","coordinates":[[[-58.690984,-34.362586],[-58.691043,-34.36251],[-58.690641,-34.362296],[-58.690582,-34.362371],[-58.690984,-34.362586]]]}},{"type":"Feature","properties":{"partida":"057018569","cca":"057040E0000000011400000030000000000000100D","tipo":"Urbano","sup_m2":439.4},"geometry":{"type":"Polygon","coordinates":[[[-58.690925,-34.362662],[-58.690984,-34.362586],[-58.690582,-34.362371],[-58.690523,-34.362447],[-58.690925,-34.362662]]]}},{"type":"Feature","properties":{"partida":"057018570","cca":"057040E0000000011400000030000000000000100E","tipo":"Urbano","sup_m2":439.3},"geometry":{"type":"Polygon","coordinates":[[[-58.690866,-34.362737],[-58.690925,-34.362662],[-58.690523,-34.362447],[-58.690465,-34.362523],[-58.690866,-34.362737]]]}},{"type":"Feature","properties":{"partida":"057018571","cca":"057040E0000000011400000030000000000000100F","tipo":"Urbano","sup_m2":439.7},"geometry":{"type":"Polygon","coordinates":[[[-58.690808,-34.362813],[-58.690866,-34.362737],[-58.690465,-34.362523],[-58.690406,-34.362599],[-58.690808,-34.362813]]]}},{"type":"Feature","properties":{"partida":"057018572","cca":"057040E0000000011400000030000000000000100G","tipo":"Urbano","sup_m2":439.7},"geometry":{"type":"Polygon","coordinates":[[[-58.690749,-34.362889],[-58.690808,-34.362813],[-58.690406,-34.362599],[-58.690347,-34.362675],[-58.690749,-34.362889]]]}},{"type":"Feature","properties":{"partida":"057018573","cca":"057040E0000000011400000030000000000000100H","tipo":"Urbano","sup_m2":439.3},"geometry":{"type":"Polygon","coordinates":[[[-58.69069,-34.362965],[-58.690749,-34.362889],[-58.690347,-34.362675],[-58.690288,-34.36275],[-58.69069,-34.362965]]]}},{"type":"Feature","properties":{"partida":"057018574","cca":"057040E0000000011400000030000000000000100J","tipo":"Urbano","sup_m2":439.4},"geometry":{"type":"Polygon","coordinates":[[[-58.690631,-34.363041],[-58.69069,-34.362965],[-58.690288,-34.36275],[-58.690229,-34.362826],[-58.690631,-34.363041]]]}},{"type":"Feature","properties":{"partida":"057018575","cca":"057040E0000000011400000030000000000000100K","tipo":"Urbano","sup_m2":439.5},"geometry":{"type":"Polygon","coordinates":[[[-58.690572,-34.363116],[-58.690631,-34.363041],[-58.690229,-34.362826],[-58.69017,-34.362902],[-58.690572,-34.363116]]]}},{"type":"Feature","properties":{"partida":"057018576","cca":"057040E0000000011400000030000000000000100M","tipo":"Urbano","sup_m2":439.5},"geometry":{"type":"Polygon","coordinates":[[[-58.690513,-34.363192],[-58.690572,-34.363116],[-58.69017,-34.362902],[-58.690112,-34.362978],[-58.690513,-34.363192]]]}},{"type":"Feature","properties":{"partida":"057018577","cca":"057040E0000000011400000030000000000000100N","tipo":"Urbano","sup_m2":659.4},"geometry":{"type":"Polygon","coordinates":[[[-58.690112,-34.362978],[-58.690023,-34.363091],[-58.690425,-34.363306],[-58.690513,-34.363192],[-58.690112,-34.362978]]]}},{"type":"Feature","properties":{"partida":"057068129","cca":"057040E00000000114000000300000000000027000","tipo":"Urbano","sup_m2":5000.6},"geometry":{"type":"Polygon","coordinates":[[[-58.690425,-34.363306],[-58.689968,-34.363062],[-58.68938,-34.36382],[-58.689837,-34.364064],[-58.690425,-34.363306]]]}},{"type":"Feature","properties":{"partida":"057104019","cca":"057040N00000000000000000400000000000000000","tipo":"Urbano","sup_m2":54482.5},"geometry":{"type":"Polygon","coordinates":[[[-58.699618,-34.37674],[-58.700151,-34.375562],[-58.704686,-34.372854],[-58.702705,-34.371805],[-58.702406,-34.37186],[-58.701858,-34.372396],[-58.701809,-34.373258],[-58.702434,-34.373977],[-58.69986,-34.375515],[-58.699742,-34.375578],[-58.699629,-34.375622],[-58.699485,-34.375659],[-58.699311,-34.37568],[-58.69922,-34.375688],[-58.698414,-34.375699],[-58.698534,-34.375799],[-58.69864,-34.375943],[-58.698752,-34.37607],[-58.698877,-34.376182],[-58.698974,-34.37632],[-58.699086,-34.376434],[-58.699186,-34.376517],[-58.69942,-34.376671],[-58.69951,-34.376709],[-58.699618,-34.37674]]]}},{"type":"Feature","properties":{"partida":"057122404","cca":"057040N0000000000000000040000000000000100A","tipo":"Urbano","sup_m2":4109.1},"geometry":{"type":"Polygon","coordinates":[[[-58.701858,-34.372396],[-58.702406,-34.37186],[-58.702705,-34.371805],[-58.702052,-34.371391],[-58.701978,-34.371445],[-58.701903,-34.371528],[-58.701871,-34.371578],[-58.701827,-34.37173],[-58.701817,-34.371838],[-58.701829,-34.372105],[-58.701858,-34.372396]]]}},{"type":"Feature","properties":{"partida":"057133455","cca":"057040N00000000000000000400000000000002000","tipo":"Urbano","sup_m2":14270.1},"geometry":{"type":"Polygon","coordinates":[[[-58.701994,-34.37143],[-58.700502,-34.370647],[-58.700424,-34.371516],[-58.70048,-34.371514],[-58.700516,-34.371529],[-58.70054,-34.371545],[-58.70057,-34.371575],[-58.700576,-34.371615],[-58.700571,-34.371642],[-58.701576,-34.372266],[-58.701858,-34.372396],[-58.701829,-34.372105],[-58.701817,-34.371838],[-58.701827,-34.37173],[-58.701871,-34.371578],[-58.701903,-34.371528],[-58.701994,-34.37143]]]}},{"type":"Feature","properties":{"partida":"057133456","cca":"057040N00000000000000000400000000000003000","tipo":"Urbano","sup_m2":13502.4},"geometry":{"type":"Polygon","coordinates":[[[-58.700571,-34.371642],[-58.700556,-34.371686],[-58.700533,-34.371731],[-58.700463,-34.371836],[-58.700406,-34.371888],[-58.699965,-34.372172],[-58.700946,-34.373186],[-58.701566,-34.372696],[-58.701576,-34.372266],[-58.700571,-34.371642]]]}},{"type":"Feature","properties":{"partida":"057133457","cca":"057040N00000000000000000400000000000004000","tipo":"Urbano","sup_m2":11533.5},"geometry":{"type":"Polygon","coordinates":[[[-58.699965,-34.372172],[-58.699289,-34.372625],[-58.700269,-34.373639],[-58.700946,-34.373186],[-58.699965,-34.372172]]]}},{"type":"Feature","properties":{"partida":"057133458","cca":"057040N00000000000000000400000000000005000","tipo":"Urbano","sup_m2":11614.1},"geometry":{"type":"Polygon","coordinates":[[[-58.698612,-34.373079],[-58.699606,-34.374106],[-58.700269,-34.373639],[-58.699289,-34.372625],[-58.698612,-34.373079]]]}},{"type":"Feature","properties":{"partida":"057133459","cca":"057040N00000000000000000400000000000006000","tipo":"Urbano","sup_m2":11434.3},"geometry":{"type":"Polygon","coordinates":[[[-58.698886,-34.374514],[-58.699606,-34.374106],[-58.698612,-34.373079],[-58.697936,-34.373532],[-58.698886,-34.374514]]]}},{"type":"Feature","properties":{"partida":"057133460","cca":"057040N00000000000000000400000000000007000","tipo":"Urbano","sup_m2":11432.4},"geometry":{"type":"Polygon","coordinates":[[[-58.697262,-34.373984],[-58.697246,-34.374018],[-58.69726,-34.374049],[-58.697297,-34.374154],[-58.697436,-34.374322],[-58.697511,-34.374394],[-58.697645,-34.374479],[-58.697766,-34.374564],[-58.697872,-34.374683],[-58.697922,-34.374774],[-58.697967,-34.374918],[-58.698073,-34.374859],[-58.698886,-34.374514],[-58.697936,-34.373532],[-58.697262,-34.373984]]]}},{"type":"Feature","properties":{"partida":"057133461","cca":"057040N00000000000000000400000000000008000","tipo":"Urbano","sup_m2":11804.4},"geometry":{"type":"Polygon","coordinates":[[[-58.698886,-34.374514],[-58.698073,-34.374859],[-58.697967,-34.374918],[-58.698007,-34.375016],[-58.698056,-34.375107],[-58.698129,-34.375224],[-58.698239,-34.375551],[-58.699235,-34.375545],[-58.699315,-34.375536],[-58.699419,-34.375521],[-58.699602,-34.37548],[-58.699689,-34.375445],[-58.699759,-34.375409],[-58.699009,-34.374654],[-58.698886,-34.374514]]]}},{"type":"Feature","properties":{"partida":"057133462","cca":"057040N00000000000000000400000000000009000","tipo":"Urbano","sup_m2":10119.5},"geometry":{"type":"Polygon","coordinates":[[[-58.698886,-34.374514],[-58.699009,-34.374654],[-58.699759,-34.375409],[-58.700464,-34.374988],[-58.699902,-34.374419],[-58.699594,-34.374113],[-58.698886,-34.374514]]]}},{"type":"Feature","properties":{"partida":"057133463","cca":"057040N00000000000000000400000000000010000","tipo":"Urbano","sup_m2":10266.3},"geometry":{"type":"Polygon","coordinates":[[[-58.699594,-34.374113],[-58.699903,-34.374419],[-58.700464,-34.374988],[-58.701169,-34.374567],[-58.700257,-34.373648],[-58.699594,-34.374113]]]}},{"type":"Feature","properties":{"partida":"057133464","cca":"057040N00000000000000000400000000000011000","tipo":"Urbano","sup_m2":10774.8},"geometry":{"type":"Polygon","coordinates":[[[-58.700257,-34.373648],[-58.701169,-34.374567],[-58.701878,-34.374143],[-58.700935,-34.373193],[-58.700257,-34.373648]]]}},{"type":"Feature","properties":{"partida":"057133465","cca":"057040N00000000000000000400000000000012000","tipo":"Urbano","sup_m2":10281.8},"geometry":{"type":"Polygon","coordinates":[[[-58.700935,-34.373193],[-58.701878,-34.374143],[-58.702215,-34.37394],[-58.702205,-34.373923],[-58.702201,-34.373903],[-58.702206,-34.373881],[-58.702221,-34.373861],[-58.702251,-34.373845],[-58.702283,-34.373841],[-58.702307,-34.373846],[-58.702338,-34.373867],[-58.701809,-34.373258],[-58.701858,-34.372396],[-58.701576,-34.372266],[-58.701566,-34.372696],[-58.700935,-34.373193]]]}},{"type":"Feature","properties":{"partida":"057128379","cca":"057040N00000000000000000500000000000002000","tipo":"Urbano","sup_m2":142181.4},"geometry":{"type":"Polygon","coordinates":[[[-58.700502,-34.370647],[-58.697463,-34.369038],[-58.695335,-34.371663],[-58.695367,-34.37172],[-58.695414,-34.371772],[-58.6955,-34.371829],[-58.695582,-34.371895],[-58.695723,-34.371994],[-58.695829,-34.372086],[-58.695962,-34.372222],[-58.696062,-34.372369],[-58.696125,-34.372489],[-58.696212,-34.3726],[-58.696273,-34.372713],[-58.696305,-34.372779],[-58.696338,-34.372866],[-58.696411,-34.373089],[-58.696928,-34.37371],[-58.697028,-34.373818],[-58.697127,-34.373898],[-58.700249,-34.371808],[-58.700287,-34.371786],[-58.70032,-34.371758],[-58.700361,-34.371714],[-58.70039,-34.371675],[-58.700409,-34.371645],[-58.700419,-34.371621],[-58.700424,-34.371516],[-58.700502,-34.370647]]]}},{"type":"Feature","properties":{"partida":"057128380","cca":"057040N00000000000000000500000000000003000","tipo":"Urbano","sup_m2":103695.0},"geometry":{"type":"Polygon","coordinates":[[[-58.697463,-34.369038],[-58.694164,-34.367286],[-58.692387,-34.369601],[-58.693269,-34.369841],[-58.693532,-34.369933],[-58.693824,-34.370057],[-58.694196,-34.370253],[-58.694691,-34.370573],[-58.694854,-34.370692],[-58.694971,-34.370794],[-58.69504,-34.370874],[-58.695132,-34.371007],[-58.69523,-34.371244],[-58.695286,-34.371488],[-58.695307,-34.371598],[-58.695335,-34.371663],[-58.697463,-34.369038]]]}},{"type":"Feature","properties":{"partida":"057128381","cca":"057040N00000000000000000500000000000004000","tipo":"Urbano","sup_m2":77846.5},"geometry":{"type":"Polygon","coordinates":[[[-58.694164,-34.367286],[-58.692187,-34.366228],[-58.689754,-34.369338],[-58.690124,-34.369568],[-58.69033,-34.369509],[-58.690705,-34.369429],[-58.691093,-34.369403],[-58.691494,-34.369411],[-58.691866,-34.369466],[-58.692387,-34.369601],[-58.694164,-34.367286]]]}},{"type":"Feature","properties":{"partida":"057000446","cca":"057040N00000000000000000700000000000000000","tipo":"Urbano","sup_m2":548266.5},"geometry":{"type":"Polygon","coordinates":[[[-58.686372,-34.373858],[-58.693462,-34.377583],[-58.693638,-34.377405],[-58.693804,-34.377315],[-58.693983,-34.377242],[-58.694189,-34.377205],[-58.694284,-34.377193],[-58.694417,-34.377155],[-58.694583,-34.37709],[-58.694814,-34.37702],[-58.695149,-34.376936],[-58.695496,-34.376846],[-58.695713,-34.376733],[-58.695982,-34.376612],[-58.696207,-34.376485],[-58.696481,-34.376298],[-58.69664,-34.376165],[-58.696801,-34.376012],[-58.697005,-34.375842],[-58.697185,-34.37573],[-58.697374,-34.37563],[-58.69761,-34.375528],[-58.697699,-34.375469],[-58.697767,-34.375368],[-58.697814,-34.375272],[-58.697828,-34.375158],[-58.697811,-34.375062],[-58.697735,-34.374949],[-58.697621,-34.374844],[-58.69745,-34.374731],[-58.697285,-34.374576],[-58.697223,-34.374417],[-58.69717,-34.374325],[-58.69713,-34.374225],[-58.697028,-34.374102],[-58.696912,-34.37397],[-58.696223,-34.373299],[-58.696173,-34.373218],[-58.696127,-34.373099],[-58.696103,-34.373014],[-58.696038,-34.372841],[-58.695958,-34.372678],[-58.695871,-34.372528],[-58.695723,-34.372346],[-58.695526,-34.372181],[-58.695214,-34.371966],[-58.695123,-34.371853],[-58.69507,-34.37171],[-58.694998,-34.371479],[-58.694988,-34.371367],[-58.69494,-34.371228],[-58.694846,-34.371067],[-58.69469,-34.370916],[-58.694475,-34.370748],[-58.694234,-34.370583],[-58.693934,-34.370423],[-58.693638,-34.370275],[-58.69337,-34.370167],[-58.693078,-34.370056],[-58.692145,-34.369759],[-58.691896,-34.369687],[-58.691619,-34.369638],[-58.691383,-34.369605],[-58.691051,-34.369601],[-58.690636,-34.369636],[-58.690389,-34.369709],[-58.690184,-34.369766],[-58.689734,-34.369954],[-58.689459,-34.370116],[-58.689256,-34.370285],[-58.689012,-34.370501],[-58.688834,-34.370723],[-58.687829,-34.372],[-58.686372,-34.373858]]]}},{"type":"Feature","properties":{"partida":"057133766","cca":"057040N00000000000000001500000000000001000","tipo":"Urbano","sup_m2":3632.2},"geometry":{"type":"Polygon","coordinates":[[[-58.693762,-34.37828],[-58.693259,-34.378009],[-58.693201,-34.378009],[-58.69286,-34.378197],[-58.693305,-34.378753],[-58.693458,-34.378669],[-58.693762,-34.37828]]]}},{"type":"Feature","properties":{"partida":"057133767","cca":"057040N00000000000000001500000000000003000","tipo":"Urbano","sup_m2":14390.6},"geometry":{"type":"Polygon","coordinates":[[[-58.691546,-34.379724],[-58.693305,-34.378753],[-58.69286,-34.378197],[-58.691128,-34.379153],[-58.691118,-34.37919],[-58.691546,-34.379724]]]}},{"type":"Feature","properties":{"partida":"057145484","cca":"057040N00000000000000001500000000000022000","tipo":"Urbano","sup_m2":306.8},"geometry":{"type":"Polygon","coordinates":[[[-58.691878,-34.379541],[-58.691768,-34.379601],[-58.69192,-34.379791],[-58.69203,-34.379731],[-58.691878,-34.379541]]]}},{"type":"Feature","properties":{"partida":"057145485","cca":"057040N00000000000000001500000000000023000","tipo":"Urbano","sup_m2":306.6},"geometry":{"type":"Polygon","coordinates":[[[-58.691987,-34.37948],[-58.691878,-34.379541],[-58.69203,-34.379731],[-58.69214,-34.37967],[-58.691987,-34.37948]]]}},{"type":"Feature","properties":{"partida":"057145486","cca":"057040N00000000000000001500000000000024000","tipo":"Urbano","sup_m2":306.5},"geometry":{"type":"Polygon","coordinates":[[[-58.692097,-34.37942],[-58.691987,-34.37948],[-58.69214,-34.37967],[-58.692249,-34.379609],[-58.692097,-34.37942]]]}},{"type":"Feature","properties":{"partida":"057145487","cca":"057040N00000000000000001500000000000025000","tipo":"Urbano","sup_m2":306.7},"geometry":{"type":"Polygon","coordinates":[[[-58.692207,-34.379359],[-58.692097,-34.37942],[-58.692249,-34.379609],[-58.692359,-34.379549],[-58.692207,-34.379359]]]}},{"type":"Feature","properties":{"partida":"057145488","cca":"057040N00000000000000001500000000000026000","tipo":"Urbano","sup_m2":306.6},"geometry":{"type":"Polygon","coordinates":[[[-58.692317,-34.379299],[-58.692207,-34.379359],[-58.692359,-34.379549],[-58.692469,-34.379488],[-58.692317,-34.379299]]]}},{"type":"Feature","properties":{"partida":"057145489","cca":"057040N00000000000000001500000000000027000","tipo":"Urbano","sup_m2":306.6},"geometry":{"type":"Polygon","coordinates":[[[-58.692426,-34.379238],[-58.692317,-34.379299],[-58.692469,-34.379488],[-58.692579,-34.379428],[-58.692426,-34.379238]]]}},{"type":"Feature","properties":{"partida":"057145490","cca":"057040N00000000000000001500000000000028000","tipo":"Urbano","sup_m2":306.7},"geometry":{"type":"Polygon","coordinates":[[[-58.692536,-34.379177],[-58.692426,-34.379238],[-58.692579,-34.379428],[-58.692689,-34.379367],[-58.692536,-34.379177]]]}},{"type":"Feature","properties":{"partida":"057145491","cca":"057040N00000000000000001500000000000029000","tipo":"Urbano","sup_m2":306.6},"geometry":{"type":"Polygon","coordinates":[[[-58.692646,-34.379117],[-58.692536,-34.379177],[-58.692689,-34.379367],[-58.692798,-34.379306],[-58.692646,-34.379117]]]}},{"type":"Feature","properties":{"partida":"057145492","cca":"057040N00000000000000001500000000000030000","tipo":"Urbano","sup_m2":306.5},"geometry":{"type":"Polygon","coordinates":[[[-58.692756,-34.379056],[-58.692646,-34.379117],[-58.692798,-34.379306],[-58.692908,-34.379246],[-58.692756,-34.379056]]]}},{"type":"Feature","properties":{"partida":"057145493","cca":"057040N00000000000000001500000000000031000","tipo":"Urbano","sup_m2":306.8},"geometry":{"type":"Polygon","coordinates":[[[-58.692866,-34.378996],[-58.692756,-34.379056],[-58.692908,-34.379246],[-58.693018,-34.379185],[-58.692866,-34.378996]]]}},{"type":"Feature","properties":{"partida":"057145494","cca":"057040N00000000000000001500000000000032000","tipo":"Urbano","sup_m2":306.6},"geometry":{"type":"Polygon","coordinates":[[[-58.692975,-34.378935],[-58.692866,-34.378996],[-58.693018,-34.379185],[-58.693128,-34.379125],[-58.692975,-34.378935]]]}},{"type":"Feature","properties":{"partida":"057145495","cca":"057040N00000000000000001500000000000033000","tipo":"Urbano","sup_m2":306.5},"geometry":{"type":"Polygon","coordinates":[[[-58.693085,-34.378874],[-58.692975,-34.378935],[-58.693128,-34.379125],[-58.693237,-34.379064],[-58.693085,-34.378874]]]}},{"type":"Feature","properties":{"partida":"057145496","cca":"057040N00000000000000001500000000000034000","tipo":"Urbano","sup_m2":306.8},"geometry":{"type":"Polygon","coordinates":[[[-58.693195,-34.378814],[-58.693085,-34.378874],[-58.693237,-34.379064],[-58.693347,-34.379003],[-58.693195,-34.378814]]]}},{"type":"Feature","properties":{"partida":"057145497","cca":"057040N00000000000000001500000000000035000","tipo":"Urbano","sup_m2":307.3},"geometry":{"type":"Polygon","coordinates":[[[-58.693305,-34.378753],[-58.693195,-34.378814],[-58.693347,-34.379003],[-58.693457,-34.378943],[-58.693305,-34.378753]]]}},{"type":"Feature","properties":{"partida":"057145498","cca":"057040N00000000000000001500000000000036000","tipo":"Urbano","sup_m2":305.9},"geometry":{"type":"Polygon","coordinates":[[[-58.693414,-34.378693],[-58.693305,-34.378753],[-58.693457,-34.378943],[-58.693567,-34.378882],[-58.693414,-34.378693]]]}},{"type":"Feature","properties":{"partida":"057145499","cca":"057040N00000000000000001500000000000037000","tipo":"Urbano","sup_m2":320.1},"geometry":{"type":"Polygon","coordinates":[[[-58.693474,-34.378649],[-58.693458,-34.378669],[-58.693414,-34.378693],[-58.693567,-34.378882],[-58.693658,-34.378832],[-58.693704,-34.378773],[-58.693474,-34.378649]]]}},{"type":"Feature","properties":{"partida":"057145500","cca":"057040N00000000000000001500000000000038000","tipo":"Urbano","sup_m2":305.0},"geometry":{"type":"Polygon","coordinates":[[[-58.693545,-34.378557],[-58.693474,-34.378649],[-58.693704,-34.378773],[-58.693775,-34.378682],[-58.693545,-34.378557]]]}},{"type":"Feature","properties":{"partida":"057145501","cca":"057040N00000000000000001500000000000039000","tipo":"Urbano","sup_m2":307.8},"geometry":{"type":"Polygon","coordinates":[[[-58.693617,-34.378465],[-58.693545,-34.378557],[-58.693775,-34.378682],[-58.693848,-34.37859],[-58.693617,-34.378465]]]}},{"type":"Feature","properties":{"partida":"057145502","cca":"057040N00000000000000001500000000000040000","tipo":"Urbano","sup_m2":307.1},"geometry":{"type":"Polygon","coordinates":[[[-58.693689,-34.378374],[-58.693617,-34.378465],[-58.693848,-34.37859],[-58.69392,-34.378498],[-58.693689,-34.378374]]]}},{"type":"Feature","properties":{"partida":"057145503","cca":"057040N00000000000000001500000000000041000","tipo":"Urbano","sup_m2":307.1},"geometry":{"type":"Polygon","coordinates":[[[-58.693762,-34.37828],[-58.693689,-34.378374],[-58.69392,-34.378498],[-58.693975,-34.378428],[-58.693965,-34.37839],[-58.693762,-34.37828]]]}},{"type":"Feature","properties":{"partida":"057145530","cca":"057040N00000000000000001700000000000001000","tipo":"Urbano","sup_m2":306.8},"geometry":{"type":"Polygon","coordinates":[[[-58.694094,-34.378731],[-58.694243,-34.37854],[-58.694159,-34.378494],[-58.694113,-34.378502],[-58.693981,-34.37867],[-58.694094,-34.378731]]]}},{"type":"Feature","properties":{"partida":"057145531","cca":"057040N00000000000000001700000000000002000","tipo":"Urbano","sup_m2":307.8},"geometry":{"type":"Polygon","coordinates":[[[-58.694094,-34.378731],[-58.693981,-34.37867],[-58.693848,-34.37884],[-58.693859,-34.378876],[-58.693944,-34.378922],[-58.694094,-34.378731]]]}},{"type":"Feature","properties":{"partida":"057145532","cca":"057040N00000000000000001700000000000003000","tipo":"Urbano","sup_m2":306.9},"geometry":{"type":"Polygon","coordinates":[[[-58.694094,-34.378731],[-58.693944,-34.378922],[-58.694055,-34.378981],[-58.694205,-34.37879],[-58.694094,-34.378731]]]}},{"type":"Feature","properties":{"partida":"057145533","cca":"057040N00000000000000001700000000000004000","tipo":"Urbano","sup_m2":305.4},"geometry":{"type":"Polygon","coordinates":[[[-58.694314,-34.37885],[-58.694205,-34.37879],[-58.694055,-34.378981],[-58.694165,-34.379041],[-58.694314,-34.37885]]]}},{"type":"Feature","properties":{"partida":"057145534","cca":"057040N00000000000000001700000000000005000","tipo":"Urbano","sup_m2":306.2},"geometry":{"type":"Polygon","coordinates":[[[-58.694314,-34.37885],[-58.694165,-34.379041],[-58.694276,-34.3791],[-58.694425,-34.378909],[-58.694314,-34.37885]]]}},{"type":"Feature","properties":{"partida":"057145535","cca":"057040N00000000000000001700000000000006000","tipo":"Urbano","sup_m2":308.7},"geometry":{"type":"Polygon","coordinates":[[[-58.694425,-34.378909],[-58.694276,-34.3791],[-58.694387,-34.37916],[-58.694537,-34.378969],[-58.694425,-34.378909]]]}},{"type":"Feature","properties":{"partida":"057145536","cca":"057040N00000000000000001700000000000007000","tipo":"Urbano","sup_m2":307.5},"geometry":{"type":"Polygon","coordinates":[[[-58.694537,-34.378969],[-58.694387,-34.37916],[-58.694497,-34.37922],[-58.694648,-34.379029],[-58.694537,-34.378969]]]}},{"type":"Feature","properties":{"partida":"057145537","cca":"057040N00000000000000001700000000000008000","tipo":"Urbano","sup_m2":304.3},"geometry":{"type":"Polygon","coordinates":[[[-58.694648,-34.379029],[-58.694497,-34.37922],[-58.694608,-34.379279],[-58.694757,-34.379088],[-58.694648,-34.379029]]]}},{"type":"Feature","properties":{"partida":"057145538","cca":"057040N00000000000000001700000000000009000","tipo":"Urbano","sup_m2":308.4},"geometry":{"type":"Polygon","coordinates":[[[-58.694757,-34.379088],[-58.694608,-34.379279],[-58.694719,-34.379339],[-58.694868,-34.379148],[-58.694757,-34.379088]]]}},{"type":"Feature","properties":{"partida":"057145539","cca":"057040N00000000000000001700000000000010000","tipo":"Urbano","sup_m2":305.5},"geometry":{"type":"Polygon","coordinates":[[[-58.694868,-34.379148],[-58.694719,-34.379339],[-58.694829,-34.379399],[-58.694978,-34.379207],[-58.694868,-34.379148]]]}},{"type":"Feature","properties":{"partida":"057145540","cca":"057040N00000000000000001700000000000011000","tipo":"Urbano","sup_m2":306.6},"geometry":{"type":"Polygon","coordinates":[[[-58.694978,-34.379207],[-58.694829,-34.379399],[-58.694913,-34.379444],[-58.694959,-34.379436],[-58.695091,-34.379268],[-58.694978,-34.379207]]]}},{"type":"Feature","properties":{"partida":"057145541","cca":"057040N00000000000000001700000000000012000","tipo":"Urbano","sup_m2":307.9},"geometry":{"type":"Polygon","coordinates":[[[-58.695128,-34.379016],[-58.694978,-34.379207],[-58.695091,-34.379268],[-58.695223,-34.3791],[-58.695213,-34.379062],[-58.695128,-34.379016]]]}},{"type":"Feature","properties":{"partida":"057145542","cca":"057040N00000000000000001700000000000013000","tipo":"Urbano","sup_m2":307.3},"geometry":{"type":"Polygon","coordinates":[[[-58.695016,-34.378956],[-58.694868,-34.379148],[-58.694978,-34.379207],[-58.695128,-34.379016],[-58.695016,-34.378956]]]}},{"type":"Feature","properties":{"partida":"057145543","cca":"057040N00000000000000001700000000000014000","tipo":"Urbano","sup_m2":306.7},"geometry":{"type":"Polygon","coordinates":[[[-58.694906,-34.378897],[-58.694757,-34.379088],[-58.694868,-34.379148],[-58.695016,-34.378956],[-58.694906,-34.378897]]]}},{"type":"Feature","properties":{"partida":"057145544","cca":"057040N00000000000000001700000000000015000","tipo":"Urbano","sup_m2":303.8},"geometry":{"type":"Polygon","coordinates":[[[-58.694796,-34.378837],[-58.694648,-34.379029],[-58.694757,-34.379088],[-58.694906,-34.378897],[-58.694796,-34.378837]]]}},{"type":"Feature","properties":{"partida":"057145545","cca":"057040N00000000000000001700000000000016000","tipo":"Urbano","sup_m2":306.9},"geometry":{"type":"Polygon","coordinates":[[[-58.694686,-34.378778],[-58.694537,-34.378969],[-58.694648,-34.379029],[-58.694796,-34.378837],[-58.694686,-34.378778]]]}},{"type":"Feature","properties":{"partida":"057145546","cca":"057040N00000000000000001700000000000017000","tipo":"Urbano","sup_m2":310.6},"geometry":{"type":"Polygon","coordinates":[[[-58.694574,-34.378718],[-58.694425,-34.378909],[-58.694537,-34.378969],[-58.694686,-34.378778],[-58.694574,-34.378718]]]}},{"type":"Feature","properties":{"partida":"057145547","cca":"057040N00000000000000001700000000000018000","tipo":"Urbano","sup_m2":304.5},"geometry":{"type":"Polygon","coordinates":[[[-58.694425,-34.378909],[-58.694574,-34.378718],[-58.694465,-34.378659],[-58.694314,-34.37885],[-58.694425,-34.378909]]]}},{"type":"Feature","properties":{"partida":"057145548","cca":"057040N00000000000000001700000000000019000","tipo":"Urbano","sup_m2":306.5},"geometry":{"type":"Polygon","coordinates":[[[-58.694353,-34.378599],[-58.694205,-34.37879],[-58.694314,-34.37885],[-58.694465,-34.378659],[-58.694353,-34.378599]]]}},{"type":"Feature","properties":{"partida":"057145549","cca":"057040N00000000000000001700000000000020000","tipo":"Urbano","sup_m2":306.4},"geometry":{"type":"Polygon","coordinates":[[[-58.694243,-34.37854],[-58.694094,-34.378731],[-58.694205,-34.37879],[-58.694353,-34.378599],[-58.694243,-34.37854]]]}},{"type":"Feature","properties":{"partida":"057145551","cca":"057040N00000000000000001800000000000002000","tipo":"Urbano","sup_m2":307.7},"geometry":{"type":"Polygon","coordinates":[[[-58.693549,-34.379056],[-58.693439,-34.379117],[-58.693591,-34.379307],[-58.693701,-34.379246],[-58.693549,-34.379056]]]}},{"type":"Feature","properties":{"partida":"057145552","cca":"057040N00000000000000001800000000000003000","tipo":"Urbano","sup_m2":306.6},"geometry":{"type":"Polygon","coordinates":[[[-58.693439,-34.379117],[-58.693329,-34.379178],[-58.693482,-34.379367],[-58.693591,-34.379307],[-58.693439,-34.379117]]]}},{"type":"Feature","properties":{"partida":"057145553","cca":"057040N00000000000000001800000000000004000","tipo":"Urbano","sup_m2":304.7},"geometry":{"type":"Polygon","coordinates":[[[-58.693329,-34.379178],[-58.693219,-34.379238],[-58.693373,-34.379427],[-58.693482,-34.379367],[-58.693329,-34.379178]]]}},{"type":"Feature","properties":{"partida":"057145554","cca":"057040N00000000000000001800000000000005000","tipo":"Urbano","sup_m2":310.5},"geometry":{"type":"Polygon","coordinates":[[[-58.693219,-34.379238],[-58.693108,-34.3793],[-58.693261,-34.379489],[-58.693373,-34.379427],[-58.693219,-34.379238]]]}},{"type":"Feature","properties":{"partida":"057145555","cca":"057040N00000000000000001800000000000006000","tipo":"Urbano","sup_m2":308.6},"geometry":{"type":"Polygon","coordinates":[[[-58.693108,-34.3793],[-58.692997,-34.379361],[-58.693151,-34.37955],[-58.693261,-34.379489],[-58.693108,-34.3793]]]}},{"type":"Feature","properties":{"partida":"057145556","cca":"057040N00000000000000001800000000000007000","tipo":"Urbano","sup_m2":302.3},"geometry":{"type":"Polygon","coordinates":[[[-58.692997,-34.379361],[-58.69289,-34.37942],[-58.693042,-34.37961],[-58.693151,-34.37955],[-58.692997,-34.379361]]]}},{"type":"Feature","properties":{"partida":"057145557","cca":"057040N00000000000000001800000000000008000","tipo":"Urbano","sup_m2":306.8},"geometry":{"type":"Polygon","coordinates":[[[-58.69289,-34.37942],[-58.69278,-34.379481],[-58.692932,-34.37967],[-58.693042,-34.37961],[-58.69289,-34.37942]]]}},{"type":"Feature","properties":{"partida":"057145558","cca":"057040N00000000000000001800000000000009000","tipo":"Urbano","sup_m2":309.3},"geometry":{"type":"Polygon","coordinates":[[[-58.69278,-34.379481],[-58.69267,-34.379542],[-58.692821,-34.379732],[-58.692932,-34.37967],[-58.69278,-34.379481]]]}},{"type":"Feature","properties":{"partida":"057145559","cca":"057040N00000000000000001800000000000010000","tipo":"Urbano","sup_m2":304.7},"geometry":{"type":"Polygon","coordinates":[[[-58.69267,-34.379542],[-58.69256,-34.379602],[-58.692713,-34.379792],[-58.692821,-34.379732],[-58.69267,-34.379542]]]}},{"type":"Feature","properties":{"partida":"057145577","cca":"057040N00000000000000001800000000000028000","tipo":"Urbano","sup_m2":304.3},"geometry":{"type":"Polygon","coordinates":[[[-58.693151,-34.37955],[-58.693042,-34.37961],[-58.693194,-34.379799],[-58.693303,-34.379739],[-58.693151,-34.37955]]]}},{"type":"Feature","properties":{"partida":"057145578","cca":"057040N00000000000000001800000000000029000","tipo":"Urbano","sup_m2":308.0},"geometry":{"type":"Polygon","coordinates":[[[-58.693261,-34.379489],[-58.693151,-34.37955],[-58.693303,-34.379739],[-58.693414,-34.379678],[-58.693261,-34.379489]]]}},{"type":"Feature","properties":{"partida":"057145579","cca":"057040N00000000000000001800000000000030000","tipo":"Urbano","sup_m2":309.5},"geometry":{"type":"Polygon","coordinates":[[[-58.693373,-34.379427],[-58.693261,-34.379489],[-58.693414,-34.379678],[-58.693524,-34.379618],[-58.693373,-34.379427]]]}},{"type":"Feature","properties":{"partida":"057145580","cca":"057040N00000000000000001800000000000031000","tipo":"Urbano","sup_m2":303.8},"geometry":{"type":"Polygon","coordinates":[[[-58.693482,-34.379367],[-58.693373,-34.379427],[-58.693524,-34.379618],[-58.693633,-34.379558],[-58.693482,-34.379367]]]}},{"type":"Feature","properties":{"partida":"057145581","cca":"057040N00000000000000001800000000000032000","tipo":"Urbano","sup_m2":306.8},"geometry":{"type":"Polygon","coordinates":[[[-58.693591,-34.379307],[-58.693482,-34.379367],[-58.693633,-34.379558],[-58.693743,-34.379496],[-58.693591,-34.379307]]]}},{"type":"Feature","properties":{"partida":"057145582","cca":"057040N00000000000000001800000000000033000","tipo":"Urbano","sup_m2":306.1},"geometry":{"type":"Polygon","coordinates":[[[-58.693701,-34.379246],[-58.693591,-34.379307],[-58.693743,-34.379496],[-58.693811,-34.379459],[-58.69383,-34.379441],[-58.693835,-34.379422],[-58.693828,-34.379376],[-58.693804,-34.379375],[-58.693701,-34.379246]]]}},{"type":"Feature","properties":{"partida":"057145583","cca":"057040N00000000000000001800000000000034000","tipo":"Urbano","sup_m2":306.0},"geometry":{"type":"Polygon","coordinates":[[[-58.694304,-34.379603],[-58.694152,-34.379413],[-58.694042,-34.379474],[-58.694194,-34.379664],[-58.694304,-34.379603]]]}},{"type":"Feature","properties":{"partida":"057145584","cca":"057040N00000000000000001800000000000035000","tipo":"Urbano","sup_m2":305.9},"geometry":{"type":"Polygon","coordinates":[[[-58.694042,-34.379474],[-58.693933,-34.379534],[-58.694085,-34.379724],[-58.694194,-34.379664],[-58.694042,-34.379474]]]}},{"type":"Feature","properties":{"partida":"057145585","cca":"057040N00000000000000001800000000000036000","tipo":"Urbano","sup_m2":310.1},"geometry":{"type":"Polygon","coordinates":[[[-58.693933,-34.379534],[-58.693822,-34.379595],[-58.693973,-34.379785],[-58.694085,-34.379724],[-58.693933,-34.379534]]]}},{"type":"Feature","properties":{"partida":"057145719","cca":"057040N00000000000000002000000000000001000","tipo":"Urbano","sup_m2":309.2},"geometry":{"type":"Polygon","coordinates":[[[-58.695491,-34.379212],[-58.695406,-34.379166],[-58.695361,-34.379174],[-58.695228,-34.379343],[-58.695342,-34.379403],[-58.695491,-34.379212]]]}},{"type":"Feature","properties":{"partida":"057145720","cca":"057040N00000000000000002000000000000002000","tipo":"Urbano","sup_m2":306.9},"geometry":{"type":"Polygon","coordinates":[[[-58.695228,-34.379343],[-58.695097,-34.37951],[-58.695107,-34.379548],[-58.695191,-34.379594],[-58.695342,-34.379403],[-58.695228,-34.379343]]]}},{"type":"Feature","properties":{"partida":"057145721","cca":"057040N00000000000000002000000000000003000","tipo":"Urbano","sup_m2":305.2},"geometry":{"type":"Polygon","coordinates":[[[-58.695191,-34.379594],[-58.695304,-34.379654],[-58.69545,-34.379462],[-58.695342,-34.379403],[-58.695191,-34.379594]]]}},{"type":"Feature","properties":{"partida":"057145722","cca":"057040N00000000000000002000000000000004000","tipo":"Urbano","sup_m2":309.3},"geometry":{"type":"Polygon","coordinates":[[[-58.69545,-34.379462],[-58.695304,-34.379654],[-58.695414,-34.379714],[-58.695563,-34.379522],[-58.69545,-34.379462]]]}},{"type":"Feature","properties":{"partida":"057145723","cca":"057040N00000000000000002000000000000005000","tipo":"Urbano","sup_m2":304.9},"geometry":{"type":"Polygon","coordinates":[[[-58.695563,-34.379522],[-58.695414,-34.379714],[-58.695523,-34.379773],[-58.695673,-34.379582],[-58.695563,-34.379522]]]}},{"type":"Feature","properties":{"partida":"057145724","cca":"057040N00000000000000002000000000000006000","tipo":"Urbano","sup_m2":308.6},"geometry":{"type":"Polygon","coordinates":[[[-58.695673,-34.379582],[-58.695523,-34.379773],[-58.695636,-34.379833],[-58.695784,-34.379641],[-58.695673,-34.379582]]]}},{"type":"Feature","properties":{"partida":"057145733","cca":"057040N00000000000000002000000000000015000","tipo":"Urbano","sup_m2":306.5},"geometry":{"type":"Polygon","coordinates":[[[-58.696153,-34.379569],[-58.696005,-34.37976],[-58.696115,-34.379819],[-58.696265,-34.379629],[-58.696153,-34.379569]]]}},{"type":"Feature","properties":{"partida":"057145734","cca":"057040N00000000000000002000000000000016000","tipo":"Urbano","sup_m2":303.2},"geometry":{"type":"Polygon","coordinates":[[[-58.696045,-34.37951],[-58.695894,-34.379701],[-58.696005,-34.37976],[-58.696153,-34.379569],[-58.696045,-34.37951]]]}},{"type":"Feature","properties":{"partida":"057145735","cca":"057040N00000000000000002000000000000017000","tipo":"Urbano","sup_m2":312.0},"geometry":{"type":"Polygon","coordinates":[[[-58.69593,-34.379449],[-58.695784,-34.379641],[-58.695894,-34.379701],[-58.696045,-34.37951],[-58.69593,-34.379449]]]}},{"type":"Feature","properties":{"partida":"057145736","cca":"057040N00000000000000002000000000000018000","tipo":"Urbano","sup_m2":299.6},"geometry":{"type":"Polygon","coordinates":[[[-58.695825,-34.379392],[-58.695673,-34.379582],[-58.695784,-34.379641],[-58.69593,-34.379449],[-58.695825,-34.379392]]]}},{"type":"Feature","properties":{"partida":"057145737","cca":"057040N00000000000000002000000000000019000","tipo":"Urbano","sup_m2":309.4},"geometry":{"type":"Polygon","coordinates":[[[-58.695712,-34.379331],[-58.695563,-34.379522],[-58.695673,-34.379582],[-58.695825,-34.379392],[-58.695712,-34.379331]]]}},{"type":"Feature","properties":{"partida":"057145738","cca":"057040N00000000000000002000000000000020000","tipo":"Urbano","sup_m2":311.1},"geometry":{"type":"Polygon","coordinates":[[[-58.695601,-34.379271],[-58.69545,-34.379462],[-58.695563,-34.379522],[-58.695712,-34.379331],[-58.695601,-34.379271]]]}},{"type":"Feature","properties":{"partida":"057145739","cca":"057040N00000000000000002000000000000021000","tipo":"Urbano","sup_m2":301.2},"geometry":{"type":"Polygon","coordinates":[[[-58.695491,-34.379212],[-58.695342,-34.379403],[-58.69545,-34.379462],[-58.695601,-34.379271],[-58.695491,-34.379212]]]}},{"type":"Feature","properties":{"partida":"057137589","cca":"057040N00000000000000002500000000000001000","tipo":"Urbano","sup_m2":32963.9},"geometry":{"type":"Polygon","coordinates":[[[-58.693097,-34.377881],[-58.693446,-34.377689],[-58.684696,-34.373146],[-58.68449,-34.373411],[-58.693097,-34.377881]]]}}]}