{"type":"FeatureCollection","features":[{"type":"Feature","properties":{"partida":"057045661","cca":"057030H000200000000000000000000200E000500C","tipo":"Urbano","sup_m2":2120.6},"geometry":{"type":"Polygon","coordinates":[[[-58.694722,-34.452158],[-58.694651,-34.452493],[-58.694675,-34.452526],[-58.695068,-34.452577],[-58.695418,-34.452249],[-58.695039,-34.452202],[-58.694722,-34.452158]]]}},{"type":"Feature","properties":{"partida":"057018372","cca":"057030H00170000000000000000000000000000000","tipo":"Urbano","sup_m2":748.9},"geometry":{"type":"Polygon","coordinates":[[[-58.69462,-34.452691],[-58.694533,-34.453203],[-58.69486,-34.452779],[-58.694912,-34.45273],[-58.69462,-34.452691]]]}},{"type":"Feature","properties":{"partida":"057018371","cca":"057030H001800000000000000000001800A000100A","tipo":"Urbano","sup_m2":27599.2},"geometry":{"type":"Polygon","coordinates":[[[-58.692556,-34.454632],[-58.693825,-34.454298],[-58.694154,-34.453689],[-58.694308,-34.453491],[-58.694464,-34.45268],[-58.692954,-34.452476],[-58.692556,-34.454632]]]}},{"type":"Feature","properties":{"partida":"057027580","cca":"057030H001800000000000000000001800B0001000","tipo":"Urbano","sup_m2":206.3},"geometry":{"type":"Polygon","coordinates":[[[-58.692689,-34.454952],[-58.692645,-34.454797],[-58.692562,-34.454816],[-58.692506,-34.45487],[-58.692496,-34.454933],[-58.692689,-34.454952]]]}},{"type":"Feature","properties":{"partida":"057087937","cca":"057030H001800000000000000000001800B0002000","tipo":"Urbano","sup_m2":204.2},"geometry":{"type":"Polygon","coordinates":[[[-58.692496,-34.454933],[-58.692481,-34.455024],[-58.692717,-34.455048],[-58.692689,-34.454952],[-58.692496,-34.454933]]]}},{"type":"Feature","properties":{"partida":"057087938","cca":"057030H001800000000000000000001800B000300A","tipo":"Urbano","sup_m2":1265.5},"geometry":{"type":"Polygon","coordinates":[[[-58.692481,-34.455024],[-58.692451,-34.455206],[-58.692758,-34.455237],[-58.693036,-34.455375],[-58.693151,-34.455223],[-58.692834,-34.45506],[-58.692481,-34.455024]]]}},{"type":"Feature","properties":{"partida":"057087940","cca":"057030H001800000000000000000001800B0005000","tipo":"Urbano","sup_m2":248.2},"geometry":{"type":"Polygon","coordinates":[[[-58.692724,-34.455316],[-58.692758,-34.455237],[-58.692451,-34.455206],[-58.692437,-34.455286],[-58.692724,-34.455316]]]}},{"type":"Feature","properties":{"partida":"057087941","cca":"057030H001800000000000000000001800B0006000","tipo":"Urbano","sup_m2":250.7},"geometry":{"type":"Polygon","coordinates":[[[-58.692686,-34.455403],[-58.692724,-34.455316],[-58.692437,-34.455286],[-58.692423,-34.455372],[-58.692686,-34.455403]]]}},{"type":"Feature","properties":{"partida":"057087942","cca":"057030H001800000000000000000001800B0007000","tipo":"Urbano","sup_m2":250.0},"geometry":{"type":"Polygon","coordinates":[[[-58.692686,-34.455403],[-58.692423,-34.455372],[-58.692407,-34.455469],[-58.692646,-34.455495],[-58.692686,-34.455403]]]}},{"type":"Feature","properties":{"partida":"057087943","cca":"057030H001800000000000000000001800B0008000","tipo":"Urbano","sup_m2":203.4},"geometry":{"type":"Polygon","coordinates":[[[-58.69261,-34.455579],[-58.692646,-34.455495],[-58.692407,-34.455469],[-58.692393,-34.455554],[-58.69261,-34.455579]]]}},{"type":"Feature","properties":{"partida":"057087944","cca":"057030H001800000000000000000001800B0009000","tipo":"Urbano","sup_m2":208.2},"geometry":{"type":"Polygon","coordinates":[[[-58.69261,-34.455579],[-58.692393,-34.455554],[-58.692376,-34.455654],[-58.69257,-34.455672],[-58.69261,-34.455579]]]}},{"type":"Feature","properties":{"partida":"057087945","cca":"057030H001800000000000000000001800B0010000","tipo":"Urbano","sup_m2":200.0},"geometry":{"type":"Polygon","coordinates":[[[-58.69236,-34.455758],[-58.692533,-34.455776],[-58.69257,-34.455672],[-58.692376,-34.455654],[-58.69236,-34.455758]]]}},{"type":"Feature","properties":{"partida":"057087946","cca":"057030H001800000000000000000001800B0011000","tipo":"Urbano","sup_m2":270.3},"geometry":{"type":"Polygon","coordinates":[[[-58.692345,-34.455843],[-58.692495,-34.455854],[-58.692621,-34.455918],[-58.692676,-34.455848],[-58.692533,-34.455776],[-58.69236,-34.455758],[-58.692345,-34.455843]]]}},{"type":"Feature","properties":{"partida":"057087947","cca":"057030H001800000000000000000001800B0012000","tipo":"Urbano","sup_m2":236.2},"geometry":{"type":"Polygon","coordinates":[[[-58.692345,-34.455843],[-58.692333,-34.455926],[-58.692475,-34.455941],[-58.692569,-34.455986],[-58.692621,-34.455918],[-58.692495,-34.455854],[-58.692345,-34.455843]]]}},{"type":"Feature","properties":{"partida":"057087948","cca":"057030H001800000000000000000001800B0013000","tipo":"Urbano","sup_m2":304.1},"geometry":{"type":"Polygon","coordinates":[[[-58.692476,-34.456108],[-58.692569,-34.455986],[-58.692475,-34.455941],[-58.692333,-34.455926],[-58.692311,-34.45606],[-58.692415,-34.456072],[-58.692476,-34.456108]]]}},{"type":"Feature","properties":{"partida":"057087949","cca":"057030H001800000000000000000001800B0014000","tipo":"Urbano","sup_m2":335.0},"geometry":{"type":"Polygon","coordinates":[[[-58.692476,-34.456108],[-58.692415,-34.456072],[-58.692311,-34.45606],[-58.692254,-34.456377],[-58.692281,-34.456379],[-58.692476,-34.456108]]]}},{"type":"Feature","properties":{"partida":"057087950","cca":"057030H001800000000000000000001800B0015000","tipo":"Urbano","sup_m2":198.3},"geometry":{"type":"Polygon","coordinates":[[[-58.692676,-34.455848],[-58.692743,-34.455758],[-58.69257,-34.455672],[-58.692533,-34.455776],[-58.692676,-34.455848]]]}},{"type":"Feature","properties":{"partida":"057087952","cca":"057030H001800000000000000000001800B001600A","tipo":"Urbano","sup_m2":423.7},"geometry":{"type":"Polygon","coordinates":[[[-58.692861,-34.455604],[-58.692646,-34.455495],[-58.69257,-34.455672],[-58.692743,-34.455758],[-58.692861,-34.455604]]]}},{"type":"Feature","properties":{"partida":"057087953","cca":"057030H001800000000000000000001800B0018000","tipo":"Urbano","sup_m2":260.1},"geometry":{"type":"Polygon","coordinates":[[[-58.692686,-34.455403],[-58.692646,-34.455495],[-58.692861,-34.455604],[-58.692924,-34.455522],[-58.692686,-34.455403]]]}},{"type":"Feature","properties":{"partida":"057087954","cca":"057030H001800000000000000000001800B0019000","tipo":"Urbano","sup_m2":264.6},"geometry":{"type":"Polygon","coordinates":[[[-58.692724,-34.455316],[-58.692686,-34.455403],[-58.692924,-34.455522],[-58.692981,-34.455447],[-58.692724,-34.455316]]]}},{"type":"Feature","properties":{"partida":"057087955","cca":"057030H001800000000000000000001800B0020000","tipo":"Urbano","sup_m2":267.9},"geometry":{"type":"Polygon","coordinates":[[[-58.692758,-34.455237],[-58.692724,-34.455316],[-58.692981,-34.455447],[-58.693036,-34.455375],[-58.692758,-34.455237]]]}},{"type":"Feature","properties":{"partida":"057087958","cca":"057030H001800000000000000000001800B0023000","tipo":"Urbano","sup_m2":322.6},"geometry":{"type":"Polygon","coordinates":[[[-58.69321,-34.455146],[-58.692934,-34.455005],[-58.692834,-34.45506],[-58.693151,-34.455223],[-58.69321,-34.455146]]]}},{"type":"Feature","properties":{"partida":"057087959","cca":"057030H001800000000000000000001800B0024000","tipo":"Urbano","sup_m2":273.4},"geometry":{"type":"Polygon","coordinates":[[[-58.692934,-34.455005],[-58.69321,-34.455146],[-58.693268,-34.45507],[-58.693031,-34.454952],[-58.692934,-34.455005]]]}},{"type":"Feature","properties":{"partida":"057087960","cca":"057030H001800000000000000000001800B0025000","tipo":"Urbano","sup_m2":210.0},"geometry":{"type":"Polygon","coordinates":[[[-58.693031,-34.454952],[-58.693268,-34.45507],[-58.693321,-34.455002],[-58.693121,-34.454902],[-58.693031,-34.454952]]]}},{"type":"Feature","properties":{"partida":"057087961","cca":"057030H001800000000000000000001800B0026000","tipo":"Urbano","sup_m2":178.3},"geometry":{"type":"Polygon","coordinates":[[[-58.693121,-34.454902],[-58.693321,-34.455002],[-58.693375,-34.454931],[-58.693213,-34.454851],[-58.693121,-34.454902]]]}},{"type":"Feature","properties":{"partida":"057087962","cca":"057030H001800000000000000000001800B0027000","tipo":"Urbano","sup_m2":176.3},"geometry":{"type":"Polygon","coordinates":[[[-58.693336,-34.454784],[-58.693213,-34.454851],[-58.693375,-34.454931],[-58.693445,-34.454839],[-58.693336,-34.454784]]]}},{"type":"Feature","properties":{"partida":"057087963","cca":"057030H001800000000000000000001800B0028000","tipo":"Urbano","sup_m2":266.7},"geometry":{"type":"Polygon","coordinates":[[[-58.693336,-34.454784],[-58.693445,-34.454839],[-58.693506,-34.454758],[-58.693426,-34.45472],[-58.693398,-34.454603],[-58.693281,-34.454633],[-58.693336,-34.454784]]]}},{"type":"Feature","properties":{"partida":"057087964","cca":"057030H001800000000000000000001800B0029000","tipo":"Urbano","sup_m2":294.9},"geometry":{"type":"Polygon","coordinates":[[[-58.693398,-34.454603],[-58.693426,-34.45472],[-58.693506,-34.454758],[-58.693645,-34.454577],[-58.693618,-34.454546],[-58.693398,-34.454603]]]}},{"type":"Feature","properties":{"partida":"057087965","cca":"057030H001800000000000000000001800B0030000","tipo":"Urbano","sup_m2":245.8},"geometry":{"type":"Polygon","coordinates":[[[-58.693213,-34.454851],[-58.693336,-34.454784],[-58.693281,-34.454633],[-58.693152,-34.454665],[-58.693213,-34.454851]]]}},{"type":"Feature","properties":{"partida":"057087966","cca":"057030H001800000000000000000001800B0031000","tipo":"Urbano","sup_m2":217.9},"geometry":{"type":"Polygon","coordinates":[[[-58.693121,-34.454902],[-58.693213,-34.454851],[-58.693152,-34.454665],[-58.693054,-34.454691],[-58.693121,-34.454902]]]}},{"type":"Feature","properties":{"partida":"057087967","cca":"057030H001800000000000000000001800B0032000","tipo":"Urbano","sup_m2":248.6},"geometry":{"type":"Polygon","coordinates":[[[-58.693031,-34.454952],[-58.693121,-34.454902],[-58.693054,-34.454691],[-58.69295,-34.454717],[-58.693031,-34.454952]]]}},{"type":"Feature","properties":{"partida":"057087968","cca":"057030H001800000000000000000001800B0033000","tipo":"Urbano","sup_m2":280.1},"geometry":{"type":"Polygon","coordinates":[[[-58.69295,-34.454717],[-58.692853,-34.454743],[-58.692934,-34.455005],[-58.693031,-34.454952],[-58.69295,-34.454717]]]}},{"type":"Feature","properties":{"partida":"057087969","cca":"057030H001800000000000000000001800B0034000","tipo":"Urbano","sup_m2":329.1},"geometry":{"type":"Polygon","coordinates":[[[-58.692744,-34.454771],[-58.692834,-34.45506],[-58.692934,-34.455005],[-58.692853,-34.454743],[-58.692744,-34.454771]]]}},{"type":"Feature","properties":{"partida":"057087970","cca":"057030H001800000000000000000001800B0035000","tipo":"Urbano","sup_m2":304.4},"geometry":{"type":"Polygon","coordinates":[[[-58.692834,-34.45506],[-58.692744,-34.454771],[-58.692645,-34.454797],[-58.692717,-34.455048],[-58.692834,-34.45506]]]}},{"type":"Feature","properties":{"partida":"057033505","cca":"057030H001900000000000000000001900A0000000","tipo":"Urbano","sup_m2":34636.9},"geometry":{"type":"Polygon","coordinates":[[[-58.691321,-34.45227],[-58.691273,-34.452301],[-58.690886,-34.454421],[-58.690921,-34.454466],[-58.692339,-34.454637],[-58.692402,-34.454595],[-58.69279,-34.452497],[-58.692739,-34.452446],[-58.691321,-34.45227]]]}},{"type":"Feature","properties":{"partida":"057033506","cca":"057030H001900000000000000000001900B0001000","tipo":"Urbano","sup_m2":37950.7},"geometry":{"type":"Polygon","coordinates":[[[-58.690926,-34.454574],[-58.690849,-34.454618],[-58.690513,-34.456384],[-58.69032,-34.456642],[-58.690337,-34.456701],[-58.691418,-34.457346],[-58.69151,-34.457337],[-58.692004,-34.456652],[-58.692354,-34.454786],[-58.692309,-34.454742],[-58.690926,-34.454574]]]}},{"type":"Feature","properties":{"partida":"057035970","cca":"057030H001900000000000000000001900C0001000","tipo":"Urbano","sup_m2":1061.5},"geometry":{"type":"Polygon","coordinates":[[[-58.690541,-34.457009],[-58.690229,-34.456837],[-58.690164,-34.456843],[-58.690022,-34.457021],[-58.690381,-34.457214],[-58.690541,-34.457009]]]}},{"type":"Feature","properties":{"partida":"057035971","cca":"057030H001900000000000000000001900C0002000","tipo":"Urbano","sup_m2":806.1},"geometry":{"type":"Polygon","coordinates":[[[-58.689903,-34.457171],[-58.690256,-34.457373],[-58.690381,-34.457214],[-58.690022,-34.457021],[-58.689903,-34.457171]]]}},{"type":"Feature","properties":{"partida":"057035972","cca":"057030H001900000000000000000001900C0003000","tipo":"Urbano","sup_m2":838.0},"geometry":{"type":"Polygon","coordinates":[[[-58.690137,-34.457526],[-58.690256,-34.457373],[-58.689903,-34.457171],[-58.68977,-34.457339],[-58.690137,-34.457526]]]}},{"type":"Feature","properties":{"partida":"057035973","cca":"057030H001900000000000000000001900C0004000","tipo":"Urbano","sup_m2":818.5},"geometry":{"type":"Polygon","coordinates":[[[-58.690015,-34.457682],[-58.690137,-34.457526],[-58.68977,-34.457339],[-58.689647,-34.457494],[-58.690015,-34.457682]]]}},{"type":"Feature","properties":{"partida":"057035974","cca":"057030H001900000000000000000001900C0005000","tipo":"Urbano","sup_m2":943.7},"geometry":{"type":"Polygon","coordinates":[[[-58.689647,-34.457494],[-58.689534,-34.457635],[-58.689546,-34.457694],[-58.68987,-34.457866],[-58.690015,-34.457682],[-58.689647,-34.457494]]]}},{"type":"Feature","properties":{"partida":"057035975","cca":"057030H001900000000000000000001900C0006000","tipo":"Urbano","sup_m2":1108.0},"geometry":{"type":"Polygon","coordinates":[[[-58.690198,-34.457448],[-58.68987,-34.457866],[-58.690057,-34.457964],[-58.690379,-34.457546],[-58.690198,-34.457448]]]}},{"type":"Feature","properties":{"partida":"057035976","cca":"057030H001900000000000000000001900C0007000","tipo":"Urbano","sup_m2":1125.3},"geometry":{"type":"Polygon","coordinates":[[[-58.690242,-34.458063],[-58.690567,-34.457648],[-58.690379,-34.457546],[-58.690057,-34.457964],[-58.690242,-34.458063]]]}},{"type":"Feature","properties":{"partida":"057035977","cca":"057030H001900000000000000000001900C0008000","tipo":"Urbano","sup_m2":849.6},"geometry":{"type":"Polygon","coordinates":[[[-58.690486,-34.457752],[-58.690242,-34.458063],[-58.690432,-34.458163],[-58.690675,-34.457851],[-58.690486,-34.457752]]]}},{"type":"Feature","properties":{"partida":"057018341","cca":"057030H001900000000000000000001900C0009000","tipo":"Urbano","sup_m2":1106.7},"geometry":{"type":"Polygon","coordinates":[[[-58.690952,-34.457997],[-58.690675,-34.457851],[-58.690432,-34.458163],[-58.690597,-34.458252],[-58.690691,-34.458246],[-58.690952,-34.457997]]]}},{"type":"Feature","properties":{"partida":"057035964","cca":"057030H001900000000000000000001900C0010000","tipo":"Urbano","sup_m2":1046.8},"geometry":{"type":"Polygon","coordinates":[[[-58.690604,-34.457601],[-58.690486,-34.457752],[-58.690952,-34.457997],[-58.6911,-34.457861],[-58.690604,-34.457601]]]}},{"type":"Feature","properties":{"partida":"057035965","cca":"057030H001900000000000000000001900C0011000","tipo":"Urbano","sup_m2":781.7},"geometry":{"type":"Polygon","coordinates":[[[-58.6911,-34.457861],[-58.691236,-34.457689],[-58.690928,-34.457521],[-58.690789,-34.457697],[-58.6911,-34.457861]]]}},{"type":"Feature","properties":{"partida":"057035966","cca":"057030H001900000000000000000001900C0012000","tipo":"Urbano","sup_m2":907.5},"geometry":{"type":"Polygon","coordinates":[[[-58.69109,-34.457313],[-58.690928,-34.457521],[-58.691236,-34.457689],[-58.691366,-34.457524],[-58.691344,-34.457456],[-58.69109,-34.457313]]]}},{"type":"Feature","properties":{"partida":"057035967","cca":"057030H001900000000000000000001900C0013000","tipo":"Urbano","sup_m2":1028.2},"geometry":{"type":"Polygon","coordinates":[[[-58.690908,-34.457213],[-58.690604,-34.457601],[-58.690789,-34.457697],[-58.69109,-34.457313],[-58.690908,-34.457213]]]}},{"type":"Feature","properties":{"partida":"057035968","cca":"057030H001900000000000000000001900C0014000","tipo":"Urbano","sup_m2":1202.0},"geometry":{"type":"Polygon","coordinates":[[[-58.690567,-34.457648],[-58.690908,-34.457213],[-58.690717,-34.457107],[-58.690379,-34.457546],[-58.690567,-34.457648]]]}},{"type":"Feature","properties":{"partida":"057035969","cca":"057030H001900000000000000000001900C0015000","tipo":"Urbano","sup_m2":1139.5},"geometry":{"type":"Polygon","coordinates":[[[-58.690717,-34.457107],[-58.690541,-34.457009],[-58.690198,-34.457448],[-58.690379,-34.457546],[-58.690717,-34.457107]]]}},{"type":"Feature","properties":{"partida":"057028811","cca":"057030H002000000000000000000002000B000100A","tipo":"Urbano","sup_m2":260.1},"geometry":{"type":"Polygon","coordinates":[[[-58.690543,-34.454761],[-58.69065,-34.454773],[-58.69069,-34.454564],[-58.690643,-34.454529],[-58.690586,-34.454523],[-58.690543,-34.454761]]]}},{"type":"Feature","properties":{"partida":"057082860","cca":"057030H002000000000000000000002000B000100B","tipo":"Urbano","sup_m2":268.5},"geometry":{"type":"Polygon","coordinates":[[[-58.690586,-34.454523],[-58.690478,-34.45451],[-58.690435,-34.454748],[-58.690543,-34.454761],[-58.690586,-34.454523]]]}},{"type":"Feature","properties":{"partida":"057082861","cca":"057030H002000000000000000000002000B000100C","tipo":"Urbano","sup_m2":301.1},"geometry":{"type":"Polygon","coordinates":[[[-58.690634,-34.454863],[-58.690314,-34.454828],[-58.690299,-34.454918],[-58.690617,-34.454955],[-58.690634,-34.454863]]]}},{"type":"Feature","properties":{"partida":"057082862","cca":"057030H002000000000000000000002000B000100D","tipo":"Urbano","sup_m2":202.9},"geometry":{"type":"Polygon","coordinates":[[[-58.690634,-34.454863],[-58.69065,-34.454773],[-58.690435,-34.454748],[-58.690418,-34.454839],[-58.690634,-34.454863]]]}},{"type":"Feature","properties":{"partida":"057061600","cca":"057030H002000000000000000000002000B000200A","tipo":"Urbano","sup_m2":361.1},"geometry":{"type":"Polygon","coordinates":[[[-58.690418,-34.454839],[-58.690478,-34.45451],[-58.690372,-34.454498],[-58.690314,-34.454828],[-58.690418,-34.454839]]]}},{"type":"Feature","properties":{"partida":"057082863","cca":"057030H002000000000000000000002000B000200C","tipo":"Urbano","sup_m2":967.6},"geometry":{"type":"Polygon","coordinates":[[[-58.690299,-34.454918],[-58.690372,-34.454498],[-58.690151,-34.454472],[-58.690076,-34.454891],[-58.690299,-34.454918]]]}},{"type":"Feature","properties":{"partida":"057082864","cca":"057030H002000000000000000000002000B000300B","tipo":"Urbano","sup_m2":441.2},"geometry":{"type":"Polygon","coordinates":[[[-58.69005,-34.454461],[-58.689975,-34.45488],[-58.690076,-34.454891],[-58.690151,-34.454472],[-58.69005,-34.454461]]]}},{"type":"Feature","properties":{"partida":"057061602","cca":"057030H002000000000000000000002000B000400A","tipo":"Urbano","sup_m2":493.5},"geometry":{"type":"Polygon","coordinates":[[[-58.689859,-34.454866],[-58.689975,-34.45488],[-58.69005,-34.454461],[-58.689939,-34.454448],[-58.689859,-34.454866]]]}},{"type":"Feature","properties":{"partida":"057061603","cca":"057030H002000000000000000000002000B000400C","tipo":"Urbano","sup_m2":944.5},"geometry":{"type":"Polygon","coordinates":[[[-58.689859,-34.454866],[-58.689939,-34.454448],[-58.689721,-34.454422],[-58.689644,-34.45484],[-58.689859,-34.454866]]]}},{"type":"Feature","properties":{"partida":"057061604","cca":"057030H002000000000000000000002000B000500C","tipo":"Urbano","sup_m2":946.3},"geometry":{"type":"Polygon","coordinates":[[[-58.689644,-34.45484],[-58.689721,-34.454422],[-58.689504,-34.454397],[-58.689426,-34.454814],[-58.689644,-34.45484]]]}},{"type":"Feature","properties":{"partida":"057082867","cca":"057030H002000000000000000000002000B000600B","tipo":"Urbano","sup_m2":355.6},"geometry":{"type":"Polygon","coordinates":[[[-58.689443,-34.454724],[-58.689504,-34.454397],[-58.689399,-34.454385],[-58.689339,-34.454712],[-58.689443,-34.454724]]]}},{"type":"Feature","properties":{"partida":"057082870","cca":"057030H002000000000000000000002000B000700D","tipo":"Urbano","sup_m2":296.2},"geometry":{"type":"Polygon","coordinates":[[[-58.689426,-34.454814],[-58.689443,-34.454724],[-58.689124,-34.454687],[-58.689108,-34.454775],[-58.689426,-34.454814]]]}},{"type":"Feature","properties":{"partida":"057061605","cca":"057030H002000000000000000000002000B000700E","tipo":"Urbano","sup_m2":727.0},"geometry":{"type":"Polygon","coordinates":[[[-58.689124,-34.454687],[-58.689339,-34.454712],[-58.689399,-34.454385],[-58.689221,-34.454364],[-58.689179,-34.454388],[-58.689124,-34.454687]]]}},{"type":"Feature","properties":{"partida":"057035979","cca":"057030H002000000000000000000002000B000800A","tipo":"Urbano","sup_m2":843.4},"geometry":{"type":"Polygon","coordinates":[[[-58.689859,-34.454866],[-58.689108,-34.454775],[-58.689088,-34.454884],[-58.68984,-34.454973],[-58.689859,-34.454866]]]}},{"type":"Feature","properties":{"partida":"057079576","cca":"057030H002000000000000000000002000B000800B","tipo":"Urbano","sup_m2":835.4},"geometry":{"type":"Polygon","coordinates":[[[-58.689821,-34.455081],[-58.68984,-34.454973],[-58.689088,-34.454884],[-58.689069,-34.45499],[-58.689821,-34.455081]]]}},{"type":"Feature","properties":{"partida":"057035980","cca":"057030H002000000000000000000002000B000900A","tipo":"Urbano","sup_m2":851.0},"geometry":{"type":"Polygon","coordinates":[[[-58.689821,-34.455081],[-58.689069,-34.45499],[-58.689049,-34.4551],[-58.689802,-34.455188],[-58.689821,-34.455081]]]}},{"type":"Feature","properties":{"partida":"057035981","cca":"057030H002000000000000000000002000B0010000","tipo":"Urbano","sup_m2":1270.2},"geometry":{"type":"Polygon","coordinates":[[[-58.689802,-34.455188],[-58.689049,-34.4551],[-58.689018,-34.455262],[-58.68977,-34.45535],[-58.689802,-34.455188]]]}},{"type":"Feature","properties":{"partida":"057033804","cca":"057030H002000000000000000000002000B0011000","tipo":"Urbano","sup_m2":1247.3},"geometry":{"type":"Polygon","coordinates":[[[-58.689742,-34.455509],[-58.68977,-34.45535],[-58.689018,-34.455262],[-58.688989,-34.455421],[-58.689742,-34.455509]]]}},{"type":"Feature","properties":{"partida":"057028810","cca":"057030H002000000000000000000002000B0012000","tipo":"Urbano","sup_m2":1247.0},"geometry":{"type":"Polygon","coordinates":[[[-58.689713,-34.455668],[-58.689742,-34.455509],[-58.688989,-34.455421],[-58.68896,-34.45558],[-58.689713,-34.455668]]]}},{"type":"Feature","properties":{"partida":"057025321","cca":"057030H002000000000000000000002000B0013000","tipo":"Urbano","sup_m2":1260.1},"geometry":{"type":"Polygon","coordinates":[[[-58.689713,-34.455668],[-58.68896,-34.45558],[-58.688931,-34.45574],[-58.689683,-34.45583],[-58.689713,-34.455668]]]}},{"type":"Feature","properties":{"partida":"057025318","cca":"057030H002000000000000000000002000B0014000","tipo":"Urbano","sup_m2":1257.9},"geometry":{"type":"Polygon","coordinates":[[[-58.689655,-34.455991],[-58.689683,-34.45583],[-58.688931,-34.45574],[-58.688902,-34.4559],[-58.689655,-34.455991]]]}},{"type":"Feature","properties":{"partida":"057035982","cca":"057030H002000000000000000000002000B0015000","tipo":"Urbano","sup_m2":2348.9},"geometry":{"type":"Polygon","coordinates":[[[-58.688902,-34.4559],[-58.688864,-34.456046],[-58.688853,-34.456059],[-58.689483,-34.456396],[-58.689606,-34.456243],[-58.689655,-34.455991],[-58.688902,-34.4559]]]}},{"type":"Feature","properties":{"partida":"057035978","cca":"057030H002000000000000000000002000B001600A","tipo":"Urbano","sup_m2":2475.6},"geometry":{"type":"Polygon","coordinates":[[[-58.688637,-34.45633],[-58.689264,-34.456666],[-58.689483,-34.456396],[-58.688853,-34.456059],[-58.688637,-34.45633]]]}},{"type":"Feature","properties":{"partida":"057035985","cca":"057030H002000000000000000000002000B0024000","tipo":"Urbano","sup_m2":886.7},"geometry":{"type":"Polygon","coordinates":[[[-58.689294,-34.457064],[-58.689118,-34.45697],[-58.688842,-34.457314],[-58.689019,-34.457409],[-58.689294,-34.457064]]]}},{"type":"Feature","properties":{"partida":"057035986","cca":"057030H002000000000000000000002000B0025000","tipo":"Urbano","sup_m2":883.2},"geometry":{"type":"Polygon","coordinates":[[[-58.689197,-34.457504],[-58.689468,-34.457157],[-58.689294,-34.457064],[-58.689019,-34.457409],[-58.689197,-34.457504]]]}},{"type":"Feature","properties":{"partida":"057035987","cca":"057030H002000000000000000000002000B0026000","tipo":"Urbano","sup_m2":886.4},"geometry":{"type":"Polygon","coordinates":[[[-58.689197,-34.457504],[-58.689338,-34.457579],[-58.689397,-34.457571],[-58.689646,-34.457257],[-58.689468,-34.457157],[-58.689197,-34.457504]]]}},{"type":"Feature","properties":{"partida":"057035988","cca":"057030H002000000000000000000002000B0027000","tipo":"Urbano","sup_m2":1161.0},"geometry":{"type":"Polygon","coordinates":[[[-58.689047,-34.456932],[-58.689468,-34.457157],[-58.689646,-34.457257],[-58.689754,-34.457122],[-58.689154,-34.4568],[-58.689047,-34.456932]]]}},{"type":"Feature","properties":{"partida":"057033342","cca":"057030H002000000000000000000002000B0028000","tipo":"Urbano","sup_m2":1178.7},"geometry":{"type":"Polygon","coordinates":[[[-58.689862,-34.456987],[-58.689264,-34.456666],[-58.689154,-34.4568],[-58.689754,-34.457122],[-58.689862,-34.456987]]]}},{"type":"Feature","properties":{"partida":"057033343","cca":"057030H002000000000000000000002000B002900A","tipo":"Urbano","sup_m2":2353.1},"geometry":{"type":"Polygon","coordinates":[[[-58.689264,-34.456666],[-58.689862,-34.456987],[-58.690077,-34.456717],[-58.689483,-34.456396],[-58.689264,-34.456666]]]}},{"type":"Feature","properties":{"partida":"057035991","cca":"057030H002000000000000000000002000B0031000","tipo":"Urbano","sup_m2":1310.5},"geometry":{"type":"Polygon","coordinates":[[[-58.690196,-34.456567],[-58.689606,-34.456243],[-58.689483,-34.456396],[-58.690077,-34.456717],[-58.690196,-34.456567]]]}},{"type":"Feature","properties":{"partida":"057035992","cca":"057030H002000000000000000000002000B0032000","tipo":"Urbano","sup_m2":1747.8},"geometry":{"type":"Polygon","coordinates":[[[-58.689626,-34.456151],[-58.689606,-34.456243],[-58.690196,-34.456567],[-58.690358,-34.456364],[-58.690382,-34.456236],[-58.689626,-34.456151]]]}},{"type":"Feature","properties":{"partida":"057035993","cca":"057030H002000000000000000000002000B0033000","tipo":"Urbano","sup_m2":1242.2},"geometry":{"type":"Polygon","coordinates":[[[-58.69041,-34.456081],[-58.689655,-34.455991],[-58.689626,-34.456151],[-58.690382,-34.456236],[-58.69041,-34.456081]]]}},{"type":"Feature","properties":{"partida":"057035994","cca":"057030H002000000000000000000002000B0034000","tipo":"Urbano","sup_m2":1267.4},"geometry":{"type":"Polygon","coordinates":[[[-58.689655,-34.455991],[-58.69041,-34.456081],[-58.690439,-34.455919],[-58.689683,-34.45583],[-58.689655,-34.455991]]]}},{"type":"Feature","properties":{"partida":"057023300","cca":"057030H002000000000000000000002000B003500A","tipo":"Urbano","sup_m2":631.2},"geometry":{"type":"Polygon","coordinates":[[[-58.690454,-34.455839],[-58.689698,-34.45575],[-58.689683,-34.45583],[-58.690439,-34.455919],[-58.690454,-34.455839]]]}},{"type":"Feature","properties":{"partida":"057117169","cca":"057030H002000000000000000000002000B003500B","tipo":"Urbano","sup_m2":644.2},"geometry":{"type":"Polygon","coordinates":[[[-58.689713,-34.455668],[-58.689698,-34.45575],[-58.690454,-34.455839],[-58.690469,-34.455757],[-58.689713,-34.455668]]]}},{"type":"Feature","properties":{"partida":"057025319","cca":"057030H002000000000000000000002000B0036000","tipo":"Urbano","sup_m2":1253.0},"geometry":{"type":"Polygon","coordinates":[[[-58.689713,-34.455668],[-58.690469,-34.455757],[-58.690499,-34.455598],[-58.689742,-34.455509],[-58.689713,-34.455668]]]}},{"type":"Feature","properties":{"partida":"057025320","cca":"057030H002000000000000000000002000B0037000","tipo":"Urbano","sup_m2":1262.3},"geometry":{"type":"Polygon","coordinates":[[[-58.68977,-34.45535],[-58.689742,-34.455509],[-58.690499,-34.455598],[-58.690528,-34.455437],[-58.68977,-34.45535]]]}},{"type":"Feature","properties":{"partida":"057061607","cca":"057030H002000000000000000000002000B0038000","tipo":"Urbano","sup_m2":1279.2},"geometry":{"type":"Polygon","coordinates":[[[-58.689802,-34.455188],[-58.68977,-34.45535],[-58.690528,-34.455437],[-58.690559,-34.455275],[-58.689802,-34.455188]]]}},{"type":"Feature","properties":{"partida":"057061608","cca":"057030H002000000000000000000002000B0039000","tipo":"Urbano","sup_m2":1268.4},"geometry":{"type":"Polygon","coordinates":[[[-58.689829,-34.455026],[-58.689802,-34.455188],[-58.690559,-34.455275],[-58.690587,-34.455115],[-58.689829,-34.455026]]]}},{"type":"Feature","properties":{"partida":"057061609","cca":"057030H002000000000000000000002000B0040000","tipo":"Urbano","sup_m2":1260.2},"geometry":{"type":"Polygon","coordinates":[[[-58.690587,-34.455115],[-58.690617,-34.454955],[-58.689859,-34.454866],[-58.689829,-34.455026],[-58.690587,-34.455115]]]}},{"type":"Feature","properties":{"partida":"057061610","cca":"057030H002000000000000000000002000C0002000","tipo":"Urbano","sup_m2":187.1},"geometry":{"type":"Polygon","coordinates":[[[-58.6898,-34.452252],[-58.689589,-34.452223],[-58.689573,-34.452307],[-58.689785,-34.452337],[-58.6898,-34.452252]]]}},{"type":"Feature","properties":{"partida":"057061611","cca":"057030H002000000000000000000002000C0003000","tipo":"Urbano","sup_m2":307.1},"geometry":{"type":"Polygon","coordinates":[[[-58.689877,-34.452444],[-58.689894,-34.452353],[-58.689573,-34.452307],[-58.689556,-34.452399],[-58.689877,-34.452444]]]}},{"type":"Feature","properties":{"partida":"057061612","cca":"057030H002000000000000000000002000C0004000","tipo":"Urbano","sup_m2":281.1},"geometry":{"type":"Polygon","coordinates":[[[-58.689877,-34.452444],[-58.689556,-34.452399],[-58.689541,-34.452483],[-58.689861,-34.452528],[-58.689877,-34.452444]]]}},{"type":"Feature","properties":{"partida":"057061613","cca":"057030H002000000000000000000002000C0005000","tipo":"Urbano","sup_m2":205.4},"geometry":{"type":"Polygon","coordinates":[[[-58.689753,-34.452513],[-58.689541,-34.452483],[-58.689523,-34.452575],[-58.689736,-34.452605],[-58.689753,-34.452513]]]}},{"type":"Feature","properties":{"partida":"057061614","cca":"057030H002000000000000000000002000C0006000","tipo":"Urbano","sup_m2":196.0},"geometry":{"type":"Polygon","coordinates":[[[-58.689523,-34.452575],[-58.68951,-34.452644],[-58.689541,-34.45267],[-58.68972,-34.452695],[-58.689736,-34.452605],[-58.689523,-34.452575]]]}},{"type":"Feature","properties":{"partida":"057061615","cca":"057030H002000000000000000000002000C0007000","tipo":"Urbano","sup_m2":203.8},"geometry":{"type":"Polygon","coordinates":[[[-58.689826,-34.45271],[-58.689861,-34.452528],[-58.689753,-34.452513],[-58.68972,-34.452695],[-58.689826,-34.45271]]]}},{"type":"Feature","properties":{"partida":"057061616","cca":"057030H002000000000000000000002000C000800A","tipo":"Urbano","sup_m2":702.6},"geometry":{"type":"Polygon","coordinates":[[[-58.690039,-34.452741],[-58.690101,-34.452428],[-58.689886,-34.452397],[-58.689826,-34.45271],[-58.690039,-34.452741]]]}},{"type":"Feature","properties":{"partida":"057061618","cca":"057030H002000000000000000000002000C0010000","tipo":"Urbano","sup_m2":344.6},"geometry":{"type":"Polygon","coordinates":[[[-58.690205,-34.452443],[-58.690101,-34.452428],[-58.690039,-34.452741],[-58.690145,-34.452756],[-58.690205,-34.452443]]]}},{"type":"Feature","properties":{"partida":"057061619","cca":"057030H002000000000000000000002000C0011000","tipo":"Urbano","sup_m2":356.5},"geometry":{"type":"Polygon","coordinates":[[[-58.690315,-34.45246],[-58.690205,-34.452443],[-58.690145,-34.452756],[-58.690253,-34.452771],[-58.690315,-34.45246]]]}},{"type":"Feature","properties":{"partida":"057061620","cca":"057030H002000000000000000000002000C0012000","tipo":"Urbano","sup_m2":352.9},"geometry":{"type":"Polygon","coordinates":[[[-58.690315,-34.45246],[-58.690253,-34.452771],[-58.690362,-34.452787],[-58.690422,-34.452475],[-58.690315,-34.45246]]]}},{"type":"Feature","properties":{"partida":"057061621","cca":"057030H002000000000000000000002000C0013000","tipo":"Urbano","sup_m2":336.6},"geometry":{"type":"Polygon","coordinates":[[[-58.690525,-34.45249],[-58.690422,-34.452475],[-58.690362,-34.452787],[-58.690465,-34.452802],[-58.690525,-34.45249]]]}},{"type":"Feature","properties":{"partida":"057061622","cca":"057030H002000000000000000000002000C0014000","tipo":"Urbano","sup_m2":362.6},"geometry":{"type":"Polygon","coordinates":[[[-58.690465,-34.452802],[-58.690576,-34.452818],[-58.690636,-34.452507],[-58.690525,-34.45249],[-58.690465,-34.452802]]]}},{"type":"Feature","properties":{"partida":"057061623","cca":"057030H002000000000000000000002000C0015000","tipo":"Urbano","sup_m2":331.2},"geometry":{"type":"Polygon","coordinates":[[[-58.690677,-34.452832],[-58.690739,-34.452521],[-58.690636,-34.452507],[-58.690576,-34.452818],[-58.690677,-34.452832]]]}},{"type":"Feature","properties":{"partida":"057061624","cca":"057030H002000000000000000000002000C001600A","tipo":"Urbano","sup_m2":617.0},"geometry":{"type":"Polygon","coordinates":[[[-58.690971,-34.452874],[-58.691009,-34.452848],[-58.69104,-34.452697],[-58.690713,-34.45265],[-58.690677,-34.452832],[-58.690971,-34.452874]]]}},{"type":"Feature","properties":{"partida":"057061627","cca":"057030H002000000000000000000002000C0019000","tipo":"Urbano","sup_m2":292.1},"geometry":{"type":"Polygon","coordinates":[[[-58.69073,-34.452564],[-58.690713,-34.45265],[-58.69104,-34.452697],[-58.691057,-34.452612],[-58.69073,-34.452564]]]}},{"type":"Feature","properties":{"partida":"057061628","cca":"057030H002000000000000000000002000C0020000","tipo":"Urbano","sup_m2":311.9},"geometry":{"type":"Polygon","coordinates":[[[-58.691057,-34.452612],[-58.691075,-34.45252],[-58.690748,-34.452474],[-58.69073,-34.452564],[-58.691057,-34.452612]]]}},{"type":"Feature","properties":{"partida":"057061629","cca":"057030H002000000000000000000002000C0021000","tipo":"Urbano","sup_m2":199.9},"geometry":{"type":"Polygon","coordinates":[[[-58.691093,-34.452432],[-58.690876,-34.452402],[-58.690858,-34.45249],[-58.691075,-34.45252],[-58.691093,-34.452432]]]}},{"type":"Feature","properties":{"partida":"057061630","cca":"057030H002000000000000000000002000C0022000","tipo":"Urbano","sup_m2":197.9},"geometry":{"type":"Polygon","coordinates":[[[-58.69102,-34.452239],[-58.690985,-34.452418],[-58.691093,-34.452432],[-58.691123,-34.452277],[-58.691097,-34.45225],[-58.69102,-34.452239]]]}},{"type":"Feature","properties":{"partida":"057061631","cca":"057030H002000000000000000000002000C0023000","tipo":"Urbano","sup_m2":204.7},"geometry":{"type":"Polygon","coordinates":[[[-58.690911,-34.452223],[-58.690876,-34.452402],[-58.690985,-34.452418],[-58.69102,-34.452239],[-58.690911,-34.452223]]]}},{"type":"Feature","properties":{"partida":"057061632","cca":"057030H002000000000000000000002000C0024000","tipo":"Urbano","sup_m2":311.0},"geometry":{"type":"Polygon","coordinates":[[[-58.690911,-34.452223],[-58.6908,-34.452207],[-58.690748,-34.452474],[-58.690858,-34.45249],[-58.690911,-34.452223]]]}},{"type":"Feature","properties":{"partida":"057061633","cca":"057030H002000000000000000000002000C0025000","tipo":"Urbano","sup_m2":340.4},"geometry":{"type":"Polygon","coordinates":[[[-58.690636,-34.452507],[-58.690739,-34.452521],[-58.6908,-34.452207],[-58.690696,-34.452192],[-58.690636,-34.452507]]]}},{"type":"Feature","properties":{"partida":"057061634","cca":"057030H002000000000000000000002000C0026000","tipo":"Urbano","sup_m2":366.1},"geometry":{"type":"Polygon","coordinates":[[[-58.690525,-34.45249],[-58.690636,-34.452507],[-58.690696,-34.452192],[-58.690585,-34.452176],[-58.690525,-34.45249]]]}},{"type":"Feature","properties":{"partida":"057061635","cca":"057030H002000000000000000000002000C0027000","tipo":"Urbano","sup_m2":342.1},"geometry":{"type":"Polygon","coordinates":[[[-58.690422,-34.452475],[-58.690525,-34.45249],[-58.690585,-34.452176],[-58.690481,-34.452161],[-58.690422,-34.452475]]]}},{"type":"Feature","properties":{"partida":"057061636","cca":"057030H002000000000000000000002000C0028000","tipo":"Urbano","sup_m2":347.5},"geometry":{"type":"Polygon","coordinates":[[[-58.690481,-34.452161],[-58.690376,-34.452146],[-58.690315,-34.45246],[-58.690422,-34.452475],[-58.690481,-34.452161]]]}},{"type":"Feature","properties":{"partida":"057061637","cca":"057030H002000000000000000000002000C0029000","tipo":"Urbano","sup_m2":363.4},"geometry":{"type":"Polygon","coordinates":[[[-58.690205,-34.452443],[-58.690315,-34.45246],[-58.690376,-34.452146],[-58.690265,-34.45213],[-58.690205,-34.452443]]]}},{"type":"Feature","properties":{"partida":"057061638","cca":"057030H002000000000000000000002000C0030000","tipo":"Urbano","sup_m2":341.2},"geometry":{"type":"Polygon","coordinates":[[[-58.690265,-34.45213],[-58.690162,-34.452115],[-58.690101,-34.452428],[-58.690205,-34.452443],[-58.690265,-34.45213]]]}},{"type":"Feature","properties":{"partida":"057061639","cca":"057030H002000000000000000000002000C003100A","tipo":"Urbano","sup_m2":709.0},"geometry":{"type":"Polygon","coordinates":[[[-58.689946,-34.452083],[-58.689886,-34.452397],[-58.690101,-34.452428],[-58.690162,-34.452115],[-58.689946,-34.452083]]]}},{"type":"Feature","properties":{"partida":"057061643","cca":"057030H002000000000000000000002000D0001000","tipo":"Urbano","sup_m2":204.5},"geometry":{"type":"Polygon","coordinates":[[[-58.689672,-34.452828],[-58.689498,-34.452804],[-58.689464,-34.452823],[-58.689449,-34.452897],[-58.689654,-34.452925],[-58.689672,-34.452828]]]}},{"type":"Feature","properties":{"partida":"057061644","cca":"057030H002000000000000000000002000D0002000","tipo":"Urbano","sup_m2":172.8},"geometry":{"type":"Polygon","coordinates":[[[-58.68964,-34.453006],[-58.689654,-34.452925],[-58.689449,-34.452897],[-58.689435,-34.452978],[-58.68964,-34.453006]]]}},{"type":"Feature","properties":{"partida":"057061645","cca":"057030H002000000000000000000002000D000300B","tipo":"Urbano","sup_m2":620.4},"geometry":{"type":"Polygon","coordinates":[[[-58.689756,-34.453022],[-58.689435,-34.452978],[-58.689403,-34.453162],[-58.689726,-34.453206],[-58.689756,-34.453022]]]}},{"type":"Feature","properties":{"partida":"057061647","cca":"057030H002000000000000000000002000D0005000","tipo":"Urbano","sup_m2":300.6},"geometry":{"type":"Polygon","coordinates":[[[-58.689387,-34.453252],[-58.68971,-34.453295],[-58.689726,-34.453206],[-58.689403,-34.453162],[-58.689387,-34.453252]]]}},{"type":"Feature","properties":{"partida":"057061648","cca":"057030H002000000000000000000002000D0006000","tipo":"Urbano","sup_m2":193.0},"geometry":{"type":"Polygon","coordinates":[[[-58.689578,-34.453369],[-58.689593,-34.45328],[-58.689387,-34.453252],[-58.68937,-34.453341],[-58.689578,-34.453369]]]}},{"type":"Feature","properties":{"partida":"057061649","cca":"057030H002000000000000000000002000D0007000","tipo":"Urbano","sup_m2":193.6},"geometry":{"type":"Polygon","coordinates":[[[-58.68937,-34.453341],[-58.689359,-34.453405],[-58.689388,-34.453437],[-58.689562,-34.45346],[-58.689578,-34.453369],[-58.68937,-34.453341]]]}},{"type":"Feature","properties":{"partida":"057061650","cca":"057030H002000000000000000000002000D0008000","tipo":"Urbano","sup_m2":219.1},"geometry":{"type":"Polygon","coordinates":[[[-58.689678,-34.453475],[-58.68971,-34.453295],[-58.689593,-34.45328],[-58.689562,-34.45346],[-58.689678,-34.453475]]]}},{"type":"Feature","properties":{"partida":"057082786","cca":"057030H002000000000000000000002000D0009000","tipo":"Urbano","sup_m2":352.6},"geometry":{"type":"Polygon","coordinates":[[[-58.689841,-34.453172],[-58.689734,-34.453157],[-58.689678,-34.453475],[-58.689784,-34.453489],[-58.689841,-34.453172]]]}},{"type":"Feature","properties":{"partida":"057082787","cca":"057030H002000000000000000000002000D0010000","tipo":"Urbano","sup_m2":349.6},"geometry":{"type":"Polygon","coordinates":[[[-58.689948,-34.453188],[-58.689841,-34.453172],[-58.689784,-34.453489],[-58.689889,-34.453503],[-58.689948,-34.453188]]]}},{"type":"Feature","properties":{"partida":"057082788","cca":"057030H002000000000000000000002000D0011000","tipo":"Urbano","sup_m2":353.6},"geometry":{"type":"Polygon","coordinates":[[[-58.690053,-34.453203],[-58.689948,-34.453188],[-58.689889,-34.453503],[-58.689998,-34.453518],[-58.690053,-34.453203]]]}},{"type":"Feature","properties":{"partida":"057082789","cca":"057030H002000000000000000000002000D0012000","tipo":"Urbano","sup_m2":347.6},"geometry":{"type":"Polygon","coordinates":[[[-58.690053,-34.453203],[-58.689998,-34.453518],[-58.690104,-34.453532],[-58.690159,-34.453218],[-58.690053,-34.453203]]]}},{"type":"Feature","properties":{"partida":"057082790","cca":"057030H002000000000000000000002000D0013000","tipo":"Urbano","sup_m2":355.6},"geometry":{"type":"Polygon","coordinates":[[[-58.690104,-34.453532],[-58.690211,-34.453547],[-58.690268,-34.453234],[-58.690159,-34.453218],[-58.690104,-34.453532]]]}},{"type":"Feature","properties":{"partida":"057082791","cca":"057030H002000000000000000000002000D0014000","tipo":"Urbano","sup_m2":354.2},"geometry":{"type":"Polygon","coordinates":[[[-58.690319,-34.453562],[-58.690377,-34.45325],[-58.690268,-34.453234],[-58.690211,-34.453547],[-58.690319,-34.453562]]]}},{"type":"Feature","properties":{"partida":"057082792","cca":"057030H002000000000000000000002000D0015000","tipo":"Urbano","sup_m2":356.1},"geometry":{"type":"Polygon","coordinates":[[[-58.690486,-34.453265],[-58.690377,-34.45325],[-58.690319,-34.453562],[-58.690428,-34.453576],[-58.690486,-34.453265]]]}},{"type":"Feature","properties":{"partida":"057082793","cca":"057030H002000000000000000000002000D0016000","tipo":"Urbano","sup_m2":346.6},"geometry":{"type":"Polygon","coordinates":[[[-58.690592,-34.453281],[-58.690486,-34.453265],[-58.690428,-34.453576],[-58.690537,-34.453591],[-58.690592,-34.453281]]]}},{"type":"Feature","properties":{"partida":"057082794","cca":"057030H002000000000000000000002000D0017000","tipo":"Urbano","sup_m2":201.4},"geometry":{"type":"Polygon","coordinates":[[[-58.690677,-34.453427],[-58.690568,-34.453412],[-58.690537,-34.453591],[-58.690644,-34.453605],[-58.690677,-34.453427]]]}},{"type":"Feature","properties":{"partida":"057082795","cca":"057030H002000000000000000000002000D0018000","tipo":"Urbano","sup_m2":192.7},"geometry":{"type":"Polygon","coordinates":[[[-58.690661,-34.453517],[-58.690644,-34.453605],[-58.690825,-34.453629],[-58.690864,-34.453603],[-58.690876,-34.453545],[-58.690661,-34.453517]]]}},{"type":"Feature","properties":{"partida":"057082796","cca":"057030H002000000000000000000002000D0019000","tipo":"Urbano","sup_m2":201.9},"geometry":{"type":"Polygon","coordinates":[[[-58.690677,-34.453427],[-58.690661,-34.453517],[-58.690876,-34.453545],[-58.690893,-34.453456],[-58.690677,-34.453427]]]}},{"type":"Feature","properties":{"partida":"057082797","cca":"057030H002000000000000000000002000D0020000","tipo":"Urbano","sup_m2":293.8},"geometry":{"type":"Polygon","coordinates":[[[-58.69091,-34.45337],[-58.690584,-34.453326],[-58.690568,-34.453412],[-58.690893,-34.453456],[-58.69091,-34.45337]]]}},{"type":"Feature","properties":{"partida":"057082798","cca":"057030H002000000000000000000002000D0021000","tipo":"Urbano","sup_m2":326.6},"geometry":{"type":"Polygon","coordinates":[[[-58.69091,-34.45337],[-58.690929,-34.453275],[-58.6906,-34.45323],[-58.690584,-34.453326],[-58.69091,-34.45337]]]}},{"type":"Feature","properties":{"partida":"057082799","cca":"057030H002000000000000000000002000D002200A","tipo":"Urbano","sup_m2":499.1},"geometry":{"type":"Polygon","coordinates":[[[-58.690743,-34.453071],[-58.690727,-34.453157],[-58.690615,-34.453143],[-58.6906,-34.45323],[-58.690929,-34.453275],[-58.690962,-34.453101],[-58.690743,-34.453071]]]}},{"type":"Feature","properties":{"partida":"057082801","cca":"057030H002000000000000000000002000D0024000","tipo":"Urbano","sup_m2":207.2},"geometry":{"type":"Polygon","coordinates":[[[-58.690962,-34.453101],[-58.690975,-34.453037],[-58.690943,-34.453003],[-58.690761,-34.452979],[-58.690743,-34.453071],[-58.690962,-34.453101]]]}},{"type":"Feature","properties":{"partida":"057082802","cca":"057030H002000000000000000000002000D0025000","tipo":"Urbano","sup_m2":208.7},"geometry":{"type":"Polygon","coordinates":[[[-58.690615,-34.453143],[-58.690727,-34.453157],[-58.690761,-34.452979],[-58.690649,-34.452963],[-58.690615,-34.453143]]]}},{"type":"Feature","properties":{"partida":"057082803","cca":"057030H002000000000000000000002000D0026000","tipo":"Urbano","sup_m2":345.4},"geometry":{"type":"Polygon","coordinates":[[[-58.690545,-34.452949],[-58.690486,-34.453265],[-58.690592,-34.453281],[-58.690649,-34.452963],[-58.690545,-34.452949]]]}},{"type":"Feature","properties":{"partida":"057082805","cca":"057030H002000000000000000000002000D002700A","tipo":"Urbano","sup_m2":723.1},"geometry":{"type":"Polygon","coordinates":[[[-58.690486,-34.453265],[-58.690545,-34.452949],[-58.690326,-34.452918],[-58.690268,-34.453234],[-58.690486,-34.453265]]]}},{"type":"Feature","properties":{"partida":"057082806","cca":"057030H002000000000000000000002000D0029000","tipo":"Urbano","sup_m2":366.3},"geometry":{"type":"Polygon","coordinates":[[[-58.690214,-34.452902],[-58.690159,-34.453218],[-58.690268,-34.453234],[-58.690326,-34.452918],[-58.690214,-34.452902]]]}},{"type":"Feature","properties":{"partida":"057082807","cca":"057030H002000000000000000000002000D0030000","tipo":"Urbano","sup_m2":349.7},"geometry":{"type":"Polygon","coordinates":[[[-58.690107,-34.452887],[-58.690053,-34.453203],[-58.690159,-34.453218],[-58.690214,-34.452902],[-58.690107,-34.452887]]]}},{"type":"Feature","properties":{"partida":"057082808","cca":"057030H002000000000000000000002000D0031000","tipo":"Urbano","sup_m2":340.7},"geometry":{"type":"Polygon","coordinates":[[[-58.690107,-34.452887],[-58.690006,-34.452873],[-58.689948,-34.453188],[-58.690053,-34.453203],[-58.690107,-34.452887]]]}},{"type":"Feature","properties":{"partida":"057082809","cca":"057030H002000000000000000000002000D003200A","tipo":"Urbano","sup_m2":708.8},"geometry":{"type":"Polygon","coordinates":[[[-58.689948,-34.453188],[-58.690006,-34.452873],[-58.689789,-34.452843],[-58.689734,-34.453157],[-58.689948,-34.453188]]]}},{"type":"Feature","properties":{"partida":"057082811","cca":"057030H002000000000000000000002000D0034000","tipo":"Urbano","sup_m2":219.0},"geometry":{"type":"Polygon","coordinates":[[[-58.68964,-34.453006],[-58.689756,-34.453022],[-58.689789,-34.452843],[-58.689672,-34.452828],[-58.68964,-34.453006]]]}},{"type":"Feature","properties":{"partida":"057082812","cca":"057030H002000000000000000000002000E0001000","tipo":"Urbano","sup_m2":197.8},"geometry":{"type":"Polygon","coordinates":[[[-58.689544,-34.453594],[-58.689373,-34.45357],[-58.689332,-34.453592],[-58.689319,-34.453659],[-58.689526,-34.453688],[-58.689544,-34.453594]]]}},{"type":"Feature","properties":{"partida":"057082813","cca":"057030H002000000000000000000002000E0002000","tipo":"Urbano","sup_m2":191.7},"geometry":{"type":"Polygon","coordinates":[[[-58.689301,-34.453747],[-58.689508,-34.453776],[-58.689526,-34.453688],[-58.689319,-34.453659],[-58.689301,-34.453747]]]}},{"type":"Feature","properties":{"partida":"057082814","cca":"057030H002000000000000000000002000E0003000","tipo":"Urbano","sup_m2":304.3},"geometry":{"type":"Polygon","coordinates":[[[-58.689621,-34.453792],[-58.689301,-34.453747],[-58.689283,-34.453838],[-58.689603,-34.453882],[-58.689621,-34.453792]]]}},{"type":"Feature","properties":{"partida":"057082815","cca":"057030H002000000000000000000002000E0004000","tipo":"Urbano","sup_m2":296.2},"geometry":{"type":"Polygon","coordinates":[[[-58.689585,-34.453971],[-58.689603,-34.453882],[-58.689283,-34.453838],[-58.689265,-34.453926],[-58.689585,-34.453971]]]}},{"type":"Feature","properties":{"partida":"057082816","cca":"057030H002000000000000000000002000E0005000","tipo":"Urbano","sup_m2":302.0},"geometry":{"type":"Polygon","coordinates":[[[-58.689566,-34.454061],[-58.689585,-34.453971],[-58.689265,-34.453926],[-58.689247,-34.454017],[-58.689566,-34.454061]]]}},{"type":"Feature","properties":{"partida":"057082817","cca":"057030H002000000000000000000002000E0006000","tipo":"Urbano","sup_m2":198.5},"geometry":{"type":"Polygon","coordinates":[[[-58.689229,-34.454108],[-58.689438,-34.454137],[-58.689455,-34.454046],[-58.689247,-34.454017],[-58.689229,-34.454108]]]}},{"type":"Feature","properties":{"partida":"057082818","cca":"057030H002000000000000000000002000E0007000","tipo":"Urbano","sup_m2":180.0},"geometry":{"type":"Polygon","coordinates":[[[-58.689229,-34.454108],[-58.689218,-34.454166],[-58.689253,-34.454199],[-58.689421,-34.454222],[-58.689438,-34.454137],[-58.689229,-34.454108]]]}},{"type":"Feature","properties":{"partida":"057082819","cca":"057030H002000000000000000000002000E0008000","tipo":"Urbano","sup_m2":203.1},"geometry":{"type":"Polygon","coordinates":[[[-58.68953,-34.454237],[-58.689566,-34.454061],[-58.689455,-34.454046],[-58.689421,-34.454222],[-58.68953,-34.454237]]]}},{"type":"Feature","properties":{"partida":"057082820","cca":"057030H002000000000000000000002000E000900A","tipo":"Urbano","sup_m2":686.7},"geometry":{"type":"Polygon","coordinates":[[[-58.689805,-34.453955],[-58.689594,-34.453926],[-58.68953,-34.454237],[-58.689741,-34.454265],[-58.689805,-34.453955]]]}},{"type":"Feature","properties":{"partida":"057082822","cca":"057030H002000000000000000000002000E0011000","tipo":"Urbano","sup_m2":357.4},"geometry":{"type":"Polygon","coordinates":[[[-58.689741,-34.454265],[-58.68985,-34.45428],[-58.689915,-34.453969],[-58.689805,-34.453955],[-58.689741,-34.454265]]]}},{"type":"Feature","properties":{"partida":"057082823","cca":"057030H002000000000000000000002000E0012000","tipo":"Urbano","sup_m2":344.8},"geometry":{"type":"Polygon","coordinates":[[[-58.689915,-34.453969],[-58.68985,-34.45428],[-58.689957,-34.454295],[-58.69002,-34.453984],[-58.689915,-34.453969]]]}},{"type":"Feature","properties":{"partida":"057082824","cca":"057030H002000000000000000000002000E0013000","tipo":"Urbano","sup_m2":357.2},"geometry":{"type":"Polygon","coordinates":[[[-58.69002,-34.453984],[-58.689957,-34.454295],[-58.690067,-34.45431],[-58.690129,-34.453998],[-58.69002,-34.453984]]]}},{"type":"Feature","properties":{"partida":"057082825","cca":"057030H002000000000000000000002000E0014000","tipo":"Urbano","sup_m2":335.8},"geometry":{"type":"Polygon","coordinates":[[[-58.690169,-34.454324],[-58.690233,-34.454012],[-58.690129,-34.453998],[-58.690067,-34.45431],[-58.690169,-34.454324]]]}},{"type":"Feature","properties":{"partida":"057082826","cca":"057030H002000000000000000000002000E0015000","tipo":"Urbano","sup_m2":363.4},"geometry":{"type":"Polygon","coordinates":[[[-58.690344,-34.454027],[-58.690233,-34.454012],[-58.690169,-34.454324],[-58.69028,-34.454339],[-58.690344,-34.454027]]]}},{"type":"Feature","properties":{"partida":"057082827","cca":"057030H002000000000000000000002000E0016000","tipo":"Urbano","sup_m2":348.6},"geometry":{"type":"Polygon","coordinates":[[[-58.69045,-34.454042],[-58.690344,-34.454027],[-58.69028,-34.454339],[-58.690388,-34.454354],[-58.69045,-34.454042]]]}},{"type":"Feature","properties":{"partida":"057082828","cca":"057030H002000000000000000000002000E0017000","tipo":"Urbano","sup_m2":195.4},"geometry":{"type":"Polygon","coordinates":[[[-58.690493,-34.454368],[-58.69053,-34.454194],[-58.690423,-34.454179],[-58.690388,-34.454354],[-58.690493,-34.454368]]]}},{"type":"Feature","properties":{"partida":"057082829","cca":"057030H002000000000000000000002000E0018000","tipo":"Urbano","sup_m2":193.1},"geometry":{"type":"Polygon","coordinates":[[[-58.690511,-34.454283],[-58.690493,-34.454368],[-58.690681,-34.454394],[-58.690721,-34.454368],[-58.690732,-34.454313],[-58.690511,-34.454283]]]}},{"type":"Feature","properties":{"partida":"057082830","cca":"057030H002000000000000000000002000E0019000","tipo":"Urbano","sup_m2":205.4},"geometry":{"type":"Polygon","coordinates":[[[-58.690732,-34.454313],[-58.69075,-34.454224],[-58.69053,-34.454194],[-58.690511,-34.454283],[-58.690732,-34.454313]]]}},{"type":"Feature","properties":{"partida":"057082831","cca":"057030H002000000000000000000002000E0020000","tipo":"Urbano","sup_m2":308.0},"geometry":{"type":"Polygon","coordinates":[[[-58.690768,-34.454134],[-58.69044,-34.454089],[-58.690423,-34.454179],[-58.69075,-34.454224],[-58.690768,-34.454134]]]}},{"type":"Feature","properties":{"partida":"057082832","cca":"057030H002000000000000000000002000E0021000","tipo":"Urbano","sup_m2":309.4},"geometry":{"type":"Polygon","coordinates":[[[-58.690458,-34.453999],[-58.69044,-34.454089],[-58.690768,-34.454134],[-58.690787,-34.454044],[-58.690458,-34.453999]]]}},{"type":"Feature","properties":{"partida":"057082833","cca":"057030H002000000000000000000002000E0022000","tipo":"Urbano","sup_m2":304.2},"geometry":{"type":"Polygon","coordinates":[[[-58.690804,-34.453956],[-58.690476,-34.453911],[-58.690458,-34.453999],[-58.690787,-34.454044],[-58.690804,-34.453956]]]}},{"type":"Feature","properties":{"partida":"057082834","cca":"057030H002000000000000000000002000E0023000","tipo":"Urbano","sup_m2":195.3},"geometry":{"type":"Polygon","coordinates":[[[-58.690604,-34.45384],[-58.690586,-34.453926],[-58.690804,-34.453956],[-58.690822,-34.453871],[-58.690604,-34.45384]]]}},{"type":"Feature","properties":{"partida":"057082835","cca":"057030H002000000000000000000002000E0024000","tipo":"Urbano","sup_m2":208.2},"geometry":{"type":"Polygon","coordinates":[[[-58.690604,-34.45384],[-58.690822,-34.453871],[-58.690835,-34.453804],[-58.690813,-34.453774],[-58.690623,-34.453747],[-58.690604,-34.45384]]]}},{"type":"Feature","properties":{"partida":"057082836","cca":"057030H002000000000000000000002000E0025000","tipo":"Urbano","sup_m2":208.7},"geometry":{"type":"Polygon","coordinates":[[[-58.690586,-34.453926],[-58.690623,-34.453747],[-58.690511,-34.453731],[-58.690476,-34.453911],[-58.690586,-34.453926]]]}},{"type":"Feature","properties":{"partida":"057082837","cca":"057030H002000000000000000000002000E0026000","tipo":"Urbano","sup_m2":338.9},"geometry":{"type":"Polygon","coordinates":[[[-58.69045,-34.454042],[-58.690511,-34.453731],[-58.690409,-34.453717],[-58.690344,-34.454027],[-58.69045,-34.454042]]]}},{"type":"Feature","properties":{"partida":"057082838","cca":"057030H002000000000000000000002000E0027000","tipo":"Urbano","sup_m2":365.1},"geometry":{"type":"Polygon","coordinates":[[[-58.690233,-34.454012],[-58.690344,-34.454027],[-58.690409,-34.453717],[-58.690296,-34.453701],[-58.690233,-34.454012]]]}},{"type":"Feature","properties":{"partida":"057082839","cca":"057030H002000000000000000000002000E0028000","tipo":"Urbano","sup_m2":339.9},"geometry":{"type":"Polygon","coordinates":[[[-58.690192,-34.453686],[-58.690129,-34.453998],[-58.690233,-34.454012],[-58.690296,-34.453701],[-58.690192,-34.453686]]]}},{"type":"Feature","properties":{"partida":"057082840","cca":"057030H002000000000000000000002000E0029000","tipo":"Urbano","sup_m2":358.1},"geometry":{"type":"Polygon","coordinates":[[[-58.690192,-34.453686],[-58.690082,-34.453671],[-58.69002,-34.453984],[-58.690129,-34.453998],[-58.690192,-34.453686]]]}},{"type":"Feature","properties":{"partida":"057082841","cca":"057030H002000000000000000000002000E003000A","tipo":"Urbano","sup_m2":704.6},"geometry":{"type":"Polygon","coordinates":[[[-58.69002,-34.453984],[-58.690082,-34.453671],[-58.689869,-34.45364],[-58.689805,-34.453955],[-58.69002,-34.453984]]]}},{"type":"Feature","properties":{"partida":"057082843","cca":"057030H002000000000000000000002000E0032000","tipo":"Urbano","sup_m2":354.1},"geometry":{"type":"Polygon","coordinates":[[[-58.68976,-34.453625],[-58.689698,-34.45394],[-58.689805,-34.453955],[-58.689869,-34.45364],[-58.68976,-34.453625]]]}},{"type":"Feature","properties":{"partida":"057082844","cca":"057030H002000000000000000000002000E0033000","tipo":"Urbano","sup_m2":342.6},"geometry":{"type":"Polygon","coordinates":[[[-58.689698,-34.45394],[-58.68976,-34.453625],[-58.689658,-34.45361],[-58.689594,-34.453926],[-58.689698,-34.45394]]]}},{"type":"Feature","properties":{"partida":"057082845","cca":"057030H002000000000000000000002000E0034000","tipo":"Urbano","sup_m2":214.6},"geometry":{"type":"Polygon","coordinates":[[[-58.689621,-34.453792],[-58.689658,-34.45361],[-58.689544,-34.453594],[-58.689508,-34.453776],[-58.689621,-34.453792]]]}},{"type":"Feature","properties":{"partida":"057107150","cca":"057030H002100000000000000000002100A0001000","tipo":"Urbano","sup_m2":975.3},"geometry":{"type":"Polygon","coordinates":[[[-58.689393,-34.452449],[-58.689469,-34.452051],[-58.689441,-34.452017],[-58.689255,-34.451994],[-58.689175,-34.452424],[-58.689393,-34.452449]]]}},{"type":"Feature","properties":{"partida":"057081268","cca":"057030H002100000000000000000002100A002200B","tipo":"Urbano","sup_m2":284.4},"geometry":{"type":"Polygon","coordinates":[[[-58.689111,-34.45394],[-58.688991,-34.453922],[-58.688944,-34.45416],[-58.689008,-34.454168],[-58.689073,-34.454133],[-58.689111,-34.45394]]]}},{"type":"Feature","properties":{"partida":"057081269","cca":"057030H002100000000000000000002100A002200C","tipo":"Urbano","sup_m2":222.6},"geometry":{"type":"Polygon","coordinates":[[[-58.689129,-34.453838],[-58.688914,-34.453812],[-58.688896,-34.45391],[-58.689111,-34.45394],[-58.689129,-34.453838]]]}},{"type":"Feature","properties":{"partida":"057081270","cca":"057030H002100000000000000000002100A002200E","tipo":"Urbano","sup_m2":105.9},"geometry":{"type":"Polygon","coordinates":[[[-58.689129,-34.453838],[-58.689138,-34.453791],[-58.688922,-34.453765],[-58.688914,-34.453812],[-58.689129,-34.453838]]]}},{"type":"Feature","properties":{"partida":"057087986","cca":"057030H002100000000000000000002100A002200F","tipo":"Urbano","sup_m2":112.6},"geometry":{"type":"Polygon","coordinates":[[[-58.689147,-34.453741],[-58.688931,-34.453715],[-58.688922,-34.453765],[-58.689138,-34.453791],[-58.689147,-34.453741]]]}},{"type":"Feature","properties":{"partida":"057018124","cca":"057030H002100000000000000000002100A0029000","tipo":"Urbano","sup_m2":1255.3},"geometry":{"type":"Polygon","coordinates":[[[-58.689361,-34.452614],[-58.688605,-34.452521],[-58.688575,-34.452683],[-58.689332,-34.452771],[-58.689361,-34.452614]]]}},{"type":"Feature","properties":{"partida":"057018123","cca":"057030H002100000000000000000002100A0030000","tipo":"Urbano","sup_m2":1289.3},"geometry":{"type":"Polygon","coordinates":[[[-58.689393,-34.452449],[-58.688636,-34.452359],[-58.688605,-34.452521],[-58.689361,-34.452614],[-58.689393,-34.452449]]]}},{"type":"Feature","properties":{"partida":"057018358","cca":"057030H002600000000000000000002600A0001000","tipo":"Urbano","sup_m2":317.3},"geometry":{"type":"Polygon","coordinates":[[[-58.689305,-34.458086],[-58.689486,-34.457858],[-58.689429,-34.457828],[-58.689357,-34.457841],[-58.689206,-34.458034],[-58.689305,-34.458086]]]}},{"type":"Feature","properties":{"partida":"057018359","cca":"057030H002600000000000000000002600A0002000","tipo":"Urbano","sup_m2":317.4},"geometry":{"type":"Polygon","coordinates":[[[-58.689502,-34.458192],[-58.689206,-34.458034],[-58.689149,-34.458107],[-58.689443,-34.458267],[-58.689502,-34.458192]]]}},{"type":"Feature","properties":{"partida":"057061731","cca":"057030H002600000000000000000002600A0003000","tipo":"Urbano","sup_m2":327.5},"geometry":{"type":"Polygon","coordinates":[[[-58.689384,-34.458343],[-58.689443,-34.458267],[-58.689149,-34.458107],[-58.689088,-34.458184],[-58.689384,-34.458343]]]}},{"type":"Feature","properties":{"partida":"057061732","cca":"057030H002600000000000000000002600A0004000","tipo":"Urbano","sup_m2":330.4},"geometry":{"type":"Polygon","coordinates":[[[-58.689384,-34.458343],[-58.689088,-34.458184],[-58.689028,-34.458261],[-58.689324,-34.45842],[-58.689384,-34.458343]]]}},{"type":"Feature","properties":{"partida":"057061733","cca":"057030H002600000000000000000002600A0005000","tipo":"Urbano","sup_m2":329.6},"geometry":{"type":"Polygon","coordinates":[[[-58.689265,-34.458497],[-58.689324,-34.45842],[-58.689028,-34.458261],[-58.688968,-34.458338],[-58.689265,-34.458497]]]}},{"type":"Feature","properties":{"partida":"057018360","cca":"057030H002600000000000000000002600A0006000","tipo":"Urbano","sup_m2":305.3},"geometry":{"type":"Polygon","coordinates":[[[-58.689265,-34.458497],[-58.688968,-34.458338],[-58.688929,-34.458387],[-58.688944,-34.458428],[-58.689209,-34.45857],[-58.689265,-34.458497]]]}},{"type":"Feature","properties":{"partida":"057061735","cca":"057030H002600000000000000000002600A0007000","tipo":"Urbano","sup_m2":399.2},"geometry":{"type":"Polygon","coordinates":[[[-58.689443,-34.458267],[-58.689209,-34.45857],[-58.689299,-34.458618],[-58.689535,-34.458317],[-58.689443,-34.458267]]]}},{"type":"Feature","properties":{"partida":"057061736","cca":"057030H002600000000000000000002600A0008000","tipo":"Urbano","sup_m2":391.3},"geometry":{"type":"Polygon","coordinates":[[[-58.689624,-34.458366],[-58.689535,-34.458317],[-58.689299,-34.458618],[-58.689389,-34.458666],[-58.689624,-34.458366]]]}},{"type":"Feature","properties":{"partida":"057061737","cca":"057030H002600000000000000000002600A0009000","tipo":"Urbano","sup_m2":388.5},"geometry":{"type":"Polygon","coordinates":[[[-58.689478,-34.458714],[-58.689714,-34.458415],[-58.689624,-34.458366],[-58.689389,-34.458666],[-58.689478,-34.458714]]]}},{"type":"Feature","properties":{"partida":"057069945","cca":"057030H002600000000000000000002600A0010000","tipo":"Urbano","sup_m2":401.8},"geometry":{"type":"Polygon","coordinates":[[[-58.689714,-34.458415],[-58.689478,-34.458714],[-58.68957,-34.458764],[-58.689806,-34.458465],[-58.689714,-34.458415]]]}},{"type":"Feature","properties":{"partida":"057061738","cca":"057030H002600000000000000000002600A0011000","tipo":"Urbano","sup_m2":398.8},"geometry":{"type":"Polygon","coordinates":[[[-58.689663,-34.458814],[-58.689897,-34.458515],[-58.689806,-34.458465],[-58.68957,-34.458764],[-58.689663,-34.458814]]]}},{"type":"Feature","properties":{"partida":"057061739","cca":"057030H002600000000000000000002600A0012000","tipo":"Urbano","sup_m2":364.4},"geometry":{"type":"Polygon","coordinates":[[[-58.689663,-34.458814],[-58.689985,-34.458987],[-58.690032,-34.458981],[-58.690072,-34.458931],[-58.68972,-34.458741],[-58.689663,-34.458814]]]}},{"type":"Feature","properties":{"partida":"057061740","cca":"057030H002600000000000000000002600A0013000","tipo":"Urbano","sup_m2":389.6},"geometry":{"type":"Polygon","coordinates":[[[-58.68972,-34.458741],[-58.690072,-34.458931],[-58.690132,-34.458855],[-58.68978,-34.458665],[-58.68972,-34.458741]]]}},{"type":"Feature","properties":{"partida":"057018355","cca":"057030H002600000000000000000002600A0014000","tipo":"Urbano","sup_m2":388.9},"geometry":{"type":"Polygon","coordinates":[[[-58.690192,-34.458779],[-58.689839,-34.458589],[-58.68978,-34.458665],[-58.690132,-34.458855],[-58.690192,-34.458779]]]}},{"type":"Feature","properties":{"partida":"057061741","cca":"057030H002600000000000000000002600A001500B","tipo":"Urbano","sup_m2":776.4},"geometry":{"type":"Polygon","coordinates":[[[-58.690312,-34.458628],[-58.689957,-34.458438],[-58.689839,-34.458589],[-58.690192,-34.458779],[-58.690312,-34.458628]]]}},{"type":"Feature","properties":{"partida":"057018356","cca":"057030H002600000000000000000002600A0017000","tipo":"Urbano","sup_m2":394.5},"geometry":{"type":"Polygon","coordinates":[[[-58.690016,-34.458362],[-58.689957,-34.458438],[-58.690312,-34.458628],[-58.690374,-34.458551],[-58.690016,-34.458362]]]}},{"type":"Feature","properties":{"partida":"057061743","cca":"057030H002600000000000000000002600A0018000","tipo":"Urbano","sup_m2":400.2},"geometry":{"type":"Polygon","coordinates":[[[-58.690453,-34.458485],[-58.690075,-34.458287],[-58.690016,-34.458362],[-58.690374,-34.458551],[-58.690453,-34.458485]]]}},{"type":"Feature","properties":{"partida":"057061744","cca":"057030H002600000000000000000002600A0019000","tipo":"Urbano","sup_m2":406.2},"geometry":{"type":"Polygon","coordinates":[[[-58.690075,-34.458287],[-58.690453,-34.458485],[-58.6905,-34.458449],[-58.690496,-34.458407],[-58.690136,-34.458211],[-58.690075,-34.458287]]]}},{"type":"Feature","properties":{"partida":"057018357","cca":"057030H002600000000000000000002600A0020000","tipo":"Urbano","sup_m2":398.5},"geometry":{"type":"Polygon","coordinates":[[[-58.690046,-34.458162],[-58.689806,-34.458465],[-58.689897,-34.458515],[-58.690136,-34.458211],[-58.690046,-34.458162]]]}},{"type":"Feature","properties":{"partida":"057061745","cca":"057030H002600000000000000000002600A0021000","tipo":"Urbano","sup_m2":408.1},"geometry":{"type":"Polygon","coordinates":[[[-58.690046,-34.458162],[-58.689953,-34.458112],[-58.689714,-34.458415],[-58.689806,-34.458465],[-58.690046,-34.458162]]]}},{"type":"Feature","properties":{"partida":"057061746","cca":"057030H002600000000000000000002600A0022000","tipo":"Urbano","sup_m2":400.8},"geometry":{"type":"Polygon","coordinates":[[[-58.689862,-34.458062],[-58.689624,-34.458366],[-58.689714,-34.458415],[-58.689953,-34.458112],[-58.689862,-34.458062]]]}},{"type":"Feature","properties":{"partida":"057061734","cca":"057030H002600000000000000000002600A0023000","tipo":"Urbano","sup_m2":390.5},"geometry":{"type":"Polygon","coordinates":[[[-58.689624,-34.458366],[-58.689862,-34.458062],[-58.689773,-34.458014],[-58.689535,-34.458317],[-58.689624,-34.458366]]]}},{"type":"Feature","properties":{"partida":"057104068","cca":"057030H002600000000000000000002600A0024000","tipo":"Urbano","sup_m2":413.1},"geometry":{"type":"Polygon","coordinates":[[[-58.689443,-34.458267],[-58.689535,-34.458317],[-58.689773,-34.458014],[-58.689678,-34.457963],[-58.689443,-34.458267]]]}},{"type":"Feature","properties":{"partida":"057061729","cca":"057030H002600000000000000000002600A0025000","tipo":"Urbano","sup_m2":315.6},"geometry":{"type":"Polygon","coordinates":[[[-58.689585,-34.457912],[-58.689404,-34.458139],[-58.689502,-34.458192],[-58.689678,-34.457963],[-58.689585,-34.457912]]]}},{"type":"Feature","properties":{"partida":"057061730","cca":"057030H002600000000000000000002600A0026000","tipo":"Urbano","sup_m2":327.8},"geometry":{"type":"Polygon","coordinates":[[[-58.689404,-34.458139],[-58.689585,-34.457912],[-58.689486,-34.457858],[-58.689305,-34.458086],[-58.689404,-34.458139]]]}},{"type":"Feature","properties":{"partida":"057061758","cca":"057030H002600000000000000000002600B0010000","tipo":"Urbano","sup_m2":349.4},"geometry":{"type":"Polygon","coordinates":[[[-58.689197,-34.459092],[-58.689107,-34.459044],[-58.688894,-34.459314],[-58.688984,-34.45936],[-58.689197,-34.459092]]]}},{"type":"Feature","properties":{"partida":"057018353","cca":"057030H002600000000000000000002600B0011000","tipo":"Urbano","sup_m2":361.8},"geometry":{"type":"Polygon","coordinates":[[[-58.689197,-34.459092],[-58.688984,-34.45936],[-58.689077,-34.45941],[-58.689289,-34.459141],[-58.689197,-34.459092]]]}},{"type":"Feature","properties":{"partida":"057061759","cca":"057030H002600000000000000000002600B0012000","tipo":"Urbano","sup_m2":372.6},"geometry":{"type":"Polygon","coordinates":[[[-58.689173,-34.45946],[-58.689385,-34.459192],[-58.689289,-34.459141],[-58.689077,-34.45941],[-58.689173,-34.45946]]]}},{"type":"Feature","properties":{"partida":"057061760","cca":"057030H002600000000000000000002600B001300A","tipo":"Urbano","sup_m2":764.5},"geometry":{"type":"Polygon","coordinates":[[[-58.689173,-34.45946],[-58.689499,-34.459631],[-58.689555,-34.45961],[-58.68963,-34.459481],[-58.689295,-34.459306],[-58.689173,-34.45946]]]}},{"type":"Feature","properties":{"partida":"057018354","cca":"057030H002600000000000000000002600B001500C","tipo":"Urbano","sup_m2":1788.5},"geometry":{"type":"Polygon","coordinates":[[[-58.689589,-34.458933],[-58.689295,-34.459306],[-58.68963,-34.459481],[-58.689904,-34.459134],[-58.689887,-34.459091],[-58.689589,-34.458933]]]}},{"type":"Feature","properties":{"partida":"057061766","cca":"057030H002600000000000000000002600B002000A","tipo":"Urbano","sup_m2":700.2},"geometry":{"type":"Polygon","coordinates":[[[-58.689385,-34.459192],[-58.689589,-34.458933],[-58.689402,-34.458834],[-58.689197,-34.459092],[-58.689385,-34.459192]]]}},{"type":"Feature","properties":{"partida":"057061751","cca":"057030H002600000000000000000002600B0022000","tipo":"Urbano","sup_m2":339.9},"geometry":{"type":"Polygon","coordinates":[[[-58.689402,-34.458834],[-58.68931,-34.458786],[-58.689107,-34.459044],[-58.689197,-34.459092],[-58.689402,-34.458834]]]}},{"type":"Feature","properties":{"partida":"057061752","cca":"057030H002600000000000000000002600B0023000","tipo":"Urbano","sup_m2":322.4},"geometry":{"type":"Polygon","coordinates":[[[-58.689223,-34.45874],[-58.689021,-34.458998],[-58.689107,-34.459044],[-58.68931,-34.458786],[-58.689223,-34.45874]]]}},{"type":"Feature","properties":{"partida":"057061753","cca":"057030H002600000000000000000002600B0024000","tipo":"Urbano","sup_m2":353.4},"geometry":{"type":"Polygon","coordinates":[[[-58.689223,-34.45874],[-58.689127,-34.458689],[-58.688926,-34.458947],[-58.689021,-34.458998],[-58.689223,-34.45874]]]}},{"type":"Feature","properties":{"partida":"057061900","cca":"057030H002600000000000000000002600C0014000","tipo":"Urbano","sup_m2":324.4},"geometry":{"type":"Polygon","coordinates":[[[-58.688942,-34.460133],[-58.688871,-34.460225],[-58.689105,-34.46036],[-58.689179,-34.460264],[-58.688942,-34.460133]]]}},{"type":"Feature","properties":{"partida":"057061901","cca":"057030H002600000000000000000002600C0015000","tipo":"Urbano","sup_m2":405.4},"geometry":{"type":"Polygon","coordinates":[[[-58.688805,-34.460057],[-58.689179,-34.460264],[-58.689226,-34.460183],[-58.688866,-34.459981],[-58.688805,-34.460057]]]}},{"type":"Feature","properties":{"partida":"057061902","cca":"057030H002600000000000000000002600C0016000","tipo":"Urbano","sup_m2":380.7},"geometry":{"type":"Polygon","coordinates":[[[-58.688923,-34.459911],[-58.688866,-34.459981],[-58.689226,-34.460183],[-58.689273,-34.4601],[-58.688923,-34.459911]]]}},{"type":"Feature","properties":{"partida":"057061903","cca":"057030H002600000000000000000002600C0017000","tipo":"Urbano","sup_m2":389.4},"geometry":{"type":"Polygon","coordinates":[[[-58.688984,-34.459832],[-58.688923,-34.459911],[-58.689273,-34.4601],[-58.689321,-34.460017],[-58.688984,-34.459832]]]}},{"type":"Feature","properties":{"partida":"057069953","cca":"057030H002600000000000000000002600C0018000","tipo":"Urbano","sup_m2":357.8},"geometry":{"type":"Polygon","coordinates":[[[-58.68904,-34.459758],[-58.688984,-34.459832],[-58.689321,-34.460017],[-58.689368,-34.459936],[-58.68904,-34.459758]]]}},{"type":"Feature","properties":{"partida":"057061904","cca":"057030H002600000000000000000002600C0019000","tipo":"Urbano","sup_m2":361.1},"geometry":{"type":"Polygon","coordinates":[[[-58.68904,-34.459758],[-58.689368,-34.459936],[-58.689416,-34.459852],[-58.689102,-34.459681],[-58.68904,-34.459758]]]}},{"type":"Feature","properties":{"partida":"057061905","cca":"057030H002600000000000000000002600C0020000","tipo":"Urbano","sup_m2":334.1},"geometry":{"type":"Polygon","coordinates":[[[-58.689162,-34.459607],[-58.689102,-34.459681],[-58.689416,-34.459852],[-58.689451,-34.459794],[-58.689441,-34.459757],[-58.689162,-34.459607]]]}},{"type":"Feature","properties":{"partida":"057061906","cca":"057030H002600000000000000000002600C0021000","tipo":"Urbano","sup_m2":403.6},"geometry":{"type":"Polygon","coordinates":[[[-58.689162,-34.459607],[-58.68907,-34.459558],[-58.68883,-34.459861],[-58.688923,-34.459911],[-58.68904,-34.459758],[-58.689162,-34.459607]]]}},{"type":"Feature","properties":{"partida":"057018324","cca":"057030H002700000000000000000002700A0019000","tipo":"Urbano","sup_m2":325.6},"geometry":{"type":"Polygon","coordinates":[[[-58.688967,-34.457907],[-58.689073,-34.457964],[-58.68923,-34.457755],[-58.689218,-34.457719],[-58.689152,-34.457684],[-58.688967,-34.457907]]]}},{"type":"Feature","properties":{"partida":"057062071","cca":"057030H002700000000000000000002700A0020000","tipo":"Urbano","sup_m2":318.7},"geometry":{"type":"Polygon","coordinates":[[[-58.689046,-34.457628],[-58.688878,-34.45786],[-58.688967,-34.457907],[-58.689152,-34.457684],[-58.689046,-34.457628]]]}}]}