{"type":"FeatureCollection","features":[{"type":"Feature","properties":{"partida":"357011297","cca":"357000100000000000000056200000000000000000","tipo":"Rural","sup_m2":1156866.6},"geometry":{"type":"Polygon","coordinates":[[[-58.573312,-34.294595],[-58.579285,-34.296185],[-58.579037,-34.296602],[-58.578767,-34.297238],[-58.578897,-34.297461],[-58.579021,-34.29816],[-58.579028,-34.298655],[-58.579099,-34.299367],[-58.579259,-34.29989],[-58.580468,-34.299925],[-58.580468,-34.300748],[-58.580078,-34.301569],[-58.581609,-34.302338],[-58.584768,-34.29502],[-58.584771,-34.294866],[-58.585564,-34.290137],[-58.584739,-34.288742],[-58.584629,-34.28809],[-58.584741,-34.287971],[-58.585112,-34.287557],[-58.584848,-34.287458],[-58.58429,-34.287297],[-58.583639,-34.287243],[-58.582852,-34.286916],[-58.582363,-34.286441],[-58.58219,-34.286362],[-58.581743,-34.286374],[-58.580959,-34.286741],[-58.579359,-34.287522],[-58.578251,-34.288046],[-58.57721,-34.288762],[-58.576383,-34.289175],[-58.575587,-34.289632],[-58.574543,-34.29031],[-58.574264,-34.290364],[-58.573926,-34.290523],[-58.573492,-34.290921],[-58.572979,-34.291164],[-58.571587,-34.292826],[-58.5718,-34.293241],[-58.573142,-34.294263],[-58.573312,-34.294595]]]}},{"type":"Feature","properties":{"partida":"357011344","cca":"35700010000000000000005660000000000000100A","tipo":"Rural","sup_m2":40005.0},"geometry":{"type":"Polygon","coordinates":[[[-58.57485,-34.295431],[-58.574732,-34.29604],[-58.579037,-34.296602],[-58.579285,-34.296185],[-58.573473,-34.294638],[-58.573653,-34.294951],[-58.573707,-34.295255],[-58.57485,-34.295431]]]}},{"type":"Feature","properties":{"partida":"357011345","cca":"35700010000000000000005660000000000000100B","tipo":"Urbano","sup_m2":1770.0},"geometry":{"type":"Polygon","coordinates":[[[-58.574823,-34.295572],[-58.57485,-34.295431],[-58.573707,-34.295255],[-58.573738,-34.295426],[-58.574823,-34.295572]]]}},{"type":"Feature","properties":{"partida":"357011346","cca":"35700010000000000000005660000000000000100C","tipo":"Urbano","sup_m2":1794.3},"geometry":{"type":"Polygon","coordinates":[[[-58.574823,-34.295572],[-58.573738,-34.295426],[-58.573761,-34.29556],[-58.573748,-34.295596],[-58.574792,-34.295732],[-58.574823,-34.295572]]]}},{"type":"Feature","properties":{"partida":"357011347","cca":"35700010000000000000005660000000000000100D","tipo":"Urbano","sup_m2":1725.1},"geometry":{"type":"Polygon","coordinates":[[[-58.574792,-34.295732],[-58.573748,-34.295596],[-58.57369,-34.295751],[-58.574762,-34.295884],[-58.574792,-34.295732]]]}},{"type":"Feature","properties":{"partida":"357011348","cca":"35700010000000000000005660000000000000100E","tipo":"Urbano","sup_m2":1739.1},"geometry":{"type":"Polygon","coordinates":[[[-58.574762,-34.295884],[-58.57369,-34.295751],[-58.573635,-34.295899],[-58.574732,-34.29604],[-58.574762,-34.295884]]]}},{"type":"Feature","properties":{"partida":"357011349","cca":"35700010000000000000005660000000000000100F","tipo":"Urbano","sup_m2":1777.3},"geometry":{"type":"Polygon","coordinates":[[[-58.574701,-34.2962],[-58.574732,-34.29604],[-58.573635,-34.295899],[-58.57363,-34.296055],[-58.574701,-34.2962]]]}},{"type":"Feature","properties":{"partida":"357011350","cca":"35700010000000000000005660000000000000100G","tipo":"Urbano","sup_m2":1634.4},"geometry":{"type":"Polygon","coordinates":[[[-58.574701,-34.2962],[-58.57363,-34.296055],[-58.573598,-34.296108],[-58.573603,-34.296198],[-58.574671,-34.296345],[-58.574701,-34.2962]]]}},{"type":"Feature","properties":{"partida":"357011351","cca":"35700010000000000000005660000000000000100H","tipo":"Urbano","sup_m2":1734.8},"geometry":{"type":"Polygon","coordinates":[[[-58.574639,-34.2965],[-58.574671,-34.296345],[-58.573603,-34.296198],[-58.573523,-34.296339],[-58.574639,-34.2965]]]}},{"type":"Feature","properties":{"partida":"357011352","cca":"35700010000000000000005660000000000000100J","tipo":"Urbano","sup_m2":1750.3},"geometry":{"type":"Polygon","coordinates":[[[-58.574639,-34.2965],[-58.573523,-34.296339],[-58.573435,-34.296479],[-58.57461,-34.296642],[-58.574639,-34.2965]]]}},{"type":"Feature","properties":{"partida":"357011353","cca":"35700010000000000000005660000000000000100K","tipo":"Rural","sup_m2":24774.3},"geometry":{"type":"Polygon","coordinates":[[[-58.574732,-34.29604],[-58.57461,-34.296642],[-58.573435,-34.296479],[-58.573371,-34.296634],[-58.573616,-34.296655],[-58.578883,-34.296965],[-58.579037,-34.296602],[-58.574732,-34.29604]]]}},{"type":"Feature","properties":{"partida":"357011354","cca":"35700010000000000000005660000000000000200A","tipo":"Urbano","sup_m2":6489.7},"geometry":{"type":"Polygon","coordinates":[[[-58.578848,-34.297046],[-58.578883,-34.296965],[-58.573616,-34.296655],[-58.573371,-34.296634],[-58.573284,-34.296774],[-58.578473,-34.297036],[-58.578541,-34.297031],[-58.578848,-34.297046]]]}},{"type":"Feature","properties":{"partida":"357011355","cca":"35700010000000000000005660000000000000200B","tipo":"Urbano","sup_m2":4706.8},"geometry":{"type":"Polygon","coordinates":[[[-58.578817,-34.297119],[-58.578848,-34.297046],[-58.578541,-34.297031],[-58.578473,-34.297036],[-58.573284,-34.296774],[-58.573217,-34.296869],[-58.578817,-34.297119]]]}},{"type":"Feature","properties":{"partida":"357011356","cca":"35700010000000000000005660000000000000300A","tipo":"Urbano","sup_m2":5896.0},"geometry":{"type":"Polygon","coordinates":[[[-58.578784,-34.297198],[-58.578817,-34.297119],[-58.573217,-34.296869],[-58.573123,-34.29699],[-58.574745,-34.297051],[-58.575833,-34.297087],[-58.57744,-34.29715],[-58.578784,-34.297198]]]}},{"type":"Feature","properties":{"partida":"357011357","cca":"35700010000000000000005660000000000000300B","tipo":"Urbano","sup_m2":5990.1},"geometry":{"type":"Polygon","coordinates":[[[-58.578794,-34.297285],[-58.578767,-34.297238],[-58.578784,-34.297198],[-58.57744,-34.29715],[-58.575833,-34.297087],[-58.574745,-34.297051],[-58.573123,-34.29699],[-58.573025,-34.297118],[-58.574361,-34.297143],[-58.575478,-34.297178],[-58.577052,-34.297233],[-58.578794,-34.297285]]]}},{"type":"Feature","properties":{"partida":"357011358","cca":"357000100000000000000056600000000000004000","tipo":"Urbano","sup_m2":11885.9},"geometry":{"type":"Polygon","coordinates":[[[-58.578897,-34.297461],[-58.578794,-34.297285],[-58.577052,-34.297233],[-58.575478,-34.297178],[-58.574361,-34.297143],[-58.573025,-34.297118],[-58.572922,-34.297216],[-58.572787,-34.297322],[-58.574182,-34.297348],[-58.576771,-34.297413],[-58.578897,-34.297461]]]}},{"type":"Feature","properties":{"partida":"357011359","cca":"357000100000000000000056600000000000005000","tipo":"Rural","sup_m2":45120.5},"geometry":{"type":"Polygon","coordinates":[[[-58.578897,-34.297461],[-58.576771,-34.297413],[-58.574182,-34.297348],[-58.572787,-34.297322],[-58.572279,-34.297914],[-58.572556,-34.29799],[-58.579021,-34.29816],[-58.578897,-34.297461]]]}},{"type":"Feature","properties":{"partida":"357019777","cca":"35700010000000000000005660000000000000600B","tipo":"Rural","sup_m2":10117.3},"geometry":{"type":"Polygon","coordinates":[[[-58.571727,-34.298638],[-58.571948,-34.298657],[-58.574611,-34.298915],[-58.574634,-34.298567],[-58.571939,-34.298296],[-58.571727,-34.298638]]]}},{"type":"Feature","properties":{"partida":"357011360","cca":"35700010000000000000005660000000000000600C","tipo":"Rural","sup_m2":37864.4},"geometry":{"type":"Polygon","coordinates":[[[-58.574621,-34.298735],[-58.579028,-34.298655],[-58.579021,-34.29816],[-58.572556,-34.29799],[-58.572279,-34.297914],[-58.571939,-34.298296],[-58.574634,-34.298567],[-58.574621,-34.298735]]]}},{"type":"Feature","properties":{"partida":"357020510","cca":"35700010000000000000005660000000000000600E","tipo":"Urbano","sup_m2":10157.0},"geometry":{"type":"Polygon","coordinates":[[[-58.574699,-34.298924],[-58.571948,-34.298657],[-58.571858,-34.299009],[-58.574609,-34.299276],[-58.574699,-34.298924]]]}},{"type":"Feature","properties":{"partida":"357020509","cca":"35700010000000000000005660000000000000600F","tipo":"Urbano","sup_m2":10156.3},"geometry":{"type":"Polygon","coordinates":[[[-58.574609,-34.299276],[-58.571858,-34.299009],[-58.571768,-34.299362],[-58.574519,-34.299629],[-58.574609,-34.299276]]]}},{"type":"Feature","properties":{"partida":"357020511","cca":"35700010000000000000005660000000000000600G","tipo":"Rural","sup_m2":49032.5},"geometry":{"type":"Polygon","coordinates":[[[-58.571768,-34.299362],[-58.571566,-34.300149],[-58.579082,-34.299186],[-58.579028,-34.298655],[-58.574621,-34.298735],[-58.574611,-34.298915],[-58.574699,-34.298924],[-58.574519,-34.299629],[-58.571768,-34.299362]]]}},{"type":"Feature","properties":{"partida":"357011361","cca":"357000100000000000000056600000000000007000","tipo":"Rural","sup_m2":31562.0},"geometry":{"type":"Polygon","coordinates":[[[-58.579082,-34.299186],[-58.571566,-34.300149],[-58.571404,-34.300804],[-58.579099,-34.299367],[-58.579082,-34.299186]]]}},{"type":"Feature","properties":{"partida":"357011365","cca":"357000100000000000000057000000000000000000","tipo":"Rural","sup_m2":649363.7},"geometry":{"type":"Polygon","coordinates":[[[-58.570644,-34.305899],[-58.570999,-34.306162],[-58.571484,-34.306368],[-58.571832,-34.30647],[-58.572136,-34.306598],[-58.572571,-34.306919],[-58.572837,-34.307144],[-58.573069,-34.3074],[-58.573336,-34.307768],[-58.573695,-34.308156],[-58.573986,-34.308409],[-58.57405,-34.308779],[-58.573972,-34.308961],[-58.574233,-34.309084],[-58.574434,-34.309283],[-58.574653,-34.309339],[-58.574906,-34.309301],[-58.575179,-34.309122],[-58.575338,-34.308968],[-58.575269,-34.308549],[-58.575274,-34.308295],[-58.575389,-34.308171],[-58.578184,-34.307968],[-58.578092,-34.307334],[-58.579356,-34.303996],[-58.579919,-34.301903],[-58.580468,-34.300748],[-58.580468,-34.299925],[-58.579259,-34.29989],[-58.579099,-34.299367],[-58.571404,-34.300804],[-58.571298,-34.302955],[-58.571247,-34.30365],[-58.571135,-34.304345],[-58.570644,-34.305899]]]}},{"type":"Feature","properties":{"partida":"357011448","cca":"35700010000000000000005780000000000000200A","tipo":"Rural","sup_m2":1890.4},"geometry":{"type":"Polygon","coordinates":[[[-58.570647,-34.30725],[-58.56993,-34.306767],[-58.569778,-34.306955],[-58.570519,-34.307394],[-58.570647,-34.30725]]]}},{"type":"Feature","properties":{"partida":"357013338","cca":"357000100000000000000063800000000000001000","tipo":"Rural","sup_m2":397958.2},"geometry":{"type":"Polygon","coordinates":[[[-58.571522,-34.294076],[-58.567809,-34.295028],[-58.566023,-34.297417],[-58.560885,-34.299664],[-58.562155,-34.302535],[-58.566896,-34.300642],[-58.567565,-34.300362],[-58.569494,-34.299684],[-58.56958,-34.298904],[-58.569801,-34.298171],[-58.569874,-34.297846],[-58.569992,-34.297555],[-58.570088,-34.297263],[-58.57023,-34.296958],[-58.570364,-34.296757],[-58.571479,-34.295566],[-58.571754,-34.295738],[-58.572856,-34.295597],[-58.5729,-34.295384],[-58.572747,-34.295054],[-58.572495,-34.294706],[-58.571948,-34.294306],[-58.571522,-34.294076]]]}},{"type":"Feature","properties":{"partida":"357013339","cca":"357000100000000000000063800000000000002000","tipo":"Urbano","sup_m2":174727.5},"geometry":{"type":"Polygon","coordinates":[[[-58.571522,-34.294076],[-58.570772,-34.293435],[-58.570539,-34.293154],[-58.570401,-34.293103],[-58.57022,-34.293298],[-58.569762,-34.293424],[-58.569426,-34.293403],[-58.56899,-34.293464],[-58.568649,-34.293739],[-58.568448,-34.293917],[-58.56821,-34.293914],[-58.567852,-34.294009],[-58.567651,-34.294203],[-58.567391,-34.294364],[-58.567113,-34.294427],[-58.565672,-34.295378],[-58.565053,-34.295716],[-58.564519,-34.29599],[-58.563725,-34.296385],[-58.563414,-34.296576],[-58.563052,-34.296781],[-58.562038,-34.29729],[-58.561684,-34.297522],[-58.560813,-34.298169],[-58.560276,-34.298396],[-58.560885,-34.299664],[-58.566023,-34.297417],[-58.567809,-34.295028],[-58.571522,-34.294076]]]}},{"type":"Feature","properties":{"partida":"357013340","cca":"357000100000000000000063800000000000003000","tipo":"Urbano","sup_m2":7800.9},"geometry":{"type":"Polygon","coordinates":[[[-58.570542,-34.299836],[-58.570552,-34.299797],[-58.570541,-34.299558],[-58.570629,-34.299174],[-58.56958,-34.298904],[-58.569494,-34.299684],[-58.570542,-34.299836]]]}},{"type":"Feature","properties":{"partida":"357013341","cca":"357000100000000000000063800000000000004000","tipo":"Urbano","sup_m2":3376.1},"geometry":{"type":"Polygon","coordinates":[[[-58.569673,-34.2986],[-58.56958,-34.298904],[-58.570629,-34.299174],[-58.570707,-34.298888],[-58.569673,-34.2986]]]}},{"type":"Feature","properties":{"partida":"357013342","cca":"357000100000000000000063800000000000005000","tipo":"Urbano","sup_m2":3072.7},"geometry":{"type":"Polygon","coordinates":[[[-58.569673,-34.2986],[-58.570707,-34.298888],[-58.570821,-34.298631],[-58.569752,-34.298339],[-58.569673,-34.2986]]]}},{"type":"Feature","properties":{"partida":"357013343","cca":"357000100000000000000063800000000000006000","tipo":"Urbano","sup_m2":2778.7},"geometry":{"type":"Polygon","coordinates":[[[-58.569752,-34.298339],[-58.570821,-34.298631],[-58.570827,-34.298526],[-58.570876,-34.298309],[-58.569801,-34.298171],[-58.569752,-34.298339]]]}},{"type":"Feature","properties":{"partida":"357013344","cca":"357000100000000000000063800000000000007000","tipo":"Urbano","sup_m2":3237.2},"geometry":{"type":"Polygon","coordinates":[[[-58.569801,-34.298171],[-58.570876,-34.298309],[-58.571047,-34.298114],[-58.569874,-34.297846],[-58.569801,-34.298171]]]}},{"type":"Feature","properties":{"partida":"357013345","cca":"357000100000000000000063800000000000008000","tipo":"Urbano","sup_m2":3584.6},"geometry":{"type":"Polygon","coordinates":[[[-58.569874,-34.297846],[-58.571047,-34.298114],[-58.57126,-34.297915],[-58.569992,-34.297555],[-58.569874,-34.297846]]]}},{"type":"Feature","properties":{"partida":"357013346","cca":"357000100000000000000063800000000000009000","tipo":"Urbano","sup_m2":3519.9},"geometry":{"type":"Polygon","coordinates":[[[-58.569992,-34.297555],[-58.57126,-34.297915],[-58.571334,-34.297835],[-58.571399,-34.297751],[-58.570088,-34.297263],[-58.569992,-34.297555]]]}},{"type":"Feature","properties":{"partida":"357013347","cca":"357000100000000000000063800000000000010000","tipo":"Urbano","sup_m2":6439.7},"geometry":{"type":"Polygon","coordinates":[[[-58.570088,-34.297263],[-58.571399,-34.297751],[-58.571603,-34.297511],[-58.570364,-34.296757],[-58.57023,-34.296958],[-58.570088,-34.297263]]]}},{"type":"Feature","properties":{"partida":"357013348","cca":"357000100000000000000063800000000000011000","tipo":"Urbano","sup_m2":3897.3},"geometry":{"type":"Polygon","coordinates":[[[-58.570558,-34.29655],[-58.570364,-34.296757],[-58.571603,-34.297511],[-58.571795,-34.297344],[-58.570558,-34.29655]]]}},{"type":"Feature","properties":{"partida":"357013349","cca":"357000100000000000000063800000000000012000","tipo":"Urbano","sup_m2":4097.3},"geometry":{"type":"Polygon","coordinates":[[[-58.570558,-34.29655],[-58.571795,-34.297344],[-58.571893,-34.297316],[-58.571947,-34.297273],[-58.572003,-34.297168],[-58.570746,-34.296349],[-58.570558,-34.29655]]]}},{"type":"Feature","properties":{"partida":null,"cca":"357000100000000000000063800000000000013000","tipo":null,"sup_m2":4038.7},"geometry":{"type":"Polygon","coordinates":[[[-58.570746,-34.296349],[-58.572003,-34.297168],[-58.572258,-34.297038],[-58.570927,-34.296155],[-58.570746,-34.296349]]]}},{"type":"Feature","properties":{"partida":"357013351","cca":"357000100000000000000063800000000000014000","tipo":"Urbano","sup_m2":4337.4},"geometry":{"type":"Polygon","coordinates":[[[-58.572355,-34.296769],[-58.571111,-34.295959],[-58.570927,-34.296155],[-58.572258,-34.297038],[-58.572337,-34.296946],[-58.572355,-34.296769]]]}},{"type":"Feature","properties":{"partida":"357013352","cca":"357000100000000000000063800000000000015000","tipo":"Urbano","sup_m2":4161.7},"geometry":{"type":"Polygon","coordinates":[[[-58.572355,-34.296769],[-58.572668,-34.296667],[-58.571294,-34.295763],[-58.571111,-34.295959],[-58.572355,-34.296769]]]}},{"type":"Feature","properties":{"partida":"357013353","cca":"357000100000000000000063800000000000016000","tipo":"Urbano","sup_m2":4896.2},"geometry":{"type":"Polygon","coordinates":[[[-58.571294,-34.295763],[-58.572668,-34.296667],[-58.572886,-34.296428],[-58.571754,-34.295738],[-58.571479,-34.295566],[-58.571294,-34.295763]]]}},{"type":"Feature","properties":{"partida":"357013354","cca":"357000100000000000000063800000000000017000","tipo":"Urbano","sup_m2":5438.2},"geometry":{"type":"Polygon","coordinates":[[[-58.572886,-34.296428],[-58.573042,-34.295946],[-58.572856,-34.295597],[-58.571754,-34.295738],[-58.572886,-34.296428]]]}},{"type":"Feature","properties":{"partida":"357000117","cca":"35700010000000000000006390000000000000100A","tipo":"Urbano","sup_m2":8690.3},"geometry":{"type":"Polygon","coordinates":[[[-58.569373,-34.300482],[-58.570461,-34.300605],[-58.570542,-34.299836],[-58.569494,-34.299684],[-58.569373,-34.300482]]]}},{"type":"Feature","properties":{"partida":"357000119","cca":"35700010000000000000006390000000000000200A","tipo":"Urbano","sup_m2":1854.7},"geometry":{"type":"Polygon","coordinates":[[[-58.569339,-34.300625],[-58.570481,-34.300786],[-58.570461,-34.300605],[-58.569373,-34.300482],[-58.569339,-34.300625]]]}},{"type":"Feature","properties":{"partida":"357013356","cca":"35700010000000000000006390000000000000200B","tipo":"Urbano","sup_m2":1712.8},"geometry":{"type":"Polygon","coordinates":[[[-58.569339,-34.300625],[-58.569305,-34.300771],[-58.570466,-34.300924],[-58.570481,-34.300786],[-58.569339,-34.300625]]]}},{"type":"Feature","properties":{"partida":"357013357","cca":"35700010000000000000006390000000000000300A","tipo":"Urbano","sup_m2":1914.0},"geometry":{"type":"Polygon","coordinates":[[[-58.570466,-34.301093],[-58.570439,-34.300963],[-58.570466,-34.300924],[-58.569305,-34.300771],[-58.56928,-34.300922],[-58.570466,-34.301093]]]}},{"type":"Feature","properties":{"partida":"357013355","cca":"35700010000000000000006390000000000000300B","tipo":"Urbano","sup_m2":21305.8},"geometry":{"type":"Polygon","coordinates":[[[-58.569373,-34.300482],[-58.569494,-34.299684],[-58.567565,-34.300362],[-58.567471,-34.300868],[-58.57047,-34.301342],[-58.570466,-34.301093],[-58.56928,-34.300922],[-58.569305,-34.300771],[-58.569373,-34.300482]]]}},{"type":"Feature","properties":{"partida":"357013358","cca":"357000100000000000000063900000000000004000","tipo":"Urbano","sup_m2":8561.9},"geometry":{"type":"Polygon","coordinates":[[[-58.567409,-34.301151],[-58.570428,-34.3016],[-58.57047,-34.301342],[-58.567471,-34.300868],[-58.567409,-34.301151]]]}},{"type":"Feature","properties":{"partida":"357013359","cca":"357000100000000000000063900000000000005000","tipo":"Urbano","sup_m2":6030.0},"geometry":{"type":"Polygon","coordinates":[[[-58.567367,-34.301342],[-58.570462,-34.301794],[-58.570428,-34.3016],[-58.567409,-34.301151],[-58.567367,-34.301342]]]}},{"type":"Feature","properties":{"partida":"357013360","cca":"357000100000000000000063900000000000006000","tipo":"Urbano","sup_m2":6875.5},"geometry":{"type":"Polygon","coordinates":[[[-58.567367,-34.301342],[-58.567323,-34.301546],[-58.570467,-34.302016],[-58.570462,-34.301794],[-58.567367,-34.301342]]]}},{"type":"Feature","properties":{"partida":"357013361","cca":"357000100000000000000063900000000000007000","tipo":"Urbano","sup_m2":6600.3},"geometry":{"type":"Polygon","coordinates":[[[-58.567274,-34.301767],[-58.570421,-34.302191],[-58.570467,-34.302016],[-58.567323,-34.301546],[-58.567274,-34.301767]]]}},{"type":"Feature","properties":{"partida":"357013362","cca":"357000100000000000000063900000000000008000","tipo":"Urbano","sup_m2":7217.2},"geometry":{"type":"Polygon","coordinates":[[[-58.568786,-34.302196],[-58.570437,-34.302418],[-58.570421,-34.302191],[-58.567274,-34.301767],[-58.567229,-34.301976],[-58.568786,-34.302196]]]}},{"type":"Feature","properties":{"partida":"357013363","cca":"35700010000000000000006390000000000000900A","tipo":"Rural","sup_m2":227522.9},"geometry":{"type":"Polygon","coordinates":[[[-58.568575,-34.302737],[-58.568786,-34.302196],[-58.567229,-34.301976],[-58.567471,-34.300868],[-58.567565,-34.300362],[-58.566896,-34.300642],[-58.562155,-34.302535],[-58.563852,-34.30637],[-58.566477,-34.304667],[-58.567824,-34.305354],[-58.568016,-34.305465],[-58.568269,-34.305567],[-58.568275,-34.305244],[-58.568331,-34.305009],[-58.568327,-34.304831],[-58.568347,-34.304661],[-58.568363,-34.30446],[-58.56839,-34.304299],[-58.568402,-34.304132],[-58.568422,-34.304027],[-58.568459,-34.303731],[-58.568575,-34.302737]]]}},{"type":"Feature","properties":{"partida":"357013364","cca":"357000100000000000000063900000000000010000","tipo":"Urbano","sup_m2":2446.0},"geometry":{"type":"Polygon","coordinates":[[[-58.568734,-34.302329],[-58.570417,-34.302563],[-58.570437,-34.302418],[-58.568786,-34.302196],[-58.568734,-34.302329]]]}},{"type":"Feature","properties":{"partida":"357013365","cca":"357000100000000000000063900000000000011000","tipo":"Urbano","sup_m2":2508.1},"geometry":{"type":"Polygon","coordinates":[[[-58.568684,-34.302458],[-58.570386,-34.302712],[-58.570417,-34.302563],[-58.568734,-34.302329],[-58.568684,-34.302458]]]}},{"type":"Feature","properties":{"partida":"357013366","cca":"357000100000000000000063900000000000012000","tipo":"Urbano","sup_m2":2543.9},"geometry":{"type":"Polygon","coordinates":[[[-58.568632,-34.302591],[-58.570369,-34.302858],[-58.570386,-34.302712],[-58.568684,-34.302458],[-58.568632,-34.302591]]]}},{"type":"Feature","properties":{"partida":"357013367","cca":"357000100000000000000063900000000000013000","tipo":"Urbano","sup_m2":2639.4},"geometry":{"type":"Polygon","coordinates":[[[-58.568575,-34.302737],[-58.570346,-34.302995],[-58.570369,-34.302858],[-58.568632,-34.302591],[-58.568575,-34.302737]]]}},{"type":"Feature","properties":{"partida":"357013368","cca":"357000100000000000000063900000000000014000","tipo":"Urbano","sup_m2":2765.9},"geometry":{"type":"Polygon","coordinates":[[[-58.568557,-34.302887],[-58.570311,-34.303144],[-58.570346,-34.302995],[-58.568575,-34.302737],[-58.568557,-34.302887]]]}},{"type":"Feature","properties":{"partida":"357013369","cca":"357000100000000000000063900000000000015000","tipo":"Urbano","sup_m2":2061.3},"geometry":{"type":"Polygon","coordinates":[[[-58.570311,-34.303144],[-58.568557,-34.302887],[-58.568541,-34.303023],[-58.570289,-34.303233],[-58.570311,-34.303144]]]}},{"type":"Feature","properties":{"partida":"357013370","cca":"357000100000000000000063900000000000016000","tipo":"Urbano","sup_m2":2000.0},"geometry":{"type":"Polygon","coordinates":[[[-58.570262,-34.303308],[-58.570289,-34.303233],[-58.568541,-34.303023],[-58.568524,-34.303169],[-58.570262,-34.303308]]]}},{"type":"Feature","properties":{"partida":"357013371","cca":"357000100000000000000063900000000000017000","tipo":"Urbano","sup_m2":10136.8},"geometry":{"type":"Polygon","coordinates":[[[-58.570262,-34.303308],[-58.568524,-34.303169],[-58.568459,-34.303731],[-58.570132,-34.303897],[-58.570198,-34.303527],[-58.570262,-34.303308]]]}},{"type":"Feature","properties":{"partida":"357013372","cca":"357000100000000000000063900000000000018000","tipo":"Urbano","sup_m2":2756.1},"geometry":{"type":"Polygon","coordinates":[[[-58.568459,-34.303731],[-58.568442,-34.303857],[-58.570062,-34.304088],[-58.570132,-34.303897],[-58.568459,-34.303731]]]}},{"type":"Feature","properties":{"partida":"357013373","cca":"357000100000000000000063900000000000019000","tipo":"Urbano","sup_m2":3194.2},"geometry":{"type":"Polygon","coordinates":[[[-58.570036,-34.304288],[-58.570133,-34.304183],[-58.570062,-34.304088],[-58.568442,-34.303857],[-58.568422,-34.304027],[-58.570036,-34.304288]]]}},{"type":"Feature","properties":{"partida":"357013374","cca":"357000100000000000000063900000000000020000","tipo":"Urbano","sup_m2":2565.5},"geometry":{"type":"Polygon","coordinates":[[[-58.568402,-34.304132],[-58.570185,-34.304503],[-58.570036,-34.304288],[-58.568422,-34.304027],[-58.568402,-34.304132]]]}},{"type":"Feature","properties":{"partida":"357013375","cca":"357000100000000000000063900000000000021000","tipo":"Urbano","sup_m2":3299.6},"geometry":{"type":"Polygon","coordinates":[[[-58.56839,-34.304299],[-58.570131,-34.304687],[-58.570185,-34.304503],[-58.568402,-34.304132],[-58.56839,-34.304299]]]}},{"type":"Feature","properties":{"partida":"357013376","cca":"357000100000000000000063900000000000022000","tipo":"Urbano","sup_m2":3025.8},"geometry":{"type":"Polygon","coordinates":[[[-58.568363,-34.30446],[-58.570028,-34.304845],[-58.570131,-34.304687],[-58.56839,-34.304299],[-58.568363,-34.30446]]]}},{"type":"Feature","properties":{"partida":"357013377","cca":"357000100000000000000063900000000000023000","tipo":"Urbano","sup_m2":3734.2},"geometry":{"type":"Polygon","coordinates":[[[-58.568347,-34.304661],[-58.569947,-34.305069],[-58.570028,-34.304845],[-58.568363,-34.30446],[-58.568347,-34.304661]]]}},{"type":"Feature","properties":{"partida":"357013378","cca":"357000100000000000000063900000000000024000","tipo":"Urbano","sup_m2":2928.9},"geometry":{"type":"Polygon","coordinates":[[[-58.568327,-34.304831],[-58.569772,-34.305224],[-58.569947,-34.305069],[-58.568347,-34.304661],[-58.568327,-34.304831]]]}},{"type":"Feature","properties":{"partida":"357013379","cca":"357000100000000000000063900000000000025000","tipo":"Urbano","sup_m2":2484.2},"geometry":{"type":"Polygon","coordinates":[[[-58.569772,-34.305224],[-58.568327,-34.304831],[-58.568331,-34.305009],[-58.569749,-34.30538],[-58.569772,-34.305224]]]}},{"type":"Feature","properties":{"partida":"357013380","cca":"357000100000000000000063900000000000026000","tipo":"Rural","sup_m2":2958.7},"geometry":{"type":"Polygon","coordinates":[[[-58.568275,-34.305244],[-58.568647,-34.305308],[-58.569678,-34.305541],[-58.569749,-34.30538],[-58.568331,-34.305009],[-58.568275,-34.305244]]]}},{"type":"Feature","properties":{"partida":"357013381","cca":"357000100000000000000063900000000000027000","tipo":"Urbano","sup_m2":4292.4},"geometry":{"type":"Polygon","coordinates":[[[-58.568269,-34.305567],[-58.568302,-34.305602],[-58.569152,-34.305724],[-58.569502,-34.305781],[-58.569678,-34.305541],[-58.568647,-34.305308],[-58.568275,-34.305244],[-58.568269,-34.305567]]]}},{"type":"Feature","properties":{"partida":"357013382","cca":"357000100000000000000063900000000000028000","tipo":"Urbano","sup_m2":5130.5},"geometry":{"type":"Polygon","coordinates":[[[-58.569502,-34.305781],[-58.569152,-34.305724],[-58.568302,-34.305602],[-58.568269,-34.305567],[-58.568377,-34.305774],[-58.568548,-34.305962],[-58.568988,-34.306489],[-58.569061,-34.306303],[-58.569462,-34.305953],[-58.569502,-34.305781]]]}},{"type":"Feature","properties":{"partida":"357013384","cca":"357000100000000000000064000000000000001000","tipo":"Urbano","sup_m2":4036.5},"geometry":{"type":"Polygon","coordinates":[[[-58.568988,-34.306489],[-58.568548,-34.305962],[-58.568177,-34.306608],[-58.568741,-34.306908],[-58.568988,-34.306489]]]}},{"type":"Feature","properties":{"partida":"357013385","cca":"357000100000000000000064000000000000002000","tipo":"Urbano","sup_m2":2513.8},"geometry":{"type":"Polygon","coordinates":[[[-58.568177,-34.306608],[-58.568548,-34.305962],[-58.568377,-34.305774],[-58.567844,-34.306434],[-58.568177,-34.306608]]]}},{"type":"Feature","properties":{"partida":"357013386","cca":"357000100000000000000064000000000000003000","tipo":"Urbano","sup_m2":2005.1},"geometry":{"type":"Polygon","coordinates":[[[-58.567649,-34.306336],[-58.567844,-34.306434],[-58.568377,-34.305774],[-58.568269,-34.305567],[-58.567649,-34.306336]]]}},{"type":"Feature","properties":{"partida":"357013387","cca":"357000100000000000000064000000000000004000","tipo":"Urbano","sup_m2":2471.7},"geometry":{"type":"Polygon","coordinates":[[[-58.567435,-34.306228],[-58.567649,-34.306336],[-58.568269,-34.305567],[-58.568016,-34.305465],[-58.567435,-34.306228]]]}},{"type":"Feature","properties":{"partida":"357013388","cca":"357000100000000000000064000000000000005000","tipo":"Urbano","sup_m2":18885.3},"geometry":{"type":"Polygon","coordinates":[[[-58.565542,-34.305274],[-58.567435,-34.306228],[-58.568016,-34.305465],[-58.567824,-34.305354],[-58.566477,-34.304667],[-58.565542,-34.305274]]]}},{"type":"Feature","properties":{"partida":"357013389","cca":"357000100000000000000064000000000000006000","tipo":"Urbano","sup_m2":5266.4},"geometry":{"type":"Polygon","coordinates":[[[-58.566263,-34.305866],[-58.568647,-34.307041],[-58.568741,-34.306908],[-58.568177,-34.306608],[-58.567844,-34.306434],[-58.566262,-34.305637],[-58.566263,-34.305866]]]}},{"type":"Feature","properties":{"partida":"357013390","cca":"357000100000000000000064000000000000007000","tipo":"Urbano","sup_m2":4494.5},"geometry":{"type":"Polygon","coordinates":[[[-58.566263,-34.30605],[-58.568555,-34.307188],[-58.568647,-34.307041],[-58.566263,-34.305866],[-58.566263,-34.30605]]]}},{"type":"Feature","properties":{"partida":"357013391","cca":"357000100000000000000064000000000000008000","tipo":"Urbano","sup_m2":3679.2},"geometry":{"type":"Polygon","coordinates":[[[-58.566263,-34.306239],[-58.568568,-34.307319],[-58.568555,-34.307188],[-58.566263,-34.30605],[-58.566263,-34.306239]]]}},{"type":"Feature","properties":{"partida":"357013392","cca":"35700010000000000000006400000000000000900A","tipo":"Urbano","sup_m2":8653.2},"geometry":{"type":"Polygon","coordinates":[[[-58.566259,-34.306633],[-58.568391,-34.307608],[-58.568442,-34.307497],[-58.568489,-34.307416],[-58.568568,-34.307319],[-58.566263,-34.306239],[-58.566264,-34.30642],[-58.566259,-34.306633]]]}},{"type":"Feature","properties":{"partida":"357013396","cca":"357000100000000000000064000000000000013000","tipo":"Urbano","sup_m2":40411.6},"geometry":{"type":"Polygon","coordinates":[[[-58.563852,-34.30637],[-58.563359,-34.306952],[-58.566266,-34.307517],[-58.566272,-34.306847],[-58.566259,-34.306633],[-58.566264,-34.30642],[-58.566262,-34.305637],[-58.565542,-34.305274],[-58.563852,-34.30637]]]}},{"type":"Feature","properties":{"partida":"357013477","cca":"357000100000000000000064100000000000000000","tipo":"Rural","sup_m2":773915.2},"geometry":{"type":"Polygon","coordinates":[[[-58.554969,-34.306391],[-58.55533,-34.306436],[-58.555388,-34.306452],[-58.55547,-34.306523],[-58.555574,-34.306744],[-58.555633,-34.306848],[-58.556018,-34.307306],[-58.556242,-34.307414],[-58.556602,-34.307475],[-58.556774,-34.307523],[-58.556946,-34.307599],[-58.557021,-34.30766],[-58.557078,-34.30775],[-58.557103,-34.307935],[-58.557035,-34.308335],[-58.556732,-34.308872],[-58.556652,-34.309096],[-58.556642,-34.30921],[-58.556677,-34.309305],[-58.556719,-34.309341],[-58.556826,-34.309409],[-58.558478,-34.309696],[-58.557997,-34.310245],[-58.559358,-34.310669],[-58.560251,-34.310623],[-58.563852,-34.30637],[-58.560885,-34.299664],[-58.560276,-34.298396],[-58.558859,-34.299216],[-58.558024,-34.299638],[-58.557619,-34.299866],[-58.556184,-34.300414],[-58.555626,-34.300673],[-58.555151,-34.300932],[-58.554321,-34.301454],[-58.553374,-34.301905],[-58.552503,-34.302273],[-58.55226,-34.302383],[-58.552277,-34.302545],[-58.552661,-34.302858],[-58.552891,-34.303084],[-58.553191,-34.303504],[-58.553499,-34.303705],[-58.553804,-34.303912],[-58.55415,-34.304103],[-58.554364,-34.304213],[-58.554626,-34.304362],[-58.55488,-34.304488],[-58.555227,-34.304754],[-58.555362,-34.304984],[-58.555449,-34.305263],[-58.55538,-34.305531],[-58.555209,-34.305877],[-58.555017,-34.306085],[-58.554953,-34.306208],[-58.554969,-34.306391]]]}}]}