{"type":"FeatureCollection","features":[{"type":"Feature","properties":{"partida":"357011443","cca":"357000100000000000000057600000000000001000","tipo":"Urbano","sup_m2":107411.9},"geometry":{"type":"Polygon","coordinates":[[[-58.578582,-34.312237],[-58.572936,-34.308788],[-58.571981,-34.308919],[-58.572134,-34.309551],[-58.572474,-34.309728],[-58.572864,-34.310411],[-58.573159,-34.310563],[-58.573401,-34.310788],[-58.573247,-34.311101],[-58.57333,-34.311472],[-58.573555,-34.311777],[-58.57356,-34.311919],[-58.573604,-34.312155],[-58.573807,-34.312339],[-58.574266,-34.311887],[-58.574513,-34.311808],[-58.574811,-34.311872],[-58.575202,-34.31192],[-58.575392,-34.312115],[-58.575543,-34.312313],[-58.575725,-34.31271],[-58.575888,-34.31295],[-58.578582,-34.312237]]]}},{"type":"Feature","properties":{"partida":"357011444","cca":"357000100000000000000057600000000000002000","tipo":"Rural","sup_m2":111837.4},"geometry":{"type":"Polygon","coordinates":[[[-58.575888,-34.31295],[-58.575596,-34.313241],[-58.575539,-34.313472],[-58.575516,-34.31438],[-58.574863,-34.314801],[-58.574928,-34.314958],[-58.575085,-34.315167],[-58.575083,-34.31527],[-58.575104,-34.31566],[-58.578876,-34.315808],[-58.578904,-34.313041],[-58.578582,-34.312237],[-58.575888,-34.31295]]]}},{"type":"Feature","properties":{"partida":"357011445","cca":"35700010000000000000005760000000000000300A","tipo":"Rural","sup_m2":42247.8},"geometry":{"type":"Polygon","coordinates":[[[-58.578876,-34.315808],[-58.575104,-34.31566],[-58.575026,-34.316719],[-58.579249,-34.316929],[-58.57886,-34.316802],[-58.578876,-34.315808]]]}},{"type":"Feature","properties":{"partida":"357019987","cca":"35700010000000000000005760000000000000300B","tipo":"Rural","sup_m2":40905.2},"geometry":{"type":"Polygon","coordinates":[[[-58.574957,-34.317673],[-58.579308,-34.317843],[-58.579249,-34.316929],[-58.575026,-34.316719],[-58.574957,-34.317673]]]}},{"type":"Feature","properties":{"partida":"357019988","cca":"35700010000000000000005760000000000000300C","tipo":"Rural","sup_m2":59854.4},"geometry":{"type":"Polygon","coordinates":[[[-58.574957,-34.317673],[-58.574903,-34.318409],[-58.579118,-34.319665],[-58.579431,-34.319766],[-58.579308,-34.317843],[-58.574957,-34.317673]]]}},{"type":"Feature","properties":{"partida":"357011446","cca":"357000100000000000000057700000000000000000","tipo":"Rural","sup_m2":105490.5},"geometry":{"type":"Polygon","coordinates":[[[-58.571981,-34.308919],[-58.570802,-34.309171],[-58.571007,-34.309933],[-58.57189,-34.312972],[-58.572299,-34.314428],[-58.572788,-34.314335],[-58.572761,-34.313353],[-58.574794,-34.313154],[-58.574877,-34.312834],[-58.575888,-34.31295],[-58.575725,-34.31271],[-58.575543,-34.312313],[-58.575392,-34.312115],[-58.575202,-34.31192],[-58.574811,-34.311872],[-58.574513,-34.311808],[-58.574266,-34.311887],[-58.573807,-34.312339],[-58.573604,-34.312155],[-58.57356,-34.311919],[-58.573555,-34.311777],[-58.57333,-34.311472],[-58.573247,-34.311101],[-58.573401,-34.310788],[-58.573159,-34.310563],[-58.572864,-34.310411],[-58.572474,-34.309728],[-58.572134,-34.309551],[-58.571981,-34.308919]]]}},{"type":"Feature","properties":{"partida":"357011447","cca":"357000100000000000000057800000000000001000","tipo":"Rural","sup_m2":160536.9},"geometry":{"type":"Polygon","coordinates":[[[-58.578582,-34.312237],[-58.578533,-34.312114],[-58.578367,-34.309233],[-58.578184,-34.307968],[-58.575389,-34.308171],[-58.575274,-34.308295],[-58.575269,-34.308549],[-58.575338,-34.308968],[-58.575179,-34.309122],[-58.574906,-34.309301],[-58.574653,-34.309339],[-58.574434,-34.309283],[-58.574233,-34.309084],[-58.573972,-34.308961],[-58.57405,-34.308779],[-58.573986,-34.308409],[-58.573695,-34.308156],[-58.573336,-34.307768],[-58.573069,-34.3074],[-58.572837,-34.307144],[-58.572571,-34.306919],[-58.572136,-34.306598],[-58.571832,-34.30647],[-58.571484,-34.306368],[-58.570999,-34.306162],[-58.570644,-34.305899],[-58.570203,-34.306488],[-58.56993,-34.306767],[-58.572936,-34.308788],[-58.578582,-34.312237]]]}},{"type":"Feature","properties":{"partida":"357017544","cca":"35700010000000000000005780000000000000200C","tipo":"Urbano","sup_m2":2668.2},"geometry":{"type":"Polygon","coordinates":[[[-58.570436,-34.308062],[-58.570433,-34.307882],[-58.569143,-34.307947],[-58.569055,-34.308164],[-58.570436,-34.308062]]]}},{"type":"Feature","properties":{"partida":"357011449","cca":"35700010000000000000005780000000000000200D","tipo":"Rural","sup_m2":34389.6},"geometry":{"type":"Polygon","coordinates":[[[-58.570376,-34.308856],[-58.570443,-34.309031],[-58.570588,-34.309226],[-58.570802,-34.309171],[-58.571981,-34.308919],[-58.572936,-34.308788],[-58.570647,-34.30725],[-58.570519,-34.307394],[-58.569778,-34.306955],[-58.569485,-34.307499],[-58.569288,-34.307762],[-58.569143,-34.307947],[-58.570433,-34.307882],[-58.570436,-34.308062],[-58.570416,-34.308173],[-58.570412,-34.308439],[-58.570416,-34.308546],[-58.570376,-34.308856]]]}},{"type":"Feature","properties":{"partida":"357011450","cca":"357000100000000000000057800000000000003000","tipo":"Urbano","sup_m2":1880.9},"geometry":{"type":"Polygon","coordinates":[[[-58.570436,-34.308062],[-58.569055,-34.308164],[-58.568989,-34.308323],[-58.570416,-34.308173],[-58.570436,-34.308062]]]}},{"type":"Feature","properties":{"partida":"357011451","cca":"357000100000000000000057800000000000004000","tipo":"Urbano","sup_m2":2026.5},"geometry":{"type":"Polygon","coordinates":[[[-58.570414,-34.308294],[-58.570416,-34.308173],[-58.568989,-34.308323],[-58.568974,-34.308481],[-58.570414,-34.308294]]]}},{"type":"Feature","properties":{"partida":"357011452","cca":"357000100000000000000057800000000000005000","tipo":"Urbano","sup_m2":2276.8},"geometry":{"type":"Polygon","coordinates":[[[-58.570414,-34.308294],[-58.568974,-34.308481],[-58.568977,-34.308645],[-58.570412,-34.308439],[-58.570414,-34.308294]]]}},{"type":"Feature","properties":{"partida":"357011453","cca":"357000100000000000000057800000000000006000","tipo":"Urbano","sup_m2":1920.2},"geometry":{"type":"Polygon","coordinates":[[[-58.570412,-34.308439],[-58.568977,-34.308645],[-58.56891,-34.308805],[-58.570416,-34.308546],[-58.570412,-34.308439]]]}},{"type":"Feature","properties":{"partida":"357011454","cca":"357000100000000000000057800000000000007000","tipo":"Urbano","sup_m2":2517.7},"geometry":{"type":"Polygon","coordinates":[[[-58.568849,-34.308998],[-58.570396,-34.308691],[-58.570416,-34.308546],[-58.56891,-34.308805],[-58.568849,-34.308998]]]}},{"type":"Feature","properties":{"partida":"357011455","cca":"357000100000000000000057800000000000008000","tipo":"Urbano","sup_m2":2479.6},"geometry":{"type":"Polygon","coordinates":[[[-58.570396,-34.308691],[-58.568849,-34.308998],[-58.568805,-34.309157],[-58.570376,-34.308856],[-58.570396,-34.308691]]]}},{"type":"Feature","properties":{"partida":"357011456","cca":"357000100000000000000057800000000000009000","tipo":"Urbano","sup_m2":3647.7},"geometry":{"type":"Polygon","coordinates":[[[-58.570376,-34.308856],[-58.568805,-34.309157],[-58.568815,-34.309264],[-58.568777,-34.309418],[-58.570443,-34.309031],[-58.570376,-34.308856]]]}},{"type":"Feature","properties":{"partida":"357011457","cca":"357000100000000000000057800000000000010000","tipo":"Urbano","sup_m2":4136.3},"geometry":{"type":"Polygon","coordinates":[[[-58.570443,-34.309031],[-58.568777,-34.309418],[-58.568791,-34.309665],[-58.569688,-34.309434],[-58.570588,-34.309226],[-58.570443,-34.309031]]]}},{"type":"Feature","properties":{"partida":"357019308","cca":"35700010000000000000005780000000000001100A","tipo":"Rural","sup_m2":10117.7},"geometry":{"type":"Polygon","coordinates":[[[-58.570588,-34.309226],[-58.569688,-34.309434],[-58.568791,-34.309665],[-58.56876,-34.310151],[-58.570919,-34.309606],[-58.570802,-34.309171],[-58.570588,-34.309226]]]}},{"type":"Feature","properties":{"partida":"357019608","cca":"35700010000000000000005780000000000001100C","tipo":"Urbano","sup_m2":9158.4},"geometry":{"type":"Polygon","coordinates":[[[-58.570919,-34.309606],[-58.56876,-34.310151],[-58.568748,-34.310614],[-58.571007,-34.309933],[-58.570919,-34.309606]]]}},{"type":"Feature","properties":{"partida":"357011458","cca":"35700010000000000000005780000000000001100D","tipo":"Urbano","sup_m2":12876.2},"geometry":{"type":"Polygon","coordinates":[[[-58.571007,-34.309933],[-58.568748,-34.310614],[-58.568886,-34.310956],[-58.56894,-34.311152],[-58.571149,-34.310422],[-58.571007,-34.309933]]]}},{"type":"Feature","properties":{"partida":"357019609","cca":"35700010000000000000005780000000000001100E","tipo":"Urbano","sup_m2":13769.6},"geometry":{"type":"Polygon","coordinates":[[[-58.571149,-34.310422],[-58.56894,-34.311152],[-58.569013,-34.311301],[-58.569005,-34.31143],[-58.568983,-34.311623],[-58.569172,-34.311751],[-58.57129,-34.310908],[-58.571149,-34.310422]]]}},{"type":"Feature","properties":{"partida":null,"cca":"357000100000000000000057800000000000012000","tipo":null,"sup_m2":46751.3},"geometry":{"type":"Polygon","coordinates":[[[-58.57189,-34.312972],[-58.57129,-34.310908],[-58.569172,-34.311751],[-58.569377,-34.312233],[-58.569628,-34.313009],[-58.569888,-34.313647],[-58.57189,-34.312972]]]}},{"type":"Feature","properties":{"partida":"357011460","cca":"357000100000000000000057800000000000013000","tipo":"Rural","sup_m2":29726.8},"geometry":{"type":"Polygon","coordinates":[[[-58.569888,-34.313647],[-58.570359,-34.31489],[-58.572299,-34.314428],[-58.57189,-34.312972],[-58.569888,-34.313647]]]}},{"type":"Feature","properties":{"partida":"357011637","cca":"357000100000000000000058200000000000000000","tipo":"Rural","sup_m2":125758.8},"geometry":{"type":"Polygon","coordinates":[[[-58.575888,-34.31295],[-58.574877,-34.312834],[-58.574794,-34.313154],[-58.572761,-34.313353],[-58.572788,-34.314335],[-58.572719,-34.318231],[-58.573204,-34.318159],[-58.574903,-34.318409],[-58.575104,-34.31566],[-58.575083,-34.31527],[-58.575085,-34.315167],[-58.574928,-34.314958],[-58.574863,-34.314801],[-58.575516,-34.31438],[-58.575539,-34.313472],[-58.575596,-34.313241],[-58.575888,-34.31295]]]}},{"type":"Feature","properties":{"partida":"357011639","cca":"35700010000000000000005830000000000000100B","tipo":"Urbano","sup_m2":1933.3},"geometry":{"type":"Polygon","coordinates":[[[-58.571512,-34.314809],[-58.571509,-34.314616],[-58.570359,-34.31489],[-58.570413,-34.315022],[-58.571512,-34.314809]]]}},{"type":"Feature","properties":{"partida":"357011640","cca":"35700010000000000000005830000000000000100C","tipo":"Urbano","sup_m2":1631.5},"geometry":{"type":"Polygon","coordinates":[[[-58.571523,-34.31495],[-58.571512,-34.314809],[-58.570413,-34.315022],[-58.570472,-34.315164],[-58.571523,-34.31495]]]}},{"type":"Feature","properties":{"partida":"357011641","cca":"35700010000000000000005830000000000000100D","tipo":"Urbano","sup_m2":1579.8},"geometry":{"type":"Polygon","coordinates":[[[-58.571523,-34.31495],[-58.570472,-34.315164],[-58.570529,-34.315303],[-58.571529,-34.315099],[-58.571523,-34.31495]]]}},{"type":"Feature","properties":{"partida":"357011642","cca":"35700010000000000000005830000000000000100E","tipo":"Urbano","sup_m2":1465.2},"geometry":{"type":"Polygon","coordinates":[[[-58.571529,-34.315099],[-58.570529,-34.315303],[-58.570584,-34.315439],[-58.571534,-34.315246],[-58.571529,-34.315099]]]}},{"type":"Feature","properties":{"partida":"357020462","cca":"35700010000000000000005830000000000000100F","tipo":"Urbano","sup_m2":216.7},"geometry":{"type":"Polygon","coordinates":[[[-58.57166,-34.31799],[-58.571794,-34.31799],[-58.571789,-34.317835],[-58.57165,-34.317834],[-58.57166,-34.31799]]]}},{"type":"Feature","properties":{"partida":"357011638","cca":"35700010000000000000005830000000000000100G","tipo":"Rural","sup_m2":48486.9},"geometry":{"type":"Polygon","coordinates":[[[-58.571679,-34.318475],[-58.572719,-34.318231],[-58.572788,-34.314335],[-58.572299,-34.314428],[-58.571509,-34.314616],[-58.571512,-34.314809],[-58.571523,-34.31495],[-58.571534,-34.315246],[-58.571546,-34.31539],[-58.571577,-34.316135],[-58.570887,-34.31623],[-58.570936,-34.316365],[-58.570979,-34.316527],[-58.570988,-34.316577],[-58.571595,-34.316553],[-58.571607,-34.316696],[-58.571613,-34.31698],[-58.571626,-34.31726],[-58.571628,-34.317411],[-58.571645,-34.317694],[-58.57165,-34.317834],[-58.571789,-34.317835],[-58.571794,-34.31799],[-58.57166,-34.31799],[-58.571665,-34.318123],[-58.571676,-34.318263],[-58.571679,-34.318475]]]}},{"type":"Feature","properties":{"partida":"357011643","cca":"35700010000000000000005830000000000000200A","tipo":"Urbano","sup_m2":1359.3},"geometry":{"type":"Polygon","coordinates":[[[-58.571534,-34.315246],[-58.570584,-34.315439],[-58.570636,-34.315568],[-58.571546,-34.31539],[-58.571534,-34.315246]]]}},{"type":"Feature","properties":{"partida":"357011644","cca":"35700010000000000000005830000000000000200B","tipo":"Urbano","sup_m2":1426.3},"geometry":{"type":"Polygon","coordinates":[[[-58.571546,-34.31539],[-58.570636,-34.315568],[-58.570685,-34.315696],[-58.571552,-34.315567],[-58.571546,-34.31539]]]}},{"type":"Feature","properties":{"partida":"357011645","cca":"35700010000000000000005830000000000000200C","tipo":"Urbano","sup_m2":1224.8},"geometry":{"type":"Polygon","coordinates":[[[-58.571552,-34.315567],[-58.570685,-34.315696],[-58.570737,-34.315835],[-58.571557,-34.315703],[-58.571552,-34.315567]]]}},{"type":"Feature","properties":{"partida":"357011646","cca":"35700010000000000000005830000000000000200D","tipo":"Urbano","sup_m2":1152.0},"geometry":{"type":"Polygon","coordinates":[[[-58.571557,-34.315703],[-58.570737,-34.315835],[-58.570786,-34.315963],[-58.571563,-34.31585],[-58.571557,-34.315703]]]}},{"type":"Feature","properties":{"partida":"357011647","cca":"35700010000000000000005830000000000000200E","tipo":"Urbano","sup_m2":1108.6},"geometry":{"type":"Polygon","coordinates":[[[-58.571563,-34.31585],[-58.570786,-34.315963],[-58.570838,-34.3161],[-58.571569,-34.315992],[-58.571563,-34.31585]]]}},{"type":"Feature","properties":{"partida":"357011648","cca":"35700010000000000000005830000000000000300A","tipo":"Urbano","sup_m2":1023.0},"geometry":{"type":"Polygon","coordinates":[[[-58.570838,-34.3161],[-58.570887,-34.31623],[-58.571577,-34.316135],[-58.571569,-34.315992],[-58.570838,-34.3161]]]}},{"type":"Feature","properties":{"partida":"357011649","cca":"35700010000000000000005830000000000000300B","tipo":"Urbano","sup_m2":863.2},"geometry":{"type":"Polygon","coordinates":[[[-58.571012,-34.316713],[-58.571607,-34.316696],[-58.571595,-34.316553],[-58.570988,-34.316577],[-58.571012,-34.316713]]]}},{"type":"Feature","properties":{"partida":"357011650","cca":"35700010000000000000005830000000000000300C","tipo":"Urbano","sup_m2":866.5},"geometry":{"type":"Polygon","coordinates":[[[-58.571607,-34.316696],[-58.571012,-34.316713],[-58.571038,-34.316858],[-58.571609,-34.316842],[-58.571607,-34.316696]]]}},{"type":"Feature","properties":{"partida":"357011651","cca":"35700010000000000000005830000000000000300D","tipo":"Urbano","sup_m2":803.1},"geometry":{"type":"Polygon","coordinates":[[[-58.571609,-34.316842],[-58.571038,-34.316858],[-58.571069,-34.317002],[-58.571613,-34.31698],[-58.571609,-34.316842]]]}},{"type":"Feature","properties":{"partida":"357011652","cca":"35700010000000000000005830000000000000300E","tipo":"Urbano","sup_m2":768.6},"geometry":{"type":"Polygon","coordinates":[[[-58.571613,-34.31698],[-58.571069,-34.317002],[-58.5711,-34.31714],[-58.571618,-34.317123],[-58.571613,-34.31698]]]}},{"type":"Feature","properties":{"partida":"357011653","cca":"35700010000000000000005830000000000000400A","tipo":"Urbano","sup_m2":751.2},"geometry":{"type":"Polygon","coordinates":[[[-58.571618,-34.317123],[-58.5711,-34.31714],[-58.571102,-34.317286],[-58.571626,-34.31726],[-58.571618,-34.317123]]]}},{"type":"Feature","properties":{"partida":"357011654","cca":"35700010000000000000005830000000000000400B","tipo":"Urbano","sup_m2":796.8},"geometry":{"type":"Polygon","coordinates":[[[-58.571626,-34.31726],[-58.571102,-34.317286],[-58.571109,-34.317433],[-58.571628,-34.317411],[-58.571626,-34.31726]]]}},{"type":"Feature","properties":{"partida":"357011655","cca":"35700010000000000000005830000000000000400C","tipo":"Urbano","sup_m2":768.7},"geometry":{"type":"Polygon","coordinates":[[[-58.571628,-34.317411],[-58.571109,-34.317433],[-58.57112,-34.317571],[-58.571636,-34.317563],[-58.571628,-34.317411]]]}},{"type":"Feature","properties":{"partida":"357011656","cca":"35700010000000000000005830000000000000400D","tipo":"Urbano","sup_m2":727.2},"geometry":{"type":"Polygon","coordinates":[[[-58.571636,-34.317563],[-58.57112,-34.317571],[-58.571117,-34.317712],[-58.571645,-34.317694],[-58.571636,-34.317563]]]}},{"type":"Feature","properties":{"partida":"357011657","cca":"35700010000000000000005830000000000000400E","tipo":"Urbano","sup_m2":704.5},"geometry":{"type":"Polygon","coordinates":[[[-58.571645,-34.317694],[-58.571117,-34.317712],[-58.571121,-34.317833],[-58.57165,-34.317834],[-58.571645,-34.317694]]]}},{"type":"Feature","properties":{"partida":"357011658","cca":"35700010000000000000005830000000000000500A","tipo":"Urbano","sup_m2":865.2},"geometry":{"type":"Polygon","coordinates":[[[-58.57166,-34.31799],[-58.57165,-34.317834],[-58.571121,-34.317833],[-58.57113,-34.317998],[-58.57166,-34.31799]]]}},{"type":"Feature","properties":{"partida":"357011659","cca":"35700010000000000000005830000000000000500B","tipo":"Urbano","sup_m2":749.2},"geometry":{"type":"Polygon","coordinates":[[[-58.57166,-34.31799],[-58.57113,-34.317998],[-58.571142,-34.318143],[-58.571665,-34.318123],[-58.57166,-34.31799]]]}},{"type":"Feature","properties":{"partida":"357011660","cca":"35700010000000000000005830000000000000500C","tipo":"Urbano","sup_m2":745.4},"geometry":{"type":"Polygon","coordinates":[[[-58.571665,-34.318123],[-58.571142,-34.318143],[-58.571144,-34.318279],[-58.571676,-34.318263],[-58.571665,-34.318123]]]}},{"type":"Feature","properties":{"partida":"357011661","cca":"35700010000000000000005830000000000000500D","tipo":"Urbano","sup_m2":737.2},"geometry":{"type":"Polygon","coordinates":[[[-58.571677,-34.318384],[-58.571676,-34.318263],[-58.571144,-34.318279],[-58.571113,-34.318423],[-58.571677,-34.318384]]]}},{"type":"Feature","properties":{"partida":"357011662","cca":"35700010000000000000005830000000000000500E","tipo":"Urbano","sup_m2":852.5},"geometry":{"type":"Polygon","coordinates":[[[-58.571113,-34.318423],[-58.571057,-34.318621],[-58.571679,-34.318475],[-58.571677,-34.318384],[-58.571113,-34.318423]]]}},{"type":"Feature","properties":{"partida":"357011663","cca":"35700010000000000000005830000000000000600A","tipo":"Urbano","sup_m2":5071.1},"geometry":{"type":"Polygon","coordinates":[[[-58.573169,-34.318496],[-58.574916,-34.318646],[-58.574903,-34.318409],[-58.573204,-34.318159],[-58.573169,-34.318496]]]}},{"type":"Feature","properties":{"partida":null,"cca":"35700010000000000000005830000000000000600B","tipo":null,"sup_m2":4741.3},"geometry":{"type":"Polygon","coordinates":[[[-58.573169,-34.318496],[-58.573145,-34.318757],[-58.574931,-34.31891],[-58.574916,-34.318646],[-58.573169,-34.318496]]]}},{"type":"Feature","properties":{"partida":"357011665","cca":"35700010000000000000005830000000000000600C","tipo":"Urbano","sup_m2":4846.9},"geometry":{"type":"Polygon","coordinates":[[[-58.57312,-34.319017],[-58.574946,-34.319174],[-58.574931,-34.31891],[-58.573145,-34.318757],[-58.57312,-34.319017]]]}},{"type":"Feature","properties":{"partida":"357011666","cca":"35700010000000000000005830000000000000600D","tipo":"Urbano","sup_m2":4955.0},"geometry":{"type":"Polygon","coordinates":[[[-58.573095,-34.319278],[-58.57496,-34.319438],[-58.574946,-34.319174],[-58.57312,-34.319017],[-58.573095,-34.319278]]]}},{"type":"Feature","properties":{"partida":"357011667","cca":"35700010000000000000005830000000000000700A","tipo":"Urbano","sup_m2":6617.9},"geometry":{"type":"Polygon","coordinates":[[[-58.572719,-34.318231],[-58.571057,-34.318621],[-58.571046,-34.318932],[-58.573176,-34.318432],[-58.573204,-34.318159],[-58.572719,-34.318231]]]}},{"type":"Feature","properties":{"partida":"357011668","cca":"35700010000000000000005830000000000000700C","tipo":"Urbano","sup_m2":5006.0},"geometry":{"type":"Polygon","coordinates":[[[-58.573153,-34.318667],[-58.573176,-34.318432],[-58.571046,-34.318932],[-58.571037,-34.319165],[-58.573153,-34.318667]]]}},{"type":"Feature","properties":{"partida":"357011669","cca":"35700010000000000000005830000000000000700D","tipo":"Urbano","sup_m2":4918.4},"geometry":{"type":"Polygon","coordinates":[[[-58.57313,-34.318904],[-58.573153,-34.318667],[-58.571037,-34.319165],[-58.571029,-34.319392],[-58.57313,-34.318904]]]}},{"type":"Feature","properties":{"partida":"357011670","cca":"35700010000000000000005830000000000000700E","tipo":"Urbano","sup_m2":5011.1},"geometry":{"type":"Polygon","coordinates":[[[-58.57313,-34.318904],[-58.571029,-34.319392],[-58.57102,-34.319625],[-58.573107,-34.319147],[-58.57313,-34.318904]]]}},{"type":"Feature","properties":{"partida":"357011673","cca":"35700010000000000000005830000000000000800A","tipo":"Urbano","sup_m2":1753.2},"geometry":{"type":"Polygon","coordinates":[[[-58.573095,-34.319278],[-58.574878,-34.319615],[-58.574876,-34.319571],[-58.574962,-34.319468],[-58.57496,-34.319438],[-58.573095,-34.319278]]]}},{"type":"Feature","properties":{"partida":"357011671","cca":"35700010000000000000005830000000000000800B","tipo":"Urbano","sup_m2":6415.9},"geometry":{"type":"Polygon","coordinates":[[[-58.57306,-34.319644],[-58.574892,-34.31994],[-58.574878,-34.319615],[-58.573095,-34.319278],[-58.57306,-34.319644]]]}},{"type":"Feature","properties":{"partida":"357011672","cca":"35700010000000000000005830000000000000800C","tipo":"Urbano","sup_m2":5181.8},"geometry":{"type":"Polygon","coordinates":[[[-58.57306,-34.319644],[-58.573034,-34.319914],[-58.574904,-34.320216],[-58.574892,-34.31994],[-58.57306,-34.319644]]]}},{"type":"Feature","properties":{"partida":"357011674","cca":"35700010000000000000005830000000000000800D","tipo":"Urbano","sup_m2":4646.1},"geometry":{"type":"Polygon","coordinates":[[[-58.573034,-34.319914],[-58.573011,-34.320152],[-58.574909,-34.320458],[-58.574904,-34.320216],[-58.573034,-34.319914]]]}},{"type":"Feature","properties":{"partida":null,"cca":"35700010000000000000005830000000000000800E","tipo":null,"sup_m2":4738.6},"geometry":{"type":"Polygon","coordinates":[[[-58.572988,-34.320391],[-58.574913,-34.320701],[-58.574909,-34.320458],[-58.573011,-34.320152],[-58.572988,-34.320391]]]}},{"type":"Feature","properties":{"partida":"357011676","cca":"35700010000000000000005830000000000000900C","tipo":"Urbano","sup_m2":16169.2},"geometry":{"type":"Polygon","coordinates":[[[-58.573034,-34.319914],[-58.570993,-34.320344],[-58.570975,-34.320815],[-58.571002,-34.321133],[-58.572958,-34.320714],[-58.573034,-34.319914]]]}},{"type":"Feature","properties":{"partida":"357011677","cca":"35700010000000000000005830000000000000900D","tipo":"Urbano","sup_m2":5213.9},"geometry":{"type":"Polygon","coordinates":[[[-58.573107,-34.319147],[-58.57102,-34.319625],[-58.571011,-34.319873],[-58.573083,-34.319398],[-58.573107,-34.319147]]]}},{"type":"Feature","properties":{"partida":"357011678","cca":"35700010000000000000005830000000000000900E","tipo":"Urbano","sup_m2":5179.8},"geometry":{"type":"Polygon","coordinates":[[[-58.573083,-34.319398],[-58.571011,-34.319873],[-58.571002,-34.320101],[-58.573057,-34.319668],[-58.573083,-34.319398]]]}},{"type":"Feature","properties":{"partida":"357011679","cca":"35700010000000000000005830000000000000900F","tipo":"Urbano","sup_m2":5037.4},"geometry":{"type":"Polygon","coordinates":[[[-58.573034,-34.319914],[-58.573057,-34.319668],[-58.571002,-34.320101],[-58.570993,-34.320344],[-58.573034,-34.319914]]]}},{"type":"Feature","properties":{"partida":null,"cca":"35700010000000000000005830000000000001000A","tipo":null,"sup_m2":4706.6},"geometry":{"type":"Polygon","coordinates":[[[-58.572988,-34.320391],[-58.572966,-34.320625],[-58.574916,-34.32094],[-58.574913,-34.320701],[-58.572988,-34.320391]]]}},{"type":"Feature","properties":{"partida":"357011680","cca":"35700010000000000000005830000000000001000B","tipo":"Urbano","sup_m2":5014.5},"geometry":{"type":"Polygon","coordinates":[[[-58.572942,-34.320872],[-58.574903,-34.321189],[-58.574916,-34.32094],[-58.572966,-34.320625],[-58.572942,-34.320872]]]}},{"type":"Feature","properties":{"partida":"357011681","cca":"35700010000000000000005830000000000001000C","tipo":"Urbano","sup_m2":5892.4},"geometry":{"type":"Polygon","coordinates":[[[-58.572942,-34.320872],[-58.572915,-34.321163],[-58.572922,-34.321161],[-58.574916,-34.321483],[-58.574898,-34.32129],[-58.574903,-34.321189],[-58.572942,-34.320872]]]}},{"type":"Feature","properties":{"partida":"357011682","cca":"35700010000000000000005830000000000001000D","tipo":"Urbano","sup_m2":6012.1},"geometry":{"type":"Polygon","coordinates":[[[-58.572888,-34.321446],[-58.573044,-34.321471],[-58.574942,-34.321777],[-58.574916,-34.321483],[-58.572922,-34.321161],[-58.572915,-34.321163],[-58.572888,-34.321446]]]}},{"type":"Feature","properties":{"partida":"357011684","cca":"35700010000000000000005830000000000001100E","tipo":"Urbano","sup_m2":4404.1},"geometry":{"type":"Polygon","coordinates":[[[-58.572936,-34.320939],[-58.572958,-34.320714],[-58.571002,-34.321133],[-58.571015,-34.321284],[-58.571027,-34.321354],[-58.572936,-34.320939]]]}},{"type":"Feature","properties":{"partida":"357011685","cca":"35700010000000000000005830000000000001100F","tipo":"Urbano","sup_m2":4409.7},"geometry":{"type":"Polygon","coordinates":[[[-58.572915,-34.321163],[-58.572936,-34.320939],[-58.571027,-34.321354],[-58.571066,-34.321586],[-58.572915,-34.321163]]]}},{"type":"Feature","properties":{"partida":"357011686","cca":"35700010000000000000005830000000000001100G","tipo":"Urbano","sup_m2":4472.6},"geometry":{"type":"Polygon","coordinates":[[[-58.572915,-34.321163],[-58.571066,-34.321586],[-58.571099,-34.321783],[-58.572888,-34.321446],[-58.572915,-34.321163]]]}},{"type":"Feature","properties":{"partida":"357011688","cca":"35700010000000000000005830000000000001200A","tipo":"Urbano","sup_m2":7593.8},"geometry":{"type":"Polygon","coordinates":[[[-58.573044,-34.321471],[-58.573052,-34.321959],[-58.574969,-34.322072],[-58.574942,-34.321777],[-58.573044,-34.321471]]]}},{"type":"Feature","properties":{"partida":"357011687","cca":"35700010000000000000005830000000000001200B","tipo":"Urbano","sup_m2":3554.4},"geometry":{"type":"Polygon","coordinates":[[[-58.573048,-34.322146],[-58.574985,-34.322247],[-58.574969,-34.322072],[-58.573052,-34.321959],[-58.573048,-34.322146]]]}},{"type":"Feature","properties":{"partida":"357011689","cca":"35700010000000000000005830000000000001200C","tipo":"Urbano","sup_m2":3672.4},"geometry":{"type":"Polygon","coordinates":[[[-58.573063,-34.322334],[-58.574969,-34.322433],[-58.574991,-34.322317],[-58.574985,-34.322247],[-58.573048,-34.322146],[-58.573063,-34.322334]]]}},{"type":"Feature","properties":{"partida":"357011690","cca":"35700010000000000000005830000000000001200D","tipo":"Urbano","sup_m2":3578.7},"geometry":{"type":"Polygon","coordinates":[[[-58.57308,-34.322516],[-58.574933,-34.322622],[-58.574969,-34.322433],[-58.573063,-34.322334],[-58.57308,-34.322516]]]}},{"type":"Feature","properties":{"partida":null,"cca":"35700010000000000000005830000000000001300A","tipo":null,"sup_m2":7591.1},"geometry":{"type":"Polygon","coordinates":[[[-58.573052,-34.321959],[-58.573044,-34.321471],[-58.572888,-34.321446],[-58.571099,-34.321783],[-58.571125,-34.321939],[-58.571125,-34.32201],[-58.573052,-34.321959]]]}},{"type":"Feature","properties":{"partida":"357011691","cca":"35700010000000000000005830000000000001300B","tipo":"Urbano","sup_m2":3609.4},"geometry":{"type":"Polygon","coordinates":[[[-58.573052,-34.321959],[-58.571125,-34.32201],[-58.571166,-34.322193],[-58.573048,-34.322146],[-58.573052,-34.321959]]]}},{"type":"Feature","properties":{"partida":"357011692","cca":"35700010000000000000005830000000000001300C","tipo":"Urbano","sup_m2":3657.7},"geometry":{"type":"Polygon","coordinates":[[[-58.573048,-34.322146],[-58.571166,-34.322193],[-58.571197,-34.322387],[-58.573063,-34.322334],[-58.573048,-34.322146]]]}},{"type":"Feature","properties":{"partida":"357011693","cca":"35700010000000000000005830000000000001300D","tipo":"Urbano","sup_m2":3490.8},"geometry":{"type":"Polygon","coordinates":[[[-58.573063,-34.322334],[-58.571197,-34.322387],[-58.571226,-34.322571],[-58.57308,-34.322516],[-58.573063,-34.322334]]]}},{"type":"Feature","properties":{"partida":"357011700","cca":"35700010000000000000005830000000000001400A","tipo":"Urbano","sup_m2":3343.7},"geometry":{"type":"Polygon","coordinates":[[[-58.57309,-34.322696],[-58.5749,-34.322798],[-58.574933,-34.322622],[-58.57308,-34.322516],[-58.57309,-34.322696]]]}},{"type":"Feature","properties":{"partida":"357011701","cca":"35700010000000000000005830000000000001400B","tipo":"Urbano","sup_m2":3368.9},"geometry":{"type":"Polygon","coordinates":[[[-58.574835,-34.322981],[-58.574876,-34.322927],[-58.5749,-34.322798],[-58.57309,-34.322696],[-58.573079,-34.322876],[-58.574835,-34.322981]]]}},{"type":"Feature","properties":{"partida":"357011702","cca":"35700010000000000000005830000000000001400C","tipo":"Urbano","sup_m2":3203.9},"geometry":{"type":"Polygon","coordinates":[[[-58.573079,-34.322876],[-58.57307,-34.323061],[-58.573301,-34.323076],[-58.573509,-34.323083],[-58.573749,-34.323101],[-58.574218,-34.323127],[-58.574696,-34.323167],[-58.574835,-34.322981],[-58.573079,-34.322876]]]}},{"type":"Feature","properties":{"partida":"357011703","cca":"35700010000000000000005830000000000001400D","tipo":"Urbano","sup_m2":1482.7},"geometry":{"type":"Polygon","coordinates":[[[-58.574218,-34.323127],[-58.574249,-34.32371],[-58.574463,-34.323479],[-58.574696,-34.323167],[-58.574218,-34.323127]]]}},{"type":"Feature","properties":{"partida":"357011704","cca":"35700010000000000000005830000000000001400E","tipo":"Urbano","sup_m2":1742.5},"geometry":{"type":"Polygon","coordinates":[[[-58.574218,-34.323127],[-58.573982,-34.323113],[-58.574019,-34.323958],[-58.574249,-34.32371],[-58.574218,-34.323127]]]}},{"type":"Feature","properties":{"partida":"357011705","cca":"35700010000000000000005830000000000001400F","tipo":"Urbano","sup_m2":2312.3},"geometry":{"type":"Polygon","coordinates":[[[-58.573982,-34.323113],[-58.573749,-34.323101],[-58.573795,-34.324199],[-58.574019,-34.323958],[-58.573982,-34.323113]]]}},{"type":"Feature","properties":{"partida":null,"cca":"35700010000000000000005830000000000001400G","tipo":null,"sup_m2":2921.0},"geometry":{"type":"Polygon","coordinates":[[[-58.573749,-34.323101],[-58.573509,-34.323083],[-58.573575,-34.324408],[-58.573658,-34.324347],[-58.573795,-34.324199],[-58.573749,-34.323101]]]}},{"type":"Feature","properties":{"partida":"357011707","cca":"35700010000000000000005830000000000001400H","tipo":"Urbano","sup_m2":3086.1},"geometry":{"type":"Polygon","coordinates":[[[-58.573509,-34.323083],[-58.573301,-34.323076],[-58.57336,-34.324565],[-58.573575,-34.324408],[-58.573509,-34.323083]]]}},{"type":"Feature","properties":{"partida":"357011708","cca":"35700010000000000000005830000000000001400J","tipo":"Urbano","sup_m2":3521.1},"geometry":{"type":"Polygon","coordinates":[[[-58.573103,-34.32357],[-58.573102,-34.323755],[-58.573113,-34.323938],[-58.573119,-34.324129],[-58.573153,-34.32466],[-58.573287,-34.324619],[-58.57336,-34.324565],[-58.573301,-34.323076],[-58.57307,-34.323061],[-58.573103,-34.32357]]]}},{"type":"Feature","properties":{"partida":"357011709","cca":"35700010000000000000005830000000000001500A","tipo":"Urbano","sup_m2":3477.3},"geometry":{"type":"Polygon","coordinates":[[[-58.57308,-34.322516],[-58.571226,-34.322571],[-58.571233,-34.322609],[-58.57123,-34.322758],[-58.57309,-34.322696],[-58.57308,-34.322516]]]}},{"type":"Feature","properties":{"partida":"357011710","cca":"35700010000000000000005830000000000001500B","tipo":"Urbano","sup_m2":3436.1},"geometry":{"type":"Polygon","coordinates":[[[-58.573079,-34.322876],[-58.57309,-34.322696],[-58.57123,-34.322758],[-58.571226,-34.32294],[-58.573079,-34.322876]]]}},{"type":"Feature","properties":{"partida":"357011711","cca":"35700010000000000000005830000000000001500C","tipo":"Urbano","sup_m2":3396.4},"geometry":{"type":"Polygon","coordinates":[[[-58.573079,-34.322876],[-58.571226,-34.32294],[-58.571223,-34.323125],[-58.572146,-34.323083],[-58.57307,-34.323061],[-58.573079,-34.322876]]]}},{"type":"Feature","properties":{"partida":"357011712","cca":"35700010000000000000005830000000000001500D","tipo":"Urbano","sup_m2":9751.4},"geometry":{"type":"Polygon","coordinates":[[[-58.573103,-34.32357],[-58.57307,-34.323061],[-58.572146,-34.323083],[-58.571223,-34.323125],[-58.571222,-34.32317],[-58.571363,-34.323659],[-58.573103,-34.32357]]]}},{"type":"Feature","properties":{"partida":"357011713","cca":"35700010000000000000005830000000000001600A","tipo":"Urbano","sup_m2":3274.1},"geometry":{"type":"Polygon","coordinates":[[[-58.573102,-34.323755],[-58.573103,-34.32357],[-58.571363,-34.323659],[-58.571416,-34.323846],[-58.573102,-34.323755]]]}},{"type":"Feature","properties":{"partida":"357011714","cca":"35700010000000000000005830000000000001600B","tipo":"Urbano","sup_m2":3156.9},"geometry":{"type":"Polygon","coordinates":[[[-58.573102,-34.323755],[-58.571416,-34.323846],[-58.571425,-34.324026],[-58.57285,-34.323954],[-58.573113,-34.323938],[-58.573102,-34.323755]]]}},{"type":"Feature","properties":{"partida":"357011715","cca":"35700010000000000000005830000000000001600C","tipo":"Urbano","sup_m2":3276.1},"geometry":{"type":"Polygon","coordinates":[[[-58.572118,-34.324177],[-58.573119,-34.324129],[-58.573113,-34.323938],[-58.57285,-34.323954],[-58.571425,-34.324026],[-58.5714,-34.324219],[-58.572118,-34.324177]]]}},{"type":"Feature","properties":{"partida":"357011716","cca":"35700010000000000000005830000000000001600D","tipo":"Urbano","sup_m2":1530.4},"geometry":{"type":"Polygon","coordinates":[[[-58.573119,-34.324129],[-58.572859,-34.324142],[-58.572888,-34.324741],[-58.573153,-34.32466],[-58.573119,-34.324129]]]}},{"type":"Feature","properties":{"partida":"357011717","cca":"35700010000000000000005830000000000001600E","tipo":"Urbano","sup_m2":1993.7},"geometry":{"type":"Polygon","coordinates":[[[-58.572859,-34.324142],[-58.572535,-34.324158],[-58.572551,-34.32474],[-58.572888,-34.324741],[-58.572859,-34.324142]]]}},{"type":"Feature","properties":{"partida":"357011718","cca":"35700010000000000000005830000000000001600F","tipo":"Urbano","sup_m2":2378.2},"geometry":{"type":"Polygon","coordinates":[[[-58.572535,-34.324158],[-58.572118,-34.324177],[-58.572156,-34.32474],[-58.572551,-34.32474],[-58.572535,-34.324158]]]}},{"type":"Feature","properties":{"partida":"357011719","cca":"35700010000000000000005830000000000001600G","tipo":"Urbano","sup_m2":3733.6},"geometry":{"type":"Polygon","coordinates":[[[-58.572118,-34.324177],[-58.5714,-34.324219],[-58.571366,-34.324471],[-58.571429,-34.324596],[-58.571919,-34.32474],[-58.572156,-34.32474],[-58.572118,-34.324177]]]}},{"type":"Feature","properties":{"partida":"357011921","cca":"35700010000000000000005870000000000000100A","tipo":"Rural","sup_m2":116501.6},"geometry":{"type":"Polygon","coordinates":[[[-58.57862,-34.322224],[-58.57859,-34.321526],[-58.57905,-34.319645],[-58.574903,-34.318409],[-58.574953,-34.318474],[-58.574976,-34.318844],[-58.575,-34.319485],[-58.574961,-34.319539],[-58.574904,-34.319567],[-58.574907,-34.319677],[-58.574939,-34.320092],[-58.574947,-34.320901],[-58.574941,-34.321255],[-58.574946,-34.32143],[-58.574973,-34.321725],[-58.57862,-34.322224]]]}},{"type":"Feature","properties":{"partida":"357011922","cca":"35700010000000000000005870000000000000100B","tipo":"Rural","sup_m2":147515.5},"geometry":{"type":"Polygon","coordinates":[[[-58.578525,-34.325772],[-58.578567,-34.325553],[-58.578665,-34.325345],[-58.578797,-34.325013],[-58.578783,-34.324625],[-58.578783,-34.324304],[-58.578834,-34.323961],[-58.578907,-34.323104],[-58.578618,-34.322349],[-58.57862,-34.322224],[-58.574973,-34.321725],[-58.57503,-34.322319],[-58.574959,-34.322702],[-58.57492,-34.322959],[-58.574828,-34.323082],[-58.574728,-34.323243],[-58.574334,-34.323747],[-58.573728,-34.324433],[-58.573453,-34.324655],[-58.578525,-34.325772]]]}},{"type":"Feature","properties":{"partida":"357011923","cca":"35700010000000000000005870000000000000200A","tipo":"Rural","sup_m2":717.1},"geometry":{"type":"Polygon","coordinates":[[[-58.573246,-34.32471],[-58.574001,-34.324882],[-58.57405,-34.324786],[-58.573453,-34.324655],[-58.573246,-34.32471]]]}},{"type":"Feature","properties":{"partida":"357013394","cca":"357000100000000000000064000000000000011000","tipo":"Urbano","sup_m2":3779.1},"geometry":{"type":"Polygon","coordinates":[[[-58.568338,-34.307728],[-58.568391,-34.307608],[-58.566259,-34.306633],[-58.566272,-34.306847],[-58.568338,-34.307728]]]}},{"type":"Feature","properties":{"partida":"357013395","cca":"357000100000000000000064000000000000012000","tipo":"Urbano","sup_m2":8872.0},"geometry":{"type":"Polygon","coordinates":[[[-58.568338,-34.307728],[-58.566272,-34.306847],[-58.566266,-34.307517],[-58.568268,-34.307889],[-58.568338,-34.307728]]]}},{"type":"Feature","properties":{"partida":"357013397","cca":"357000100000000000000064000000000000014000","tipo":"Urbano","sup_m2":3619.5},"geometry":{"type":"Polygon","coordinates":[[[-58.568271,-34.308063],[-58.568268,-34.307889],[-58.566266,-34.307517],[-58.566266,-34.307698],[-58.568271,-34.308063]]]}},{"type":"Feature","properties":{"partida":"357013398","cca":"357000100000000000000064000000000000015000","tipo":"Urbano","sup_m2":3932.8},"geometry":{"type":"Polygon","coordinates":[[[-58.568197,-34.30825],[-58.568271,-34.308063],[-58.566266,-34.307698],[-58.566267,-34.307888],[-58.568197,-34.30825]]]}},{"type":"Feature","properties":{"partida":"357019399","cca":"35700010000000000000006400000000000001600A","tipo":"Urbano","sup_m2":2210.2},"geometry":{"type":"Polygon","coordinates":[[[-58.568175,-34.308353],[-58.568197,-34.30825],[-58.566267,-34.307888],[-58.566267,-34.308007],[-58.568175,-34.308353]]]}},{"type":"Feature","properties":{"partida":"357013399","cca":"35700010000000000000006400000000000001600B","tipo":"Urbano","sup_m2":5666.1},"geometry":{"type":"Polygon","coordinates":[[[-58.568082,-34.308631],[-58.568175,-34.308353],[-58.566267,-34.308007],[-58.566267,-34.308308],[-58.568082,-34.308631]]]}},{"type":"Feature","properties":{"partida":"357013400","cca":"35700010000000000000006400000000000001700A","tipo":"Urbano","sup_m2":7061.6},"geometry":{"type":"Polygon","coordinates":[[[-58.567982,-34.30901],[-58.568082,-34.308631],[-58.566267,-34.308308],[-58.566268,-34.308695],[-58.567982,-34.30901]]]}},{"type":"Feature","properties":{"partida":"357013401","cca":"35700010000000000000006400000000000001900A","tipo":"Urbano","sup_m2":8285.1},"geometry":{"type":"Polygon","coordinates":[[[-58.567942,-34.309437],[-58.567982,-34.30901],[-58.566268,-34.308695],[-58.566269,-34.309219],[-58.567942,-34.309437]]]}},{"type":"Feature","properties":{"partida":"357013402","cca":"357000100000000000000064000000000000020000","tipo":"Urbano","sup_m2":64858.8},"geometry":{"type":"Polygon","coordinates":[[[-58.566269,-34.309219],[-58.566266,-34.307517],[-58.563359,-34.306952],[-58.562,-34.308558],[-58.566269,-34.309219]]]}},{"type":"Feature","properties":{"partida":"357013403","cca":"357000100000000000000064000000000000021000","tipo":"Urbano","sup_m2":4487.3},"geometry":{"type":"Polygon","coordinates":[[[-58.567942,-34.309437],[-58.566269,-34.309219],[-58.56627,-34.309621],[-58.567903,-34.309565],[-58.567942,-34.309437]]]}},{"type":"Feature","properties":{"partida":"357013404","cca":"357000100000000000000064000000000000022000","tipo":"Urbano","sup_m2":2441.1},"geometry":{"type":"Polygon","coordinates":[[[-58.567923,-34.309703],[-58.567903,-34.309565],[-58.56627,-34.309621],[-58.56627,-34.309773],[-58.567923,-34.309703]]]}},{"type":"Feature","properties":{"partida":"357013405","cca":"357000100000000000000064000000000000023000","tipo":"Urbano","sup_m2":2881.1},"geometry":{"type":"Polygon","coordinates":[[[-58.567983,-34.309884],[-58.567923,-34.309703],[-58.56627,-34.309773],[-58.56627,-34.309926],[-58.567983,-34.309884]]]}},{"type":"Feature","properties":{"partida":"357013406","cca":"357000100000000000000064000000000000024000","tipo":"Urbano","sup_m2":3012.3},"geometry":{"type":"Polygon","coordinates":[[[-58.567983,-34.310049],[-58.567983,-34.309884],[-58.56627,-34.309926],[-58.566271,-34.310105],[-58.567983,-34.310049]]]}},{"type":"Feature","properties":{"partida":"357013407","cca":"357000100000000000000064000000000000025000","tipo":"Urbano","sup_m2":3193.2},"geometry":{"type":"Polygon","coordinates":[[[-58.568006,-34.310218],[-58.567983,-34.310049],[-58.566271,-34.310105],[-58.566271,-34.310297],[-58.568006,-34.310218]]]}},{"type":"Feature","properties":{"partida":"357013408","cca":"357000100000000000000064000000000000026000","tipo":"Urbano","sup_m2":2970.1},"geometry":{"type":"Polygon","coordinates":[[[-58.568068,-34.310393],[-58.568006,-34.310218],[-58.566271,-34.310297],[-58.566271,-34.31045],[-58.568068,-34.310393]]]}},{"type":"Feature","properties":{"partida":"357013409","cca":"357000100000000000000064000000000000027000","tipo":"Urbano","sup_m2":3060.8},"geometry":{"type":"Polygon","coordinates":[[[-58.568068,-34.310393],[-58.566271,-34.31045],[-58.566272,-34.310625],[-58.568071,-34.310551],[-58.568068,-34.310393]]]}},{"type":"Feature","properties":{"partida":"357013410","cca":"357000100000000000000064000000000000028000","tipo":"Urbano","sup_m2":43623.1},"geometry":{"type":"Polygon","coordinates":[[[-58.560882,-34.309878],[-58.56627,-34.309621],[-58.566269,-34.309219],[-58.562,-34.308558],[-58.560882,-34.309878]]]}},{"type":"Feature","properties":{"partida":"357013411","cca":"357000100000000000000064000000000000029000","tipo":"Urbano","sup_m2":27622.0},"geometry":{"type":"Polygon","coordinates":[[[-58.566272,-34.310625],[-58.56627,-34.309621],[-58.560882,-34.309878],[-58.566272,-34.310625]]]}},{"type":"Feature","properties":{"partida":"357013412","cca":"357000100000000000000064000000000000030000","tipo":"Urbano","sup_m2":4479.9},"geometry":{"type":"Polygon","coordinates":[[[-58.568049,-34.310813],[-58.568071,-34.310551],[-58.566272,-34.310625],[-58.566378,-34.310866],[-58.568049,-34.310813]]]}},{"type":"Feature","properties":{"partida":"357013413","cca":"357000100000000000000064000000000000031000","tipo":"Urbano","sup_m2":2562.7},"geometry":{"type":"Polygon","coordinates":[[[-58.568148,-34.310954],[-58.568049,-34.310813],[-58.566378,-34.310866],[-58.566445,-34.311016],[-58.568148,-34.310954]]]}},{"type":"Feature","properties":{"partida":"357013414","cca":"357000100000000000000064000000000000032000","tipo":"Urbano","sup_m2":3192.1},"geometry":{"type":"Polygon","coordinates":[[[-58.568215,-34.311142],[-58.568148,-34.310954],[-58.566445,-34.311016],[-58.566523,-34.311192],[-58.568215,-34.311142]]]}},{"type":"Feature","properties":{"partida":"357013415","cca":"357000100000000000000064000000000000033000","tipo":"Urbano","sup_m2":3208.0},"geometry":{"type":"Polygon","coordinates":[[[-58.568225,-34.311328],[-58.568215,-34.311142],[-58.566523,-34.311192],[-58.566607,-34.311382],[-58.568225,-34.311328]]]}},{"type":"Feature","properties":{"partida":"357013416","cca":"357000100000000000000064000000000000034000","tipo":"Urbano","sup_m2":2498.8},"geometry":{"type":"Polygon","coordinates":[[[-58.568273,-34.311478],[-58.568225,-34.311328],[-58.566607,-34.311382],[-58.566674,-34.311532],[-58.568273,-34.311478]]]}},{"type":"Feature","properties":{"partida":"357013417","cca":"357000100000000000000064000000000000035000","tipo":"Urbano","sup_m2":4440.2},"geometry":{"type":"Polygon","coordinates":[[[-58.568273,-34.311478],[-58.566674,-34.311532],[-58.566845,-34.311899],[-58.568339,-34.311651],[-58.568273,-34.311478]]]}},{"type":"Feature","properties":{"partida":"357013418","cca":"357000100000000000000064000000000000036000","tipo":"Urbano","sup_m2":3802.9},"geometry":{"type":"Polygon","coordinates":[[[-58.568368,-34.311885],[-58.568339,-34.311651],[-58.566845,-34.311899],[-58.56695,-34.312152],[-58.568368,-34.311885]]]}},{"type":"Feature","properties":{"partida":"357013419","cca":"357000100000000000000064000000000000037000","tipo":"Urbano","sup_m2":3428.5},"geometry":{"type":"Polygon","coordinates":[[[-58.56841,-34.312113],[-58.568466,-34.312039],[-58.568368,-34.311885],[-58.56695,-34.312152],[-58.567048,-34.312369],[-58.56841,-34.312113]]]}},{"type":"Feature","properties":{"partida":"357013420","cca":"357000100000000000000064000000000000038000","tipo":"Urbano","sup_m2":2852.0},"geometry":{"type":"Polygon","coordinates":[[[-58.568518,-34.312277],[-58.56841,-34.312113],[-58.567048,-34.312369],[-58.567142,-34.312573],[-58.568518,-34.312277]]]}},{"type":"Feature","properties":{"partida":"357013421","cca":"357000100000000000000064000000000000039000","tipo":"Urbano","sup_m2":2116.8},"geometry":{"type":"Polygon","coordinates":[[[-58.568584,-34.312414],[-58.568518,-34.312277],[-58.567142,-34.312573],[-58.567198,-34.31271],[-58.568584,-34.312414]]]}},{"type":"Feature","properties":{"partida":"357013423","cca":"35700010000000000000006400000000000004000A","tipo":"Urbano","sup_m2":4535.4},"geometry":{"type":"Polygon","coordinates":[[[-58.568584,-34.312414],[-58.567198,-34.31271],[-58.567271,-34.312866],[-58.567318,-34.312994],[-58.56872,-34.312719],[-58.568649,-34.312582],[-58.568622,-34.312555],[-58.568584,-34.312414]]]}},{"type":"Feature","properties":{"partida":"357013424","cca":"357000100000000000000064000000000000042000","tipo":"Urbano","sup_m2":3697.2},"geometry":{"type":"Polygon","coordinates":[[[-58.568697,-34.312998],[-58.56872,-34.312719],[-58.567318,-34.312994],[-58.567453,-34.313242],[-58.568697,-34.312998]]]}},{"type":"Feature","properties":{"partida":"357013425","cca":"357000100000000000000064000000000000043000","tipo":"Urbano","sup_m2":3376.4},"geometry":{"type":"Polygon","coordinates":[[[-58.56881,-34.313273],[-58.568697,-34.312998],[-58.567453,-34.313242],[-58.567534,-34.313458],[-58.56881,-34.313273]]]}},{"type":"Feature","properties":{"partida":"357013426","cca":"357000100000000000000064000000000000044000","tipo":"Urbano","sup_m2":2853.4},"geometry":{"type":"Polygon","coordinates":[[[-58.568862,-34.313492],[-58.56881,-34.313273],[-58.567534,-34.313458],[-58.567618,-34.313663],[-58.568862,-34.313492]]]}},{"type":"Feature","properties":{"partida":"357013427","cca":"357000100000000000000064000000000000045000","tipo":"Urbano","sup_m2":2352.5},"geometry":{"type":"Polygon","coordinates":[[[-58.568948,-34.313668],[-58.568899,-34.313581],[-58.568862,-34.313492],[-58.567618,-34.313663],[-58.567695,-34.313835],[-58.568948,-34.313668]]]}},{"type":"Feature","properties":{"partida":"357013428","cca":"357000100000000000000064000000000000046000","tipo":"Urbano","sup_m2":2992.2},"geometry":{"type":"Polygon","coordinates":[[[-58.569158,-34.313887],[-58.568948,-34.313668],[-58.567695,-34.313835],[-58.56778,-34.314026],[-58.569158,-34.313887]]]}},{"type":"Feature","properties":{"partida":"357013429","cca":"357000100000000000000064000000000000047000","tipo":"Urbano","sup_m2":2422.5},"geometry":{"type":"Polygon","coordinates":[[[-58.569305,-34.31411],[-58.569253,-34.314009],[-58.569158,-34.313887],[-58.56778,-34.314026],[-58.567798,-34.314067],[-58.567799,-34.314122],[-58.569305,-34.31411]]]}},{"type":"Feature","properties":{"partida":"357013430","cca":"357000100000000000000064000000000000048000","tipo":"Urbano","sup_m2":1909.0},"geometry":{"type":"Polygon","coordinates":[[[-58.567801,-34.314227],[-58.569316,-34.314253],[-58.569305,-34.31411],[-58.567799,-34.314122],[-58.567801,-34.314227]]]}},{"type":"Feature","properties":{"partida":"357013431","cca":"357000100000000000000064000000000000049000","tipo":"Urbano","sup_m2":2860.1},"geometry":{"type":"Polygon","coordinates":[[[-58.567804,-34.314407],[-58.569395,-34.314434],[-58.569316,-34.314253],[-58.567801,-34.314227],[-58.567804,-34.314407]]]}},{"type":"Feature","properties":{"partida":"357013432","cca":"357000100000000000000064000000000000050000","tipo":"Urbano","sup_m2":3000.2},"geometry":{"type":"Polygon","coordinates":[[[-58.567807,-34.314587],[-58.569474,-34.314616],[-58.569395,-34.314434],[-58.567804,-34.314407],[-58.567807,-34.314587]]]}},{"type":"Feature","properties":{"partida":"357013433","cca":"357000100000000000000064000000000000051000","tipo":"Urbano","sup_m2":3138.7},"geometry":{"type":"Polygon","coordinates":[[[-58.567811,-34.314768],[-58.569553,-34.314798],[-58.569474,-34.314616],[-58.567807,-34.314587],[-58.567811,-34.314768]]]}},{"type":"Feature","properties":{"partida":"357013434","cca":"357000100000000000000064000000000000052000","tipo":"Urbano","sup_m2":3466.6},"geometry":{"type":"Polygon","coordinates":[[[-58.567814,-34.314948],[-58.569641,-34.315],[-58.569553,-34.314798],[-58.567811,-34.314768],[-58.567814,-34.314948]]]}},{"type":"Feature","properties":{"partida":"357013435","cca":"357000100000000000000064000000000000053000","tipo":"Urbano","sup_m2":3180.9},"geometry":{"type":"Polygon","coordinates":[[[-58.567817,-34.315129],[-58.569652,-34.31516],[-58.569641,-34.315],[-58.567814,-34.314948],[-58.567817,-34.315129]]]}},{"type":"Feature","properties":{"partida":"357013436","cca":"357000100000000000000064000000000000054000","tipo":"Urbano","sup_m2":3387.2},"geometry":{"type":"Polygon","coordinates":[[[-58.567821,-34.315309],[-58.569665,-34.31534],[-58.569652,-34.31516],[-58.567817,-34.315129],[-58.567821,-34.315309]]]}},{"type":"Feature","properties":{"partida":"357013437","cca":"357000100000000000000064000000000000055000","tipo":"Urbano","sup_m2":3575.5},"geometry":{"type":"Polygon","coordinates":[[[-58.567824,-34.315489],[-58.569775,-34.315531],[-58.569665,-34.31534],[-58.567821,-34.315309],[-58.567824,-34.315489]]]}},{"type":"Feature","properties":{"partida":"357013438","cca":"357000100000000000000064000000000000056000","tipo":"Urbano","sup_m2":3516.1},"geometry":{"type":"Polygon","coordinates":[[[-58.567827,-34.31567],[-58.569772,-34.315704],[-58.569775,-34.315531],[-58.567824,-34.315489],[-58.567827,-34.31567]]]}},{"type":"Feature","properties":{"partida":"357013439","cca":"357000100000000000000064000000000000057000","tipo":"Urbano","sup_m2":3323.1},"geometry":{"type":"Polygon","coordinates":[[[-58.567831,-34.31585],[-58.56979,-34.315857],[-58.569772,-34.315704],[-58.567827,-34.31567],[-58.567831,-34.31585]]]}},{"type":"Feature","properties":{"partida":"357013440","cca":"357000100000000000000064000000000000058000","tipo":"Urbano","sup_m2":3941.3},"geometry":{"type":"Polygon","coordinates":[[[-58.569865,-34.316061],[-58.569841,-34.315911],[-58.56979,-34.315857],[-58.567831,-34.31585],[-58.567834,-34.31603],[-58.569865,-34.316061]]]}},{"type":"Feature","properties":{"partida":"357013441","cca":"357000100000000000000064000000000000059000","tipo":"Urbano","sup_m2":3778.3},"geometry":{"type":"Polygon","coordinates":[[[-58.567834,-34.31603],[-58.567838,-34.316211],[-58.569909,-34.316243],[-58.569865,-34.316061],[-58.567834,-34.31603]]]}},{"type":"Feature","properties":{"partida":"357013442","cca":"357000100000000000000064000000000000060000","tipo":"Urbano","sup_m2":3823.8},"geometry":{"type":"Polygon","coordinates":[[[-58.567841,-34.316391],[-58.56993,-34.316422],[-58.569909,-34.316243],[-58.567838,-34.316211],[-58.567841,-34.316391]]]}},{"type":"Feature","properties":{"partida":"357013443","cca":"357000100000000000000064000000000000061000","tipo":"Urbano","sup_m2":3838.3},"geometry":{"type":"Polygon","coordinates":[[[-58.569976,-34.316599],[-58.569953,-34.316522],[-58.56993,-34.316422],[-58.567841,-34.316391],[-58.567844,-34.316571],[-58.569976,-34.316599]]]}},{"type":"Feature","properties":{"partida":"357013444","cca":"357000100000000000000064000000000000062000","tipo":"Urbano","sup_m2":4060.3},"geometry":{"type":"Polygon","coordinates":[[[-58.567848,-34.316752],[-58.570016,-34.316789],[-58.569976,-34.316599],[-58.567844,-34.316571],[-58.567848,-34.316752]]]}},{"type":"Feature","properties":{"partida":"357013445","cca":"357000100000000000000064000000000000063000","tipo":"Urbano","sup_m2":4147.8},"geometry":{"type":"Polygon","coordinates":[[[-58.567848,-34.316752],[-58.567851,-34.316932],[-58.570037,-34.316982],[-58.570016,-34.316789],[-58.567848,-34.316752]]]}},{"type":"Feature","properties":{"partida":"357013446","cca":"357000100000000000000064000000000000064000","tipo":"Urbano","sup_m2":3810.1},"geometry":{"type":"Polygon","coordinates":[[[-58.567854,-34.317112],[-58.570059,-34.317142],[-58.570037,-34.316982],[-58.567851,-34.316932],[-58.567854,-34.317112]]]}},{"type":"Feature","properties":{"partida":"357013447","cca":"357000100000000000000064000000000000065000","tipo":"Urbano","sup_m2":4175.2},"geometry":{"type":"Polygon","coordinates":[[[-58.570051,-34.317332],[-58.570077,-34.317249],[-58.570059,-34.317142],[-58.567854,-34.317112],[-58.567858,-34.317293],[-58.570051,-34.317332]]]}},{"type":"Feature","properties":{"partida":"357013448","cca":"357000100000000000000064000000000000066000","tipo":"Urbano","sup_m2":4061.6},"geometry":{"type":"Polygon","coordinates":[[[-58.567858,-34.317293],[-58.567861,-34.317473],[-58.570028,-34.317516],[-58.570051,-34.317332],[-58.567858,-34.317293]]]}},{"type":"Feature","properties":{"partida":"357013449","cca":"357000100000000000000064000000000000067000","tipo":"Urbano","sup_m2":3737.5},"geometry":{"type":"Polygon","coordinates":[[[-58.567861,-34.317473],[-58.567864,-34.317653],[-58.570045,-34.317672],[-58.570028,-34.317516],[-58.567861,-34.317473]]]}},{"type":"Feature","properties":{"partida":"357013450","cca":"357000100000000000000064000000000000068000","tipo":"Urbano","sup_m2":4228.4},"geometry":{"type":"Polygon","coordinates":[[[-58.567868,-34.317834],[-58.570046,-34.317872],[-58.570045,-34.317672],[-58.567864,-34.317653],[-58.567868,-34.317834]]]}},{"type":"Feature","properties":{"partida":"357013451","cca":"357000100000000000000064000000000000069000","tipo":"Urbano","sup_m2":3956.2},"geometry":{"type":"Polygon","coordinates":[[[-58.570031,-34.318048],[-58.570045,-34.317958],[-58.570046,-34.317872],[-58.567868,-34.317834],[-58.567871,-34.318014],[-58.570031,-34.318048]]]}},{"type":"Feature","properties":{"partida":"357013452","cca":"357000100000000000000064000000000000070000","tipo":"Urbano","sup_m2":3894.4},"geometry":{"type":"Polygon","coordinates":[[[-58.567874,-34.318195],[-58.570032,-34.318221],[-58.570031,-34.318048],[-58.567871,-34.318014],[-58.567874,-34.318195]]]}},{"type":"Feature","properties":{"partida":"357013453","cca":"357000100000000000000064000000000000071000","tipo":"Urbano","sup_m2":3894.2},"geometry":{"type":"Polygon","coordinates":[[[-58.567874,-34.318195],[-58.567878,-34.318375],[-58.570037,-34.318394],[-58.570032,-34.318221],[-58.567874,-34.318195]]]}},{"type":"Feature","properties":{"partida":"357013454","cca":"357000100000000000000064000000000000072000","tipo":"Urbano","sup_m2":3502.9},"geometry":{"type":"Polygon","coordinates":[[[-58.567881,-34.318555],[-58.570051,-34.31853],[-58.570037,-34.318394],[-58.567878,-34.318375],[-58.567881,-34.318555]]]}},{"type":"Feature","properties":{"partida":"357013455","cca":"357000100000000000000064000000000000073000","tipo":"Urbano","sup_m2":4254.3},"geometry":{"type":"Polygon","coordinates":[[[-58.567881,-34.318555],[-58.567884,-34.318736],[-58.570124,-34.318727],[-58.570051,-34.31853],[-58.567881,-34.318555]]]}},{"type":"Feature","properties":{"partida":"357013456","cca":"357000100000000000000064000000000000074000","tipo":"Urbano","sup_m2":4212.6},"geometry":{"type":"Polygon","coordinates":[[[-58.567888,-34.318916],[-58.570101,-34.318917],[-58.570124,-34.318727],[-58.567884,-34.318736],[-58.567888,-34.318916]]]}},{"type":"Feature","properties":{"partida":"357013457","cca":"357000100000000000000064000000000000075000","tipo":"Urbano","sup_m2":4019.6},"geometry":{"type":"Polygon","coordinates":[[[-58.567888,-34.318916],[-58.567891,-34.319096],[-58.570094,-34.319094],[-58.570101,-34.318917],[-58.567888,-34.318916]]]}},{"type":"Feature","properties":{"partida":"357013458","cca":"357000100000000000000064000000000000076000","tipo":"Urbano","sup_m2":3923.8},"geometry":{"type":"Polygon","coordinates":[[[-58.567895,-34.319277],[-58.570119,-34.31926],[-58.570094,-34.319094],[-58.567891,-34.319096],[-58.567895,-34.319277]]]}},{"type":"Feature","properties":{"partida":"357013459","cca":"357000100000000000000064000000000000077000","tipo":"Urbano","sup_m2":4024.3},"geometry":{"type":"Polygon","coordinates":[[[-58.570132,-34.319433],[-58.570119,-34.31926],[-58.567895,-34.319277],[-58.567898,-34.319457],[-58.570132,-34.319433]]]}},{"type":"Feature","properties":{"partida":"357013460","cca":"357000100000000000000064000000000000078000","tipo":"Urbano","sup_m2":4655.3},"geometry":{"type":"Polygon","coordinates":[[[-58.567901,-34.319637],[-58.570136,-34.319661],[-58.570132,-34.319433],[-58.567898,-34.319457],[-58.567901,-34.319637]]]}},{"type":"Feature","properties":{"partida":"357013461","cca":"357000100000000000000064000000000000079000","tipo":"Urbano","sup_m2":5000.6},"geometry":{"type":"Polygon","coordinates":[[[-58.567919,-34.319864],[-58.570136,-34.319874],[-58.570136,-34.319661],[-58.567901,-34.319637],[-58.567919,-34.319864]]]}},{"type":"Feature","properties":{"partida":"357013462","cca":"357000100000000000000064000000000000080000","tipo":"Urbano","sup_m2":3125.6},"geometry":{"type":"Polygon","coordinates":[[[-58.567919,-34.319864],[-58.567908,-34.319998],[-58.570118,-34.320017],[-58.570136,-34.319874],[-58.567919,-34.319864]]]}},{"type":"Feature","properties":{"partida":"357013463","cca":"357000100000000000000064000000000000081000","tipo":"Urbano","sup_m2":4326.0},"geometry":{"type":"Polygon","coordinates":[[[-58.567911,-34.320178],[-58.570082,-34.320222],[-58.570118,-34.320017],[-58.567908,-34.319998],[-58.567911,-34.320178]]]}},{"type":"Feature","properties":{"partida":"357013464","cca":"357000100000000000000064000000000000082000","tipo":"Urbano","sup_m2":3712.8},"geometry":{"type":"Polygon","coordinates":[[[-58.570036,-34.320378],[-58.570081,-34.320322],[-58.570082,-34.320222],[-58.567911,-34.320178],[-58.567915,-34.320359],[-58.570036,-34.320378]]]}},{"type":"Feature","properties":{"partida":"357013465","cca":"357000100000000000000064000000000000083000","tipo":"Urbano","sup_m2":3788.4},"geometry":{"type":"Polygon","coordinates":[[[-58.567918,-34.320539],[-58.569961,-34.320553],[-58.570036,-34.320378],[-58.567915,-34.320359],[-58.567918,-34.320539]]]}},{"type":"Feature","properties":{"partida":"357013466","cca":"357000100000000000000064000000000000084000","tipo":"Urbano","sup_m2":4192.9},"geometry":{"type":"Polygon","coordinates":[[[-58.567918,-34.320539],[-58.567921,-34.320719],[-58.570041,-34.320769],[-58.569961,-34.320553],[-58.567918,-34.320539]]]}},{"type":"Feature","properties":{"partida":"357013467","cca":"357000100000000000000064000000000000085000","tipo":"Urbano","sup_m2":4034.6},"geometry":{"type":"Polygon","coordinates":[[[-58.567925,-34.3209],[-58.57013,-34.320956],[-58.570041,-34.320769],[-58.567921,-34.320719],[-58.567925,-34.3209]]]}},{"type":"Feature","properties":{"partida":"357013468","cca":"35700010000000000000006400000000000008600A","tipo":"Urbano","sup_m2":3862.7},"geometry":{"type":"Polygon","coordinates":[[[-58.567925,-34.3209],[-58.567928,-34.32108],[-58.570181,-34.321116],[-58.57013,-34.320956],[-58.567925,-34.3209]]]}},{"type":"Feature","properties":{"partida":null,"cca":"357000100000000000000064000000000000087000","tipo":null,"sup_m2":4099.8},"geometry":{"type":"Polygon","coordinates":[[[-58.567931,-34.321261],[-58.570181,-34.321293],[-58.570181,-34.321116],[-58.567928,-34.32108],[-58.567931,-34.321261]]]}},{"type":"Feature","properties":{"partida":"357013383","cca":"357000100000000000000064000000000000088000","tipo":"Urbano","sup_m2":4039.5},"geometry":{"type":"Polygon","coordinates":[[[-58.567931,-34.321261],[-58.567935,-34.321441],[-58.570206,-34.321463],[-58.570181,-34.321293],[-58.567931,-34.321261]]]}},{"type":"Feature","properties":{"partida":"357013469","cca":"357000100000000000000064000000000000089000","tipo":"Urbano","sup_m2":4174.7},"geometry":{"type":"Polygon","coordinates":[[[-58.567938,-34.321621],[-58.570211,-34.321642],[-58.570206,-34.321463],[-58.567935,-34.321441],[-58.567938,-34.321621]]]}},{"type":"Feature","properties":{"partida":"357013470","cca":"357000100000000000000064000000000000090000","tipo":"Urbano","sup_m2":4224.5},"geometry":{"type":"Polygon","coordinates":[[[-58.567938,-34.321621],[-58.567941,-34.321802],[-58.570264,-34.321822],[-58.570211,-34.321642],[-58.567938,-34.321621]]]}},{"type":"Feature","properties":{"partida":"357013471","cca":"357000100000000000000064000000000000091000","tipo":"Urbano","sup_m2":4629.6},"geometry":{"type":"Polygon","coordinates":[[[-58.570284,-34.322033],[-58.57025,-34.32192],[-58.570264,-34.321822],[-58.567941,-34.321802],[-58.567945,-34.321982],[-58.570284,-34.322033]]]}},{"type":"Feature","properties":{"partida":"357013472","cca":"357000100000000000000064000000000000092000","tipo":"Urbano","sup_m2":3711.9},"geometry":{"type":"Polygon","coordinates":[[[-58.567945,-34.321982],[-58.567948,-34.322162],[-58.570298,-34.322163],[-58.570284,-34.322033],[-58.567945,-34.321982]]]}},{"type":"Feature","properties":{"partida":"357013473","cca":"357000100000000000000064000000000000093000","tipo":"Urbano","sup_m2":4467.2},"geometry":{"type":"Polygon","coordinates":[[[-58.567952,-34.322343],[-58.570327,-34.322353],[-58.570298,-34.322163],[-58.567948,-34.322162],[-58.567952,-34.322343]]]}},{"type":"Feature","properties":{"partida":"357013474","cca":"357000100000000000000064000000000000094000","tipo":"Urbano","sup_m2":5036.1},"geometry":{"type":"Polygon","coordinates":[[[-58.567952,-34.322343],[-58.567955,-34.322523],[-58.570355,-34.322586],[-58.570327,-34.322353],[-58.567952,-34.322343]]]}},{"type":"Feature","properties":{"partida":"357013475","cca":"357000100000000000000064000000000000095000","tipo":"Urbano","sup_m2":4171.2},"geometry":{"type":"Polygon","coordinates":[[[-58.570373,-34.322746],[-58.570358,-34.322676],[-58.570355,-34.322586],[-58.567955,-34.322523],[-58.567958,-34.322703],[-58.570373,-34.322746]]]}},{"type":"Feature","properties":{"partida":"357013476","cca":"357000100000000000000064000000000000096000","tipo":"Urbano","sup_m2":4571.5},"geometry":{"type":"Polygon","coordinates":[[[-58.567958,-34.322703],[-58.567962,-34.322884],[-58.570516,-34.322929],[-58.570373,-34.322746],[-58.567958,-34.322703]]]}},{"type":"Feature","properties":{"partida":"357013480","cca":"357000100000000000000064300000000000000000","tipo":"Rural","sup_m2":153998.8},"geometry":{"type":"Polygon","coordinates":[[[-58.558312,-34.312971],[-58.561791,-34.31378],[-58.562079,-34.314466],[-58.561351,-34.314855],[-58.561117,-34.315746],[-58.561227,-34.315872],[-58.561419,-34.316615],[-58.565697,-34.314737],[-58.565076,-34.314238],[-58.563426,-34.313929],[-58.563248,-34.313792],[-58.563261,-34.313597],[-58.563289,-34.313288],[-58.563261,-34.312957],[-58.563344,-34.312797],[-58.563316,-34.312625],[-58.562863,-34.312202],[-58.562244,-34.312099],[-58.560636,-34.310908],[-58.558312,-34.312971]]]}},{"type":"Feature","properties":{"partida":"357013481","cca":"357000100000000000000064400000000000000000","tipo":"Rural","sup_m2":90913.3},"geometry":{"type":"Polygon","coordinates":[[[-58.565379,-34.317417],[-58.565324,-34.316868],[-58.565544,-34.316228],[-58.565942,-34.315622],[-58.566035,-34.314953],[-58.566271,-34.314673],[-58.566066,-34.31456],[-58.565697,-34.314737],[-58.561419,-34.316615],[-58.561468,-34.316893],[-58.56143,-34.317148],[-58.561454,-34.317298],[-58.561447,-34.317496],[-58.561859,-34.317679],[-58.561967,-34.31767],[-58.56221,-34.317712],[-58.56239,-34.317759],[-58.562631,-34.317728],[-58.563114,-34.317662],[-58.563249,-34.317597],[-58.563376,-34.317598],[-58.563499,-34.317743],[-58.563935,-34.317966],[-58.565422,-34.317899],[-58.565386,-34.317598],[-58.565379,-34.317417]]]}},{"type":"Feature","properties":{"partida":"357013482","cca":"357000100000000000000064500000000000000000","tipo":"Rural","sup_m2":150139.0},"geometry":{"type":"Polygon","coordinates":[[[-58.561419,-34.316615],[-58.561227,-34.315872],[-58.561117,-34.315746],[-58.561351,-34.314855],[-58.562079,-34.314466],[-58.561791,-34.31378],[-58.558547,-34.313025],[-58.557364,-34.316637],[-58.557447,-34.317575],[-58.56143,-34.317148],[-58.561468,-34.316893],[-58.561419,-34.316615]]]}},{"type":"Feature","properties":{"partida":"357013483","cca":"357000100000000000000064600000000000001000","tipo":"Rural","sup_m2":100748.8},"geometry":{"type":"Polygon","coordinates":[[[-58.56547,-34.316441],[-58.567835,-34.31609],[-58.567798,-34.314067],[-58.567618,-34.313663],[-58.567534,-34.313458],[-58.567453,-34.313242],[-58.567318,-34.312994],[-58.567271,-34.312866],[-58.567198,-34.31271],[-58.567142,-34.312573],[-58.56695,-34.312152],[-58.566845,-34.311899],[-58.566674,-34.311532],[-58.566272,-34.310625],[-58.565251,-34.310484],[-58.565697,-34.314737],[-58.566066,-34.31456],[-58.566271,-34.314673],[-58.566035,-34.314953],[-58.565942,-34.315622],[-58.565544,-34.316228],[-58.56547,-34.316441]]]}},{"type":"Feature","properties":{"partida":"357013484","cca":"357000100000000000000064600000000000002000","tipo":"Rural","sup_m2":132974.5},"geometry":{"type":"Polygon","coordinates":[[[-58.565697,-34.314737],[-58.565251,-34.310484],[-58.560882,-34.309878],[-58.560251,-34.310623],[-58.562244,-34.312099],[-58.562863,-34.312202],[-58.563316,-34.312625],[-58.563344,-34.312797],[-58.563261,-34.312957],[-58.563289,-34.313288],[-58.563261,-34.313597],[-58.563248,-34.313792],[-58.563426,-34.313929],[-58.565076,-34.314238],[-58.565697,-34.314737]]]}},{"type":"Feature","properties":{"partida":"357013485","cca":"35700010000000000000006460000000000000300A","tipo":"Rural","sup_m2":317212.8},"geometry":{"type":"Polygon","coordinates":[[[-58.56547,-34.316441],[-58.565324,-34.316868],[-58.565379,-34.317417],[-58.565475,-34.317554],[-58.565616,-34.318296],[-58.56559,-34.318797],[-58.565484,-34.319449],[-58.564898,-34.320493],[-58.564662,-34.321053],[-58.5643,-34.321878],[-58.564053,-34.322733],[-58.563979,-34.323118],[-58.563879,-34.323407],[-58.563975,-34.323728],[-58.564042,-34.324374],[-58.564177,-34.325117],[-58.564335,-34.325536],[-58.564131,-34.325836],[-58.563525,-34.326108],[-58.563606,-34.326165],[-58.563715,-34.32622],[-58.563977,-34.326268],[-58.564082,-34.326268],[-58.564304,-34.326233],[-58.564396,-34.326251],[-58.564431,-34.326279],[-58.564541,-34.326485],[-58.564637,-34.32668],[-58.5647,-34.326739],[-58.564884,-34.326805],[-58.564933,-34.32681],[-58.565035,-34.326794],[-58.565104,-34.326805],[-58.565187,-34.326897],[-58.565258,-34.326958],[-58.565297,-34.326966],[-58.565407,-34.32692],[-58.565627,-34.32684],[-58.565675,-34.326837],[-58.565774,-34.32687],[-58.565847,-34.326886],[-58.565908,-34.326869],[-58.566031,-34.326802],[-58.566122,-34.326794],[-58.566345,-34.326883],[-58.56784,-34.323376],[-58.567962,-34.322884],[-58.567908,-34.319998],[-58.567919,-34.319864],[-58.567901,-34.319637],[-58.567835,-34.31609],[-58.56547,-34.316441]]]}},{"type":"Feature","properties":{"partida":"357013487","cca":"357000100000000000000064700000000000000000","tipo":"Rural","sup_m2":246664.2},"geometry":{"type":"Polygon","coordinates":[[[-58.558367,-34.32216],[-58.558478,-34.322206],[-58.561981,-34.322523],[-58.561875,-34.322307],[-58.561654,-34.321939],[-58.561292,-34.321462],[-58.561834,-34.322041],[-58.561974,-34.322219],[-58.562169,-34.32254],[-58.562331,-34.322555],[-58.563323,-34.320198],[-58.563697,-34.318834],[-58.56108,-34.318423],[-58.561179,-34.318001],[-58.561454,-34.317298],[-58.56143,-34.317148],[-58.557447,-34.317575],[-58.55817,-34.322128],[-58.558367,-34.32216]]]}},{"type":"Feature","properties":{"partida":"357013488","cca":"357000100000000000000064700A00000000001000","tipo":"Urbano","sup_m2":4792.2},"geometry":{"type":"Polygon","coordinates":[[[-58.56552,-34.318157],[-58.565422,-34.317899],[-58.563935,-34.317966],[-58.563877,-34.318305],[-58.56552,-34.318157]]]}},{"type":"Feature","properties":{"partida":"357013489","cca":"357000100000000000000064700A00000000002000","tipo":"Urbano","sup_m2":2352.9},"geometry":{"type":"Polygon","coordinates":[[[-58.56348,-34.3188],[-58.563697,-34.318834],[-58.563818,-34.318393],[-58.563877,-34.318305],[-58.563935,-34.317966],[-58.563702,-34.317846],[-58.56348,-34.3188]]]}},{"type":"Feature","properties":{"partida":"357013490","cca":"357000100000000000000064700A00000000003000","tipo":"Urbano","sup_m2":2272.6},"geometry":{"type":"Polygon","coordinates":[[[-58.56348,-34.3188],[-58.563702,-34.317846],[-58.563499,-34.317743],[-58.563264,-34.318766],[-58.56348,-34.3188]]]}},{"type":"Feature","properties":{"partida":"357013491","cca":"357000100000000000000064700A00000000004000","tipo":"Urbano","sup_m2":2102.9},"geometry":{"type":"Polygon","coordinates":[[[-58.563264,-34.318766],[-58.563499,-34.317743],[-58.563376,-34.317598],[-58.563051,-34.318733],[-58.563264,-34.318766]]]}},{"type":"Feature","properties":{"partida":"357013492","cca":"357000100000000000000064700A00000000005000","tipo":"Urbano","sup_m2":2626.5},"geometry":{"type":"Polygon","coordinates":[[[-58.563376,-34.317598],[-58.563249,-34.317597],[-58.563114,-34.317662],[-58.562839,-34.318699],[-58.563051,-34.318733],[-58.563376,-34.317598]]]}},{"type":"Feature","properties":{"partida":"357013493","cca":"357000100000000000000064700A00000000006000","tipo":"Urbano","sup_m2":2406.4},"geometry":{"type":"Polygon","coordinates":[[[-58.562839,-34.318699],[-58.563114,-34.317662],[-58.562859,-34.317697],[-58.562624,-34.318666],[-58.562839,-34.318699]]]}},{"type":"Feature","properties":{"partida":"357013494","cca":"357000100000000000000064700A00000000007000","tipo":"Urbano","sup_m2":2097.0},"geometry":{"type":"Polygon","coordinates":[[[-58.562624,-34.318666],[-58.562859,-34.317697],[-58.562631,-34.317728],[-58.562414,-34.318633],[-58.562624,-34.318666]]]}},{"type":"Feature","properties":{"partida":"357013495","cca":"357000100000000000000064700A00000000008000","tipo":"Urbano","sup_m2":2031.3},"geometry":{"type":"Polygon","coordinates":[[[-58.562414,-34.318633],[-58.562631,-34.317728],[-58.56239,-34.317759],[-58.5622,-34.318599],[-58.562414,-34.318633]]]}},{"type":"Feature","properties":{"partida":"357013496","cca":"357000100000000000000064700A00000000009000","tipo":"Urbano","sup_m2":1757.7},"geometry":{"type":"Polygon","coordinates":[[[-58.5622,-34.318599],[-58.56239,-34.317759],[-58.56221,-34.317712],[-58.561993,-34.318567],[-58.5622,-34.318599]]]}},{"type":"Feature","properties":{"partida":"357013497","cca":"357000100000000000000064700A00000000010000","tipo":"Urbano","sup_m2":2075.0},"geometry":{"type":"Polygon","coordinates":[[[-58.561993,-34.318567],[-58.56221,-34.317712],[-58.561967,-34.31767],[-58.561781,-34.318533],[-58.561993,-34.318567]]]}},{"type":"Feature","properties":{"partida":"357013498","cca":"357000100000000000000064700A00000000011000","tipo":"Urbano","sup_m2":2063.4},"geometry":{"type":"Polygon","coordinates":[[[-58.561744,-34.317628],[-58.561548,-34.318497],[-58.561781,-34.318533],[-58.561967,-34.31767],[-58.561859,-34.317679],[-58.561744,-34.317628]]]}},{"type":"Feature","properties":{"partida":"357013499","cca":"357000100000000000000064700A00000000012000","tipo":"Urbano","sup_m2":2118.0},"geometry":{"type":"Polygon","coordinates":[[[-58.561548,-34.318497],[-58.561744,-34.317628],[-58.561536,-34.317536],[-58.561322,-34.318461],[-58.561548,-34.318497]]]}},{"type":"Feature","properties":{"partida":"357013500","cca":"357000100000000000000064700A00000000013000","tipo":"Urbano","sup_m2":2256.0},"geometry":{"type":"Polygon","coordinates":[[[-58.561322,-34.318461],[-58.561536,-34.317536],[-58.561447,-34.317496],[-58.561454,-34.317298],[-58.561179,-34.318001],[-58.56108,-34.318423],[-58.561322,-34.318461]]]}},{"type":"Feature","properties":{"partida":"357013501","cca":"357000100000000000000064700A00000000026000","tipo":"Urbano","sup_m2":3378.5},"geometry":{"type":"Polygon","coordinates":[[[-58.565289,-34.319486],[-58.563584,-34.319245],[-58.563568,-34.319305],[-58.565107,-34.319785],[-58.565178,-34.319719],[-58.565289,-34.319486]]]}},{"type":"Feature","properties":{"partida":"357013502","cca":"357000100000000000000064700A00000000027000","tipo":"Urbano","sup_m2":3397.6},"geometry":{"type":"Polygon","coordinates":[[[-58.565289,-34.319486],[-58.565324,-34.319301],[-58.565338,-34.319286],[-58.563633,-34.319067],[-58.563584,-34.319245],[-58.565289,-34.319486]]]}},{"type":"Feature","properties":{"partida":"357013503","cca":"357000100000000000000064700A00000000028000","tipo":"Urbano","sup_m2":2964.8},"geometry":{"type":"Polygon","coordinates":[[[-58.565404,-34.319114],[-58.564784,-34.319055],[-58.56368,-34.318895],[-58.563633,-34.319067],[-58.565338,-34.319286],[-58.565404,-34.319114]]]}},{"type":"Feature","properties":{"partida":"357013504","cca":"357000100000000000000064700A00000000029000","tipo":"Urbano","sup_m2":3180.0},"geometry":{"type":"Polygon","coordinates":[[[-58.563729,-34.318716],[-58.56368,-34.318895],[-58.564784,-34.319055],[-58.565404,-34.319114],[-58.565448,-34.318963],[-58.563729,-34.318716]]]}},{"type":"Feature","properties":{"partida":"357013505","cca":"357000100000000000000064700A00000000030000","tipo":"Urbano","sup_m2":3427.4},"geometry":{"type":"Polygon","coordinates":[[[-58.565448,-34.318963],[-58.565469,-34.318762],[-58.563779,-34.318534],[-58.563729,-34.318716],[-58.565448,-34.318963]]]}},{"type":"Feature","properties":{"partida":"357013506","cca":"357000100000000000000064700A00000000031000","tipo":"Urbano","sup_m2":4252.3},"geometry":{"type":"Polygon","coordinates":[[[-58.563818,-34.318393],[-58.563779,-34.318534],[-58.565469,-34.318762],[-58.565511,-34.318417],[-58.563818,-34.318393]]]}},{"type":"Feature","properties":{"partida":"357013507","cca":"357000100000000000000064700A00000000032000","tipo":"Urbano","sup_m2":2956.8},"geometry":{"type":"Polygon","coordinates":[[[-58.565511,-34.318417],[-58.565527,-34.318308],[-58.56552,-34.318157],[-58.563877,-34.318305],[-58.563818,-34.318393],[-58.565511,-34.318417]]]}},{"type":"Feature","properties":{"partida":"357013508","cca":"357000100000000000000064700B00000000001000","tipo":"Urbano","sup_m2":12188.0},"geometry":{"type":"Polygon","coordinates":[[[-58.564751,-34.32042],[-58.565084,-34.319831],[-58.565058,-34.319801],[-58.564997,-34.319768],[-58.564372,-34.319598],[-58.564276,-34.319562],[-58.563674,-34.319358],[-58.563606,-34.319349],[-58.563551,-34.31936],[-58.563323,-34.320198],[-58.564751,-34.32042]]]}},{"type":"Feature","properties":{"partida":"357013509","cca":"357000100000000000000064700B00000000002000","tipo":"Urbano","sup_m2":2901.1},"geometry":{"type":"Polygon","coordinates":[[[-58.564634,-34.320631],[-58.564751,-34.32042],[-58.563323,-34.320198],[-58.563255,-34.320358],[-58.564634,-34.320631]]]}},{"type":"Feature","properties":{"partida":"357013510","cca":"357000100000000000000064700B00000000003000","tipo":"Urbano","sup_m2":2719.3},"geometry":{"type":"Polygon","coordinates":[[[-58.564565,-34.320823],[-58.564634,-34.320631],[-58.563255,-34.320358],[-58.563186,-34.320524],[-58.564565,-34.320823]]]}},{"type":"Feature","properties":{"partida":"357013511","cca":"357000100000000000000064700B00000000004000","tipo":"Urbano","sup_m2":2544.5},"geometry":{"type":"Polygon","coordinates":[[[-58.564513,-34.320992],[-58.564565,-34.320823],[-58.563186,-34.320524],[-58.563117,-34.320688],[-58.564513,-34.320992]]]}},{"type":"Feature","properties":{"partida":"357013513","cca":"357000100000000000000064700B00000000005000","tipo":"Urbano","sup_m2":2439.2},"geometry":{"type":"Polygon","coordinates":[[[-58.564451,-34.321139],[-58.564513,-34.320992],[-58.563117,-34.320688],[-58.56305,-34.320847],[-58.5641,-34.321073],[-58.564451,-34.321139]]]}},{"type":"Feature","properties":{"partida":"357013512","cca":"357000100000000000000064700B00000000006000","tipo":"Urbano","sup_m2":2681.1},"geometry":{"type":"Polygon","coordinates":[[[-58.564357,-34.321312],[-58.564451,-34.321139],[-58.5641,-34.321073],[-58.56305,-34.320847],[-58.562977,-34.32102],[-58.563818,-34.321203],[-58.564357,-34.321312]]]}},{"type":"Feature","properties":{"partida":"357013514","cca":"357000100000000000000064700B00000000007000","tipo":"Urbano","sup_m2":2552.6},"geometry":{"type":"Polygon","coordinates":[[[-58.564357,-34.321312],[-58.563818,-34.321203],[-58.562977,-34.32102],[-58.562905,-34.321191],[-58.563308,-34.321273],[-58.564285,-34.321479],[-58.564357,-34.321312]]]}},{"type":"Feature","properties":{"partida":"357013515","cca":"357000100000000000000064700B00000000008000","tipo":"Urbano","sup_m2":2477.5},"geometry":{"type":"Polygon","coordinates":[[[-58.564188,-34.321635],[-58.564285,-34.321479],[-58.563308,-34.321273],[-58.562905,-34.321191],[-58.562836,-34.321353],[-58.564188,-34.321635]]]}},{"type":"Feature","properties":{"partida":"357013516","cca":"357000100000000000000064700B00000000009000","tipo":"Urbano","sup_m2":2470.9},"geometry":{"type":"Polygon","coordinates":[[[-58.564103,-34.321807],[-58.564188,-34.321635],[-58.562836,-34.321353],[-58.56277,-34.32151],[-58.564103,-34.321807]]]}},{"type":"Feature","properties":{"partida":"357013517","cca":"357000100000000000000064700B00000000010000","tipo":"Urbano","sup_m2":2328.3},"geometry":{"type":"Polygon","coordinates":[[[-58.564028,-34.321951],[-58.564103,-34.321807],[-58.56277,-34.32151],[-58.5627,-34.321677],[-58.564028,-34.321951]]]}},{"type":"Feature","properties":{"partida":"357013518","cca":"357000100000000000000064700B00000000011000","tipo":"Urbano","sup_m2":6287.0},"geometry":{"type":"Polygon","coordinates":[[[-58.564028,-34.321951],[-58.5627,-34.321677],[-58.562519,-34.322106],[-58.563873,-34.322378],[-58.563894,-34.322263],[-58.564028,-34.321951]]]}},{"type":"Feature","properties":{"partida":"357013519","cca":"357000100000000000000064700B00000000012000","tipo":"Urbano","sup_m2":2347.7},"geometry":{"type":"Polygon","coordinates":[[[-58.563892,-34.32254],[-58.563873,-34.322378],[-58.562519,-34.322106],[-58.562453,-34.322264],[-58.563892,-34.32254]]]}},{"type":"Feature","properties":{"partida":"357013520","cca":"357000100000000000000064700B00000000013000","tipo":"Urbano","sup_m2":3312.1},"geometry":{"type":"Polygon","coordinates":[[[-58.563892,-34.32254],[-58.562453,-34.322264],[-58.562331,-34.322555],[-58.563885,-34.322666],[-58.563892,-34.32254]]]}},{"type":"Feature","properties":{"partida":"357013521","cca":"357000100000000000000064800000000000001000","tipo":"Urbano","sup_m2":3446.4},"geometry":{"type":"Polygon","coordinates":[[[-58.570499,-34.323098],[-58.570516,-34.322929],[-58.567962,-34.322884],[-58.567939,-34.322977],[-58.570499,-34.323098]]]}},{"type":"Feature","properties":{"partida":"357013522","cca":"357000100000000000000064800000000000002000","tipo":"Urbano","sup_m2":3763.2},"geometry":{"type":"Polygon","coordinates":[[[-58.567917,-34.323062],[-58.570492,-34.323298],[-58.570499,-34.323098],[-58.567939,-34.322977],[-58.567917,-34.323062]]]}},{"type":"Feature","properties":{"partida":"357013523","cca":"357000100000000000000064800000000000003000","tipo":"Urbano","sup_m2":3046.7},"geometry":{"type":"Polygon","coordinates":[[[-58.567896,-34.323149],[-58.570517,-34.323441],[-58.570492,-34.323298],[-58.567917,-34.323062],[-58.567896,-34.323149]]]}},{"type":"Feature","properties":{"partida":"357013524","cca":"357000100000000000000064800000000000004000","tipo":"Urbano","sup_m2":4336.9},"geometry":{"type":"Polygon","coordinates":[[[-58.567876,-34.323228],[-58.570545,-34.323684],[-58.570517,-34.323441],[-58.567896,-34.323149],[-58.567876,-34.323228]]]}},{"type":"Feature","properties":{"partida":"357013525","cca":"357000100000000000000064800000000000005000","tipo":"Urbano","sup_m2":4064.6},"geometry":{"type":"Polygon","coordinates":[[[-58.567855,-34.323314],[-58.570566,-34.323894],[-58.570545,-34.323684],[-58.567876,-34.323228],[-58.567855,-34.323314]]]}},{"type":"Feature","properties":{"partida":"357013526","cca":"357000100000000000000064800000000000006000","tipo":"Urbano","sup_m2":3593.2},"geometry":{"type":"Polygon","coordinates":[[[-58.567828,-34.323404],[-58.570619,-34.324068],[-58.570556,-34.323981],[-58.570566,-34.323894],[-58.567855,-34.323314],[-58.56784,-34.323376],[-58.567828,-34.323404]]]}},{"type":"Feature","properties":{"partida":"357013527","cca":"357000100000000000000064800000000000007000","tipo":"Urbano","sup_m2":4056.4},"geometry":{"type":"Polygon","coordinates":[[[-58.56779,-34.323492],[-58.570624,-34.324254],[-58.570619,-34.324068],[-58.567828,-34.323404],[-58.56779,-34.323492]]]}},{"type":"Feature","properties":{"partida":"357013528","cca":"35700010000000000000006480000000000000800A","tipo":"Urbano","sup_m2":12021.8},"geometry":{"type":"Polygon","coordinates":[[[-58.570659,-34.324764],[-58.570612,-34.32448],[-58.570624,-34.324254],[-58.56779,-34.323492],[-58.567671,-34.323771],[-58.570659,-34.324764]]]}},{"type":"Feature","properties":{"partida":"357013529","cca":"357000100000000000000064800000000000010000","tipo":"Urbano","sup_m2":6678.1},"geometry":{"type":"Polygon","coordinates":[[[-58.5676,-34.323939],[-58.570635,-34.324998],[-58.570659,-34.324764],[-58.567671,-34.323771],[-58.5676,-34.323939]]]}},{"type":"Feature","properties":{"partida":"357013530","cca":"357000100000000000000064800000000000011000","tipo":"Urbano","sup_m2":5748.4},"geometry":{"type":"Polygon","coordinates":[[[-58.567527,-34.324109],[-58.570545,-34.325143],[-58.570635,-34.324998],[-58.5676,-34.323939],[-58.567527,-34.324109]]]}},{"type":"Feature","properties":{"partida":"357013531","cca":"357000100000000000000064800000000000012000","tipo":"Urbano","sup_m2":6233.9},"geometry":{"type":"Polygon","coordinates":[[[-58.570533,-34.325342],[-58.570663,-34.325267],[-58.570545,-34.325143],[-58.567527,-34.324109],[-58.567457,-34.324274],[-58.570533,-34.325342]]]}},{"type":"Feature","properties":{"partida":"357013532","cca":"357000100000000000000064800000000000013000","tipo":"Urbano","sup_m2":5925.6},"geometry":{"type":"Polygon","coordinates":[[[-58.567385,-34.324444],[-58.570429,-34.32549],[-58.570533,-34.325342],[-58.567457,-34.324274],[-58.567385,-34.324444]]]}},{"type":"Feature","properties":{"partida":"357013533","cca":"357000100000000000000064800000000000014000","tipo":"Urbano","sup_m2":6387.9},"geometry":{"type":"Polygon","coordinates":[[[-58.567309,-34.324622],[-58.570325,-34.325664],[-58.570429,-34.32549],[-58.567385,-34.324444],[-58.567309,-34.324622]]]}},{"type":"Feature","properties":{"partida":"357013534","cca":"357000100000000000000064800000000000015000","tipo":"Urbano","sup_m2":5336.0},"geometry":{"type":"Polygon","coordinates":[[[-58.567238,-34.324789],[-58.57032,-34.325813],[-58.570325,-34.325664],[-58.567309,-34.324622],[-58.567238,-34.324789]]]}},{"type":"Feature","properties":{"partida":"357013594","cca":"357000100000000000000064900000000000002000","tipo":"Rural","sup_m2":190826.8},"geometry":{"type":"Polygon","coordinates":[[[-58.558367,-34.32216],[-58.557232,-34.325279],[-58.559917,-34.325904],[-58.56002,-34.325875],[-58.560248,-34.325925],[-58.560834,-34.32623],[-58.56126,-34.326407],[-58.561565,-34.32649],[-58.561795,-34.32651],[-58.562065,-34.326521],[-58.562325,-34.326509],[-58.562514,-34.326467],[-58.562675,-34.326445],[-58.562831,-34.32644],[-58.563051,-34.326337],[-58.56309,-34.326222],[-58.563166,-34.326107],[-58.563373,-34.325947],[-58.563291,-34.325705],[-58.563287,-34.325373],[-58.563291,-34.325129],[-58.563274,-34.324672],[-58.563141,-34.324425],[-58.562913,-34.324062],[-58.562889,-34.323945],[-58.562777,-34.323774],[-58.56251,-34.323589],[-58.562098,-34.323044],[-58.562051,-34.322788],[-58.562001,-34.322671],[-58.561981,-34.322523],[-58.558478,-34.322206],[-58.558367,-34.32216]]]}},{"type":"Feature","properties":{"partida":"357013597","cca":"357000100000000000000064900A00000000001000","tipo":"Urbano","sup_m2":4850.5},"geometry":{"type":"Polygon","coordinates":[[[-58.562309,-34.322927],[-58.56352,-34.322884],[-58.563792,-34.322885],[-58.563885,-34.322666],[-58.562331,-34.322555],[-58.562169,-34.32254],[-58.562309,-34.322927]]]}},{"type":"Feature","properties":{"partida":"357013598","cca":"357000100000000000000064900A00000000002000","tipo":"Urbano","sup_m2":1114.6},"geometry":{"type":"Polygon","coordinates":[[[-58.562982,-34.323084],[-58.562913,-34.322906],[-58.562309,-34.322927],[-58.56237,-34.323103],[-58.562982,-34.323084]]]}},{"type":"Feature","properties":{"partida":"357013599","cca":"357000100000000000000064900A00000000003000","tipo":"Urbano","sup_m2":1138.0},"geometry":{"type":"Polygon","coordinates":[[[-58.56237,-34.323103],[-58.562415,-34.323228],[-58.562471,-34.323285],[-58.563051,-34.323263],[-58.562982,-34.323084],[-58.56237,-34.323103]]]}},{"type":"Feature","properties":{"partida":"357013600","cca":"357000100000000000000064900A00000000004000","tipo":"Urbano","sup_m2":986.5},"geometry":{"type":"Polygon","coordinates":[[[-58.562649,-34.323461],[-58.562741,-34.323458],[-58.563121,-34.323445],[-58.563051,-34.323263],[-58.562471,-34.323285],[-58.562649,-34.323461]]]}},{"type":"Feature","properties":{"partida":"357013601","cca":"357000100000000000000064900A00000000005000","tipo":"Urbano","sup_m2":1490.1},"geometry":{"type":"Polygon","coordinates":[[[-58.562982,-34.323084],[-58.563502,-34.323068],[-58.563728,-34.323052],[-58.563792,-34.322885],[-58.56352,-34.322884],[-58.562913,-34.322906],[-58.562982,-34.323084]]]}},{"type":"Feature","properties":{"partida":"357013602","cca":"357000100000000000000064900A00000000006000","tipo":"Urbano","sup_m2":1301.9},"geometry":{"type":"Polygon","coordinates":[[[-58.563728,-34.323052],[-58.563502,-34.323068],[-58.562982,-34.323084],[-58.563051,-34.323263],[-58.563483,-34.323248],[-58.563687,-34.323244],[-58.563741,-34.323094],[-58.563728,-34.323052]]]}},{"type":"Feature","properties":{"partida":"357013603","cca":"357000100000000000000064900A00000000007000","tipo":"Urbano","sup_m2":1131.0},"geometry":{"type":"Polygon","coordinates":[[[-58.563051,-34.323263],[-58.563121,-34.323445],[-58.563464,-34.323434],[-58.563677,-34.323431],[-58.563687,-34.323244],[-58.563483,-34.323248],[-58.563051,-34.323263]]]}},{"type":"Feature","properties":{"partida":"357013604","cca":"357000100000000000000064900A00000000008000","tipo":"Urbano","sup_m2":1747.1},"geometry":{"type":"Polygon","coordinates":[[[-58.563464,-34.323434],[-58.562649,-34.323461],[-58.56284,-34.323638],[-58.563378,-34.323621],[-58.56367,-34.323618],[-58.563677,-34.323431],[-58.563464,-34.323434]]]}},{"type":"Feature","properties":{"partida":"357013605","cca":"357000100000000000000064900A00000000009000","tipo":"Urbano","sup_m2":1414.4},"geometry":{"type":"Polygon","coordinates":[[[-58.56284,-34.323638],[-58.562931,-34.323723],[-58.562961,-34.32382],[-58.563392,-34.323802],[-58.563688,-34.323793],[-58.56367,-34.323618],[-58.563378,-34.323621],[-58.56284,-34.323638]]]}},{"type":"Feature","properties":{"partida":"357013606","cca":"357000100000000000000064900A00000000010000","tipo":"Urbano","sup_m2":1237.8},"geometry":{"type":"Polygon","coordinates":[[[-58.563688,-34.323793],[-58.563392,-34.323802],[-58.562961,-34.32382],[-58.563004,-34.323957],[-58.563024,-34.323991],[-58.563405,-34.323975],[-58.563682,-34.323967],[-58.563691,-34.323818],[-58.563688,-34.323793]]]}},{"type":"Feature","properties":{"partida":"357013607","cca":"357000100000000000000064900A00000000011000","tipo":"Urbano","sup_m2":1108.0},"geometry":{"type":"Polygon","coordinates":[[[-58.563679,-34.324145],[-58.563682,-34.323967],[-58.563405,-34.323975],[-58.563024,-34.323991],[-58.563125,-34.324166],[-58.563679,-34.324145]]]}},{"type":"Feature","properties":{"partida":"357013608","cca":"357000100000000000000064900A00000000012000","tipo":"Urbano","sup_m2":992.2},"geometry":{"type":"Polygon","coordinates":[[[-58.563125,-34.324166],[-58.563229,-34.324343],[-58.56348,-34.324337],[-58.563738,-34.324326],[-58.563679,-34.324145],[-58.563125,-34.324166]]]}},{"type":"Feature","properties":{"partida":"357013609","cca":"357000100000000000000064900A00000000013000","tipo":"Urbano","sup_m2":880.6},"geometry":{"type":"Polygon","coordinates":[[[-58.563773,-34.324509],[-58.563746,-34.324417],[-58.563738,-34.324326],[-58.56348,-34.324337],[-58.563229,-34.324343],[-58.563303,-34.32447],[-58.563319,-34.324523],[-58.563773,-34.324509]]]}},{"type":"Feature","properties":{"partida":"357013610","cca":"357000100000000000000064900A00000000014000","tipo":"Urbano","sup_m2":862.8},"geometry":{"type":"Polygon","coordinates":[[[-58.563845,-34.324685],[-58.563853,-34.324591],[-58.563773,-34.324509],[-58.563319,-34.324523],[-58.563372,-34.324692],[-58.563845,-34.324685]]]}},{"type":"Feature","properties":{"partida":"357013611","cca":"357000100000000000000064900A00000000015000","tipo":"Urbano","sup_m2":785.4},"geometry":{"type":"Polygon","coordinates":[[[-58.563845,-34.324685],[-58.563631,-34.324688],[-58.563372,-34.324692],[-58.563427,-34.324868],[-58.563831,-34.324859],[-58.563845,-34.324685]]]}},{"type":"Feature","properties":{"partida":"357013612","cca":"357000100000000000000064900A00000000016000","tipo":"Urbano","sup_m2":752.1},"geometry":{"type":"Polygon","coordinates":[[[-58.563427,-34.324868],[-58.563436,-34.325013],[-58.563427,-34.325041],[-58.563876,-34.325036],[-58.563831,-34.324859],[-58.563427,-34.324868]]]}},{"type":"Feature","properties":{"partida":"357014003","cca":"357000100000000000000065500000000000001000","tipo":"Rural","sup_m2":45244.2},"geometry":{"type":"Polygon","coordinates":[[[-58.560251,-34.310623],[-58.559358,-34.310669],[-58.558426,-34.310379],[-58.557187,-34.312709],[-58.558312,-34.312971],[-58.560636,-34.310908],[-58.560251,-34.310623]]]}}]}