{"type":"FeatureCollection","features":[{"type":"Feature","properties":{"partida":"357006083","cca":"357000100000000000000040100E0000000004200B","tipo":"Urbano","sup_m2":1252.5},"geometry":{"type":"Polygon","coordinates":[[[-58.601164,-34.280094],[-58.600846,-34.279326],[-58.600696,-34.279348],[-58.601021,-34.280129],[-58.601164,-34.280094]]]}},{"type":"Feature","properties":{"partida":"357006084","cca":"357000100000000000000040100E0000000004200C","tipo":"Urbano","sup_m2":1924.5},"geometry":{"type":"Polygon","coordinates":[[[-58.601065,-34.280236],[-58.600696,-34.279348],[-58.600508,-34.279375],[-58.600865,-34.280286],[-58.601065,-34.280236]]]}},{"type":"Feature","properties":{"partida":"357006085","cca":"357000100000000000000040100E0000000004200D","tipo":"Urbano","sup_m2":1833.9},"geometry":{"type":"Polygon","coordinates":[[[-58.600693,-34.280329],[-58.600865,-34.280286],[-58.600508,-34.279375],[-58.600325,-34.279442],[-58.600693,-34.280329]]]}},{"type":"Feature","properties":{"partida":"357006086","cca":"357000100000000000000040100E0000000004200E","tipo":"Urbano","sup_m2":2020.2},"geometry":{"type":"Polygon","coordinates":[[[-58.600489,-34.28038],[-58.600693,-34.280329],[-58.600325,-34.279442],[-58.60013,-34.279514],[-58.600489,-34.28038]]]}},{"type":"Feature","properties":{"partida":"357006087","cca":"357000100000000000000040100E0000000004200F","tipo":"Urbano","sup_m2":1922.2},"geometry":{"type":"Polygon","coordinates":[[[-58.600489,-34.28038],[-58.60013,-34.279514],[-58.59994,-34.279583],[-58.600289,-34.280431],[-58.600489,-34.28038]]]}},{"type":"Feature","properties":{"partida":"357006088","cca":"357000100000000000000040100E0000000004200G","tipo":"Urbano","sup_m2":2157.8},"geometry":{"type":"Polygon","coordinates":[[[-58.600574,-34.281124],[-58.600289,-34.280431],[-58.59994,-34.279583],[-58.599823,-34.279631],[-58.600459,-34.281178],[-58.600574,-34.281124]]]}},{"type":"Feature","properties":{"partida":"357006089","cca":"357000100000000000000040100E0000000004200H","tipo":"Urbano","sup_m2":2262.7},"geometry":{"type":"Polygon","coordinates":[[[-58.599823,-34.279631],[-58.599698,-34.279672],[-58.60034,-34.281235],[-58.600459,-34.281178],[-58.599823,-34.279631]]]}},{"type":"Feature","properties":{"partida":"357006090","cca":"357000100000000000000040100E0000000004200J","tipo":"Urbano","sup_m2":2113.8},"geometry":{"type":"Polygon","coordinates":[[[-58.60034,-34.281235],[-58.599698,-34.279672],[-58.599582,-34.279714],[-58.60019,-34.281192],[-58.600258,-34.281273],[-58.60034,-34.281235]]]}},{"type":"Feature","properties":{"partida":"357006091","cca":"357000100000000000000040100E0000000004200K","tipo":"Urbano","sup_m2":1803.3},"geometry":{"type":"Polygon","coordinates":[[[-58.60019,-34.281192],[-58.599582,-34.279714],[-58.599464,-34.279757],[-58.599925,-34.280877],[-58.60019,-34.281192]]]}},{"type":"Feature","properties":{"partida":"357006092","cca":"357000100000000000000040100E0000000004200M","tipo":"Urbano","sup_m2":1400.1},"geometry":{"type":"Polygon","coordinates":[[[-58.599335,-34.279804],[-58.599635,-34.280533],[-58.599925,-34.280877],[-58.599464,-34.279757],[-58.599335,-34.279804]]]}},{"type":"Feature","properties":{"partida":"357006093","cca":"357000100000000000000040100E0000000004200N","tipo":"Urbano","sup_m2":1027.4},"geometry":{"type":"Polygon","coordinates":[[[-58.599635,-34.280533],[-58.599335,-34.279804],[-58.599095,-34.279892],[-58.599635,-34.280533]]]}},{"type":"Feature","properties":{"partida":"357006096","cca":"357000100000000000000040100E0000000004200R","tipo":"Urbano","sup_m2":1813.2},"geometry":{"type":"Polygon","coordinates":[[[-58.601754,-34.280063],[-58.600289,-34.280431],[-58.600334,-34.28054],[-58.601815,-34.280169],[-58.601754,-34.280063]]]}},{"type":"Feature","properties":{"partida":"357006120","cca":"357000100000000000000040200000000000001000","tipo":"Urbano","sup_m2":5857.8},"geometry":{"type":"Polygon","coordinates":[[[-58.600612,-34.281694],[-58.599095,-34.279892],[-58.598715,-34.279921],[-58.599285,-34.280598],[-58.59939,-34.280544],[-58.600438,-34.2818],[-58.600612,-34.281694]]]}},{"type":"Feature","properties":{"partida":"357006121","cca":"357000100000000000000040200000000000002000","tipo":"Urbano","sup_m2":6305.7},"geometry":{"type":"Polygon","coordinates":[[[-58.599921,-34.281181],[-58.59939,-34.280544],[-58.599285,-34.280598],[-58.598715,-34.279921],[-58.598668,-34.279924],[-58.598433,-34.280052],[-58.599554,-34.281384],[-58.599921,-34.281181]]]}},{"type":"Feature","properties":{"partida":"357006122","cca":"357000100000000000000040200000000000003000","tipo":"Urbano","sup_m2":6137.0},"geometry":{"type":"Polygon","coordinates":[[[-58.599246,-34.281554],[-58.599554,-34.281384],[-58.598433,-34.280052],[-58.598124,-34.28022],[-58.599246,-34.281554]]]}},{"type":"Feature","properties":{"partida":"357006123","cca":"357000100000000000000040200000000000004000","tipo":"Urbano","sup_m2":21331.2},"geometry":{"type":"Polygon","coordinates":[[[-58.599246,-34.281554],[-58.598124,-34.28022],[-58.597786,-34.280404],[-58.597025,-34.280616],[-58.597904,-34.281724],[-58.597997,-34.282122],[-58.598034,-34.282224],[-58.599246,-34.281554]]]}},{"type":"Feature","properties":{"partida":"357006124","cca":"357000100000000000000040200000000000005000","tipo":"Urbano","sup_m2":5490.6},"geometry":{"type":"Polygon","coordinates":[[[-58.599921,-34.281181],[-58.598034,-34.282224],[-58.598118,-34.282457],[-58.60008,-34.281372],[-58.599921,-34.281181]]]}},{"type":"Feature","properties":{"partida":"357006125","cca":"357000100000000000000040200000000000006000","tipo":"Urbano","sup_m2":6181.8},"geometry":{"type":"Polygon","coordinates":[[[-58.60008,-34.281372],[-58.598118,-34.282457],[-58.598209,-34.282709],[-58.600253,-34.281578],[-58.60008,-34.281372]]]}},{"type":"Feature","properties":{"partida":"357006126","cca":"357000100000000000000040200000000000007000","tipo":"Urbano","sup_m2":6903.1},"geometry":{"type":"Polygon","coordinates":[[[-58.600253,-34.281578],[-58.598209,-34.282709],[-58.598286,-34.282922],[-58.59832,-34.282972],[-58.600438,-34.2818],[-58.600253,-34.281578]]]}},{"type":"Feature","properties":{"partida":"357006127","cca":"357000100000000000000040200000000000008000","tipo":"Urbano","sup_m2":7991.4},"geometry":{"type":"Polygon","coordinates":[[[-58.600812,-34.281931],[-58.600612,-34.281694],[-58.600438,-34.2818],[-58.59832,-34.282972],[-58.598488,-34.283217],[-58.600812,-34.281931]]]}},{"type":"Feature","properties":{"partida":"357006128","cca":"357000100000000000000040200000000000009000","tipo":"Urbano","sup_m2":7931.8},"geometry":{"type":"Polygon","coordinates":[[[-58.600983,-34.282134],[-58.600812,-34.281931],[-58.598488,-34.283217],[-58.598669,-34.283483],[-58.600983,-34.282134]]]}},{"type":"Feature","properties":{"partida":"357006129","cca":"357000100000000000000040200000000000010000","tipo":"Urbano","sup_m2":7171.8},"geometry":{"type":"Polygon","coordinates":[[[-58.600983,-34.282134],[-58.598669,-34.283483],[-58.598825,-34.283702],[-58.601156,-34.282327],[-58.600983,-34.282134]]]}},{"type":"Feature","properties":{"partida":"357006130","cca":"357000100000000000000040200000000000011000","tipo":"Urbano","sup_m2":7284.8},"geometry":{"type":"Polygon","coordinates":[[[-58.601156,-34.282327],[-58.598825,-34.283702],[-58.598976,-34.283931],[-58.601314,-34.282525],[-58.601156,-34.282327]]]}},{"type":"Feature","properties":{"partida":"357006131","cca":"357000100000000000000040200000000000012000","tipo":"Urbano","sup_m2":6709.1},"geometry":{"type":"Polygon","coordinates":[[[-58.601314,-34.282525],[-58.598976,-34.283931],[-58.599119,-34.28414],[-58.601462,-34.2827],[-58.601314,-34.282525]]]}},{"type":"Feature","properties":{"partida":"357006132","cca":"357000100000000000000040200000000000013000","tipo":"Urbano","sup_m2":6392.2},"geometry":{"type":"Polygon","coordinates":[[[-58.601615,-34.282872],[-58.601462,-34.2827],[-58.599119,-34.28414],[-58.599247,-34.284327],[-58.601615,-34.282872]]]}},{"type":"Feature","properties":{"partida":"357006133","cca":"357000100000000000000040200000000000014000","tipo":"Urbano","sup_m2":6444.8},"geometry":{"type":"Polygon","coordinates":[[[-58.601757,-34.28305],[-58.601615,-34.282872],[-58.599247,-34.284327],[-58.599375,-34.284514],[-58.601757,-34.28305]]]}},{"type":"Feature","properties":{"partida":"357006134","cca":"357000100000000000000040200000000000015000","tipo":"Urbano","sup_m2":6513.7},"geometry":{"type":"Polygon","coordinates":[[[-58.601921,-34.283215],[-58.601757,-34.28305],[-58.599375,-34.284514],[-58.599503,-34.284701],[-58.601921,-34.283215]]]}},{"type":"Feature","properties":{"partida":"357006135","cca":"357000100000000000000040200000000000016000","tipo":"Urbano","sup_m2":6580.5},"geometry":{"type":"Polygon","coordinates":[[[-58.602053,-34.283399],[-58.601921,-34.283215],[-58.599503,-34.284701],[-58.599537,-34.284752],[-58.599616,-34.284897],[-58.602053,-34.283399]]]}},{"type":"Feature","properties":{"partida":"357006136","cca":"357000100000000000000040200000000000017000","tipo":"Urbano","sup_m2":6666.8},"geometry":{"type":"Polygon","coordinates":[[[-58.602201,-34.283574],[-58.602053,-34.283399],[-58.599616,-34.284897],[-58.599725,-34.285096],[-58.602201,-34.283574]]]}},{"type":"Feature","properties":{"partida":"357006137","cca":"357000100000000000000040200000000000018000","tipo":"Urbano","sup_m2":6769.8},"geometry":{"type":"Polygon","coordinates":[[[-58.602348,-34.283748],[-58.602201,-34.283574],[-58.599725,-34.285096],[-58.599833,-34.285294],[-58.602348,-34.283748]]]}},{"type":"Feature","properties":{"partida":"357011018","cca":"35700010000000000000005580000000000000100B","tipo":"Urbano","sup_m2":4516.6},"geometry":{"type":"Polygon","coordinates":[[[-58.584203,-34.285345],[-58.584727,-34.286399],[-58.58508,-34.286265],[-58.584558,-34.285214],[-58.584203,-34.285345]]]}},{"type":"Feature","properties":{"partida":"357011019","cca":"35700010000000000000005580000000000000100C","tipo":"Urbano","sup_m2":2221.9},"geometry":{"type":"Polygon","coordinates":[[[-58.584029,-34.28541],[-58.584554,-34.286465],[-58.584727,-34.286399],[-58.584203,-34.285345],[-58.584029,-34.28541]]]}},{"type":"Feature","properties":{"partida":"357000016","cca":"35700010000000000000005580000000000000100E","tipo":"Urbano","sup_m2":2266.8},"geometry":{"type":"Polygon","coordinates":[[[-58.585316,-34.284902],[-58.585148,-34.284986],[-58.585662,-34.286043],[-58.585837,-34.285976],[-58.585316,-34.284902]]]}},{"type":"Feature","properties":{"partida":"357000017","cca":"35700010000000000000005580000000000000100F","tipo":"Urbano","sup_m2":1789.2},"geometry":{"type":"Polygon","coordinates":[[[-58.585011,-34.285046],[-58.585521,-34.286096],[-58.585662,-34.286043],[-58.585148,-34.284986],[-58.585068,-34.285025],[-58.585011,-34.285046]]]}},{"type":"Feature","properties":{"partida":"357000018","cca":"35700010000000000000005580000000000000100G","tipo":"Urbano","sup_m2":2036.5},"geometry":{"type":"Polygon","coordinates":[[[-58.585361,-34.286157],[-58.585521,-34.286096],[-58.585011,-34.285046],[-58.58485,-34.285106],[-58.585361,-34.286157]]]}},{"type":"Feature","properties":{"partida":"357000019","cca":"35700010000000000000005580000000000000100K","tipo":"Urbano","sup_m2":1772.9},"geometry":{"type":"Polygon","coordinates":[[[-58.58485,-34.285106],[-58.58471,-34.285158],[-58.585222,-34.28621],[-58.585361,-34.286157],[-58.58485,-34.285106]]]}},{"type":"Feature","properties":{"partida":"357000021","cca":"35700010000000000000005580000000000000100M","tipo":"Urbano","sup_m2":1874.2},"geometry":{"type":"Polygon","coordinates":[[[-58.58471,-34.285158],[-58.584558,-34.285214],[-58.58508,-34.286265],[-58.585222,-34.28621],[-58.58471,-34.285158]]]}},{"type":"Feature","properties":{"partida":"357018479","cca":"35700010000000000000005580000000000000100P","tipo":"Urbano","sup_m2":3106.8},"geometry":{"type":"Polygon","coordinates":[[[-58.583791,-34.285498],[-58.584307,-34.28656],[-58.584554,-34.286465],[-58.584029,-34.28541],[-58.583791,-34.285498]]]}},{"type":"Feature","properties":{"partida":"357018480","cca":"35700010000000000000005580000000000000100R","tipo":"Urbano","sup_m2":2493.8},"geometry":{"type":"Polygon","coordinates":[[[-58.583791,-34.285498],[-58.583765,-34.285508],[-58.583606,-34.285596],[-58.584111,-34.286634],[-58.584307,-34.28656],[-58.583791,-34.285498]]]}},{"type":"Feature","properties":{"partida":"357018481","cca":"35700010000000000000005580000000000000100S","tipo":"Urbano","sup_m2":2477.0},"geometry":{"type":"Polygon","coordinates":[[[-58.583606,-34.285596],[-58.58342,-34.2857],[-58.583911,-34.28671],[-58.584111,-34.286634],[-58.583606,-34.285596]]]}},{"type":"Feature","properties":{"partida":"357018482","cca":"35700010000000000000005580000000000000100T","tipo":"Urbano","sup_m2":2454.9},"geometry":{"type":"Polygon","coordinates":[[[-58.58342,-34.2857],[-58.583231,-34.285805],[-58.583707,-34.286788],[-58.583911,-34.28671],[-58.58342,-34.2857]]]}},{"type":"Feature","properties":{"partida":"357018483","cca":"35700010000000000000005580000000000000100U","tipo":"Urbano","sup_m2":5720.5},"geometry":{"type":"Polygon","coordinates":[[[-58.58343,-34.286894],[-58.583707,-34.286788],[-58.583231,-34.285805],[-58.583159,-34.285846],[-58.582655,-34.286262],[-58.582676,-34.286368],[-58.58343,-34.286894]]]}},{"type":"Feature","properties":{"partida":"357018484","cca":"35700010000000000000005580000000000000100V","tipo":"Urbano","sup_m2":2502.3},"geometry":{"type":"Polygon","coordinates":[[[-58.583779,-34.286987],[-58.584871,-34.286556],[-58.584554,-34.286465],[-58.58343,-34.286894],[-58.583779,-34.286987]]]}},{"type":"Feature","properties":{"partida":"357018485","cca":"35700010000000000000005580000000000000100W","tipo":"Urbano","sup_m2":2220.6},"geometry":{"type":"Polygon","coordinates":[[[-58.584081,-34.287068],[-58.585165,-34.286639],[-58.584871,-34.286556],[-58.583779,-34.286987],[-58.584081,-34.287068]]]}},{"type":"Feature","properties":{"partida":"357011017","cca":"35700010000000000000005580000000000000100X","tipo":"Rural","sup_m2":67682.0},"geometry":{"type":"Polygon","coordinates":[[[-58.584081,-34.287068],[-58.584453,-34.287165],[-58.585526,-34.286741],[-58.587872,-34.287407],[-58.587217,-34.287652],[-58.587619,-34.287791],[-58.589452,-34.287104],[-58.588346,-34.285019],[-58.584554,-34.286465],[-58.585165,-34.286639],[-58.584081,-34.287068]]]}},{"type":"Feature","properties":{"partida":"357018486","cca":"35700010000000000000005580000000000000100Y","tipo":"Urbano","sup_m2":2106.7},"geometry":{"type":"Polygon","coordinates":[[[-58.585812,-34.286822],[-58.585526,-34.286741],[-58.584453,-34.287165],[-58.584765,-34.287236],[-58.585812,-34.286822]]]}},{"type":"Feature","properties":{"partida":"357018487","cca":"35700010000000000000005580000000000000100Z","tipo":"Urbano","sup_m2":2047.1},"geometry":{"type":"Polygon","coordinates":[[[-58.585076,-34.287307],[-58.586097,-34.286903],[-58.585812,-34.286822],[-58.584765,-34.287236],[-58.585076,-34.287307]]]}},{"type":"Feature","properties":{"partida":"357018488","cca":"3570001000000000000000558000000000000010AA","tipo":"Urbano","sup_m2":1925.9},"geometry":{"type":"Polygon","coordinates":[[[-58.585351,-34.287385],[-58.586372,-34.286981],[-58.586097,-34.286903],[-58.585076,-34.287307],[-58.585301,-34.287358],[-58.585351,-34.287385]]]}},{"type":"Feature","properties":{"partida":"357018489","cca":"3570001000000000000000558000000000000010BB","tipo":"Urbano","sup_m2":2225.3},"geometry":{"type":"Polygon","coordinates":[[[-58.585574,-34.287502],[-58.586674,-34.287067],[-58.586372,-34.286981],[-58.585351,-34.287385],[-58.585574,-34.287502]]]}},{"type":"Feature","properties":{"partida":"357018490","cca":"3570001000000000000000558000000000000010CC","tipo":"Urbano","sup_m2":2252.5},"geometry":{"type":"Polygon","coordinates":[[[-58.585784,-34.287612],[-58.58696,-34.287148],[-58.586674,-34.287067],[-58.585574,-34.287502],[-58.585784,-34.287612]]]}},{"type":"Feature","properties":{"partida":"357018491","cca":"3570001000000000000000558000000000000010DD","tipo":"Urbano","sup_m2":2304.9},"geometry":{"type":"Polygon","coordinates":[[[-58.585986,-34.287719],[-58.587234,-34.287225],[-58.58696,-34.287148],[-58.585784,-34.287612],[-58.585986,-34.287719]]]}},{"type":"Feature","properties":{"partida":"357018492","cca":"3570001000000000000000558000000000000010EE","tipo":"Urbano","sup_m2":2618.9},"geometry":{"type":"Polygon","coordinates":[[[-58.586199,-34.287834],[-58.587527,-34.287309],[-58.587234,-34.287225],[-58.585986,-34.287719],[-58.586199,-34.287834]]]}},{"type":"Feature","properties":{"partida":"357018493","cca":"3570001000000000000000558000000000000010FF","tipo":"Urbano","sup_m2":3085.5},"geometry":{"type":"Polygon","coordinates":[[[-58.587527,-34.287309],[-58.586199,-34.287834],[-58.586418,-34.287952],[-58.587872,-34.287407],[-58.587527,-34.287309]]]}},{"type":"Feature","properties":{"partida":"357011020","cca":"35700010000000000000005580000000000000200A","tipo":"Urbano","sup_m2":1216.4},"geometry":{"type":"Polygon","coordinates":[[[-58.586418,-34.287952],[-58.586579,-34.288037],[-58.587419,-34.287722],[-58.587217,-34.287652],[-58.586418,-34.287952]]]}},{"type":"Feature","properties":{"partida":"357011021","cca":"357000100000000000000055800000000000003000","tipo":"Rural","sup_m2":1272.4},"geometry":{"type":"Polygon","coordinates":[[[-58.586734,-34.288123],[-58.587619,-34.287791],[-58.587419,-34.287722],[-58.586579,-34.288037],[-58.586734,-34.288123]]]}},{"type":"Feature","properties":{"partida":"357011022","cca":"357000100000000000000055800000000000004000","tipo":"Rural","sup_m2":118040.2},"geometry":{"type":"Polygon","coordinates":[[[-58.586847,-34.288185],[-58.5873,-34.288011],[-58.58757,-34.287985],[-58.588036,-34.28805],[-58.588322,-34.288083],[-58.588664,-34.288057],[-58.589186,-34.287974],[-58.589384,-34.287976],[-58.589955,-34.288191],[-58.590472,-34.28842],[-58.591058,-34.288844],[-58.591307,-34.289011],[-58.591628,-34.289134],[-58.591864,-34.289107],[-58.592084,-34.289041],[-58.592321,-34.289036],[-58.592583,-34.28913],[-58.592898,-34.28939],[-58.593125,-34.289947],[-58.59385,-34.28944],[-58.593487,-34.287127],[-58.593451,-34.286936],[-58.592978,-34.285781],[-58.586734,-34.288123],[-58.586847,-34.288185]]]}},{"type":"Feature","properties":{"partida":"357018494","cca":"357000100000000000000055800000000000010000","tipo":"Urbano","sup_m2":4080.7},"geometry":{"type":"Polygon","coordinates":[[[-58.591281,-34.28262],[-58.591805,-34.283699],[-58.592083,-34.283593],[-58.591633,-34.282494],[-58.591281,-34.28262]]]}},{"type":"Feature","properties":{"partida":"357018495","cca":"357000100000000000000055800000000000011000","tipo":"Urbano","sup_m2":2690.0},"geometry":{"type":"Polygon","coordinates":[[[-58.591805,-34.283699],[-58.591281,-34.28262],[-58.591073,-34.282694],[-58.5916,-34.283777],[-58.591805,-34.283699]]]}},{"type":"Feature","properties":{"partida":"357018496","cca":"357000100000000000000055800000000000012000","tipo":"Urbano","sup_m2":2740.8},"geometry":{"type":"Polygon","coordinates":[[[-58.591073,-34.282694],[-58.590862,-34.282769],[-58.591391,-34.283856],[-58.5916,-34.283777],[-58.591073,-34.282694]]]}},{"type":"Feature","properties":{"partida":"357018497","cca":"357000100000000000000055800000000000013000","tipo":"Urbano","sup_m2":2848.1},"geometry":{"type":"Polygon","coordinates":[[[-58.590862,-34.282769],[-58.590644,-34.282847],[-58.591175,-34.283939],[-58.591391,-34.283856],[-58.590862,-34.282769]]]}},{"type":"Feature","properties":{"partida":"357018498","cca":"357000100000000000000055800000000000014000","tipo":"Urbano","sup_m2":2630.7},"geometry":{"type":"Polygon","coordinates":[[[-58.590644,-34.282847],[-58.590563,-34.282876],[-58.590452,-34.282939],[-58.590976,-34.284015],[-58.591175,-34.283939],[-58.590644,-34.282847]]]}},{"type":"Feature","properties":{"partida":"357018499","cca":"357000100000000000000055800000000000015000","tipo":"Urbano","sup_m2":2628.5},"geometry":{"type":"Polygon","coordinates":[[[-58.590452,-34.282939],[-58.590262,-34.283046],[-58.590771,-34.284093],[-58.590976,-34.284015],[-58.590452,-34.282939]]]}},{"type":"Feature","properties":{"partida":"357018500","cca":"357000100000000000000055800000000000016000","tipo":"Urbano","sup_m2":2448.6},"geometry":{"type":"Polygon","coordinates":[[[-58.590262,-34.283046],[-58.59008,-34.283149],[-58.590576,-34.284168],[-58.590771,-34.284093],[-58.590262,-34.283046]]]}},{"type":"Feature","properties":{"partida":"357018501","cca":"357000100000000000000055800000000000017000","tipo":"Urbano","sup_m2":2376.1},"geometry":{"type":"Polygon","coordinates":[[[-58.59008,-34.283149],[-58.589896,-34.283253],[-58.590384,-34.284241],[-58.590576,-34.284168],[-58.59008,-34.283149]]]}},{"type":"Feature","properties":{"partida":"357018502","cca":"357000100000000000000055800000000000018000","tipo":"Urbano","sup_m2":2606.6},"geometry":{"type":"Polygon","coordinates":[[[-58.590384,-34.284241],[-58.589896,-34.283253],[-58.589677,-34.283323],[-58.590164,-34.284325],[-58.590384,-34.284241]]]}},{"type":"Feature","properties":{"partida":"357018503","cca":"357000100000000000000055800000000000019000","tipo":"Urbano","sup_m2":2358.3},"geometry":{"type":"Polygon","coordinates":[[[-58.589677,-34.283323],[-58.589479,-34.283386],[-58.589971,-34.284398],[-58.590164,-34.284325],[-58.589677,-34.283323]]]}},{"type":"Feature","properties":{"partida":"357018504","cca":"357000100000000000000055800000000000020000","tipo":"Urbano","sup_m2":2631.8},"geometry":{"type":"Polygon","coordinates":[[[-58.58926,-34.283456],[-58.589758,-34.28448],[-58.589971,-34.284398],[-58.589479,-34.283386],[-58.58926,-34.283456]]]}},{"type":"Feature","properties":{"partida":"357018505","cca":"357000100000000000000055800000000000021000","tipo":"Rural","sup_m2":95717.1},"geometry":{"type":"Polygon","coordinates":[[[-58.589064,-34.283518],[-58.589566,-34.284553],[-58.588346,-34.285019],[-58.589452,-34.287104],[-58.592978,-34.285781],[-58.592083,-34.283593],[-58.589758,-34.28448],[-58.58926,-34.283456],[-58.589064,-34.283518]]]}},{"type":"Feature","properties":{"partida":"357018506","cca":"357000100000000000000055800000000000022000","tipo":"Urbano","sup_m2":2994.2},"geometry":{"type":"Polygon","coordinates":[[[-58.589064,-34.283518],[-58.588813,-34.283576],[-58.589332,-34.284642],[-58.589566,-34.284553],[-58.589064,-34.283518]]]}},{"type":"Feature","properties":{"partida":"357018507","cca":"357000100000000000000055800000000000023000","tipo":"Urbano","sup_m2":2558.3},"geometry":{"type":"Polygon","coordinates":[[[-58.588813,-34.283576],[-58.588604,-34.283624],[-58.589136,-34.284717],[-58.589332,-34.284642],[-58.588813,-34.283576]]]}},{"type":"Feature","properties":{"partida":"357018508","cca":"357000100000000000000055800000000000024000","tipo":"Urbano","sup_m2":2647.8},"geometry":{"type":"Polygon","coordinates":[[[-58.588604,-34.283624],[-58.588394,-34.283672],[-58.588938,-34.284792],[-58.589136,-34.284717],[-58.588604,-34.283624]]]}},{"type":"Feature","properties":{"partida":"357018509","cca":"357000100000000000000055800000000000025000","tipo":"Urbano","sup_m2":2712.3},"geometry":{"type":"Polygon","coordinates":[[[-58.588394,-34.283672],[-58.588183,-34.283721],[-58.588741,-34.284868],[-58.588938,-34.284792],[-58.588394,-34.283672]]]}},{"type":"Feature","properties":{"partida":"357018510","cca":"357000100000000000000055800000000000026000","tipo":"Urbano","sup_m2":2770.3},"geometry":{"type":"Polygon","coordinates":[[[-58.588183,-34.283721],[-58.588092,-34.283742],[-58.587977,-34.28378],[-58.588543,-34.284943],[-58.588741,-34.284868],[-58.588183,-34.283721]]]}},{"type":"Feature","properties":{"partida":"357018511","cca":"357000100000000000000055800000000000027000","tipo":"Urbano","sup_m2":2795.1},"geometry":{"type":"Polygon","coordinates":[[[-58.587977,-34.28378],[-58.587776,-34.283846],[-58.588346,-34.285019],[-58.588543,-34.284943],[-58.587977,-34.28378]]]}},{"type":"Feature","properties":{"partida":"357018512","cca":"357000100000000000000055800000000000028000","tipo":"Urbano","sup_m2":2596.0},"geometry":{"type":"Polygon","coordinates":[[[-58.587589,-34.283907],[-58.588164,-34.285088],[-58.588346,-34.285019],[-58.587776,-34.283846],[-58.587589,-34.283907]]]}},{"type":"Feature","properties":{"partida":"357018513","cca":"357000100000000000000055800000000000029000","tipo":"Urbano","sup_m2":2642.3},"geometry":{"type":"Polygon","coordinates":[[[-58.587589,-34.283907],[-58.587401,-34.283969],[-58.58798,-34.285158],[-58.588164,-34.285088],[-58.587589,-34.283907]]]}},{"type":"Feature","properties":{"partida":"357018514","cca":"357000100000000000000055800000000000030000","tipo":"Urbano","sup_m2":2592.3},"geometry":{"type":"Polygon","coordinates":[[[-58.587401,-34.283969],[-58.587218,-34.28403],[-58.5878,-34.285227],[-58.58798,-34.285158],[-58.587401,-34.283969]]]}},{"type":"Feature","properties":{"partida":"357018515","cca":"357000100000000000000055800000000000031000","tipo":"Urbano","sup_m2":2748.8},"geometry":{"type":"Polygon","coordinates":[[[-58.587218,-34.28403],[-58.587025,-34.284093],[-58.587611,-34.285299],[-58.5878,-34.285227],[-58.587218,-34.28403]]]}},{"type":"Feature","properties":{"partida":"357018516","cca":"357000100000000000000055800000000000032000","tipo":"Urbano","sup_m2":2673.8},"geometry":{"type":"Polygon","coordinates":[[[-58.587025,-34.284093],[-58.586839,-34.284155],[-58.587429,-34.285368],[-58.587611,-34.285299],[-58.587025,-34.284093]]]}},{"type":"Feature","properties":{"partida":"357018517","cca":"357000100000000000000055800000000000033000","tipo":"Urbano","sup_m2":3067.7},"geometry":{"type":"Polygon","coordinates":[[[-58.586839,-34.284155],[-58.586799,-34.284168],[-58.586636,-34.284249],[-58.587219,-34.285448],[-58.587429,-34.285368],[-58.586839,-34.284155]]]}},{"type":"Feature","properties":{"partida":"357018518","cca":"357000100000000000000055800000000000034000","tipo":"Urbano","sup_m2":2804.6},"geometry":{"type":"Polygon","coordinates":[[[-58.587219,-34.285448],[-58.586636,-34.284249],[-58.58645,-34.28434],[-58.587025,-34.285523],[-58.587219,-34.285448]]]}},{"type":"Feature","properties":{"partida":"357018519","cca":"357000100000000000000055800000000000035000","tipo":"Urbano","sup_m2":2671.9},"geometry":{"type":"Polygon","coordinates":[[[-58.58645,-34.28434],[-58.586267,-34.284431],[-58.586841,-34.285593],[-58.587025,-34.285523],[-58.58645,-34.28434]]]}},{"type":"Feature","properties":{"partida":"357018520","cca":"357000100000000000000055800000000000036000","tipo":"Urbano","sup_m2":2902.5},"geometry":{"type":"Polygon","coordinates":[[[-58.586267,-34.284431],[-58.586072,-34.284528],[-58.58663,-34.285673],[-58.586841,-34.285593],[-58.586267,-34.284431]]]}},{"type":"Feature","properties":{"partida":"357018521","cca":"357000100000000000000055800000000000037000","tipo":"Urbano","sup_m2":2696.5},"geometry":{"type":"Polygon","coordinates":[[[-58.586072,-34.284528],[-58.585885,-34.28462],[-58.586434,-34.285748],[-58.58663,-34.285673],[-58.586072,-34.284528]]]}},{"type":"Feature","properties":{"partida":"357018522","cca":"357000100000000000000055800000000000038000","tipo":"Urbano","sup_m2":2705.9},"geometry":{"type":"Polygon","coordinates":[[[-58.585885,-34.28462],[-58.585695,-34.284715],[-58.586234,-34.285824],[-58.586434,-34.285748],[-58.585885,-34.28462]]]}},{"type":"Feature","properties":{"partida":"357018523","cca":"357000100000000000000055800000000000039000","tipo":"Urbano","sup_m2":2709.9},"geometry":{"type":"Polygon","coordinates":[[[-58.585695,-34.284715],[-58.585501,-34.284811],[-58.58603,-34.285902],[-58.586234,-34.285824],[-58.585695,-34.284715]]]}},{"type":"Feature","properties":{"partida":"357018524","cca":"357000100000000000000055800000000000040000","tipo":"Urbano","sup_m2":2533.6},"geometry":{"type":"Polygon","coordinates":[[[-58.585501,-34.284811],[-58.585316,-34.284902],[-58.585837,-34.285976],[-58.58603,-34.285902],[-58.585501,-34.284811]]]}},{"type":"Feature","properties":{"partida":"357011023","cca":"35700010000000000000005590000000000000100A","tipo":"Urbano","sup_m2":6618.6},"geometry":{"type":"Polygon","coordinates":[[[-58.597225,-34.281495],[-58.596746,-34.280898],[-58.596238,-34.280909],[-58.596021,-34.280991],[-58.596478,-34.28183],[-58.597225,-34.281495]]]}},{"type":"Feature","properties":{"partida":"357011024","cca":"35700010000000000000005590000000000000100B","tipo":"Urbano","sup_m2":2100.5},"geometry":{"type":"Polygon","coordinates":[[[-58.596478,-34.28183],[-58.596021,-34.280991],[-58.595819,-34.281067],[-58.596282,-34.281917],[-58.596478,-34.28183]]]}},{"type":"Feature","properties":{"partida":"357011025","cca":"35700010000000000000005590000000000000100C","tipo":"Urbano","sup_m2":2006.3},"geometry":{"type":"Polygon","coordinates":[[[-58.596282,-34.281917],[-58.595819,-34.281067],[-58.595629,-34.281139],[-58.596098,-34.282],[-58.596282,-34.281917]]]}},{"type":"Feature","properties":{"partida":"357011026","cca":"35700010000000000000005590000000000000100D","tipo":"Urbano","sup_m2":1907.5},"geometry":{"type":"Polygon","coordinates":[[[-58.596098,-34.282],[-58.595629,-34.281139],[-58.59545,-34.281207],[-58.595924,-34.282078],[-58.596098,-34.282]]]}},{"type":"Feature","properties":{"partida":"357011027","cca":"35700010000000000000005590000000000000100E","tipo":"Urbano","sup_m2":1967.2},"geometry":{"type":"Polygon","coordinates":[[[-58.595924,-34.282078],[-58.59545,-34.281207],[-58.595268,-34.281275],[-58.595748,-34.282157],[-58.595924,-34.282078]]]}},{"type":"Feature","properties":{"partida":"357011028","cca":"35700010000000000000005590000000000000100F","tipo":"Urbano","sup_m2":2196.1},"geometry":{"type":"Polygon","coordinates":[[[-58.595748,-34.282157],[-58.595268,-34.281275],[-58.595068,-34.281354],[-58.595553,-34.282244],[-58.595748,-34.282157]]]}},{"type":"Feature","properties":{"partida":"357011029","cca":"35700010000000000000005590000000000000100G","tipo":"Urbano","sup_m2":2432.3},"geometry":{"type":"Polygon","coordinates":[[[-58.595553,-34.282244],[-58.595068,-34.281354],[-58.59485,-34.281443],[-58.595339,-34.28234],[-58.595553,-34.282244]]]}},{"type":"Feature","properties":{"partida":"357011030","cca":"35700010000000000000005590000000000000100H","tipo":"Urbano","sup_m2":2218.1},"geometry":{"type":"Polygon","coordinates":[[[-58.595339,-34.28234],[-58.59485,-34.281443],[-58.594652,-34.281522],[-58.595145,-34.282427],[-58.595339,-34.28234]]]}},{"type":"Feature","properties":{"partida":"357011031","cca":"35700010000000000000005590000000000000100J","tipo":"Urbano","sup_m2":2122.2},"geometry":{"type":"Polygon","coordinates":[[[-58.595145,-34.282427],[-58.594652,-34.281522],[-58.594465,-34.281598],[-58.594961,-34.282509],[-58.595145,-34.282427]]]}},{"type":"Feature","properties":{"partida":"357011032","cca":"35700010000000000000005590000000000000100K","tipo":"Urbano","sup_m2":2415.1},"geometry":{"type":"Polygon","coordinates":[[[-58.594961,-34.282509],[-58.594465,-34.281598],[-58.594253,-34.281684],[-58.594753,-34.282602],[-58.594961,-34.282509]]]}},{"type":"Feature","properties":{"partida":"357011033","cca":"35700010000000000000005590000000000000100M","tipo":"Urbano","sup_m2":2164.2},"geometry":{"type":"Polygon","coordinates":[[[-58.594753,-34.282602],[-58.594253,-34.281684],[-58.594056,-34.28174],[-58.59457,-34.282684],[-58.594753,-34.282602]]]}},{"type":"Feature","properties":{"partida":"357011034","cca":"35700010000000000000005590000000000000100N","tipo":"Urbano","sup_m2":2226.4},"geometry":{"type":"Polygon","coordinates":[[[-58.59457,-34.282684],[-58.594056,-34.28174],[-58.593859,-34.281796],[-58.594388,-34.282766],[-58.59457,-34.282684]]]}},{"type":"Feature","properties":{"partida":"357011035","cca":"35700010000000000000005590000000000000100P","tipo":"Urbano","sup_m2":2288.2},"geometry":{"type":"Polygon","coordinates":[[[-58.594388,-34.282766],[-58.593859,-34.281796],[-58.593662,-34.281851],[-58.594204,-34.282848],[-58.594388,-34.282766]]]}},{"type":"Feature","properties":{"partida":"357011036","cca":"35700010000000000000005590000000000000100R","tipo":"Urbano","sup_m2":2348.5},"geometry":{"type":"Polygon","coordinates":[[[-58.594204,-34.282848],[-58.593662,-34.281851],[-58.593464,-34.281907],[-58.594022,-34.28293],[-58.594204,-34.282848]]]}},{"type":"Feature","properties":{"partida":"357011037","cca":"35700010000000000000005590000000000000100S","tipo":"Urbano","sup_m2":2410.4},"geometry":{"type":"Polygon","coordinates":[[[-58.594022,-34.28293],[-58.593464,-34.281907],[-58.593267,-34.281962],[-58.593839,-34.283012],[-58.594022,-34.28293]]]}},{"type":"Feature","properties":{"partida":"357011038","cca":"35700010000000000000005590000000000000100T","tipo":"Urbano","sup_m2":2472.2},"geometry":{"type":"Polygon","coordinates":[[[-58.593839,-34.283012],[-58.593267,-34.281962],[-58.59307,-34.282018],[-58.593656,-34.283094],[-58.593839,-34.283012]]]}},{"type":"Feature","properties":{"partida":"357011039","cca":"35700010000000000000005590000000000000100U","tipo":"Urbano","sup_m2":2533.2},"geometry":{"type":"Polygon","coordinates":[[[-58.593656,-34.283094],[-58.59307,-34.282018],[-58.592872,-34.282074],[-58.593473,-34.283176],[-58.593656,-34.283094]]]}},{"type":"Feature","properties":{"partida":"357011040","cca":"35700010000000000000005590000000000000100V","tipo":"Urbano","sup_m2":2594.6},"geometry":{"type":"Polygon","coordinates":[[[-58.593473,-34.283176],[-58.592872,-34.282074],[-58.592675,-34.282129],[-58.59329,-34.283258],[-58.593473,-34.283176]]]}},{"type":"Feature","properties":{"partida":"357011041","cca":"35700010000000000000005590000000000000100W","tipo":"Urbano","sup_m2":2656.0},"geometry":{"type":"Polygon","coordinates":[[[-58.59329,-34.283258],[-58.592675,-34.282129],[-58.592478,-34.282185],[-58.593107,-34.28334],[-58.59329,-34.283258]]]}},{"type":"Feature","properties":{"partida":"357011042","cca":"35700010000000000000005590000000000000100X","tipo":"Urbano","sup_m2":2756.2},"geometry":{"type":"Polygon","coordinates":[[[-58.593107,-34.28334],[-58.592478,-34.282185],[-58.592275,-34.282242],[-58.592924,-34.283422],[-58.593107,-34.28334]]]}},{"type":"Feature","properties":{"partida":"357011043","cca":"35700010000000000000005590000000000000100Y","tipo":"Urbano","sup_m2":2707.1},"geometry":{"type":"Polygon","coordinates":[[[-58.592924,-34.283422],[-58.592275,-34.282242],[-58.592099,-34.282325],[-58.592741,-34.283504],[-58.592924,-34.283422]]]}},{"type":"Feature","properties":{"partida":"357011044","cca":"35700010000000000000005590000000000000100Z","tipo":"Urbano","sup_m2":7870.4},"geometry":{"type":"Polygon","coordinates":[[[-58.592099,-34.282325],[-58.59191,-34.282396],[-58.591633,-34.282494],[-58.592154,-34.283767],[-58.592741,-34.283504],[-58.592099,-34.282325]]]}},{"type":"Feature","properties":{"partida":"357011045","cca":"35700010000000000000005590000000000000200A","tipo":"Rural","sup_m2":57206.4},"geometry":{"type":"Polygon","coordinates":[[[-58.597225,-34.281495],[-58.592154,-34.283767],[-58.592548,-34.28473],[-58.596895,-34.282737],[-58.596811,-34.282616],[-58.597682,-34.282229],[-58.597225,-34.281495]]]}},{"type":"Feature","properties":{"partida":"357018741","cca":"35700010000000000000005590000000000000200B","tipo":"Urbano","sup_m2":1355.6},"geometry":{"type":"Polygon","coordinates":[[[-58.597682,-34.282229],[-58.596811,-34.282616],[-58.596895,-34.282737],[-58.597754,-34.282344],[-58.597682,-34.282229]]]}},{"type":"Feature","properties":{"partida":"357011046","cca":"35700010000000000000005590000000000000300A","tipo":"Urbano","sup_m2":1717.1},"geometry":{"type":"Polygon","coordinates":[[[-58.597754,-34.282344],[-58.596895,-34.282737],[-58.596987,-34.282884],[-58.597842,-34.282509],[-58.597754,-34.282344]]]}},{"type":"Feature","properties":{"partida":"357011047","cca":"35700010000000000000005590000000000000300B","tipo":"Urbano","sup_m2":1565.8},"geometry":{"type":"Polygon","coordinates":[[[-58.596987,-34.282884],[-58.597075,-34.283026],[-58.59792,-34.282655],[-58.597842,-34.282509],[-58.596987,-34.282884]]]}},{"type":"Feature","properties":{"partida":"357011048","cca":"35700010000000000000005590000000000000300C","tipo":"Urbano","sup_m2":1480.7},"geometry":{"type":"Polygon","coordinates":[[[-58.597075,-34.283026],[-58.59716,-34.283161],[-58.597994,-34.282794],[-58.59792,-34.282655],[-58.597075,-34.283026]]]}},{"type":"Feature","properties":{"partida":"357011049","cca":"35700010000000000000005590000000000000300D","tipo":"Urbano","sup_m2":1258.1},"geometry":{"type":"Polygon","coordinates":[[[-58.59716,-34.283161],[-58.597232,-34.283278],[-58.598058,-34.282915],[-58.597994,-34.282794],[-58.59716,-34.283161]]]}},{"type":"Feature","properties":{"partida":"357011050","cca":"35700010000000000000005590000000000000300E","tipo":"Urbano","sup_m2":1644.7},"geometry":{"type":"Polygon","coordinates":[[[-58.597232,-34.283278],[-58.597328,-34.283432],[-58.598143,-34.283073],[-58.598058,-34.282915],[-58.597232,-34.283278]]]}},{"type":"Feature","properties":{"partida":"357011051","cca":"35700010000000000000005590000000000000300F","tipo":"Rural","sup_m2":117378.3},"geometry":{"type":"Polygon","coordinates":[[[-58.597328,-34.283432],[-58.596895,-34.282737],[-58.592548,-34.28473],[-58.593431,-34.286888],[-58.597777,-34.284717],[-58.597445,-34.284063],[-58.5984,-34.283643],[-58.598143,-34.283073],[-58.597328,-34.283432]]]}},{"type":"Feature","properties":{"partida":"357011052","cca":"35700010000000000000005590000000000000400A","tipo":"Urbano","sup_m2":1678.8},"geometry":{"type":"Polygon","coordinates":[[[-58.5984,-34.283643],[-58.597445,-34.284063],[-58.597516,-34.284204],[-58.598465,-34.283787],[-58.5984,-34.283643]]]}},{"type":"Feature","properties":{"partida":"357011053","cca":"35700010000000000000005590000000000000400B","tipo":"Urbano","sup_m2":1432.4},"geometry":{"type":"Polygon","coordinates":[[[-58.597516,-34.284204],[-58.597578,-34.284325],[-58.59852,-34.283911],[-58.598465,-34.283787],[-58.597516,-34.284204]]]}},{"type":"Feature","properties":{"partida":"357011054","cca":"35700010000000000000005590000000000000400C","tipo":"Urbano","sup_m2":1881.1},"geometry":{"type":"Polygon","coordinates":[[[-58.597578,-34.284325],[-58.597659,-34.284485],[-58.598594,-34.284074],[-58.59852,-34.283911],[-58.597578,-34.284325]]]}},{"type":"Feature","properties":{"partida":"357011055","cca":"35700010000000000000005590000000000000400D","tipo":"Urbano","sup_m2":2438.6},"geometry":{"type":"Polygon","coordinates":[[[-58.598681,-34.284266],[-58.598594,-34.284074],[-58.597659,-34.284485],[-58.597777,-34.284717],[-58.598681,-34.284266]]]}},{"type":"Feature","properties":{"partida":"357011056","cca":"35700010000000000000005590000000000000500B","tipo":"Urbano","sup_m2":2413.0},"geometry":{"type":"Polygon","coordinates":[[[-58.59803,-34.285276],[-58.59902,-34.284819],[-58.598906,-34.284634],[-58.597904,-34.285098],[-58.59803,-34.285276]]]}},{"type":"Feature","properties":{"partida":"357011057","cca":"35700010000000000000005590000000000000500C","tipo":"Urbano","sup_m2":2502.1},"geometry":{"type":"Polygon","coordinates":[[[-58.598163,-34.285464],[-58.599145,-34.28501],[-58.599098,-34.284946],[-58.59902,-34.284819],[-58.59803,-34.285276],[-58.598163,-34.285464]]]}},{"type":"Feature","properties":{"partida":"357011058","cca":"35700010000000000000005590000000000000500D","tipo":"Urbano","sup_m2":2778.8},"geometry":{"type":"Polygon","coordinates":[[[-58.599145,-34.28501],[-58.598163,-34.285464],[-58.598315,-34.285681],[-58.599292,-34.285205],[-58.599145,-34.28501]]]}},{"type":"Feature","properties":{"partida":"357011059","cca":"35700010000000000000005590000000000000500E","tipo":"Rural","sup_m2":57820.1},"geometry":{"type":"Polygon","coordinates":[[[-58.598807,-34.284472],[-58.598681,-34.284266],[-58.593431,-34.286888],[-58.593451,-34.286936],[-58.593487,-34.287127],[-58.593622,-34.287988],[-58.598315,-34.285681],[-58.597794,-34.28494],[-58.598807,-34.284472]]]}},{"type":"Feature","properties":{"partida":"357011060","cca":"35700010000000000000005590000000000000500F","tipo":"Urbano","sup_m2":2146.5},"geometry":{"type":"Polygon","coordinates":[[[-58.598807,-34.284472],[-58.597794,-34.28494],[-58.597904,-34.285098],[-58.598906,-34.284634],[-58.598807,-34.284472]]]}},{"type":"Feature","properties":{"partida":"357011061","cca":"35700010000000000000005590000000000000600B","tipo":"Urbano","sup_m2":2888.8},"geometry":{"type":"Polygon","coordinates":[[[-58.59846,-34.285887],[-58.599457,-34.285426],[-58.599292,-34.285205],[-58.598315,-34.285681],[-58.59846,-34.285887]]]}},{"type":"Feature","properties":{"partida":"357011062","cca":"35700010000000000000005590000000000000600C","tipo":"Urbano","sup_m2":2129.7},"geometry":{"type":"Polygon","coordinates":[[[-58.598571,-34.286044],[-58.599573,-34.285581],[-58.599457,-34.285426],[-58.59846,-34.285887],[-58.598571,-34.286044]]]}},{"type":"Feature","properties":{"partida":"357011063","cca":"35700010000000000000005590000000000000600D","tipo":"Urbano","sup_m2":2435.9},"geometry":{"type":"Polygon","coordinates":[[[-58.599705,-34.285757],[-58.599573,-34.285581],[-58.598571,-34.286044],[-58.598697,-34.286223],[-58.599705,-34.285757]]]}},{"type":"Feature","properties":{"partida":"357011064","cca":"35700010000000000000005590000000000000600E","tipo":"Rural","sup_m2":76633.6},"geometry":{"type":"Polygon","coordinates":[[[-58.599075,-34.286761],[-58.598892,-34.2865],[-58.599909,-34.286029],[-58.599705,-34.285757],[-58.598697,-34.286223],[-58.598315,-34.285681],[-58.593622,-34.287988],[-58.59385,-34.28944],[-58.595584,-34.288177],[-58.595811,-34.288427],[-58.599075,-34.286761]]]}},{"type":"Feature","properties":{"partida":"357011065","cca":"35700010000000000000005590000000000000600F","tipo":"Urbano","sup_m2":3358.6},"geometry":{"type":"Polygon","coordinates":[[[-58.599909,-34.286029],[-58.598892,-34.2865],[-58.599075,-34.286761],[-58.600075,-34.286251],[-58.599909,-34.286029]]]}},{"type":"Feature","properties":{"partida":"357011066","cca":"357000100000000000000055900000000000007000","tipo":"Rural","sup_m2":56241.1},"geometry":{"type":"Polygon","coordinates":[[[-58.596774,-34.289484],[-58.597714,-34.288751],[-58.5979,-34.288622],[-58.598047,-34.288492],[-58.598221,-34.288352],[-58.598454,-34.288169],[-58.600667,-34.28759],[-58.600075,-34.286251],[-58.595811,-34.288427],[-58.596774,-34.289484]]]}},{"type":"Feature","properties":{"partida":"357011068","cca":"357000100000000000000055900000000000009000","tipo":"Urbano","sup_m2":5258.6},"geometry":{"type":"Polygon","coordinates":[[[-58.598454,-34.288169],[-58.600678,-34.288052],[-58.600667,-34.28759],[-58.598454,-34.288169]]]}},{"type":"Feature","properties":{"partida":"357011069","cca":"35700010000000000000005590000000000001000A","tipo":"Urbano","sup_m2":4917.0},"geometry":{"type":"Polygon","coordinates":[[[-58.600687,-34.288415],[-58.600678,-34.288052],[-58.598454,-34.288169],[-58.598377,-34.288229],[-58.600687,-34.288415]]]}},{"type":"Feature","properties":{"partida":"357011070","cca":"35700010000000000000005590000000000001000B","tipo":"Urbano","sup_m2":5095.1},"geometry":{"type":"Polygon","coordinates":[[[-58.600693,-34.288694],[-58.600687,-34.288415],[-58.598377,-34.288229],[-58.598221,-34.288352],[-58.600693,-34.288694]]]}},{"type":"Feature","properties":{"partida":"357011071","cca":"35700010000000000000005590000000000001000C","tipo":"Urbano","sup_m2":5990.6},"geometry":{"type":"Polygon","coordinates":[[[-58.6007,-34.288983],[-58.600693,-34.288694],[-58.598221,-34.288352],[-58.598047,-34.288492],[-58.6007,-34.288983]]]}},{"type":"Feature","properties":{"partida":"357011072","cca":"35700010000000000000005590000000000001000D","tipo":"Urbano","sup_m2":5102.6},"geometry":{"type":"Polygon","coordinates":[[[-58.6007,-34.288983],[-58.598047,-34.288492],[-58.5979,-34.288622],[-58.600705,-34.289192],[-58.6007,-34.288983]]]}},{"type":"Feature","properties":{"partida":"357011073","cca":"35700010000000000000005590000000000001000E","tipo":"Urbano","sup_m2":5804.9},"geometry":{"type":"Polygon","coordinates":[[[-58.600705,-34.289192],[-58.5979,-34.288622],[-58.597714,-34.288751],[-58.600721,-34.289418],[-58.600708,-34.289303],[-58.600705,-34.289192]]]}},{"type":"Feature","properties":{"partida":"357011087","cca":"357000100000000000000056000000000000002000","tipo":"Urbano","sup_m2":5477.1},"geometry":{"type":"Polygon","coordinates":[[[-58.588036,-34.28805],[-58.58757,-34.287985],[-58.5873,-34.288011],[-58.586847,-34.288185],[-58.587663,-34.288682],[-58.588259,-34.28819],[-58.588151,-34.288116],[-58.588036,-34.28805]]]}},{"type":"Feature","properties":{"partida":"357011088","cca":"357000100000000000000056000000000000003000","tipo":"Urbano","sup_m2":1302.5},"geometry":{"type":"Polygon","coordinates":[[[-58.588259,-34.28819],[-58.587663,-34.288682],[-58.587779,-34.288797],[-58.588386,-34.2883],[-58.588259,-34.28819]]]}},{"type":"Feature","properties":{"partida":"357011089","cca":"357000100000000000000056000000000000004000","tipo":"Urbano","sup_m2":1203.9},"geometry":{"type":"Polygon","coordinates":[[[-58.588386,-34.2883],[-58.587779,-34.288797],[-58.587882,-34.288897],[-58.588506,-34.288402],[-58.588386,-34.2883]]]}},{"type":"Feature","properties":{"partida":"357011090","cca":"357000100000000000000056000000000000005000","tipo":"Urbano","sup_m2":1226.5},"geometry":{"type":"Polygon","coordinates":[[[-58.588506,-34.288402],[-58.587882,-34.288897],[-58.587991,-34.289005],[-58.58862,-34.2885],[-58.588506,-34.288402]]]}},{"type":"Feature","properties":{"partida":"357011091","cca":"357000100000000000000056000000000000006000","tipo":"Urbano","sup_m2":3360.2},"geometry":{"type":"Polygon","coordinates":[[[-58.587991,-34.289005],[-58.588073,-34.289086],[-58.588191,-34.289269],[-58.588933,-34.288862],[-58.58862,-34.2885],[-58.587991,-34.289005]]]}},{"type":"Feature","properties":{"partida":"357011127","cca":"357000100000000000000056100000000000001000","tipo":"Urbano","sup_m2":5410.3},"geometry":{"type":"Polygon","coordinates":[[[-58.584739,-34.288742],[-58.58561,-34.287817],[-58.585112,-34.287557],[-58.584741,-34.287971],[-58.584629,-34.28809],[-58.584739,-34.288742]]]}},{"type":"Feature","properties":{"partida":"357011128","cca":"357000100000000000000056100000000000002000","tipo":"Urbano","sup_m2":2435.2},"geometry":{"type":"Polygon","coordinates":[[[-58.58561,-34.287817],[-58.585515,-34.287919],[-58.584739,-34.288742],[-58.584935,-34.288811],[-58.585787,-34.287907],[-58.58561,-34.287817]]]}},{"type":"Feature","properties":{"partida":"357011129","cca":"357000100000000000000056100000000000003000","tipo":"Urbano","sup_m2":2500.2},"geometry":{"type":"Polygon","coordinates":[[[-58.584935,-34.288811],[-58.585144,-34.288885],[-58.585969,-34.288],[-58.585787,-34.287907],[-58.584935,-34.288811]]]}},{"type":"Feature","properties":{"partida":"357011130","cca":"357000100000000000000056100000000000004000","tipo":"Urbano","sup_m2":2402.0},"geometry":{"type":"Polygon","coordinates":[[[-58.58615,-34.288093],[-58.585969,-34.288],[-58.585144,-34.288885],[-58.585346,-34.288956],[-58.58615,-34.288093]]]}},{"type":"Feature","properties":{"partida":"357011131","cca":"357000100000000000000056100000000000005000","tipo":"Urbano","sup_m2":2333.5},"geometry":{"type":"Polygon","coordinates":[[[-58.585346,-34.288956],[-58.585546,-34.289027],[-58.58633,-34.288191],[-58.58615,-34.288093],[-58.585346,-34.288956]]]}},{"type":"Feature","properties":{"partida":"357011132","cca":"357000100000000000000056100000000000006000","tipo":"Urbano","sup_m2":2230.1},"geometry":{"type":"Polygon","coordinates":[[[-58.585546,-34.289027],[-58.585738,-34.289095],[-58.586512,-34.288289],[-58.58633,-34.288191],[-58.585546,-34.289027]]]}},{"type":"Feature","properties":{"partida":"357011133","cca":"357000100000000000000056100000000000007000","tipo":"Urbano","sup_m2":2216.2},"geometry":{"type":"Polygon","coordinates":[[[-58.586512,-34.288289],[-58.586328,-34.288481],[-58.585738,-34.289095],[-58.585923,-34.289161],[-58.586713,-34.288389],[-58.586566,-34.288319],[-58.586512,-34.288289]]]}},{"type":"Feature","properties":{"partida":"357011134","cca":"357000100000000000000056100000000000008000","tipo":"Urbano","sup_m2":2242.8},"geometry":{"type":"Polygon","coordinates":[[[-58.585923,-34.289161],[-58.586142,-34.289238],[-58.586899,-34.288478],[-58.586713,-34.288389],[-58.585923,-34.289161]]]}},{"type":"Feature","properties":{"partida":"357011135","cca":"357000100000000000000056100000000000009000","tipo":"Urbano","sup_m2":2006.7},"geometry":{"type":"Polygon","coordinates":[[[-58.587067,-34.288558],[-58.586899,-34.288478],[-58.586142,-34.289238],[-58.586302,-34.289342],[-58.587067,-34.288558]]]}}]}