{"type":"FeatureCollection","features":[{"type":"Feature","properties":{"partida":"357011402","cca":"35700010000000000000005740000000000001000A","tipo":"Rural","sup_m2":56820.5},"geometry":{"type":"Polygon","coordinates":[[[-58.586096,-34.323963],[-58.585998,-34.324369],[-58.585089,-34.32431],[-58.58515,-34.324661],[-58.590226,-34.325994],[-58.590573,-34.324633],[-58.586096,-34.323963]]]}},{"type":"Feature","properties":{"partida":"357011407","cca":"35700010000000000000005740000000000001000F","tipo":"Rural","sup_m2":61965.8},"geometry":{"type":"Polygon","coordinates":[[[-58.589846,-34.327065],[-58.590085,-34.326547],[-58.590226,-34.325994],[-58.58515,-34.324661],[-58.585168,-34.325334],[-58.58517,-34.325979],[-58.589846,-34.327065]]]}},{"type":"Feature","properties":{"partida":"357011408","cca":"35700010000000000000005740000000000001100A","tipo":"Rural","sup_m2":109282.6},"geometry":{"type":"Polygon","coordinates":[[[-58.589093,-34.328697],[-58.589846,-34.327065],[-58.58517,-34.325979],[-58.585181,-34.326457],[-58.584804,-34.327765],[-58.584675,-34.328544],[-58.584638,-34.328923],[-58.589093,-34.328697]]]}},{"type":"Feature","properties":{"partida":"357011409","cca":"35700010000000000000005740000000000001100B","tipo":"Rural","sup_m2":36252.4},"geometry":{"type":"Polygon","coordinates":[[[-58.588706,-34.329536],[-58.589093,-34.328697],[-58.584638,-34.328923],[-58.584675,-34.329517],[-58.584657,-34.329779],[-58.588706,-34.329536]]]}},{"type":"Feature","properties":{"partida":"357011410","cca":"35700010000000000000005740000000000001100C","tipo":"Rural","sup_m2":119039.4},"geometry":{"type":"Polygon","coordinates":[[[-58.584726,-34.333634],[-58.586678,-34.333934],[-58.588706,-34.329536],[-58.584657,-34.329779],[-58.584749,-34.33034],[-58.584987,-34.331437],[-58.584969,-34.332979],[-58.584912,-34.333265],[-58.584762,-34.333472],[-58.584726,-34.333634]]]}},{"type":"Feature","properties":{"partida":"357011411","cca":"357000100000000000000057400000000000012000","tipo":"Rural","sup_m2":146984.6},"geometry":{"type":"Polygon","coordinates":[[[-58.584726,-34.333634],[-58.584664,-34.333972],[-58.584466,-34.334712],[-58.584158,-34.335242],[-58.58402,-34.335545],[-58.584077,-34.335599],[-58.583981,-34.335679],[-58.584043,-34.335748],[-58.583951,-34.335826],[-58.583872,-34.33588],[-58.583615,-34.336437],[-58.583343,-34.33676],[-58.583304,-34.337039],[-58.583571,-34.337211],[-58.58393,-34.337136],[-58.58466,-34.336878],[-58.585557,-34.336551],[-58.586592,-34.336224],[-58.586654,-34.336183],[-58.586716,-34.336179],[-58.586925,-34.336104],[-58.587222,-34.335895],[-58.587582,-34.335761],[-58.58764,-34.335732],[-58.587852,-34.335642],[-58.587943,-34.33559],[-58.588018,-34.335567],[-58.588109,-34.335521],[-58.588485,-34.335262],[-58.589357,-34.334422],[-58.589716,-34.334036],[-58.588552,-34.332961],[-58.587516,-34.332116],[-58.586678,-34.333934],[-58.584726,-34.333634]]]}},{"type":"Feature","properties":{"partida":"357011412","cca":"357000100000000000000057400000000000013000","tipo":"Rural","sup_m2":52121.7},"geometry":{"type":"Polygon","coordinates":[[[-58.589716,-34.334036],[-58.589752,-34.333957],[-58.590031,-34.333693],[-58.590573,-34.333099],[-58.591097,-34.332459],[-58.591429,-34.332066],[-58.587831,-34.331435],[-58.587516,-34.332116],[-58.588552,-34.332961],[-58.589716,-34.334036]]]}},{"type":"Feature","properties":{"partida":"357011413","cca":"357000100000000000000057400000000000014000","tipo":"Rural","sup_m2":98414.3},"geometry":{"type":"Polygon","coordinates":[[[-58.589252,-34.328353],[-58.587831,-34.331435],[-58.591429,-34.332066],[-58.59172,-34.331907],[-58.591789,-34.331784],[-58.591859,-34.331703],[-58.59194,-34.331655],[-58.591991,-34.331612],[-58.59211,-34.33153],[-58.592189,-34.33148],[-58.592236,-34.331433],[-58.592323,-34.331405],[-58.592395,-34.331372],[-58.592398,-34.331332],[-58.592515,-34.331272],[-58.592595,-34.331191],[-58.59271,-34.331111],[-58.592805,-34.331054],[-58.589252,-34.328353]]]}},{"type":"Feature","properties":{"partida":"357011414","cca":"357000100000000000000057400000000000015000","tipo":"Urbano","sup_m2":21541.3},"geometry":{"type":"Polygon","coordinates":[[[-58.593162,-34.330689],[-58.589435,-34.327957],[-58.589252,-34.328353],[-58.592805,-34.331054],[-58.592838,-34.330973],[-58.592858,-34.330907],[-58.592895,-34.330875],[-58.593024,-34.330813],[-58.59309,-34.330805],[-58.593147,-34.330761],[-58.593162,-34.330689]]]}},{"type":"Feature","properties":{"partida":"357011415","cca":"357000100000000000000057400000000000016000","tipo":"Rural","sup_m2":19354.0},"geometry":{"type":"Polygon","coordinates":[[[-58.593539,-34.330488],[-58.589612,-34.327573],[-58.589435,-34.327957],[-58.593162,-34.330689],[-58.593229,-34.330634],[-58.593304,-34.330586],[-58.593383,-34.330526],[-58.593437,-34.33052],[-58.593539,-34.330488]]]}},{"type":"Feature","properties":{"partida":"357011416","cca":"357000100000000000000057400000000000017000","tipo":"Rural","sup_m2":22705.8},"geometry":{"type":"Polygon","coordinates":[[[-58.593539,-34.330488],[-58.59361,-34.330415],[-58.593783,-34.330286],[-58.593914,-34.330139],[-58.589778,-34.327212],[-58.589612,-34.327573],[-58.593539,-34.330488]]]}},{"type":"Feature","properties":{"partida":"357011417","cca":"357000100000000000000057400000000000018000","tipo":"Urbano","sup_m2":12608.0},"geometry":{"type":"Polygon","coordinates":[[[-58.589886,-34.326979],[-58.589778,-34.327212],[-58.593914,-34.330139],[-58.594012,-34.330028],[-58.594056,-34.329956],[-58.589886,-34.326979]]]}},{"type":"Feature","properties":{"partida":"357011418","cca":"357000100000000000000057400000000000019000","tipo":"Urbano","sup_m2":12771.2},"geometry":{"type":"Polygon","coordinates":[[[-58.594228,-34.329783],[-58.58999,-34.326754],[-58.589886,-34.326979],[-58.594056,-34.329956],[-58.594228,-34.329783]]]}},{"type":"Feature","properties":{"partida":"357011419","cca":"357000100000000000000057400000000000020000","tipo":"Urbano","sup_m2":11110.2},"geometry":{"type":"Polygon","coordinates":[[[-58.594356,-34.329641],[-58.593391,-34.32894],[-58.590085,-34.326547],[-58.58999,-34.326754],[-58.594228,-34.329783],[-58.594356,-34.329641]]]}},{"type":"Feature","properties":{"partida":"357011420","cca":"35700010000000000000005740000000000002100A","tipo":"Rural","sup_m2":31821.2},"geometry":{"type":"Polygon","coordinates":[[[-58.595787,-34.325206],[-58.594635,-34.32545],[-58.593301,-34.324889],[-58.590524,-34.324827],[-58.590448,-34.325124],[-58.59469,-34.325976],[-58.595795,-34.325838],[-58.595778,-34.325713],[-58.595787,-34.325206]]]}},{"type":"Feature","properties":{"partida":"357018937","cca":"35700010000000000000005740000000000002100C","tipo":"Urbano","sup_m2":1741.4},"geometry":{"type":"Polygon","coordinates":[[[-58.594356,-34.329641],[-58.594386,-34.329594],[-58.594473,-34.329549],[-58.593482,-34.328831],[-58.593391,-34.32894],[-58.594356,-34.329641]]]}},{"type":"Feature","properties":{"partida":"357018938","cca":"35700010000000000000005740000000000002100D","tipo":"Urbano","sup_m2":2174.9},"geometry":{"type":"Polygon","coordinates":[[[-58.593574,-34.328723],[-58.593482,-34.328831],[-58.594473,-34.329549],[-58.594605,-34.329389],[-58.593574,-34.328723]]]}},{"type":"Feature","properties":{"partida":"357018939","cca":"35700010000000000000005740000000000002100E","tipo":"Urbano","sup_m2":1835.0},"geometry":{"type":"Polygon","coordinates":[[[-58.593665,-34.328614],[-58.593574,-34.328723],[-58.594605,-34.329389],[-58.594681,-34.329254],[-58.593665,-34.328614]]]}},{"type":"Feature","properties":{"partida":"357018940","cca":"35700010000000000000005740000000000002100F","tipo":"Urbano","sup_m2":1389.1},"geometry":{"type":"Polygon","coordinates":[[[-58.593757,-34.328506],[-58.593665,-34.328614],[-58.594681,-34.329254],[-58.594762,-34.329208],[-58.593757,-34.328506]]]}},{"type":"Feature","properties":{"partida":"357018941","cca":"35700010000000000000005740000000000002100G","tipo":"Urbano","sup_m2":1550.8},"geometry":{"type":"Polygon","coordinates":[[[-58.594831,-34.329127],[-58.593848,-34.328397],[-58.593757,-34.328506],[-58.594762,-34.329208],[-58.594781,-34.32919],[-58.594831,-34.329127]]]}},{"type":"Feature","properties":{"partida":"357018942","cca":"35700010000000000000005740000000000002100H","tipo":"Urbano","sup_m2":1842.6},"geometry":{"type":"Polygon","coordinates":[[[-58.594831,-34.329127],[-58.594885,-34.328968],[-58.59394,-34.328288],[-58.593848,-34.328397],[-58.594831,-34.329127]]]}},{"type":"Feature","properties":{"partida":"357018943","cca":"35700010000000000000005740000000000002100K","tipo":"Urbano","sup_m2":1444.8},"geometry":{"type":"Polygon","coordinates":[[[-58.594885,-34.328968],[-58.594947,-34.328886],[-58.594032,-34.32818],[-58.59394,-34.328288],[-58.594885,-34.328968]]]}},{"type":"Feature","properties":{"partida":"357018944","cca":"35700010000000000000005740000000000002100M","tipo":"Urbano","sup_m2":1777.5},"geometry":{"type":"Polygon","coordinates":[[[-58.594123,-34.328071],[-58.594032,-34.32818],[-58.594947,-34.328886],[-58.594986,-34.328702],[-58.594123,-34.328071]]]}},{"type":"Feature","properties":{"partida":"357018945","cca":"35700010000000000000005740000000000002100N","tipo":"Urbano","sup_m2":1465.1},"geometry":{"type":"Polygon","coordinates":[[[-58.594215,-34.327963],[-58.594123,-34.328071],[-58.594986,-34.328702],[-58.595026,-34.328564],[-58.594215,-34.327963]]]}},{"type":"Feature","properties":{"partida":"357018946","cca":"35700010000000000000005740000000000002100P","tipo":"Urbano","sup_m2":1406.7},"geometry":{"type":"Polygon","coordinates":[[[-58.594306,-34.327854],[-58.594215,-34.327963],[-58.595026,-34.328564],[-58.595095,-34.328449],[-58.594306,-34.327854]]]}},{"type":"Feature","properties":{"partida":"357018947","cca":"35700010000000000000005740000000000002100R","tipo":"Urbano","sup_m2":1479.3},"geometry":{"type":"Polygon","coordinates":[[[-58.595151,-34.328291],[-58.594398,-34.327746],[-58.594306,-34.327854],[-58.595095,-34.328449],[-58.595151,-34.328291]]]}},{"type":"Feature","properties":{"partida":"357018948","cca":"35700010000000000000005740000000000002100S","tipo":"Urbano","sup_m2":1324.7},"geometry":{"type":"Polygon","coordinates":[[[-58.595151,-34.328291],[-58.595219,-34.328165],[-58.594489,-34.327637],[-58.594398,-34.327746],[-58.595151,-34.328291]]]}},{"type":"Feature","properties":{"partida":"357018949","cca":"35700010000000000000005740000000000002100T","tipo":"Urbano","sup_m2":1262.0},"geometry":{"type":"Polygon","coordinates":[[[-58.595219,-34.328165],[-58.595267,-34.328025],[-58.594581,-34.327528],[-58.594489,-34.327637],[-58.595219,-34.328165]]]}},{"type":"Feature","properties":{"partida":"357018950","cca":"35700010000000000000005740000000000002100U","tipo":"Urbano","sup_m2":1561.6},"geometry":{"type":"Polygon","coordinates":[[[-58.594679,-34.327412],[-58.594581,-34.327528],[-58.595267,-34.328025],[-58.595381,-34.327843],[-58.594679,-34.327412]]]}},{"type":"Feature","properties":{"partida":"357018951","cca":"35700010000000000000005740000000000002100V","tipo":"Urbano","sup_m2":1219.5},"geometry":{"type":"Polygon","coordinates":[[[-58.594772,-34.327302],[-58.594679,-34.327412],[-58.595381,-34.327843],[-58.595461,-34.327715],[-58.594772,-34.327302]]]}},{"type":"Feature","properties":{"partida":"357018952","cca":"35700010000000000000005740000000000002100W","tipo":"Urbano","sup_m2":1101.4},"geometry":{"type":"Polygon","coordinates":[[[-58.595479,-34.327536],[-58.594852,-34.327207],[-58.594772,-34.327302],[-58.595461,-34.327715],[-58.595479,-34.327536]]]}},{"type":"Feature","properties":{"partida":"357011421","cca":"35700010000000000000005740000000000002100X","tipo":"Rural","sup_m2":117015.5},"geometry":{"type":"Polygon","coordinates":[[[-58.595802,-34.326629],[-58.594954,-34.326713],[-58.594965,-34.326557],[-58.595001,-34.326339],[-58.595053,-34.325931],[-58.59469,-34.325976],[-58.590448,-34.325124],[-58.590085,-34.326547],[-58.593391,-34.32894],[-58.594852,-34.327207],[-58.595479,-34.327536],[-58.595756,-34.326792],[-58.595802,-34.326629]]]}},{"type":"Feature","properties":{"partida":"357018953","cca":"35700010000000000000005740000000000002100Y","tipo":"Urbano","sup_m2":1418.8},"geometry":{"type":"Polygon","coordinates":[[[-58.595802,-34.326629],[-58.595821,-34.326455],[-58.594965,-34.326557],[-58.594954,-34.326713],[-58.595802,-34.326629]]]}},{"type":"Feature","properties":{"partida":"357018954","cca":"35700010000000000000005740000000000002100Z","tipo":"Urbano","sup_m2":1842.2},"geometry":{"type":"Polygon","coordinates":[[[-58.595821,-34.326455],[-58.595818,-34.326296],[-58.595826,-34.326237],[-58.595001,-34.326339],[-58.594965,-34.326557],[-58.595821,-34.326455]]]}},{"type":"Feature","properties":{"partida":"357018955","cca":"3570001000000000000000574000000000000210AA","tipo":"Urbano","sup_m2":1691.2},"geometry":{"type":"Polygon","coordinates":[[[-58.595826,-34.326237],[-58.595856,-34.326033],[-58.595027,-34.326135],[-58.595001,-34.326339],[-58.595826,-34.326237]]]}},{"type":"Feature","properties":{"partida":"357018956","cca":"3570001000000000000000574000000000000210BB","tipo":"Urbano","sup_m2":1621.0},"geometry":{"type":"Polygon","coordinates":[[[-58.595856,-34.326033],[-58.595795,-34.325838],[-58.595053,-34.325931],[-58.595027,-34.326135],[-58.595856,-34.326033]]]}},{"type":"Feature","properties":{"partida":"357011436","cca":"357000100000000000000057400000000000029000","tipo":"Rural","sup_m2":153816.1},"geometry":{"type":"Polygon","coordinates":[[[-58.576503,-34.338674],[-58.57936,-34.341335],[-58.580115,-34.342032],[-58.580542,-34.341796],[-58.58082,-34.341441],[-58.581245,-34.340816],[-58.581647,-34.339734],[-58.581942,-34.339105],[-58.582136,-34.338661],[-58.582375,-34.338303],[-58.582751,-34.337843],[-58.582941,-34.337733],[-58.583058,-34.337424],[-58.58303,-34.337181],[-58.583008,-34.336887],[-58.58257,-34.337158],[-58.581567,-34.337497],[-58.580683,-34.337709],[-58.579568,-34.337899],[-58.578428,-34.338089],[-58.578,-34.338253],[-58.577342,-34.33839],[-58.576503,-34.338674]]]}},{"type":"Feature","properties":{"partida":"357011437","cca":"35700010000000000000005740000000000003000B","tipo":"Urbano","sup_m2":4818.8},"geometry":{"type":"Polygon","coordinates":[[[-58.57964,-34.342203],[-58.580115,-34.342032],[-58.57936,-34.341335],[-58.578756,-34.34168],[-58.57949,-34.341959],[-58.57964,-34.342203]]]}},{"type":"Feature","properties":{"partida":"357011611","cca":"357000100000000000000058100000000000026000","tipo":"Urbano","sup_m2":3660.1},"geometry":{"type":"Polygon","coordinates":[[[-58.583574,-34.325301],[-58.583518,-34.325578],[-58.584833,-34.325518],[-58.584792,-34.325228],[-58.583574,-34.325301]]]}},{"type":"Feature","properties":{"partida":"357011612","cca":"357000100000000000000058100000000000027000","tipo":"Rural","sup_m2":52524.8},"geometry":{"type":"Polygon","coordinates":[[[-58.583574,-34.325301],[-58.583481,-34.324655],[-58.581084,-34.324889],[-58.581423,-34.325791],[-58.580938,-34.327151],[-58.583298,-34.326642],[-58.583433,-34.325939],[-58.584844,-34.325827],[-58.584833,-34.325518],[-58.583518,-34.325578],[-58.583574,-34.325301]]]}},{"type":"Feature","properties":{"partida":"357011613","cca":"357000100000000000000058100000000000028000","tipo":"Urbano","sup_m2":2423.7},"geometry":{"type":"Polygon","coordinates":[[[-58.583399,-34.326117],[-58.584849,-34.325984],[-58.584844,-34.325827],[-58.583433,-34.325939],[-58.583399,-34.326117]]]}},{"type":"Feature","properties":{"partida":"357011614","cca":"357000100000000000000058100000000000029000","tipo":"Urbano","sup_m2":2854.2},"geometry":{"type":"Polygon","coordinates":[[[-58.583363,-34.326305],[-58.584853,-34.326179],[-58.584849,-34.325984],[-58.583399,-34.326117],[-58.583363,-34.326305]]]}},{"type":"Feature","properties":{"partida":"357011615","cca":"357000100000000000000058100000000000030000","tipo":"Urbano","sup_m2":2863.3},"geometry":{"type":"Polygon","coordinates":[[[-58.583363,-34.326305],[-58.583328,-34.326489],[-58.584777,-34.326386],[-58.584853,-34.326179],[-58.583363,-34.326305]]]}},{"type":"Feature","properties":{"partida":"357011616","cca":"357000100000000000000058100000000000031000","tipo":"Urbano","sup_m2":2871.9},"geometry":{"type":"Polygon","coordinates":[[[-58.583328,-34.326489],[-58.583295,-34.32666],[-58.584738,-34.326607],[-58.584777,-34.326386],[-58.583328,-34.326489]]]}},{"type":"Feature","properties":{"partida":"357011617","cca":"357000100000000000000058100000000000032000","tipo":"Urbano","sup_m2":3251.7},"geometry":{"type":"Polygon","coordinates":[[[-58.583244,-34.326925],[-58.584623,-34.326807],[-58.584647,-34.326724],[-58.584738,-34.326607],[-58.583295,-34.32666],[-58.583244,-34.326925]]]}},{"type":"Feature","properties":{"partida":"357011618","cca":"357000100000000000000058100000000000033000","tipo":"Urbano","sup_m2":2554.2},"geometry":{"type":"Polygon","coordinates":[[[-58.583211,-34.327098],[-58.584531,-34.327013],[-58.584623,-34.326807],[-58.583244,-34.326925],[-58.583211,-34.327098]]]}},{"type":"Feature","properties":{"partida":"357011619","cca":"357000100000000000000058100000000000034000","tipo":"Urbano","sup_m2":2166.7},"geometry":{"type":"Polygon","coordinates":[[[-58.583177,-34.327272],[-58.584478,-34.327169],[-58.584531,-34.327013],[-58.583211,-34.327098],[-58.583177,-34.327272]]]}},{"type":"Feature","properties":{"partida":"357011620","cca":"357000100000000000000058100000000000035000","tipo":"Urbano","sup_m2":2079.1},"geometry":{"type":"Polygon","coordinates":[[[-58.583177,-34.327272],[-58.583147,-34.327433],[-58.584417,-34.327332],[-58.584478,-34.327169],[-58.583177,-34.327272]]]}},{"type":"Feature","properties":{"partida":"357011621","cca":"357000100000000000000058100000000000036000","tipo":"Urbano","sup_m2":2374.6},"geometry":{"type":"Polygon","coordinates":[[[-58.583147,-34.327433],[-58.583112,-34.327615],[-58.584387,-34.327521],[-58.584417,-34.327332],[-58.583147,-34.327433]]]}},{"type":"Feature","properties":{"partida":"357011622","cca":"357000100000000000000058100000000000037000","tipo":"Rural","sup_m2":59589.6},"geometry":{"type":"Polygon","coordinates":[[[-58.584243,-34.327932],[-58.58427,-34.327754],[-58.584387,-34.327521],[-58.583112,-34.327615],[-58.583298,-34.326642],[-58.580938,-34.327151],[-58.580092,-34.329518],[-58.582901,-34.328729],[-58.583039,-34.328008],[-58.584243,-34.327932]]]}},{"type":"Feature","properties":{"partida":"357011623","cca":"357000100000000000000058100000000000038000","tipo":"Urbano","sup_m2":2095.3},"geometry":{"type":"Polygon","coordinates":[[[-58.583006,-34.328182],[-58.584236,-34.328097],[-58.584243,-34.327932],[-58.583039,-34.328008],[-58.583006,-34.328182]]]}},{"type":"Feature","properties":{"partida":"357011624","cca":"357000100000000000000058100000000000039000","tipo":"Urbano","sup_m2":1865.0},"geometry":{"type":"Polygon","coordinates":[[[-58.582972,-34.328356],[-58.584243,-34.328217],[-58.584236,-34.328097],[-58.583006,-34.328182],[-58.582972,-34.328356]]]}},{"type":"Feature","properties":{"partida":"357011625","cca":"357000100000000000000058100000000000040000","tipo":"Urbano","sup_m2":2374.1},"geometry":{"type":"Polygon","coordinates":[[[-58.582938,-34.328536],[-58.583955,-34.328433],[-58.584243,-34.328399],[-58.584243,-34.328217],[-58.582972,-34.328356],[-58.582938,-34.328536]]]}},{"type":"Feature","properties":{"partida":"357011626","cca":"357000100000000000000058100000000000041000","tipo":"Urbano","sup_m2":2423.1},"geometry":{"type":"Polygon","coordinates":[[[-58.582938,-34.328536],[-58.582901,-34.328729],[-58.583932,-34.328614],[-58.584216,-34.328569],[-58.584243,-34.328399],[-58.583955,-34.328433],[-58.582938,-34.328536]]]}},{"type":"Feature","properties":{"partida":"357011627","cca":"357000100000000000000058100000000000042000","tipo":"Urbano","sup_m2":2180.6},"geometry":{"type":"Polygon","coordinates":[[[-58.582865,-34.328891],[-58.583921,-34.328775],[-58.584203,-34.328747],[-58.584216,-34.328569],[-58.583932,-34.328614],[-58.582901,-34.328729],[-58.582865,-34.328891]]]}},{"type":"Feature","properties":{"partida":"357011628","cca":"357000100000000000000058100000000000043000","tipo":"Urbano","sup_m2":2179.7},"geometry":{"type":"Polygon","coordinates":[[[-58.584203,-34.328747],[-58.583921,-34.328775],[-58.582865,-34.328891],[-58.58283,-34.32905],[-58.58391,-34.328937],[-58.584181,-34.328912],[-58.584188,-34.328798],[-58.584203,-34.328747]]]}},{"type":"Feature","properties":{"partida":"357011629","cca":"357000100000000000000058100000000000044000","tipo":"Urbano","sup_m2":2146.9},"geometry":{"type":"Polygon","coordinates":[[[-58.582795,-34.329207],[-58.58392,-34.329089],[-58.584198,-34.329062],[-58.584181,-34.328912],[-58.58391,-34.328937],[-58.58283,-34.32905],[-58.582795,-34.329207]]]}},{"type":"Feature","properties":{"partida":"357011630","cca":"357000100000000000000058100000000000045000","tipo":"Urbano","sup_m2":2125.7},"geometry":{"type":"Polygon","coordinates":[[[-58.582795,-34.329207],[-58.582761,-34.329362],[-58.5842,-34.329201],[-58.584198,-34.329062],[-58.58392,-34.329089],[-58.582795,-34.329207]]]}},{"type":"Feature","properties":{"partida":"357011631","cca":"357000100000000000000058100000000000046000","tipo":"Urbano","sup_m2":2311.0},"geometry":{"type":"Polygon","coordinates":[[[-58.582761,-34.329362],[-58.582727,-34.329517],[-58.583939,-34.329386],[-58.584214,-34.329369],[-58.5842,-34.329201],[-58.582761,-34.329362]]]}},{"type":"Feature","properties":{"partida":"357011632","cca":"357000100000000000000058100000000000047000","tipo":"Urbano","sup_m2":2709.4},"geometry":{"type":"Polygon","coordinates":[[[-58.582727,-34.329517],[-58.582689,-34.329701],[-58.584204,-34.329533],[-58.584214,-34.329369],[-58.583939,-34.329386],[-58.582727,-34.329517]]]}},{"type":"Feature","properties":{"partida":"357011633","cca":"357000100000000000000058100000000000048000","tipo":"Urbano","sup_m2":2714.6},"geometry":{"type":"Polygon","coordinates":[[[-58.582689,-34.329701],[-58.582653,-34.329875],[-58.584218,-34.329704],[-58.584204,-34.329533],[-58.582689,-34.329701]]]}},{"type":"Feature","properties":{"partida":"357011634","cca":"357000100000000000000058100000000000049000","tipo":"Urbano","sup_m2":2851.5},"geometry":{"type":"Polygon","coordinates":[[[-58.582653,-34.329875],[-58.582617,-34.330048],[-58.584252,-34.329883],[-58.584218,-34.329704],[-58.582653,-34.329875]]]}},{"type":"Feature","properties":{"partida":"357011635","cca":"357000100000000000000058100000000000050000","tipo":"Urbano","sup_m2":2960.5},"geometry":{"type":"Polygon","coordinates":[[[-58.584292,-34.330051],[-58.584252,-34.329883],[-58.582617,-34.330048],[-58.58258,-34.330229],[-58.583984,-34.33008],[-58.584292,-34.330051]]]}},{"type":"Feature","properties":{"partida":"357011636","cca":"357000100000000000000058100000000000051000","tipo":"Rural","sup_m2":71713.6},"geometry":{"type":"Polygon","coordinates":[[[-58.582851,-34.330537],[-58.583074,-34.330606],[-58.583224,-34.330614],[-58.583514,-34.33056],[-58.583594,-34.330522],[-58.583753,-34.330404],[-58.583872,-34.330355],[-58.584386,-34.33055],[-58.584332,-34.330386],[-58.584292,-34.330051],[-58.583984,-34.33008],[-58.58258,-34.330229],[-58.582727,-34.329517],[-58.582901,-34.328729],[-58.580092,-34.329518],[-58.5794,-34.331454],[-58.58024,-34.332603],[-58.58074,-34.332177],[-58.580792,-34.332069],[-58.581177,-34.331806],[-58.581268,-34.331663],[-58.58137,-34.33136],[-58.581342,-34.330937],[-58.581455,-34.330669],[-58.581548,-34.330549],[-58.581851,-34.330263],[-58.582002,-34.330103],[-58.58216,-34.33003],[-58.582236,-34.330034],[-58.582442,-34.330308],[-58.582851,-34.330537]]]}},{"type":"Feature","properties":{"partida":"357011841","cca":"357000100000000000000058400D00000000024000","tipo":"Urbano","sup_m2":6282.4},"geometry":{"type":"Polygon","coordinates":[[[-58.599953,-34.333257],[-58.600174,-34.333283],[-58.60132,-34.333333],[-58.601388,-34.33266],[-58.600407,-34.332868],[-58.599953,-34.333257]]]}},{"type":"Feature","properties":{"partida":null,"cca":"357000100000000000000058400F00000000004000","tipo":null,"sup_m2":1523.3},"geometry":{"type":"Polygon","coordinates":[[[-58.600953,-34.334254],[-58.60115,-34.334254],[-58.601151,-34.333501],[-58.600954,-34.333491],[-58.600953,-34.334254]]]}},{"type":"Feature","properties":{"partida":null,"cca":"357000100000000000000058400F00000000005000","tipo":null,"sup_m2":1564.7},"geometry":{"type":"Polygon","coordinates":[[[-58.600953,-34.334254],[-58.600954,-34.333491],[-58.600755,-34.33348],[-58.600754,-34.334254],[-58.600953,-34.334254]]]}},{"type":"Feature","properties":{"partida":null,"cca":"357000100000000000000058400F00000000006000","tipo":null,"sup_m2":1624.9},"geometry":{"type":"Polygon","coordinates":[[[-58.60055,-34.334255],[-58.600754,-34.334254],[-58.600755,-34.33348],[-58.60055,-34.33347],[-58.60055,-34.334255]]]}},{"type":"Feature","properties":{"partida":"357011866","cca":"357000100000000000000058400F00000000007000","tipo":"Urbano","sup_m2":1593.2},"geometry":{"type":"Polygon","coordinates":[[[-58.600352,-34.334255],[-58.60055,-34.334255],[-58.60055,-34.33347],[-58.600353,-34.333459],[-58.600352,-34.334255]]]}},{"type":"Feature","properties":{"partida":"357011867","cca":"357000100000000000000058400F00000000008000","tipo":"Urbano","sup_m2":1644.6},"geometry":{"type":"Polygon","coordinates":[[[-58.600352,-34.334255],[-58.600353,-34.333459],[-58.600152,-34.333449],[-58.600151,-34.334255],[-58.600352,-34.334255]]]}},{"type":"Feature","properties":{"partida":null,"cca":"357000100000000000000058400F00000000009000","tipo":null,"sup_m2":1651.6},"geometry":{"type":"Polygon","coordinates":[[[-58.599952,-34.334255],[-58.600151,-34.334255],[-58.600152,-34.333449],[-58.599953,-34.333438],[-58.599952,-34.334255]]]}},{"type":"Feature","properties":{"partida":null,"cca":"357000100000000000000058400F00000000010000","tipo":null,"sup_m2":5772.8},"geometry":{"type":"Polygon","coordinates":[[[-58.598456,-34.333384],[-58.599952,-34.334216],[-58.599953,-34.333438],[-58.599173,-34.333397],[-58.598787,-34.333464],[-58.598456,-34.333384]]]}},{"type":"Feature","properties":{"partida":null,"cca":"357000100000000000000058400F00000000011000","tipo":null,"sup_m2":2959.4},"geometry":{"type":"Polygon","coordinates":[[[-58.598456,-34.333384],[-58.598387,-34.33352],[-58.598388,-34.333535],[-58.599952,-34.334406],[-58.599952,-34.334216],[-58.598456,-34.333384]]]}},{"type":"Feature","properties":{"partida":null,"cca":"357000100000000000000058400F00000000012000","tipo":null,"sup_m2":3048.6},"geometry":{"type":"Polygon","coordinates":[[[-58.599952,-34.334596],[-58.599952,-34.334406],[-58.598388,-34.333535],[-58.598411,-34.333742],[-58.599952,-34.334596]]]}},{"type":"Feature","properties":{"partida":"357011872","cca":"357000100000000000000058400F00000000013000","tipo":"Urbano","sup_m2":8098.9},"geometry":{"type":"Polygon","coordinates":[[[-58.599499,-34.334345],[-58.598411,-34.333742],[-58.598518,-34.334729],[-58.598542,-34.334834],[-58.599497,-34.334832],[-58.599499,-34.334345]]]}},{"type":"Feature","properties":{"partida":"357011873","cca":"357000100000000000000058400F00000000014000","tipo":"Urbano","sup_m2":1672.8},"geometry":{"type":"Polygon","coordinates":[[[-58.599952,-34.334596],[-58.599499,-34.334345],[-58.599497,-34.334832],[-58.599951,-34.334831],[-58.599952,-34.334596]]]}},{"type":"Feature","properties":{"partida":"357011874","cca":"357000100000000000000058400F00000000015000","tipo":"Urbano","sup_m2":1167.4},"geometry":{"type":"Polygon","coordinates":[[[-58.600151,-34.334255],[-58.599952,-34.334255],[-58.599951,-34.334831],[-58.60015,-34.334831],[-58.600151,-34.334255]]]}},{"type":"Feature","properties":{"partida":"357011875","cca":"357000100000000000000058400F00000000016000","tipo":"Urbano","sup_m2":1185.8},"geometry":{"type":"Polygon","coordinates":[[[-58.600352,-34.334255],[-58.600151,-34.334255],[-58.60015,-34.334831],[-58.600352,-34.33483],[-58.600352,-34.334255]]]}},{"type":"Feature","properties":{"partida":"357011876","cca":"357000100000000000000058400F00000000017000","tipo":"Urbano","sup_m2":1166.2},"geometry":{"type":"Polygon","coordinates":[[[-58.60055,-34.334255],[-58.600352,-34.334255],[-58.600352,-34.33483],[-58.600551,-34.33483],[-58.60055,-34.334255]]]}},{"type":"Feature","properties":{"partida":"357011877","cca":"357000100000000000000058400F00000000018000","tipo":"Urbano","sup_m2":1192.3},"geometry":{"type":"Polygon","coordinates":[[[-58.600754,-34.334254],[-58.60055,-34.334255],[-58.600551,-34.33483],[-58.600753,-34.33483],[-58.600754,-34.334254]]]}},{"type":"Feature","properties":{"partida":"357011878","cca":"357000100000000000000058400F00000000019000","tipo":"Urbano","sup_m2":1171.1},"geometry":{"type":"Polygon","coordinates":[[[-58.600953,-34.334254],[-58.600754,-34.334254],[-58.600753,-34.33483],[-58.600953,-34.334829],[-58.600953,-34.334254]]]}},{"type":"Feature","properties":{"partida":"357011879","cca":"357000100000000000000058400F00000000020000","tipo":"Urbano","sup_m2":1159.1},"geometry":{"type":"Polygon","coordinates":[[[-58.60115,-34.334254],[-58.600953,-34.334254],[-58.600953,-34.334829],[-58.60115,-34.334829],[-58.60115,-34.334254]]]}},{"type":"Feature","properties":{"partida":"357011909","cca":"357000100000000000000058400H00000000008000","tipo":"Urbano","sup_m2":1570.5},"geometry":{"type":"Polygon","coordinates":[[[-58.600986,-34.335695],[-58.600977,-34.334979],[-58.600757,-34.334979],[-58.600766,-34.335661],[-58.600986,-34.335695]]]}},{"type":"Feature","properties":{"partida":"357011910","cca":"357000100000000000000058400H00000000009000","tipo":"Urbano","sup_m2":1404.0},"geometry":{"type":"Polygon","coordinates":[[[-58.600766,-34.335661],[-58.600757,-34.334979],[-58.600551,-34.334979],[-58.600558,-34.335629],[-58.600766,-34.335661]]]}},{"type":"Feature","properties":{"partida":"357011911","cca":"357000100000000000000058400H00000000010000","tipo":"Urbano","sup_m2":1369.9},"geometry":{"type":"Polygon","coordinates":[[[-58.600558,-34.335629],[-58.600551,-34.334979],[-58.60034,-34.334979],[-58.600345,-34.335596],[-58.600558,-34.335629]]]}},{"type":"Feature","properties":{"partida":"357011912","cca":"357000100000000000000058400H00000000011000","tipo":"Urbano","sup_m2":1310.8},"geometry":{"type":"Polygon","coordinates":[[[-58.600345,-34.335596],[-58.60034,-34.334979],[-58.600124,-34.334979],[-58.600132,-34.335563],[-58.600345,-34.335596]]]}},{"type":"Feature","properties":{"partida":"357011913","cca":"357000100000000000000058400H00000000012000","tipo":"Urbano","sup_m2":1349.3},"geometry":{"type":"Polygon","coordinates":[[[-58.600132,-34.335563],[-58.600124,-34.334979],[-58.599891,-34.334979],[-58.599898,-34.335527],[-58.600132,-34.335563]]]}},{"type":"Feature","properties":{"partida":"357011914","cca":"357000100000000000000058400H00000000013000","tipo":"Urbano","sup_m2":1272.9},"geometry":{"type":"Polygon","coordinates":[[[-58.599898,-34.335527],[-58.599891,-34.334979],[-58.599655,-34.334979],[-58.599663,-34.33549],[-58.599898,-34.335527]]]}},{"type":"Feature","properties":{"partida":null,"cca":"357000100000000000000058400H00000000014000","tipo":null,"sup_m2":4481.1},"geometry":{"type":"Polygon","coordinates":[[[-58.598649,-34.335312],[-58.599663,-34.33549],[-58.599655,-34.334979],[-58.598574,-34.334978],[-58.598649,-34.335312]]]}},{"type":"Feature","properties":{"partida":"357018674","cca":"35700010000000000000005850000000000000200F","tipo":"Rural","sup_m2":52544.9},"geometry":{"type":"Polygon","coordinates":[[[-58.596407,-34.327169],[-58.596657,-34.327764],[-58.596711,-34.327912],[-58.600986,-34.328785],[-58.600895,-34.32714],[-58.596407,-34.327169]]]}},{"type":"Feature","properties":{"partida":"357019281","cca":"35700010000000000000005850000000000000200H","tipo":"Rural","sup_m2":28161.9},"geometry":{"type":"Polygon","coordinates":[[[-58.600771,-34.324902],[-58.596136,-34.325254],[-58.596184,-34.32546],[-58.596229,-34.325827],[-58.600805,-34.325518],[-58.600771,-34.324902]]]}},{"type":"Feature","properties":{"partida":"357019282","cca":"35700010000000000000005850000000000000200K","tipo":"Rural","sup_m2":29609.1},"geometry":{"type":"Polygon","coordinates":[[[-58.596229,-34.325827],[-58.596222,-34.32646],[-58.60084,-34.326145],[-58.600805,-34.325518],[-58.596229,-34.325827]]]}},{"type":"Feature","properties":{"partida":"357011919","cca":"35700010000000000000005850000000000000200R","tipo":"Rural","sup_m2":18390.8},"geometry":{"type":"Polygon","coordinates":[[[-58.60084,-34.326145],[-58.596222,-34.32646],[-58.596272,-34.326581],[-58.596306,-34.326727],[-58.600868,-34.326658],[-58.60084,-34.326145]]]}},{"type":"Feature","properties":{"partida":"357019743","cca":"35700010000000000000005850000000000000200S","tipo":"Rural","sup_m2":21388.1},"geometry":{"type":"Polygon","coordinates":[[[-58.600895,-34.32714],[-58.600868,-34.326658],[-58.596306,-34.326727],[-58.596407,-34.327169],[-58.600895,-34.32714]]]}},{"type":"Feature","properties":{"partida":"357018055","cca":"357000100000000000000058500000000000003000","tipo":"Rural","sup_m2":57261.4},"geometry":{"type":"Polygon","coordinates":[[[-58.601072,-34.330319],[-58.600986,-34.328785],[-58.596711,-34.327912],[-58.59679,-34.328036],[-58.596818,-34.328133],[-58.596868,-34.328214],[-58.59688,-34.328275],[-58.596933,-34.328812],[-58.59702,-34.329186],[-58.601072,-34.330319]]]}},{"type":"Feature","properties":{"partida":"357018056","cca":"357000100000000000000058500000000000004000","tipo":"Rural","sup_m2":77593.5},"geometry":{"type":"Polygon","coordinates":[[[-58.60109,-34.331658],[-58.601141,-34.331568],[-58.601072,-34.330319],[-58.59702,-34.329186],[-58.596988,-34.329706],[-58.596969,-34.329742],[-58.596938,-34.329912],[-58.596878,-34.329997],[-58.596819,-34.330059],[-58.596804,-34.330119],[-58.596726,-34.330241],[-58.596689,-34.330345],[-58.596648,-34.33038],[-58.596604,-34.33038],[-58.596474,-34.330536],[-58.597662,-34.330642],[-58.597868,-34.33111],[-58.598405,-34.331968],[-58.599203,-34.331945],[-58.60109,-34.331658]]]}},{"type":"Feature","properties":{"partida":null,"cca":"357000100000000000000058600000000000000000","tipo":null,"sup_m2":157977.9},"geometry":{"type":"Polygon","coordinates":[[[-58.578122,-34.329845],[-58.5794,-34.331454],[-58.581423,-34.325791],[-58.57961,-34.320973],[-58.57905,-34.319645],[-58.57859,-34.321526],[-58.57862,-34.322224],[-58.578618,-34.322349],[-58.578907,-34.323104],[-58.578834,-34.323961],[-58.578783,-34.324304],[-58.578783,-34.324625],[-58.578797,-34.325013],[-58.578665,-34.325345],[-58.578567,-34.325553],[-58.578525,-34.325772],[-58.578711,-34.325989],[-58.578836,-34.326069],[-58.579088,-34.326125],[-58.579474,-34.326093],[-58.579684,-34.326011],[-58.579867,-34.325641],[-58.580031,-34.325659],[-58.580277,-34.326039],[-58.580298,-34.326296],[-58.580118,-34.326482],[-58.580081,-34.327433],[-58.57965,-34.327689],[-58.579069,-34.329113],[-58.578588,-34.329581],[-58.578296,-34.329742],[-58.578122,-34.329845]]]}},{"type":"Feature","properties":{"partida":"357011936","cca":"357000100000000000000059000000000000001000","tipo":"Rural","sup_m2":85104.7},"geometry":{"type":"Polygon","coordinates":[[[-58.599477,-34.333216],[-58.599752,-34.333229],[-58.599953,-34.333257],[-58.600407,-34.332868],[-58.60109,-34.331658],[-58.599203,-34.331945],[-58.598405,-34.331968],[-58.597868,-34.33111],[-58.597662,-34.330642],[-58.596474,-34.330536],[-58.596523,-34.330566],[-58.596537,-34.330594],[-58.596356,-34.330842],[-58.595967,-34.331582],[-58.59581,-34.331898],[-58.59573,-34.332067],[-58.595434,-34.332728],[-58.596529,-34.33291],[-58.597681,-34.33309],[-58.598299,-34.333189],[-58.599038,-34.33317],[-58.599477,-34.333216]]]}},{"type":"Feature","properties":{"partida":"357011937","cca":"357000100000000000000059000000000000002000","tipo":"Rural","sup_m2":65437.5},"geometry":{"type":"Polygon","coordinates":[[[-58.598456,-34.333384],[-58.598787,-34.333464],[-58.599173,-34.333397],[-58.599366,-34.333307],[-58.599477,-34.333216],[-58.599038,-34.33317],[-58.598299,-34.333189],[-58.597681,-34.33309],[-58.596529,-34.33291],[-58.595434,-34.332728],[-58.595313,-34.332958],[-58.595192,-34.333473],[-58.595092,-34.334011],[-58.595016,-34.334449],[-58.597875,-34.33509],[-58.598588,-34.33504],[-58.598518,-34.334729],[-58.598387,-34.33352],[-58.598456,-34.333384]]]}},{"type":"Feature","properties":{"partida":"357017505","cca":"357000100000000000000059000000000000003000","tipo":"Rural","sup_m2":61478.1},"geometry":{"type":"Polygon","coordinates":[[[-58.598588,-34.33504],[-58.597875,-34.33509],[-58.595016,-34.334449],[-58.59487,-34.334867],[-58.594867,-34.334961],[-58.594849,-34.335053],[-58.594823,-34.335132],[-58.594785,-34.335221],[-58.594699,-34.336272],[-58.598829,-34.336429],[-58.598774,-34.335869],[-58.598588,-34.33504]]]}},{"type":"Feature","properties":{"partida":"357011939","cca":"357000100000000000000059100000000000001000","tipo":"Rural","sup_m2":2157.2},"geometry":{"type":"Polygon","coordinates":[[[-58.595911,-34.327631],[-58.596425,-34.327668],[-58.596361,-34.327381],[-58.596329,-34.32712],[-58.596176,-34.327048],[-58.596036,-34.327192],[-58.595911,-34.327631]]]}},{"type":"Feature","properties":{"partida":"357018685","cca":"35700010000000000000005910000000000000200A","tipo":"Urbano","sup_m2":2477.0},"geometry":{"type":"Polygon","coordinates":[[[-58.595993,-34.328126],[-58.596119,-34.327921],[-58.596561,-34.32805],[-58.596425,-34.327668],[-58.595911,-34.327631],[-58.595754,-34.328067],[-58.595993,-34.328126]]]}},{"type":"Feature","properties":{"partida":"357018686","cca":"35700010000000000000005910000000000000200B","tipo":"Urbano","sup_m2":978.9},"geometry":{"type":"Polygon","coordinates":[[[-58.595656,-34.328265],[-58.596053,-34.328384],[-58.596176,-34.328192],[-58.595993,-34.328126],[-58.595754,-34.328067],[-58.595656,-34.328265]]]}},{"type":"Feature","properties":{"partida":"357011940","cca":"35700010000000000000005910000000000000200C","tipo":"Urbano","sup_m2":1537.9},"geometry":{"type":"Polygon","coordinates":[[[-58.595483,-34.328452],[-58.596064,-34.328668],[-58.596207,-34.328441],[-58.596053,-34.328384],[-58.595656,-34.328265],[-58.595516,-34.328412],[-58.595483,-34.328452]]]}},{"type":"Feature","properties":{"partida":"357018687","cca":"35700010000000000000005910000000000000200D","tipo":"Urbano","sup_m2":1360.5},"geometry":{"type":"Polygon","coordinates":[[[-58.595483,-34.328452],[-58.595454,-34.328627],[-58.595963,-34.328826],[-58.596112,-34.328879],[-58.596211,-34.328721],[-58.595483,-34.328452]]]}},{"type":"Feature","properties":{"partida":"357018688","cca":"35700010000000000000005910000000000000200E","tipo":"Urbano","sup_m2":906.9},"geometry":{"type":"Polygon","coordinates":[[[-58.595454,-34.328627],[-58.595367,-34.328722],[-58.596029,-34.329024],[-58.595963,-34.328826],[-58.595454,-34.328627]]]}},{"type":"Feature","properties":{"partida":"357018689","cca":"35700010000000000000005910000000000000200F","tipo":"Urbano","sup_m2":1317.1},"geometry":{"type":"Polygon","coordinates":[[[-58.596029,-34.329024],[-58.595367,-34.328722],[-58.595263,-34.328885],[-58.595947,-34.329166],[-58.596029,-34.329024]]]}},{"type":"Feature","properties":{"partida":"357018690","cca":"35700010000000000000005910000000000000200G","tipo":"Urbano","sup_m2":1216.7},"geometry":{"type":"Polygon","coordinates":[[[-58.595211,-34.329044],[-58.595865,-34.329308],[-58.595947,-34.329166],[-58.595263,-34.328885],[-58.595211,-34.329044]]]}},{"type":"Feature","properties":{"partida":"357018691","cca":"35700010000000000000005910000000000000200H","tipo":"Urbano","sup_m2":1043.0},"geometry":{"type":"Polygon","coordinates":[[[-58.595124,-34.329139],[-58.595782,-34.32945],[-58.595865,-34.329308],[-58.595211,-34.329044],[-58.595124,-34.329139]]]}},{"type":"Feature","properties":{"partida":"357018692","cca":"35700010000000000000005910000000000000200K","tipo":"Urbano","sup_m2":1382.3},"geometry":{"type":"Polygon","coordinates":[[[-58.59501,-34.329312],[-58.5957,-34.329592],[-58.595782,-34.32945],[-58.595124,-34.329139],[-58.59501,-34.329312]]]}},{"type":"Feature","properties":{"partida":"357018693","cca":"35700010000000000000005910000000000000200M","tipo":"Urbano","sup_m2":1196.4},"geometry":{"type":"Polygon","coordinates":[[[-58.594905,-34.329425],[-58.595618,-34.329734],[-58.5957,-34.329592],[-58.59501,-34.329312],[-58.594905,-34.329425]]]}},{"type":"Feature","properties":{"partida":"357018694","cca":"35700010000000000000005910000000000000200N","tipo":"Urbano","sup_m2":1201.0},"geometry":{"type":"Polygon","coordinates":[[[-58.594813,-34.329538],[-58.595539,-34.329872],[-58.595618,-34.329734],[-58.594905,-34.329425],[-58.594813,-34.329538]]]}},{"type":"Feature","properties":{"partida":"357018695","cca":"35700010000000000000005910000000000000200P","tipo":"Urbano","sup_m2":1458.5},"geometry":{"type":"Polygon","coordinates":[[[-58.594707,-34.329679],[-58.595448,-34.330029],[-58.595539,-34.329872],[-58.594813,-34.329538],[-58.594707,-34.329679]]]}},{"type":"Feature","properties":{"partida":"357018696","cca":"35700010000000000000005910000000000000200R","tipo":"Urbano","sup_m2":6727.9},"geometry":{"type":"Polygon","coordinates":[[[-58.594366,-34.330071],[-58.594452,-34.330318],[-58.59499,-34.330792],[-58.595448,-34.330029],[-58.594707,-34.329679],[-58.594607,-34.329792],[-58.594515,-34.329865],[-58.594366,-34.330071]]]}},{"type":"Feature","properties":{"partida":"357011941","cca":"357000100000000000000059100000000000003000","tipo":"Rural","sup_m2":65237.5},"geometry":{"type":"Polygon","coordinates":[[[-58.594366,-34.330071],[-58.59353,-34.330858],[-58.592769,-34.331426],[-58.59203,-34.332061],[-58.591848,-34.332169],[-58.595029,-34.333504],[-58.595167,-34.332942],[-58.595287,-34.332644],[-58.595542,-34.332155],[-58.595219,-34.331243],[-58.59499,-34.330792],[-58.594452,-34.330318],[-58.594366,-34.330071]]]}},{"type":"Feature","properties":{"partida":"357011942","cca":"357000100000000000000059100000000000004000","tipo":"Rural","sup_m2":1442671.7},"geometry":{"type":"Polygon","coordinates":[[[-58.585381,-34.346602],[-58.587924,-34.347774],[-58.591841,-34.339161],[-58.593136,-34.340185],[-58.593878,-34.339313],[-58.5943,-34.338693],[-58.5945,-34.336722],[-58.594617,-34.335091],[-58.594904,-34.334167],[-58.595029,-34.333504],[-58.591848,-34.332169],[-58.591742,-34.332328],[-58.591278,-34.33281],[-58.589557,-34.334684],[-58.588719,-34.33543],[-58.587759,-34.336002],[-58.586985,-34.336384],[-58.586293,-34.336649],[-58.584725,-34.337208],[-58.583741,-34.33748],[-58.583322,-34.337993],[-58.582767,-34.338777],[-58.582397,-34.33939],[-58.581896,-34.34067],[-58.581394,-34.341649],[-58.580601,-34.342345],[-58.579676,-34.342783],[-58.57868,-34.343047],[-58.577672,-34.343509],[-58.576483,-34.344173],[-58.575662,-34.344694],[-58.574848,-34.345329],[-58.573465,-34.345973],[-58.571996,-34.346276],[-58.570728,-34.346389],[-58.569547,-34.346533],[-58.569049,-34.346618],[-58.568623,-34.346725],[-58.568184,-34.346931],[-58.568241,-34.346997],[-58.568662,-34.347426],[-58.569021,-34.347508],[-58.56991,-34.348005],[-58.570906,-34.347745],[-58.571581,-34.347657],[-58.572257,-34.347637],[-58.572599,-34.34798],[-58.572501,-34.348378],[-58.572485,-34.348834],[-58.573952,-34.349822],[-58.574795,-34.349663],[-58.576734,-34.347858],[-58.577092,-34.348031],[-58.57734,-34.347906],[-58.578131,-34.346872],[-58.578879,-34.346123],[-58.579943,-34.345625],[-58.580644,-34.345853],[-58.580345,-34.34508],[-58.580624,-34.344579],[-58.58148,-34.344275],[-58.582445,-34.344084],[-58.582981,-34.344074],[-58.583134,-34.344076],[-58.584484,-34.344252],[-58.585091,-34.344094],[-58.585183,-34.344926],[-58.585415,-34.345372],[-58.585689,-34.345669],[-58.585686,-34.346205],[-58.585381,-34.346602]]]}},{"type":"Feature","properties":{"partida":"357011944","cca":"35700010000000000000005910000000000000500A","tipo":"Rural","sup_m2":59016.1},"geometry":{"type":"Polygon","coordinates":[[[-58.593136,-34.340185],[-58.591841,-34.339161],[-58.590425,-34.342275],[-58.592617,-34.342957],[-58.592805,-34.342026],[-58.592792,-34.34122],[-58.592891,-34.340625],[-58.593136,-34.340185]]]}},{"type":"Feature","properties":{"partida":"357018697","cca":"357000100000000000000059100000000000022000","tipo":"Urbano","sup_m2":2646.6},"geometry":{"type":"Polygon","coordinates":[[[-58.595542,-34.332155],[-58.595775,-34.3317],[-58.595826,-34.331567],[-58.595854,-34.331481],[-58.595219,-34.331243],[-58.595542,-34.332155]]]}},{"type":"Feature","properties":{"partida":"357018698","cca":"357000100000000000000059100000000000023000","tipo":"Urbano","sup_m2":1521.7},"geometry":{"type":"Polygon","coordinates":[[[-58.595854,-34.331481],[-58.595942,-34.331313],[-58.595094,-34.330995],[-58.595219,-34.331243],[-58.595854,-34.331481]]]}},{"type":"Feature","properties":{"partida":"357018699","cca":"357000100000000000000059100000000000024000","tipo":"Urbano","sup_m2":1818.5},"geometry":{"type":"Polygon","coordinates":[[[-58.595094,-34.330995],[-58.595942,-34.331313],[-58.59602,-34.331159],[-58.595005,-34.330768],[-58.59499,-34.330792],[-58.595094,-34.330995]]]}},{"type":"Feature","properties":{"partida":"357018700","cca":"357000100000000000000059100000000000025000","tipo":"Urbano","sup_m2":1677.0},"geometry":{"type":"Polygon","coordinates":[[[-58.59602,-34.331159],[-58.596072,-34.331023],[-58.595088,-34.330629],[-58.595005,-34.330768],[-58.59602,-34.331159]]]}},{"type":"Feature","properties":{"partida":"357018701","cca":"357000100000000000000059100000000000026000","tipo":"Urbano","sup_m2":1735.7},"geometry":{"type":"Polygon","coordinates":[[[-58.596072,-34.331023],[-58.596109,-34.330859],[-58.595173,-34.330488],[-58.595088,-34.330629],[-58.596072,-34.331023]]]}},{"type":"Feature","properties":{"partida":"357018702","cca":"357000100000000000000059100000000000027000","tipo":"Urbano","sup_m2":1644.6},"geometry":{"type":"Polygon","coordinates":[[[-58.596177,-34.330714],[-58.595257,-34.330347],[-58.595173,-34.330488],[-58.596109,-34.330859],[-58.596177,-34.330714]]]}},{"type":"Feature","properties":{"partida":"357018703","cca":"357000100000000000000059100000000000028000","tipo":"Urbano","sup_m2":1938.8},"geometry":{"type":"Polygon","coordinates":[[[-58.595257,-34.330347],[-58.596177,-34.330714],[-58.596293,-34.330544],[-58.595351,-34.33019],[-58.595257,-34.330347]]]}},{"type":"Feature","properties":{"partida":"357018704","cca":"357000100000000000000059100000000000029000","tipo":"Urbano","sup_m2":1895.6},"geometry":{"type":"Polygon","coordinates":[[[-58.596385,-34.330381],[-58.595448,-34.330029],[-58.595351,-34.33019],[-58.596293,-34.330544],[-58.596385,-34.330381]]]}},{"type":"Feature","properties":{"partida":"357018705","cca":"357000100000000000000059100000000000030000","tipo":"Urbano","sup_m2":1840.5},"geometry":{"type":"Polygon","coordinates":[[[-58.596471,-34.330218],[-58.595539,-34.329872],[-58.595448,-34.330029],[-58.596385,-34.330381],[-58.596471,-34.330218]]]}},{"type":"Feature","properties":{"partida":"357018706","cca":"357000100000000000000059100000000000031000","tipo":"Urbano","sup_m2":1455.7},"geometry":{"type":"Polygon","coordinates":[[[-58.596535,-34.330103],[-58.595618,-34.329734],[-58.595539,-34.329872],[-58.596471,-34.330218],[-58.596535,-34.330103]]]}},{"type":"Feature","properties":{"partida":"357018707","cca":"357000100000000000000059100000000000032000","tipo":"Urbano","sup_m2":1655.4},"geometry":{"type":"Polygon","coordinates":[[[-58.5957,-34.329592],[-58.595618,-34.329734],[-58.596535,-34.330103],[-58.596646,-34.329975],[-58.5957,-34.329592]]]}},{"type":"Feature","properties":{"partida":"357018708","cca":"357000100000000000000059100000000000033000","tipo":"Urbano","sup_m2":1666.2},"geometry":{"type":"Polygon","coordinates":[[[-58.596694,-34.32982],[-58.595782,-34.32945],[-58.5957,-34.329592],[-58.596646,-34.329975],[-58.59668,-34.3299],[-58.596694,-34.32982]]]}},{"type":"Feature","properties":{"partida":"357018709","cca":"357000100000000000000059100000000000034000","tipo":"Urbano","sup_m2":1584.2},"geometry":{"type":"Polygon","coordinates":[[[-58.596721,-34.329655],[-58.595865,-34.329308],[-58.595782,-34.32945],[-58.596694,-34.32982],[-58.596721,-34.329655]]]}},{"type":"Feature","properties":{"partida":"357018710","cca":"357000100000000000000059100000000000035000","tipo":"Urbano","sup_m2":1485.2},"geometry":{"type":"Polygon","coordinates":[[[-58.596748,-34.329491],[-58.595947,-34.329166],[-58.595865,-34.329308],[-58.596721,-34.329655],[-58.596748,-34.329491]]]}},{"type":"Feature","properties":{"partida":"357018711","cca":"357000100000000000000059100000000000036000","tipo":"Urbano","sup_m2":1383.7},"geometry":{"type":"Polygon","coordinates":[[[-58.596761,-34.32932],[-58.596029,-34.329024],[-58.595947,-34.329166],[-58.596748,-34.329491],[-58.59677,-34.329353],[-58.596761,-34.32932]]]}},{"type":"Feature","properties":{"partida":"357018712","cca":"357000100000000000000059100000000000037000","tipo":"Urbano","sup_m2":1526.3},"geometry":{"type":"Polygon","coordinates":[[[-58.596783,-34.329115],[-58.596112,-34.328879],[-58.595963,-34.328826],[-58.596029,-34.329024],[-58.596761,-34.32932],[-58.596783,-34.329115]]]}},{"type":"Feature","properties":{"partida":"357018713","cca":"357000100000000000000059100000000000038000","tipo":"Urbano","sup_m2":1166.1},"geometry":{"type":"Polygon","coordinates":[[[-58.596783,-34.329115],[-58.596756,-34.328924],[-58.596211,-34.328721],[-58.596112,-34.328879],[-58.596783,-34.329115]]]}},{"type":"Feature","properties":{"partida":"357018714","cca":"357000100000000000000059100000000000039000","tipo":"Urbano","sup_m2":1793.4},"geometry":{"type":"Polygon","coordinates":[[[-58.596756,-34.328924],[-58.59674,-34.328621],[-58.596207,-34.328441],[-58.596064,-34.328668],[-58.596756,-34.328924]]]}},{"type":"Feature","properties":{"partida":"357018715","cca":"357000100000000000000059100000000000040000","tipo":"Urbano","sup_m2":1509.9},"geometry":{"type":"Polygon","coordinates":[[[-58.59674,-34.328621],[-58.596676,-34.32834],[-58.596176,-34.328192],[-58.596053,-34.328384],[-58.596207,-34.328441],[-58.59674,-34.328621]]]}},{"type":"Feature","properties":{"partida":"357018716","cca":"357000100000000000000059100000000000041000","tipo":"Urbano","sup_m2":1466.2},"geometry":{"type":"Polygon","coordinates":[[[-58.596561,-34.32805],[-58.596119,-34.327921],[-58.595993,-34.328126],[-58.596176,-34.328192],[-58.596676,-34.32834],[-58.596602,-34.328142],[-58.596561,-34.32805]]]}},{"type":"Feature","properties":{"partida":"357011964","cca":"35700010000000000000005920000000000000100A","tipo":"Urbano","sup_m2":3745.3},"geometry":{"type":"Polygon","coordinates":[[[-58.582992,-34.33058],[-58.583011,-34.330886],[-58.584421,-34.330644],[-58.584386,-34.33055],[-58.583872,-34.330355],[-58.583753,-34.330404],[-58.583594,-34.330522],[-58.583514,-34.33056],[-58.583224,-34.330614],[-58.583074,-34.330606],[-58.582992,-34.33058]]]}},{"type":"Feature","properties":{"partida":"357011965","cca":"35700010000000000000005920000000000000100B","tipo":"Rural","sup_m2":25703.5},"geometry":{"type":"Polygon","coordinates":[[[-58.582992,-34.33058],[-58.582851,-34.330537],[-58.582442,-34.330308],[-58.582236,-34.330034],[-58.58216,-34.33003],[-58.582002,-34.330103],[-58.581851,-34.330263],[-58.581548,-34.330549],[-58.581455,-34.330669],[-58.581342,-34.330937],[-58.58137,-34.33136],[-58.581268,-34.331663],[-58.581177,-34.331806],[-58.581076,-34.331876],[-58.583039,-34.33182],[-58.583035,-34.331513],[-58.583038,-34.331362],[-58.583023,-34.331201],[-58.58302,-34.331041],[-58.582992,-34.33058]]]}},{"type":"Feature","properties":{"partida":"357011966","cca":"35700010000000000000005920000000000000100C","tipo":"Urbano","sup_m2":2234.1},"geometry":{"type":"Polygon","coordinates":[[[-58.58302,-34.331041],[-58.584473,-34.330784],[-58.584421,-34.330644],[-58.583011,-34.330886],[-58.58302,-34.331041]]]}},{"type":"Feature","properties":{"partida":"357011967","cca":"35700010000000000000005920000000000000100D","tipo":"Urbano","sup_m2":2726.2},"geometry":{"type":"Polygon","coordinates":[[[-58.583023,-34.331201],[-58.584481,-34.330989],[-58.584473,-34.330784],[-58.58302,-34.331041],[-58.583023,-34.331201]]]}},{"type":"Feature","properties":{"partida":"357011968","cca":"35700010000000000000005920000000000000100E","tipo":"Urbano","sup_m2":2621.1},"geometry":{"type":"Polygon","coordinates":[[[-58.583038,-34.331362],[-58.583389,-34.331315],[-58.584512,-34.331174],[-58.584481,-34.330989],[-58.583023,-34.331201],[-58.583038,-34.331362]]]}},{"type":"Feature","properties":{"partida":"357011969","cca":"35700010000000000000005920000000000000100F","tipo":"Urbano","sup_m2":2624.7},"geometry":{"type":"Polygon","coordinates":[[[-58.583038,-34.331362],[-58.583035,-34.331513],[-58.583837,-34.331435],[-58.584532,-34.331359],[-58.584512,-34.331174],[-58.583389,-34.331315],[-58.583038,-34.331362]]]}},{"type":"Feature","properties":{"partida":"357011970","cca":"35700010000000000000005920000000000000100G","tipo":"Urbano","sup_m2":2511.4},"geometry":{"type":"Polygon","coordinates":[[[-58.583035,-34.331513],[-58.583037,-34.331659],[-58.583372,-34.331637],[-58.58374,-34.331604],[-58.584572,-34.331537],[-58.584532,-34.331359],[-58.583837,-34.331435],[-58.583035,-34.331513]]]}},{"type":"Feature","properties":{"partida":"357011971","cca":"35700010000000000000005920000000000000100H","tipo":"Urbano","sup_m2":3028.9},"geometry":{"type":"Polygon","coordinates":[[[-58.584606,-34.331763],[-58.584572,-34.331537],[-58.58374,-34.331604],[-58.583372,-34.331637],[-58.583037,-34.331659],[-58.583039,-34.33182],[-58.583731,-34.33179],[-58.584606,-34.331763]]]}},{"type":"Feature","properties":{"partida":"357011962","cca":"35700010000000000000005920000000000000100I","tipo":"Urbano","sup_m2":2494.9},"geometry":{"type":"Polygon","coordinates":[[[-58.583039,-34.33182],[-58.583054,-34.331969],[-58.583334,-34.331963],[-58.5846,-34.33192],[-58.584606,-34.331763],[-58.583731,-34.33179],[-58.583039,-34.33182]]]}},{"type":"Feature","properties":{"partida":"357011972","cca":"35700010000000000000005920000000000000100J","tipo":"Rural","sup_m2":23003.0},"geometry":{"type":"Polygon","coordinates":[[[-58.58024,-34.332603],[-58.581511,-34.332739],[-58.582454,-34.332835],[-58.583156,-34.332884],[-58.583067,-34.332271],[-58.583054,-34.331969],[-58.583039,-34.33182],[-58.581076,-34.331876],[-58.580792,-34.332069],[-58.58074,-34.332177],[-58.58024,-34.332603]]]}},{"type":"Feature","properties":{"partida":"357011973","cca":"35700010000000000000005920000000000000100K","tipo":"Urbano","sup_m2":2687.7},"geometry":{"type":"Polygon","coordinates":[[[-58.583061,-34.332124],[-58.583305,-34.332122],[-58.583909,-34.332108],[-58.584592,-34.332127],[-58.5846,-34.33192],[-58.583334,-34.331963],[-58.583054,-34.331969],[-58.583061,-34.332124]]]}},{"type":"Feature","properties":{"partida":"357011974","cca":"35700010000000000000005920000000000000100M","tipo":"Urbano","sup_m2":2473.5},"geometry":{"type":"Polygon","coordinates":[[[-58.583061,-34.332124],[-58.583067,-34.332271],[-58.584601,-34.332279],[-58.584592,-34.332127],[-58.583909,-34.332108],[-58.583305,-34.332122],[-58.583061,-34.332124]]]}},{"type":"Feature","properties":{"partida":"357011975","cca":"35700010000000000000005920000000000000100N","tipo":"Urbano","sup_m2":2648.2},"geometry":{"type":"Polygon","coordinates":[[[-58.583067,-34.332271],[-58.583089,-34.332424],[-58.584579,-34.33247],[-58.584601,-34.332279],[-58.583067,-34.332271]]]}},{"type":"Feature","properties":{"partida":"357011976","cca":"35700010000000000000005920000000000000100P","tipo":"Urbano","sup_m2":2398.0},"geometry":{"type":"Polygon","coordinates":[[[-58.583089,-34.332424],[-58.583112,-34.332577],[-58.58458,-34.332635],[-58.584579,-34.33247],[-58.583089,-34.332424]]]}},{"type":"Feature","properties":{"partida":"357011961","cca":"35700010000000000000005920000000000000100R","tipo":"Urbano","sup_m2":2223.0},"geometry":{"type":"Polygon","coordinates":[[[-58.583134,-34.33273],[-58.584577,-34.332782],[-58.58458,-34.332635],[-58.583112,-34.332577],[-58.583134,-34.33273]]]}},{"type":"Feature","properties":{"partida":"357011963","cca":"35700010000000000000005920000000000000100S","tipo":"Urbano","sup_m2":2768.4},"geometry":{"type":"Polygon","coordinates":[[[-58.584577,-34.332782],[-58.583134,-34.33273],[-58.583156,-34.332884],[-58.584577,-34.333007],[-58.584577,-34.332782]]]}},{"type":"Feature","properties":{"partida":"357011977","cca":"357000100000000000000059200000000000002000","tipo":"Rural","sup_m2":48037.0},"geometry":{"type":"Polygon","coordinates":[[[-58.584575,-34.333237],[-58.58457,-34.333131],[-58.584577,-34.333007],[-58.583156,-34.332884],[-58.582454,-34.332835],[-58.581511,-34.332739],[-58.58024,-34.332603],[-58.579485,-34.333246],[-58.578326,-34.333413],[-58.58186,-34.334613],[-58.582241,-34.333301],[-58.582319,-34.333008],[-58.582648,-34.33304],[-58.583355,-34.333116],[-58.584575,-34.333237]]]}},{"type":"Feature","properties":{"partida":"357011978","cca":"357000100000000000000059200000000000003000","tipo":"Urbano","sup_m2":3913.9},"geometry":{"type":"Polygon","coordinates":[[[-58.582282,-34.333148],[-58.584521,-34.333428],[-58.584575,-34.333237],[-58.583355,-34.333116],[-58.582648,-34.33304],[-58.582319,-34.333008],[-58.582282,-34.333148]]]}},{"type":"Feature","properties":{"partida":"357011979","cca":"357000100000000000000059200000000000004000","tipo":"Urbano","sup_m2":3903.1},"geometry":{"type":"Polygon","coordinates":[[[-58.582241,-34.333301],[-58.582663,-34.333357],[-58.583179,-34.33343],[-58.583673,-34.333493],[-58.584458,-34.333616],[-58.584521,-34.333428],[-58.582282,-34.333148],[-58.582241,-34.333301]]]}},{"type":"Feature","properties":{"partida":"357011980","cca":"357000100000000000000059200000000000005000","tipo":"Urbano","sup_m2":3702.4},"geometry":{"type":"Polygon","coordinates":[[[-58.582198,-34.333447],[-58.582725,-34.333529],[-58.583447,-34.333635],[-58.584405,-34.333763],[-58.584458,-34.333616],[-58.583673,-34.333493],[-58.583179,-34.33343],[-58.582663,-34.333357],[-58.582241,-34.333301],[-58.582198,-34.333447]]]}},{"type":"Feature","properties":{"partida":"357011981","cca":"35700010000000000000005920000000000000600A","tipo":"Urbano","sup_m2":2551.3},"geometry":{"type":"Polygon","coordinates":[[[-58.582169,-34.333544],[-58.582432,-34.333589],[-58.582971,-34.333672],[-58.584352,-34.333891],[-58.584405,-34.333763],[-58.583447,-34.333635],[-58.582725,-34.333529],[-58.582198,-34.333447],[-58.582169,-34.333544]]]}},{"type":"Feature","properties":{"partida":"357011982","cca":"35700010000000000000005920000000000000600B","tipo":"Urbano","sup_m2":2397.7},"geometry":{"type":"Polygon","coordinates":[[[-58.582169,-34.333544],[-58.582143,-34.333635],[-58.582499,-34.333702],[-58.583512,-34.333872],[-58.584334,-34.33399],[-58.584352,-34.333891],[-58.582971,-34.333672],[-58.582432,-34.333589],[-58.582169,-34.333544]]]}},{"type":"Feature","properties":{"partida":"357011983","cca":"35700010000000000000005920000000000000700A","tipo":"Urbano","sup_m2":2645.3},"geometry":{"type":"Polygon","coordinates":[[[-58.582143,-34.333635],[-58.582114,-34.333734],[-58.582523,-34.333813],[-58.583007,-34.333897],[-58.584283,-34.334132],[-58.584334,-34.33399],[-58.583512,-34.333872],[-58.582499,-34.333702],[-58.582143,-34.333635]]]}},{"type":"Feature","properties":{"partida":"357011984","cca":"357000100000000000000059200000000000008000","tipo":"Urbano","sup_m2":3896.5},"geometry":{"type":"Polygon","coordinates":[[[-58.582072,-34.333879],[-58.583002,-34.334072],[-58.583576,-34.334186],[-58.584195,-34.334324],[-58.584283,-34.334132],[-58.583007,-34.333897],[-58.582523,-34.333813],[-58.582114,-34.333734],[-58.582072,-34.333879]]]}},{"type":"Feature","properties":{"partida":"357011985","cca":"357000100000000000000059200000000000009000","tipo":"Urbano","sup_m2":3718.2},"geometry":{"type":"Polygon","coordinates":[[[-58.582072,-34.333879],[-58.58203,-34.334026],[-58.582672,-34.334171],[-58.584132,-34.334489],[-58.584195,-34.334324],[-58.583576,-34.334186],[-58.583002,-34.334072],[-58.582072,-34.333879]]]}},{"type":"Feature","properties":{"partida":"357011986","cca":"357000100000000000000059200000000000010000","tipo":"Urbano","sup_m2":3567.1},"geometry":{"type":"Polygon","coordinates":[[[-58.581989,-34.334168],[-58.582575,-34.334311],[-58.583102,-34.334431],[-58.584067,-34.334658],[-58.584132,-34.334489],[-58.582672,-34.334171],[-58.58203,-34.334026],[-58.581989,-34.334168]]]}},{"type":"Feature","properties":{"partida":"357011987","cca":"357000100000000000000059200000000000011000","tipo":"Urbano","sup_m2":3807.9},"geometry":{"type":"Polygon","coordinates":[[[-58.581989,-34.334168],[-58.581946,-34.334317],[-58.582651,-34.334502],[-58.583996,-34.334842],[-58.584067,-34.334658],[-58.583102,-34.334431],[-58.582575,-34.334311],[-58.581989,-34.334168]]]}},{"type":"Feature","properties":{"partida":"357011988","cca":"357000100000000000000059200000000000012000","tipo":"Urbano","sup_m2":3602.6},"geometry":{"type":"Polygon","coordinates":[[[-58.581903,-34.334466],[-58.582985,-34.334758],[-58.583077,-34.334785],[-58.583931,-34.335012],[-58.583996,-34.334842],[-58.582651,-34.334502],[-58.581946,-34.334317],[-58.581903,-34.334466]]]}},{"type":"Feature","properties":{"partida":"357011989","cca":"357000100000000000000059200000000000013000","tipo":"Urbano","sup_m2":4460.6},"geometry":{"type":"Polygon","coordinates":[[[-58.583931,-34.335012],[-58.583077,-34.334785],[-58.582985,-34.334758],[-58.581903,-34.334466],[-58.58186,-34.334613],[-58.583802,-34.335255],[-58.583898,-34.335098],[-58.583931,-34.335012]]]}},{"type":"Feature","properties":{"partida":"357011990","cca":"35700010000000000000005920000000000001400B","tipo":"Urbano","sup_m2":13261.9},"geometry":{"type":"Polygon","coordinates":[[[-58.582382,-34.337151],[-58.582484,-34.337117],[-58.583169,-34.336734],[-58.583289,-34.336447],[-58.583242,-34.33642],[-58.582157,-34.335708],[-58.58155,-34.336028],[-58.582355,-34.337109],[-58.582382,-34.337151]]]}},{"type":"Feature","properties":{"partida":"357019950","cca":"35700010000000000000005920000000000001400C","tipo":"Urbano","sup_m2":11531.3},"geometry":{"type":"Polygon","coordinates":[[[-58.583582,-34.335865],[-58.583522,-34.335838],[-58.581567,-34.334893],[-58.58141,-34.335218],[-58.583242,-34.33642],[-58.583289,-34.336447],[-58.583325,-34.336361],[-58.583413,-34.33618],[-58.583582,-34.335865]]]}},{"type":"Feature","properties":{"partida":"357019951","cca":"35700010000000000000005920000000000001400D","tipo":"Urbano","sup_m2":11460.6},"geometry":{"type":"Polygon","coordinates":[[[-58.581723,-34.334567],[-58.581567,-34.334893],[-58.583582,-34.335865],[-58.583632,-34.335773],[-58.58375,-34.33544],[-58.583802,-34.335255],[-58.581723,-34.334567]]]}},{"type":"Feature","properties":{"partida":"357011991","cca":"357000100000000000000059300000000000001000","tipo":"Rural","sup_m2":40180.9},"geometry":{"type":"Polygon","coordinates":[[[-58.577096,-34.330439],[-58.579485,-34.333246],[-58.58024,-34.332603],[-58.5794,-34.331454],[-58.578122,-34.329845],[-58.577685,-34.330091],[-58.577096,-34.330439]]]}},{"type":"Feature","properties":{"partida":"357011997","cca":"357000100000000000000059400A00000000000000","tipo":"Rural","sup_m2":64706.1},"geometry":{"type":"Polygon","coordinates":[[[-58.598829,-34.336429],[-58.594699,-34.336272],[-58.59471,-34.336323],[-58.59465,-34.337292],[-58.599061,-34.337897],[-58.598556,-34.339818],[-58.599365,-34.339936],[-58.599349,-34.339484],[-58.599192,-34.337785],[-58.598826,-34.336542],[-58.598829,-34.336429]]]}},{"type":"Feature","properties":{"partida":"357011998","cca":"357000100000000000000059400B00000000001000","tipo":"Urbano","sup_m2":597.5},"geometry":{"type":"Polygon","coordinates":[[[-58.598871,-34.338125],[-58.598918,-34.337971],[-58.598539,-34.337919],[-58.598505,-34.338068],[-58.598871,-34.338125]]]}},{"type":"Feature","properties":{"partida":"357011999","cca":"357000100000000000000059400B00000000002000","tipo":"Urbano","sup_m2":831.0},"geometry":{"type":"Polygon","coordinates":[[[-58.598241,-34.338256],[-58.598453,-34.338289],[-58.598539,-34.337919],[-58.598324,-34.337889],[-58.598241,-34.338256]]]}},{"type":"Feature","properties":{"partida":"357012000","cca":"357000100000000000000059400B00000000003000","tipo":"Urbano","sup_m2":845.8},"geometry":{"type":"Polygon","coordinates":[[[-58.598241,-34.338256],[-58.598324,-34.337889],[-58.598104,-34.337859],[-58.598022,-34.338222],[-58.598241,-34.338256]]]}},{"type":"Feature","properties":{"partida":"357012001","cca":"357000100000000000000059400B00000000004000","tipo":"Urbano","sup_m2":831.0},"geometry":{"type":"Polygon","coordinates":[[[-58.598022,-34.338222],[-58.598104,-34.337859],[-58.597886,-34.337829],[-58.597805,-34.338188],[-58.598022,-34.338222]]]}},{"type":"Feature","properties":{"partida":"357012002","cca":"357000100000000000000059400B00000000005000","tipo":"Urbano","sup_m2":657.5},"geometry":{"type":"Polygon","coordinates":[[[-58.597617,-34.338159],[-58.597805,-34.338188],[-58.597886,-34.337829],[-58.597725,-34.337806],[-58.597617,-34.338159]]]}},{"type":"Feature","properties":{"partida":"357012003","cca":"357000100000000000000059400B00000000006000","tipo":"Urbano","sup_m2":902.8},"geometry":{"type":"Polygon","coordinates":[[[-58.597617,-34.338159],[-58.59749,-34.338576],[-58.59771,-34.338607],[-58.597805,-34.338188],[-58.597617,-34.338159]]]}},{"type":"Feature","properties":{"partida":"357012004","cca":"357000100000000000000059400B00000000007000","tipo":"Urbano","sup_m2":959.4},"geometry":{"type":"Polygon","coordinates":[[[-58.597805,-34.338188],[-58.59771,-34.338607],[-58.597929,-34.338637],[-58.598022,-34.338222],[-58.597805,-34.338188]]]}},{"type":"Feature","properties":{"partida":"357012005","cca":"357000100000000000000059400B00000000008000","tipo":"Urbano","sup_m2":954.2},"geometry":{"type":"Polygon","coordinates":[[[-58.598022,-34.338222],[-58.597929,-34.338637],[-58.598149,-34.338667],[-58.598241,-34.338256],[-58.598022,-34.338222]]]}},{"type":"Feature","properties":{"partida":"357012006","cca":"357000100000000000000059400B00000000009000","tipo":"Urbano","sup_m2":911.8},"geometry":{"type":"Polygon","coordinates":[[[-58.598359,-34.338696],[-58.598453,-34.338289],[-58.598241,-34.338256],[-58.598149,-34.338667],[-58.598359,-34.338696]]]}},{"type":"Feature","properties":{"partida":"357012007","cca":"357000100000000000000059400B00000000010000","tipo":"Urbano","sup_m2":610.6},"geometry":{"type":"Polygon","coordinates":[[[-58.598359,-34.338696],[-58.598682,-34.338741],[-58.598734,-34.338571],[-58.5984,-34.338517],[-58.598359,-34.338696]]]}},{"type":"Feature","properties":{"partida":"357012008","cca":"357000100000000000000059400B00000000011000","tipo":"Urbano","sup_m2":829.5},"geometry":{"type":"Polygon","coordinates":[[[-58.5984,-34.338517],[-58.598734,-34.338571],[-58.598804,-34.338343],[-58.598453,-34.338289],[-58.5984,-34.338517]]]}},{"type":"Feature","properties":{"partida":"357012009","cca":"357000100000000000000059400B00000000012000","tipo":"Urbano","sup_m2":838.4},"geometry":{"type":"Polygon","coordinates":[[[-58.598505,-34.338068],[-58.598453,-34.338289],[-58.598804,-34.338343],[-58.598871,-34.338125],[-58.598505,-34.338068]]]}},{"type":"Feature","properties":{"partida":"357012010","cca":"357000100000000000000059400C00000000001000","tipo":"Urbano","sup_m2":668.1},"geometry":{"type":"Polygon","coordinates":[[[-58.597296,-34.337732],[-58.59718,-34.33811],[-58.597347,-34.33813],[-58.597463,-34.337753],[-58.597296,-34.337732]]]}},{"type":"Feature","properties":{"partida":"357012011","cca":"357000100000000000000059400C00000000002000","tipo":"Urbano","sup_m2":668.9},"geometry":{"type":"Polygon","coordinates":[[[-58.597013,-34.338089],[-58.59718,-34.33811],[-58.597296,-34.337732],[-58.597129,-34.337711],[-58.597013,-34.338089]]]}},{"type":"Feature","properties":{"partida":"357012012","cca":"357000100000000000000059400C00000000003000","tipo":"Urbano","sup_m2":669.4},"geometry":{"type":"Polygon","coordinates":[[[-58.596846,-34.338068],[-58.597013,-34.338089],[-58.597129,-34.337711],[-58.596962,-34.33769],[-58.596846,-34.338068]]]}},{"type":"Feature","properties":{"partida":"357012013","cca":"357000100000000000000059400C00000000004000","tipo":"Urbano","sup_m2":669.9},"geometry":{"type":"Polygon","coordinates":[[[-58.596679,-34.338048],[-58.596846,-34.338068],[-58.596962,-34.33769],[-58.596795,-34.337669],[-58.596679,-34.338048]]]}},{"type":"Feature","properties":{"partida":"357012014","cca":"357000100000000000000059400C00000000005000","tipo":"Urbano","sup_m2":670.3},"geometry":{"type":"Polygon","coordinates":[[[-58.596513,-34.338027],[-58.596679,-34.338048],[-58.596795,-34.337669],[-58.596629,-34.337648],[-58.596513,-34.338027]]]}},{"type":"Feature","properties":{"partida":"357012015","cca":"357000100000000000000059400C00000000006000","tipo":"Urbano","sup_m2":670.8},"geometry":{"type":"Polygon","coordinates":[[[-58.596346,-34.338006],[-58.596513,-34.338027],[-58.596629,-34.337648],[-58.596462,-34.337627],[-58.596346,-34.338006]]]}},{"type":"Feature","properties":{"partida":"357012016","cca":"357000100000000000000059400C00000000007000","tipo":"Urbano","sup_m2":689.4},"geometry":{"type":"Polygon","coordinates":[[[-58.596462,-34.337627],[-58.59629,-34.337605],[-58.596174,-34.337985],[-58.596346,-34.338006],[-58.596462,-34.337627]]]}},{"type":"Feature","properties":{"partida":"357012023","cca":"357000100000000000000059400C00000000008000","tipo":"Urbano","sup_m2":708.6},"geometry":{"type":"Polygon","coordinates":[[[-58.596174,-34.337985],[-58.596055,-34.338375],[-58.596226,-34.338397],[-58.596346,-34.338006],[-58.596174,-34.337985]]]}},{"type":"Feature","properties":{"partida":"357012017","cca":"357000100000000000000059400C00000000009000","tipo":"Urbano","sup_m2":691.2},"geometry":{"type":"Polygon","coordinates":[[[-58.596226,-34.338397],[-58.596393,-34.338418],[-58.596513,-34.338027],[-58.596346,-34.338006],[-58.596226,-34.338397]]]}},{"type":"Feature","properties":{"partida":"357012018","cca":"357000100000000000000059400C00000000010000","tipo":"Urbano","sup_m2":691.6},"geometry":{"type":"Polygon","coordinates":[[[-58.596393,-34.338418],[-58.59656,-34.338439],[-58.596679,-34.338048],[-58.596513,-34.338027],[-58.596393,-34.338418]]]}},{"type":"Feature","properties":{"partida":"357012019","cca":"357000100000000000000059400C00000000011000","tipo":"Urbano","sup_m2":692.2},"geometry":{"type":"Polygon","coordinates":[[[-58.59656,-34.338439],[-58.596727,-34.33846],[-58.596846,-34.338068],[-58.596679,-34.338048],[-58.59656,-34.338439]]]}},{"type":"Feature","properties":{"partida":"357012020","cca":"357000100000000000000059400C00000000012000","tipo":"Urbano","sup_m2":693.1},"geometry":{"type":"Polygon","coordinates":[[[-58.596727,-34.33846],[-58.596894,-34.338481],[-58.597013,-34.338089],[-58.596846,-34.338068],[-58.596727,-34.33846]]]}},{"type":"Feature","properties":{"partida":"357012021","cca":"357000100000000000000059400C00000000013000","tipo":"Urbano","sup_m2":693.6},"geometry":{"type":"Polygon","coordinates":[[[-58.596894,-34.338481],[-58.59706,-34.338502],[-58.59718,-34.33811],[-58.597013,-34.338089],[-58.596894,-34.338481]]]}},{"type":"Feature","properties":{"partida":"357012022","cca":"357000100000000000000059400C00000000014000","tipo":"Urbano","sup_m2":693.9},"geometry":{"type":"Polygon","coordinates":[[[-58.597347,-34.33813],[-58.59718,-34.33811],[-58.59706,-34.338502],[-58.597227,-34.338523],[-58.597347,-34.33813]]]}},{"type":"Feature","properties":{"partida":"357012024","cca":"357000100000000000000059400D00000000001000","tipo":"Urbano","sup_m2":691.2},"geometry":{"type":"Polygon","coordinates":[[[-58.596024,-34.337982],[-58.596153,-34.337595],[-58.595987,-34.337573],[-58.595856,-34.337963],[-58.596024,-34.337982]]]}},{"type":"Feature","properties":{"partida":"357012025","cca":"357000100000000000000059400D00000000002000","tipo":"Urbano","sup_m2":697.1},"geometry":{"type":"Polygon","coordinates":[[[-58.595688,-34.337944],[-58.595856,-34.337963],[-58.595987,-34.337573],[-58.59582,-34.33755],[-58.595688,-34.337944]]]}},{"type":"Feature","properties":{"partida":"357012026","cca":"357000100000000000000059400D00000000003000","tipo":"Urbano","sup_m2":1948.5},"geometry":{"type":"Polygon","coordinates":[[[-58.594649,-34.33756],[-58.595766,-34.33771],[-58.59582,-34.33755],[-58.594641,-34.337393],[-58.594649,-34.33756]]]}},{"type":"Feature","properties":{"partida":"357012027","cca":"357000100000000000000059400D00000000004000","tipo":"Urbano","sup_m2":1886.3},"geometry":{"type":"Polygon","coordinates":[[[-58.595713,-34.337869],[-58.595766,-34.33771],[-58.594649,-34.33756],[-58.594621,-34.337653],[-58.594627,-34.337724],[-58.595713,-34.337869]]]}},{"type":"Feature","properties":{"partida":"357012028","cca":"357000100000000000000059400D00000000005000","tipo":"Urbano","sup_m2":1820.2},"geometry":{"type":"Polygon","coordinates":[[[-58.59566,-34.338028],[-58.595713,-34.337869],[-58.594627,-34.337724],[-58.594604,-34.337887],[-58.59566,-34.338028]]]}},{"type":"Feature","properties":{"partida":"357012029","cca":"357000100000000000000059400D00000000006000","tipo":"Urbano","sup_m2":1897.1},"geometry":{"type":"Polygon","coordinates":[[[-58.595607,-34.338187],[-58.59566,-34.338028],[-58.594604,-34.337887],[-58.594547,-34.338066],[-58.595607,-34.338187]]]}},{"type":"Feature","properties":{"partida":"357012030","cca":"357000100000000000000059400D00000000007000","tipo":"Urbano","sup_m2":1698.7},"geometry":{"type":"Polygon","coordinates":[[[-58.595558,-34.338334],[-58.595607,-34.338187],[-58.594547,-34.338066],[-58.594548,-34.338235],[-58.595558,-34.338334]]]}},{"type":"Feature","properties":{"partida":"357012031","cca":"357000100000000000000059400D00000000008000","tipo":"Urbano","sup_m2":692.2},"geometry":{"type":"Polygon","coordinates":[[[-58.595726,-34.338351],[-58.595856,-34.337963],[-58.595688,-34.337944],[-58.595558,-34.338334],[-58.595726,-34.338351]]]}},{"type":"Feature","properties":{"partida":"357012032","cca":"357000100000000000000059400D00000000009000","tipo":"Urbano","sup_m2":688.6},"geometry":{"type":"Polygon","coordinates":[[[-58.595726,-34.338351],[-58.595895,-34.338368],[-58.596024,-34.337982],[-58.595856,-34.337963],[-58.595726,-34.338351]]]}},{"type":"Feature","properties":{"partida":"357012033","cca":"357000100000000000000059400E00000000001000","tipo":"Urbano","sup_m2":737.3},"geometry":{"type":"Polygon","coordinates":[[[-58.59827,-34.33886],[-58.59823,-34.339064],[-58.598567,-34.339112],[-58.598619,-34.338908],[-58.59827,-34.33886]]]}},{"type":"Feature","properties":{"partida":"357012034","cca":"357000100000000000000059400E00000000002000","tipo":"Urbano","sup_m2":1115.6},"geometry":{"type":"Polygon","coordinates":[[[-58.598171,-34.339355],[-58.59827,-34.33886],[-58.598055,-34.33883],[-58.597957,-34.339326],[-58.598171,-34.339355]]]}},{"type":"Feature","properties":{"partida":"357012035","cca":"357000100000000000000059400E00000000003000","tipo":"Urbano","sup_m2":1154.8},"geometry":{"type":"Polygon","coordinates":[[[-58.597957,-34.339326],[-58.598055,-34.33883],[-58.597835,-34.3388],[-58.597733,-34.339295],[-58.597957,-34.339326]]]}},{"type":"Feature","properties":{"partida":"357012036","cca":"357000100000000000000059400E00000000004000","tipo":"Urbano","sup_m2":1019.3},"geometry":{"type":"Polygon","coordinates":[[[-58.597529,-34.339218],[-58.597742,-34.339251],[-58.597835,-34.3388],[-58.597617,-34.33877],[-58.597529,-34.339218]]]}},{"type":"Feature","properties":{"partida":"357012037","cca":"357000100000000000000059400E00000000005000","tipo":"Urbano","sup_m2":1005.1},"geometry":{"type":"Polygon","coordinates":[[[-58.597292,-34.339189],[-58.597529,-34.339218],[-58.597617,-34.33877],[-58.597426,-34.338743],[-58.597292,-34.339189]]]}},{"type":"Feature","properties":{"partida":"357012038","cca":"357000100000000000000059400E00000000006000","tipo":"Urbano","sup_m2":1170.9},"geometry":{"type":"Polygon","coordinates":[[[-58.597529,-34.339218],[-58.597292,-34.339189],[-58.597164,-34.339615],[-58.597442,-34.339655],[-58.597529,-34.339218]]]}},{"type":"Feature","properties":{"partida":"357012039","cca":"357000100000000000000059400E00000000007000","tipo":"Urbano","sup_m2":980.9},"geometry":{"type":"Polygon","coordinates":[[[-58.597656,-34.339686],[-58.597742,-34.339251],[-58.597529,-34.339218],[-58.597442,-34.339655],[-58.597656,-34.339686]]]}},{"type":"Feature","properties":{"partida":"357012040","cca":"357000100000000000000059400E00000000008000","tipo":"Urbano","sup_m2":919.6},"geometry":{"type":"Polygon","coordinates":[[[-58.597957,-34.339326],[-58.597733,-34.339295],[-58.597656,-34.339686],[-58.597879,-34.339719],[-58.597957,-34.339326]]]}},{"type":"Feature","properties":{"partida":"357012041","cca":"357000100000000000000059400E00000000009000","tipo":"Urbano","sup_m2":884.2},"geometry":{"type":"Polygon","coordinates":[[[-58.598092,-34.33975],[-58.598171,-34.339355],[-58.597957,-34.339326],[-58.597879,-34.339719],[-58.598092,-34.33975]]]}},{"type":"Feature","properties":{"partida":"357012042","cca":"357000100000000000000059400E00000000010000","tipo":"Urbano","sup_m2":408.3},"geometry":{"type":"Polygon","coordinates":[[[-58.598117,-34.339621],[-58.598092,-34.33975],[-58.598393,-34.339794],[-58.598425,-34.33967],[-58.598117,-34.339621]]]}},{"type":"Feature","properties":{"partida":"357012043","cca":"357000100000000000000059400E00000000011000","tipo":"Urbano","sup_m2":470.5},"geometry":{"type":"Polygon","coordinates":[[[-58.598117,-34.339621],[-58.598425,-34.33967],[-58.598462,-34.339524],[-58.598146,-34.339481],[-58.598117,-34.339621]]]}},{"type":"Feature","properties":{"partida":"357012044","cca":"357000100000000000000059400E00000000012000","tipo":"Urbano","sup_m2":706.3},"geometry":{"type":"Polygon","coordinates":[[[-58.598146,-34.339481],[-58.598462,-34.339524],[-58.598515,-34.339317],[-58.598188,-34.33927],[-58.598146,-34.339481]]]}},{"type":"Feature","properties":{"partida":"357012045","cca":"357000100000000000000059400E00000000013000","tipo":"Urbano","sup_m2":719.8},"geometry":{"type":"Polygon","coordinates":[[[-58.59823,-34.339064],[-58.598188,-34.33927],[-58.598515,-34.339317],[-58.598567,-34.339112],[-58.59823,-34.339064]]]}},{"type":"Feature","properties":{"partida":"357012046","cca":"357000100000000000000059400F00000000001000","tipo":"Urbano","sup_m2":782.8},"geometry":{"type":"Polygon","coordinates":[[[-58.597017,-34.338686],[-58.596884,-34.339128],[-58.59705,-34.339151],[-58.597184,-34.338707],[-58.597017,-34.338686]]]}},{"type":"Feature","properties":{"partida":"357012047","cca":"357000100000000000000059400F00000000002000","tipo":"Urbano","sup_m2":780.4},"geometry":{"type":"Polygon","coordinates":[[[-58.597017,-34.338686],[-58.59685,-34.338665],[-58.596718,-34.339105],[-58.596884,-34.339128],[-58.597017,-34.338686]]]}},{"type":"Feature","properties":{"partida":"357012048","cca":"357000100000000000000059400F00000000003000","tipo":"Urbano","sup_m2":777.5},"geometry":{"type":"Polygon","coordinates":[[[-58.596718,-34.339105],[-58.59685,-34.338665],[-58.596683,-34.338644],[-58.596551,-34.339083],[-58.596718,-34.339105]]]}},{"type":"Feature","properties":{"partida":"357012049","cca":"357000100000000000000059400F00000000004000","tipo":"Urbano","sup_m2":666.2},"geometry":{"type":"Polygon","coordinates":[[[-58.596516,-34.338623],[-58.596404,-34.338998],[-58.59657,-34.339022],[-58.596683,-34.338644],[-58.596516,-34.338623]]]}},{"type":"Feature","properties":{"partida":"357012050","cca":"357000100000000000000059400F00000000005000","tipo":"Urbano","sup_m2":660.6},"geometry":{"type":"Polygon","coordinates":[[[-58.596238,-34.338974],[-58.596404,-34.338998],[-58.596516,-34.338623],[-58.59635,-34.338602],[-58.596238,-34.338974]]]}},{"type":"Feature","properties":{"partida":"357012051","cca":"357000100000000000000059400F00000000006000","tipo":"Urbano","sup_m2":654.9},"geometry":{"type":"Polygon","coordinates":[[[-58.59635,-34.338602],[-58.596183,-34.338581],[-58.596072,-34.33895],[-58.596238,-34.338974],[-58.59635,-34.338602]]]}},{"type":"Feature","properties":{"partida":"357012052","cca":"357000100000000000000059400F00000000007000","tipo":"Urbano","sup_m2":681.0},"geometry":{"type":"Polygon","coordinates":[[[-58.595895,-34.338924],[-58.596072,-34.33895],[-58.596183,-34.338581],[-58.596011,-34.338559],[-58.595895,-34.338924]]]}},{"type":"Feature","properties":{"partida":"357012053","cca":"357000100000000000000059400F00000000008000","tipo":"Urbano","sup_m2":937.8},"geometry":{"type":"Polygon","coordinates":[[[-58.595927,-34.339434],[-58.596072,-34.33895],[-58.595895,-34.338924],[-58.595741,-34.339407],[-58.595927,-34.339434]]]}},{"type":"Feature","properties":{"partida":"357012054","cca":"357000100000000000000059400F00000000009000","tipo":"Urbano","sup_m2":855.9},"geometry":{"type":"Polygon","coordinates":[[[-58.595927,-34.339434],[-58.596093,-34.339458],[-58.596238,-34.338974],[-58.596072,-34.33895],[-58.595927,-34.339434]]]}},{"type":"Feature","properties":{"partida":"357012055","cca":"357000100000000000000059400F00000000010000","tipo":"Urbano","sup_m2":855.7},"geometry":{"type":"Polygon","coordinates":[[[-58.596093,-34.339458],[-58.596258,-34.339482],[-58.596404,-34.338998],[-58.596238,-34.338974],[-58.596093,-34.339458]]]}},{"type":"Feature","properties":{"partida":"357012056","cca":"357000100000000000000059400F00000000011000","tipo":"Urbano","sup_m2":855.2},"geometry":{"type":"Polygon","coordinates":[[[-58.59657,-34.339022],[-58.596404,-34.338998],[-58.596258,-34.339482],[-58.596424,-34.339506],[-58.59657,-34.339022]]]}},{"type":"Feature","properties":{"partida":"357012057","cca":"357000100000000000000059400F00000000012000","tipo":"Urbano","sup_m2":750.2},"geometry":{"type":"Polygon","coordinates":[[[-58.596424,-34.339506],[-58.59659,-34.339531],[-58.596718,-34.339105],[-58.596551,-34.339083],[-58.596424,-34.339506]]]}},{"type":"Feature","properties":{"partida":"357012058","cca":"357000100000000000000059400F00000000013000","tipo":"Urbano","sup_m2":753.3},"geometry":{"type":"Polygon","coordinates":[[[-58.59659,-34.339531],[-58.596756,-34.339555],[-58.596884,-34.339128],[-58.596718,-34.339105],[-58.59659,-34.339531]]]}},{"type":"Feature","properties":{"partida":"357012059","cca":"357000100000000000000059400F00000000014000","tipo":"Urbano","sup_m2":756.1},"geometry":{"type":"Polygon","coordinates":[[[-58.596756,-34.339555],[-58.596922,-34.339579],[-58.59705,-34.339151],[-58.596884,-34.339128],[-58.596756,-34.339555]]]}},{"type":"Feature","properties":{"partida":"357012060","cca":"357000100000000000000059400G00000000001000","tipo":"Urbano","sup_m2":698.9},"geometry":{"type":"Polygon","coordinates":[[[-58.595684,-34.338889],[-58.595789,-34.338523],[-58.595602,-34.338493],[-58.595514,-34.338861],[-58.595684,-34.338889]]]}},{"type":"Feature","properties":{"partida":"357012061","cca":"357000100000000000000059400G00000000002000","tipo":"Urbano","sup_m2":852.4},"geometry":{"type":"Polygon","coordinates":[[[-58.595514,-34.338861],[-58.595602,-34.338493],[-58.595383,-34.338457],[-58.595296,-34.338824],[-58.595514,-34.338861]]]}},{"type":"Feature","properties":{"partida":"357012062","cca":"357000100000000000000059400G00000000003000","tipo":"Urbano","sup_m2":1578.1},"geometry":{"type":"Polygon","coordinates":[[[-58.594539,-34.338513],[-58.594602,-34.338522],[-58.595338,-34.338646],[-58.595383,-34.338457],[-58.594584,-34.338328],[-58.594539,-34.338513]]]}},{"type":"Feature","properties":{"partida":"357012063","cca":"357000100000000000000059400G00000000004000","tipo":"Urbano","sup_m2":1547.0},"geometry":{"type":"Polygon","coordinates":[[[-58.595338,-34.338646],[-58.594602,-34.338522],[-58.594539,-34.338513],[-58.594475,-34.338693],[-58.594596,-34.33871],[-58.595296,-34.338824],[-58.595338,-34.338646]]]}},{"type":"Feature","properties":{"partida":"357012064","cca":"357000100000000000000059400G00000000005000","tipo":"Urbano","sup_m2":1620.2},"geometry":{"type":"Polygon","coordinates":[[[-58.595296,-34.338824],[-58.594596,-34.33871],[-58.594475,-34.338693],[-58.594378,-34.33886],[-58.594518,-34.338886],[-58.594918,-34.338948],[-58.595256,-34.339007],[-58.595296,-34.338824]]]}},{"type":"Feature","properties":{"partida":"357012065","cca":"357000100000000000000059400G00000000006000","tipo":"Urbano","sup_m2":2051.4},"geometry":{"type":"Polygon","coordinates":[[[-58.594918,-34.338948],[-58.594518,-34.338886],[-58.594378,-34.33886],[-58.594191,-34.339171],[-58.594843,-34.339272],[-58.594918,-34.338948]]]}},{"type":"Feature","properties":{"partida":"357012066","cca":"357000100000000000000059400G00000000007000","tipo":"Urbano","sup_m2":1147.3},"geometry":{"type":"Polygon","coordinates":[[[-58.595256,-34.339007],[-58.594918,-34.338948],[-58.594843,-34.339272],[-58.595181,-34.339323],[-58.595256,-34.339007]]]}},{"type":"Feature","properties":{"partida":"357012067","cca":"357000100000000000000059400G00000000008000","tipo":"Urbano","sup_m2":1137.6},"geometry":{"type":"Polygon","coordinates":[[[-58.595296,-34.338824],[-58.595181,-34.339323],[-58.595397,-34.339356],[-58.595514,-34.338861],[-58.595296,-34.338824]]]}},{"type":"Feature","properties":{"partida":"357012068","cca":"357000100000000000000059400G00000000009000","tipo":"Urbano","sup_m2":832.8},"geometry":{"type":"Polygon","coordinates":[[[-58.595514,-34.338861],[-58.595397,-34.339356],[-58.595545,-34.339378],[-58.595684,-34.338889],[-58.595514,-34.338861]]]}},{"type":"Feature","properties":{"partida":"357012077","cca":"35700010000000000000005960000000000000100A","tipo":"Rural","sup_m2":49839.8},"geometry":{"type":"Polygon","coordinates":[[[-58.595741,-34.339407],[-58.594843,-34.339272],[-58.594191,-34.339171],[-58.59405,-34.339315],[-58.593519,-34.339941],[-58.599287,-34.34083],[-58.599385,-34.340487],[-58.599389,-34.340405],[-58.599374,-34.340169],[-58.599365,-34.339936],[-58.595741,-34.339407]]]}},{"type":"Feature","properties":{"partida":"357019165","cca":"35700010000000000000005960000000000000100B","tipo":"Rural","sup_m2":42779.5},"geometry":{"type":"Polygon","coordinates":[[[-58.599287,-34.34083],[-58.593519,-34.339941],[-58.593498,-34.339961],[-58.593459,-34.340016],[-58.593387,-34.340142],[-58.593371,-34.340195],[-58.593297,-34.340257],[-58.593273,-34.340315],[-58.593228,-34.340338],[-58.593213,-34.340404],[-58.593175,-34.340508],[-58.59311,-34.340632],[-58.599095,-34.341472],[-58.599147,-34.341318],[-58.599287,-34.34083]]]}},{"type":"Feature","properties":{"partida":"357019166","cca":"35700010000000000000005960000000000000100C","tipo":"Rural","sup_m2":55664.7},"geometry":{"type":"Polygon","coordinates":[[[-58.599095,-34.341472],[-58.59311,-34.340632],[-58.592979,-34.340796],[-58.592924,-34.340908],[-58.5929,-34.341045],[-58.59291,-34.341387],[-58.592937,-34.341672],[-58.597493,-34.342106],[-58.598905,-34.342029],[-58.599095,-34.341472]]]}},{"type":"Feature","properties":{"partida":"357012078","cca":"35700010000000000000005960000000000000200A","tipo":"Rural","sup_m2":62680.3},"geometry":{"type":"Polygon","coordinates":[[[-58.598905,-34.342029],[-58.597493,-34.342106],[-58.592937,-34.341672],[-58.592854,-34.341839],[-58.592841,-34.341945],[-58.59287,-34.342026],[-58.592861,-34.34212],[-58.592845,-34.342182],[-58.59282,-34.342359],[-58.59282,-34.342428],[-58.592815,-34.342503],[-58.5928,-34.34254],[-58.598713,-34.343373],[-58.598698,-34.342901],[-58.598853,-34.342183],[-58.598905,-34.342029]]]}}]}