{"type":"FeatureCollection","features":[{"type":"Feature","properties":{"partida":"357011945","cca":"35700010000000000000005910000000000000500B","tipo":"Rural","sup_m2":81648.7},"geometry":{"type":"Polygon","coordinates":[[[-58.592212,-34.346219],[-58.59234,-34.345814],[-58.592395,-34.34538],[-58.592196,-34.345097],[-58.591846,-34.344836],[-58.59173,-34.34457],[-58.591911,-34.344118],[-58.592072,-34.343832],[-58.592454,-34.343258],[-58.592617,-34.342957],[-58.590425,-34.342275],[-58.589129,-34.345125],[-58.592212,-34.346219]]]}},{"type":"Feature","properties":{"partida":"357011943","cca":"35700010000000000000005910000000000000500C","tipo":"Urbano","sup_m2":82538.6},"geometry":{"type":"Polygon","coordinates":[[[-58.591029,-34.348105],[-58.591416,-34.347495],[-58.592035,-34.34668],[-58.592212,-34.346219],[-58.589129,-34.345125],[-58.587977,-34.347659],[-58.588778,-34.347994],[-58.591029,-34.348105]]]}},{"type":"Feature","properties":{"partida":"357020185","cca":"357000100000000000000059600000000000003000","tipo":"Rural","sup_m2":65246.9},"geometry":{"type":"Polygon","coordinates":[[[-58.598713,-34.343373],[-58.5928,-34.34254],[-58.592777,-34.342597],[-58.592777,-34.342662],[-58.592701,-34.343148],[-58.59252,-34.3434],[-58.598839,-34.3446],[-58.598733,-34.344029],[-58.598713,-34.343373]]]}},{"type":"Feature","properties":{"partida":"357020186","cca":"357000100000000000000059600000000000004000","tipo":"Rural","sup_m2":56856.6},"geometry":{"type":"Polygon","coordinates":[[[-58.59252,-34.3434],[-58.592201,-34.343844],[-58.594687,-34.344364],[-58.594553,-34.3447],[-58.599274,-34.34578],[-58.598975,-34.345329],[-58.598839,-34.3446],[-58.59252,-34.3434]]]}},{"type":"Feature","properties":{"partida":"357020187","cca":"357000100000000000000059600000000000005000","tipo":"Rural","sup_m2":8771.3},"geometry":{"type":"Polygon","coordinates":[[[-58.594687,-34.344364],[-58.592201,-34.343844],[-58.592004,-34.344117],[-58.594553,-34.3447],[-58.594687,-34.344364]]]}},{"type":"Feature","properties":{"partida":"357012288","cca":"357000100000000000000060000000000000001000","tipo":"Rural","sup_m2":96311.1},"geometry":{"type":"Polygon","coordinates":[[[-58.599264,-34.346996],[-58.599293,-34.346941],[-58.599389,-34.346595],[-58.59941,-34.346444],[-58.599389,-34.34634],[-58.599376,-34.346192],[-58.59935,-34.346042],[-58.599349,-34.345893],[-58.599274,-34.34578],[-58.592004,-34.344117],[-58.591902,-34.344263],[-58.591871,-34.344337],[-58.591831,-34.344546],[-58.591818,-34.344656],[-58.591835,-34.344726],[-58.5919,-34.344808],[-58.59238,-34.345185],[-58.592479,-34.345464],[-58.592469,-34.345596],[-58.599264,-34.346996]]]}},{"type":"Feature","properties":{"partida":"357012289","cca":"35700010000000000000006000000000000000200A","tipo":"Urbano","sup_m2":2111.5},"geometry":{"type":"Polygon","coordinates":[[[-58.593767,-34.345984],[-58.593791,-34.345868],[-58.592469,-34.345596],[-58.592435,-34.345781],[-58.593767,-34.345984]]]}},{"type":"Feature","properties":{"partida":"357012290","cca":"35700010000000000000006000000000000000200B","tipo":"Urbano","sup_m2":2569.0},"geometry":{"type":"Polygon","coordinates":[[[-58.593767,-34.345984],[-58.592435,-34.345781],[-58.592386,-34.345967],[-58.593729,-34.346161],[-58.593767,-34.345984]]]}},{"type":"Feature","properties":{"partida":"357012291","cca":"35700010000000000000006000000000000000200C","tipo":"Urbano","sup_m2":2089.2},"geometry":{"type":"Polygon","coordinates":[[[-58.593696,-34.346318],[-58.593729,-34.346161],[-58.592386,-34.345967],[-58.592347,-34.346103],[-58.593696,-34.346318]]]}},{"type":"Feature","properties":{"partida":"357012292","cca":"35700010000000000000006000000000000000200D","tipo":"Urbano","sup_m2":2207.5},"geometry":{"type":"Polygon","coordinates":[[[-58.59231,-34.346258],[-58.593663,-34.346473],[-58.593696,-34.346318],[-58.592347,-34.346103],[-58.592346,-34.346152],[-58.59231,-34.346258]]]}},{"type":"Feature","properties":{"partida":"357012293","cca":"35700010000000000000006000000000000000200E","tipo":"Urbano","sup_m2":100877.6},"geometry":{"type":"Polygon","coordinates":[[[-58.597751,-34.348641],[-58.598527,-34.346844],[-58.593791,-34.345868],[-58.593663,-34.346473],[-58.59231,-34.346258],[-58.592291,-34.346309],[-58.593608,-34.346843],[-58.592853,-34.347847],[-58.597751,-34.348641]]]}},{"type":"Feature","properties":{"partida":"357012294","cca":"35700010000000000000006000000000000000200F","tipo":"Urbano","sup_m2":2299.7},"geometry":{"type":"Polygon","coordinates":[[[-58.593502,-34.346984],[-58.593608,-34.346843],[-58.592291,-34.346309],[-58.592239,-34.346452],[-58.593502,-34.346984]]]}},{"type":"Feature","properties":{"partida":"357012295","cca":"35700010000000000000006000000000000000200G","tipo":"Urbano","sup_m2":2109.5},"geometry":{"type":"Polygon","coordinates":[[[-58.592161,-34.346613],[-58.593423,-34.347088],[-58.593502,-34.346984],[-58.592239,-34.346452],[-58.592161,-34.346613]]]}},{"type":"Feature","properties":{"partida":"357012296","cca":"35700010000000000000006000000000000000200H","tipo":"Urbano","sup_m2":2358.5},"geometry":{"type":"Polygon","coordinates":[[[-58.593423,-34.347088],[-58.592161,-34.346613],[-58.592071,-34.346763],[-58.593316,-34.347231],[-58.593423,-34.347088]]]}},{"type":"Feature","properties":{"partida":"357012297","cca":"35700010000000000000006000000000000000200J","tipo":"Urbano","sup_m2":2544.3},"geometry":{"type":"Polygon","coordinates":[[[-58.592071,-34.346763],[-58.592046,-34.346817],[-58.591965,-34.346926],[-58.593198,-34.347388],[-58.593316,-34.347231],[-58.592071,-34.346763]]]}},{"type":"Feature","properties":{"partida":"357012298","cca":"35700010000000000000006000000000000000200K","tipo":"Urbano","sup_m2":2371.6},"geometry":{"type":"Polygon","coordinates":[[[-58.593198,-34.347388],[-58.591965,-34.346926],[-58.591852,-34.347075],[-58.593089,-34.347533],[-58.593198,-34.347388]]]}},{"type":"Feature","properties":{"partida":"357012299","cca":"35700010000000000000006000000000000000200M","tipo":"Urbano","sup_m2":2184.1},"geometry":{"type":"Polygon","coordinates":[[[-58.59298,-34.347678],[-58.593089,-34.347533],[-58.591852,-34.347075],[-58.591773,-34.347209],[-58.59298,-34.347678]]]}},{"type":"Feature","properties":{"partida":"357012300","cca":"35700010000000000000006000000000000000200N","tipo":"Urbano","sup_m2":2374.7},"geometry":{"type":"Polygon","coordinates":[[[-58.592873,-34.34782],[-58.59298,-34.347678],[-58.591773,-34.347209],[-58.591656,-34.347365],[-58.592873,-34.34782]]]}},{"type":"Feature","properties":{"partida":"357012301","cca":"35700010000000000000006000000000000000200P","tipo":"Urbano","sup_m2":2176.2},"geometry":{"type":"Polygon","coordinates":[[[-58.592853,-34.347847],[-58.592873,-34.34782],[-58.591656,-34.347365],[-58.591454,-34.347605],[-58.592853,-34.347847]]]}},{"type":"Feature","properties":{"partida":"357012302","cca":"35700010000000000000006000000000000000300A","tipo":"Urbano","sup_m2":1346.1},"geometry":{"type":"Polygon","coordinates":[[[-58.599264,-34.346996],[-58.598527,-34.346844],[-58.598453,-34.347015],[-58.59921,-34.347153],[-58.599228,-34.347078],[-58.599264,-34.346996]]]}},{"type":"Feature","properties":{"partida":"357012303","cca":"35700010000000000000006000000000000000300B","tipo":"Urbano","sup_m2":1365.0},"geometry":{"type":"Polygon","coordinates":[[[-58.599174,-34.347323],[-58.599192,-34.347225],[-58.59921,-34.347153],[-58.598453,-34.347015],[-58.598385,-34.347172],[-58.599174,-34.347323]]]}},{"type":"Feature","properties":{"partida":"357012304","cca":"35700010000000000000006000000000000000300C","tipo":"Urbano","sup_m2":1433.0},"geometry":{"type":"Polygon","coordinates":[[[-58.599126,-34.34749],[-58.599167,-34.347359],[-58.599174,-34.347323],[-58.598385,-34.347172],[-58.598315,-34.347333],[-58.599126,-34.34749]]]}},{"type":"Feature","properties":{"partida":"357012305","cca":"35700010000000000000006000000000000000300D","tipo":"Urbano","sup_m2":1535.8},"geometry":{"type":"Polygon","coordinates":[[[-58.599126,-34.34749],[-58.598315,-34.347333],[-58.59824,-34.347508],[-58.599053,-34.347656],[-58.599105,-34.347558],[-58.599126,-34.34749]]]}},{"type":"Feature","properties":{"partida":"357012306","cca":"35700010000000000000006000000000000000300E","tipo":"Urbano","sup_m2":1424.5},"geometry":{"type":"Polygon","coordinates":[[[-58.598986,-34.347818],[-58.599043,-34.347675],[-58.599053,-34.347656],[-58.59824,-34.347508],[-58.598172,-34.347664],[-58.598986,-34.347818]]]}},{"type":"Feature","properties":{"partida":"357012307","cca":"35700010000000000000006000000000000000300F","tipo":"Urbano","sup_m2":1472.9},"geometry":{"type":"Polygon","coordinates":[[[-58.5981,-34.347832],[-58.59889,-34.347978],[-58.598986,-34.347818],[-58.598172,-34.347664],[-58.5981,-34.347832]]]}},{"type":"Feature","properties":{"partida":"357012308","cca":"35700010000000000000006000000000000000300G","tipo":"Urbano","sup_m2":1409.3},"geometry":{"type":"Polygon","coordinates":[[[-58.598793,-34.348135],[-58.59889,-34.347978],[-58.5981,-34.347832],[-58.598028,-34.347999],[-58.598793,-34.348135]]]}},{"type":"Feature","properties":{"partida":"357012309","cca":"35700010000000000000006000000000000000300H","tipo":"Urbano","sup_m2":1274.0},"geometry":{"type":"Polygon","coordinates":[[[-58.598722,-34.348289],[-58.598777,-34.34816],[-58.598793,-34.348135],[-58.598028,-34.347999],[-58.597963,-34.348149],[-58.598722,-34.348289]]]}},{"type":"Feature","properties":{"partida":"357012310","cca":"35700010000000000000006000000000000000300J","tipo":"Urbano","sup_m2":1266.0},"geometry":{"type":"Polygon","coordinates":[[[-58.598658,-34.348436],[-58.598722,-34.348289],[-58.597963,-34.348149],[-58.597896,-34.348305],[-58.598658,-34.348436]]]}},{"type":"Feature","properties":{"partida":"357012311","cca":"35700010000000000000006000000000000000300K","tipo":"Urbano","sup_m2":1401.6},"geometry":{"type":"Polygon","coordinates":[[[-58.598613,-34.348608],[-58.598652,-34.348449],[-58.598658,-34.348436],[-58.597896,-34.348305],[-58.597826,-34.348467],[-58.598613,-34.348608]]]}},{"type":"Feature","properties":{"partida":"357012312","cca":"35700010000000000000006000000000000000300M","tipo":"Urbano","sup_m2":1463.8},"geometry":{"type":"Polygon","coordinates":[[[-58.598549,-34.34877],[-58.59857,-34.348737],[-58.598613,-34.348608],[-58.597826,-34.348467],[-58.597751,-34.348641],[-58.598549,-34.34877]]]}},{"type":"Feature","properties":{"partida":"357012313","cca":"35700010000000000000006000000000000000300N","tipo":"Urbano","sup_m2":6493.2},"geometry":{"type":"Polygon","coordinates":[[[-58.599638,-34.347691],[-58.599738,-34.34703],[-58.59959,-34.346406],[-58.599312,-34.347252],[-58.599249,-34.347429],[-58.599198,-34.3476],[-58.599161,-34.347669],[-58.599099,-34.347819],[-58.599014,-34.347967],[-58.598987,-34.348047],[-58.599687,-34.348172],[-58.599638,-34.347691]]]}},{"type":"Feature","properties":{"partida":"357012314","cca":"35700010000000000000006000000000000000300P","tipo":"Urbano","sup_m2":2011.5},"geometry":{"type":"Polygon","coordinates":[[[-58.599687,-34.348172],[-58.598987,-34.348047],[-58.598937,-34.348131],[-58.598873,-34.348279],[-58.599735,-34.348434],[-58.599704,-34.348341],[-58.599687,-34.348172]]]}},{"type":"Feature","properties":{"partida":"357012315","cca":"35700010000000000000006000000000000000300R","tipo":"Urbano","sup_m2":1964.0},"geometry":{"type":"Polygon","coordinates":[[[-58.598792,-34.348469],[-58.599809,-34.348652],[-58.599735,-34.348434],[-58.598873,-34.348279],[-58.598806,-34.348427],[-58.598792,-34.348469]]]}},{"type":"Feature","properties":{"partida":"357012316","cca":"35700010000000000000006000000000000000300S","tipo":"Urbano","sup_m2":1821.7},"geometry":{"type":"Polygon","coordinates":[[[-58.598792,-34.348469],[-58.59878,-34.348508],[-58.598714,-34.348625],[-58.599866,-34.348822],[-58.599809,-34.348652],[-58.598792,-34.348469]]]}},{"type":"Feature","properties":{"partida":"357012317","cca":"35700010000000000000006000000000000000300T","tipo":"Urbano","sup_m2":2070.4},"geometry":{"type":"Polygon","coordinates":[[[-58.598646,-34.348786],[-58.598687,-34.348793],[-58.599924,-34.348993],[-58.599866,-34.348822],[-58.598714,-34.348625],[-58.598703,-34.348645],[-58.598646,-34.348786]]]}},{"type":"Feature","properties":{"partida":"357012318","cca":"357000100000000000000060000000000000004000","tipo":"Rural","sup_m2":94103.0},"geometry":{"type":"Polygon","coordinates":[[[-58.599924,-34.348993],[-58.592853,-34.347847],[-58.591454,-34.347605],[-58.591351,-34.347816],[-58.59113,-34.348137],[-58.591095,-34.348253],[-58.591094,-34.348353],[-58.591035,-34.348595],[-58.600269,-34.350075],[-58.600193,-34.34979],[-58.599924,-34.348993]]]}},{"type":"Feature","properties":{"partida":"357012319","cca":"357000100000000000000060000000000000005000","tipo":"Rural","sup_m2":102636.7},"geometry":{"type":"Polygon","coordinates":[[[-58.600269,-34.350075],[-58.591035,-34.348595],[-58.591025,-34.348746],[-58.591002,-34.3489],[-58.591012,-34.349014],[-58.591113,-34.349449],[-58.591131,-34.349658],[-58.600501,-34.351216],[-58.600396,-34.350543],[-58.600269,-34.350075]]]}},{"type":"Feature","properties":{"partida":"357012320","cca":"357000100000000000000060000000000000006000","tipo":"Rural","sup_m2":93623.4},"geometry":{"type":"Polygon","coordinates":[[[-58.600501,-34.351216],[-58.591131,-34.349658],[-58.591448,-34.350342],[-58.591585,-34.350647],[-58.600657,-34.352324],[-58.600556,-34.351569],[-58.600501,-34.351216]]]}},{"type":"Feature","properties":{"partida":"357012321","cca":"357000100000000000000060000000000000007000","tipo":"Rural","sup_m2":157324.3},"geometry":{"type":"Polygon","coordinates":[[[-58.600299,-34.353221],[-58.60059,-34.352925],[-58.600675,-34.352459],[-58.600657,-34.352324],[-58.591585,-34.350647],[-58.592089,-34.35134],[-58.592355,-34.352233],[-58.592356,-34.35225],[-58.59234,-34.352285],[-58.592296,-34.352342],[-58.5923,-34.352353],[-58.592334,-34.352347],[-58.592312,-34.35237],[-58.592319,-34.352392],[-58.592333,-34.352412],[-58.592368,-34.35241],[-58.592378,-34.352446],[-58.592384,-34.352494],[-58.592359,-34.352489],[-58.592312,-34.352469],[-58.592316,-34.352505],[-58.592301,-34.352563],[-58.592232,-34.352926],[-58.594449,-34.353474],[-58.595184,-34.353658],[-58.596424,-34.353868],[-58.597336,-34.35329],[-58.597876,-34.352882],[-58.600628,-34.353625],[-58.600587,-34.35353],[-58.600299,-34.353221]]]}},{"type":"Feature","properties":{"partida":"357018576","cca":"357000100000000000000060100000000000001000","tipo":"Rural","sup_m2":41597.3},"geometry":{"type":"Polygon","coordinates":[[[-58.591029,-34.348105],[-58.588778,-34.347994],[-58.587977,-34.347659],[-58.587924,-34.347774],[-58.586713,-34.347216],[-58.587028,-34.348765],[-58.590874,-34.348986],[-58.590883,-34.348655],[-58.59091,-34.348451],[-58.591029,-34.348105]]]}},{"type":"Feature","properties":{"partida":"357012322","cca":"35700010000000000000006010000000000000200A","tipo":"Rural","sup_m2":9960.0},"geometry":{"type":"Polygon","coordinates":[[[-58.590874,-34.348986],[-58.590825,-34.348984],[-58.588115,-34.348827],[-58.588153,-34.349181],[-58.590946,-34.349342],[-58.590874,-34.348986]]]}},{"type":"Feature","properties":{"partida":"357020439","cca":"35700010000000000000006010000000000000200B","tipo":"Rural","sup_m2":46157.2},"geometry":{"type":"Polygon","coordinates":[[[-58.590946,-34.349342],[-58.588153,-34.349181],[-58.588115,-34.348827],[-58.587028,-34.348765],[-58.5874,-34.350595],[-58.591088,-34.350049],[-58.590946,-34.349342]]]}},{"type":"Feature","properties":{"partida":"357012323","cca":"357000100000000000000060200000000000000000","tipo":"Rural","sup_m2":143499.8},"geometry":{"type":"Polygon","coordinates":[[[-58.583654,-34.350015],[-58.585895,-34.351049],[-58.587372,-34.350599],[-58.5874,-34.350595],[-58.586713,-34.347216],[-58.585381,-34.346602],[-58.585686,-34.346205],[-58.585689,-34.345669],[-58.582815,-34.34839],[-58.583654,-34.350015]]]}},{"type":"Feature","properties":{"partida":"357012324","cca":"357000100000000000000060300000000000000000","tipo":"Rural","sup_m2":85359.4},"geometry":{"type":"Polygon","coordinates":[[[-58.582815,-34.34839],[-58.585689,-34.345669],[-58.585415,-34.345372],[-58.585183,-34.344926],[-58.585091,-34.344094],[-58.584484,-34.344252],[-58.583134,-34.344076],[-58.582981,-34.344074],[-58.582345,-34.34748],[-58.582815,-34.34839]]]}},{"type":"Feature","properties":{"partida":"357012325","cca":"357000100000000000000060400000000000000000","tipo":"Rural","sup_m2":62032.3},"geometry":{"type":"Polygon","coordinates":[[[-58.580345,-34.34508],[-58.580658,-34.34589],[-58.580751,-34.346617],[-58.580542,-34.346785],[-58.582345,-34.34748],[-58.582981,-34.344074],[-58.582445,-34.344084],[-58.58148,-34.344275],[-58.580624,-34.344579],[-58.580345,-34.34508]]]}},{"type":"Feature","properties":{"partida":"357018968","cca":"35700010000000000000006050000000000000100A","tipo":"Urbano","sup_m2":3918.5},"geometry":{"type":"Polygon","coordinates":[[[-58.580459,-34.347126],[-58.581691,-34.347384],[-58.582383,-34.347555],[-58.582345,-34.34748],[-58.580542,-34.346785],[-58.580459,-34.347126]]]}},{"type":"Feature","properties":{"partida":"357018969","cca":"35700010000000000000006050000000000000100B","tipo":"Urbano","sup_m2":1912.0},"geometry":{"type":"Polygon","coordinates":[[[-58.581691,-34.347384],[-58.580459,-34.347126],[-58.58042,-34.347284],[-58.581647,-34.347514],[-58.581691,-34.347384]]]}},{"type":"Feature","properties":{"partida":"357018970","cca":"35700010000000000000006050000000000000100C","tipo":"Urbano","sup_m2":2012.9},"geometry":{"type":"Polygon","coordinates":[[[-58.581109,-34.347572],[-58.581593,-34.347662],[-58.581647,-34.347514],[-58.58042,-34.347284],[-58.58038,-34.347446],[-58.581109,-34.347572]]]}},{"type":"Feature","properties":{"partida":"357018971","cca":"35700010000000000000006050000000000000100D","tipo":"Urbano","sup_m2":1249.0},"geometry":{"type":"Polygon","coordinates":[[[-58.580359,-34.347615],[-58.581096,-34.34773],[-58.581109,-34.347572],[-58.58038,-34.347446],[-58.580361,-34.347522],[-58.580359,-34.347615]]]}},{"type":"Feature","properties":{"partida":"357018972","cca":"35700010000000000000006050000000000000100E","tipo":"Urbano","sup_m2":1382.2},"geometry":{"type":"Polygon","coordinates":[[[-58.580359,-34.347615],[-58.580357,-34.34776],[-58.580353,-34.347808],[-58.581087,-34.347904],[-58.581096,-34.34773],[-58.580359,-34.347615]]]}},{"type":"Feature","properties":{"partida":"357018973","cca":"35700010000000000000006050000000000000100F","tipo":"Urbano","sup_m2":1448.9},"geometry":{"type":"Polygon","coordinates":[[[-58.581072,-34.348088],[-58.581087,-34.347904],[-58.580353,-34.347808],[-58.580335,-34.348005],[-58.581072,-34.348088]]]}},{"type":"Feature","properties":{"partida":"357018974","cca":"35700010000000000000006050000000000000100G","tipo":"Urbano","sup_m2":1332.0},"geometry":{"type":"Polygon","coordinates":[[[-58.581066,-34.34826],[-58.581072,-34.348088],[-58.580335,-34.348005],[-58.580318,-34.348182],[-58.581066,-34.34826]]]}},{"type":"Feature","properties":{"partida":"357018975","cca":"35700010000000000000006050000000000000100H","tipo":"Urbano","sup_m2":1345.2},"geometry":{"type":"Polygon","coordinates":[[[-58.581066,-34.34826],[-58.580318,-34.348182],[-58.580302,-34.348364],[-58.581058,-34.348426],[-58.581066,-34.34826]]]}},{"type":"Feature","properties":{"partida":"357012326","cca":"35700010000000000000006050000000000000100K","tipo":"Rural","sup_m2":55482.3},"geometry":{"type":"Polygon","coordinates":[[[-58.581109,-34.347572],[-58.581072,-34.348088],[-58.581058,-34.348426],[-58.580302,-34.348364],[-58.580284,-34.348552],[-58.581986,-34.34873],[-58.581716,-34.350449],[-58.584669,-34.350702],[-58.585634,-34.351024],[-58.585658,-34.35094],[-58.583654,-34.350015],[-58.582383,-34.347555],[-58.581691,-34.347384],[-58.581593,-34.347662],[-58.581109,-34.347572]]]}},{"type":"Feature","properties":{"partida":"357012327","cca":"357000100000000000000060500000000000002000","tipo":"Rural","sup_m2":73597.0},"geometry":{"type":"Polygon","coordinates":[[[-58.580089,-34.350603],[-58.580629,-34.350431],[-58.580547,-34.351586],[-58.580698,-34.351757],[-58.58561,-34.351109],[-58.585634,-34.351024],[-58.584669,-34.350702],[-58.581716,-34.350449],[-58.581986,-34.34873],[-58.580284,-34.348552],[-58.580267,-34.349127],[-58.580245,-34.349485],[-58.580203,-34.34978],[-58.58011,-34.350538],[-58.580089,-34.350603]]]}},{"type":"Feature","properties":{"partida":"357012329","cca":"357000100000000000000060700000000000001000","tipo":"Rural","sup_m2":116338.2},"geometry":{"type":"Polygon","coordinates":[[[-58.585658,-34.35094],[-58.585227,-34.35246],[-58.585144,-34.352766],[-58.585236,-34.353023],[-58.592013,-34.351555],[-58.591418,-34.350663],[-58.591088,-34.350049],[-58.587372,-34.350599],[-58.585895,-34.351049],[-58.585658,-34.35094]]]}},{"type":"Feature","properties":{"partida":"357012330","cca":"357000100000000000000060700000000000002000","tipo":"Rural","sup_m2":206481.8},"geometry":{"type":"Polygon","coordinates":[[[-58.587052,-34.356467],[-58.587691,-34.355512],[-58.58801,-34.355183],[-58.589407,-34.354139],[-58.591088,-34.354408],[-58.591252,-34.353914],[-58.591521,-34.353497],[-58.592044,-34.353007],[-58.592146,-34.352644],[-58.592155,-34.351908],[-58.592013,-34.351555],[-58.585236,-34.353023],[-58.585862,-34.354765],[-58.585005,-34.355297],[-58.584997,-34.355375],[-58.584977,-34.355479],[-58.58476,-34.356564],[-58.584638,-34.357028],[-58.585077,-34.357349],[-58.585349,-34.35765],[-58.58596,-34.357238],[-58.587052,-34.356467]]]}},{"type":"Feature","properties":{"partida":"357012331","cca":"35700010000000000000006080000000000000100A","tipo":"Rural","sup_m2":51213.1},"geometry":{"type":"Polygon","coordinates":[[[-58.585421,-34.351777],[-58.58561,-34.351109],[-58.580698,-34.351757],[-58.580547,-34.351586],[-58.580629,-34.350431],[-58.580089,-34.350603],[-58.580151,-34.350897],[-58.580048,-34.35188],[-58.580005,-34.352375],[-58.582615,-34.352508],[-58.583077,-34.352413],[-58.585421,-34.351777]]]}},{"type":"Feature","properties":{"partida":"357012332","cca":"35700010000000000000006080000000000000100B","tipo":"Rural","sup_m2":30726.9},"geometry":{"type":"Polygon","coordinates":[[[-58.585421,-34.351777],[-58.583077,-34.352413],[-58.582615,-34.352508],[-58.580005,-34.352375],[-58.579959,-34.352991],[-58.585144,-34.352766],[-58.585227,-34.35246],[-58.585421,-34.351777]]]}},{"type":"Feature","properties":{"partida":"357012333","cca":"357000100000000000000060800000000000002000","tipo":"Rural","sup_m2":96498.2},"geometry":{"type":"Polygon","coordinates":[[[-58.579959,-34.352991],[-58.579909,-34.353546],[-58.579747,-34.354047],[-58.57958,-34.354354],[-58.580807,-34.354313],[-58.581507,-34.354806],[-58.582111,-34.355275],[-58.583076,-34.35529],[-58.583975,-34.354701],[-58.584847,-34.35386],[-58.585144,-34.352766],[-58.579959,-34.352991]]]}},{"type":"Feature","properties":{"partida":"357012391","cca":"357000100000000000000061200000000000001000","tipo":"Rural","sup_m2":297915.8},"geometry":{"type":"Polygon","coordinates":[[[-58.600628,-34.353625],[-58.597876,-34.352882],[-58.597336,-34.35329],[-58.596424,-34.353868],[-58.595184,-34.353658],[-58.594449,-34.353474],[-58.594035,-34.354218],[-58.593556,-34.355053],[-58.591235,-34.354497],[-58.591167,-34.354653],[-58.591063,-34.3552],[-58.590806,-34.355613],[-58.593231,-34.356197],[-58.592882,-34.357065],[-58.593418,-34.358318],[-58.600513,-34.35589],[-58.600815,-34.354921],[-58.600846,-34.354134],[-58.600628,-34.353625]]]}},{"type":"Feature","properties":{"partida":"357019285","cca":"357000100000000000000061200000000000002000","tipo":"Rural","sup_m2":15929.5},"geometry":{"type":"Polygon","coordinates":[[[-58.594035,-34.354218],[-58.594449,-34.353474],[-58.592232,-34.352926],[-58.592135,-34.353095],[-58.592057,-34.353197],[-58.592064,-34.35322],[-58.592082,-34.353244],[-58.592026,-34.353261],[-58.591984,-34.35327],[-58.591956,-34.353293],[-58.591874,-34.353374],[-58.594035,-34.354218]]]}},{"type":"Feature","properties":{"partida":"357019286","cca":"357000100000000000000061200000000000003000","tipo":"Rural","sup_m2":11957.7},"geometry":{"type":"Polygon","coordinates":[[[-58.591512,-34.353758],[-58.593787,-34.354649],[-58.594035,-34.354218],[-58.591874,-34.353374],[-58.591712,-34.353529],[-58.591512,-34.353758]]]}},{"type":"Feature","properties":{"partida":"357019287","cca":"357000100000000000000061200000000000004000","tipo":"Rural","sup_m2":15468.3},"geometry":{"type":"Polygon","coordinates":[[[-58.591235,-34.354497],[-58.593556,-34.355053],[-58.593787,-34.354649],[-58.591512,-34.353758],[-58.591228,-34.354391],[-58.591235,-34.354497]]]}},{"type":"Feature","properties":{"partida":"357019288","cca":"357000100000000000000061200000000000005000","tipo":"Rural","sup_m2":11890.7},"geometry":{"type":"Polygon","coordinates":[[[-58.593058,-34.356629],[-58.593231,-34.356197],[-58.590806,-34.355613],[-58.590611,-34.35605],[-58.593058,-34.356629]]]}},{"type":"Feature","properties":{"partida":"357019289","cca":"357000100000000000000061200000000000006000","tipo":"Rural","sup_m2":12009.5},"geometry":{"type":"Polygon","coordinates":[[[-58.593058,-34.356629],[-58.590611,-34.35605],[-58.590447,-34.356497],[-58.592882,-34.357065],[-58.593058,-34.356629]]]}},{"type":"Feature","properties":{"partida":"357019290","cca":"357000100000000000000061200000000000007000","tipo":"Rural","sup_m2":16221.1},"geometry":{"type":"Polygon","coordinates":[[[-58.592882,-34.357065],[-58.590447,-34.356497],[-58.590402,-34.356775],[-58.590398,-34.35722],[-58.590686,-34.357754],[-58.592882,-34.357065]]]}},{"type":"Feature","properties":{"partida":"357019291","cca":"357000100000000000000061200000000000008000","tipo":"Rural","sup_m2":11136.7},"geometry":{"type":"Polygon","coordinates":[[[-58.593069,-34.357509],[-58.592882,-34.357065],[-58.590686,-34.357754],[-58.590664,-34.357856],[-58.590702,-34.357929],[-58.590732,-34.357929],[-58.590727,-34.357952],[-58.590744,-34.357972],[-58.590758,-34.357977],[-58.590775,-34.35801],[-58.590805,-34.358012],[-58.590821,-34.358027],[-58.59083,-34.358057],[-58.590859,-34.358093],[-58.590911,-34.35817],[-58.593069,-34.357509]]]}},{"type":"Feature","properties":{"partida":"357019292","cca":"357000100000000000000061200000000000009000","tipo":"Rural","sup_m2":10595.6},"geometry":{"type":"Polygon","coordinates":[[[-58.590911,-34.35817],[-58.591139,-34.358592],[-58.593254,-34.357931],[-58.593069,-34.357509],[-58.590911,-34.35817]]]}},{"type":"Feature","properties":{"partida":"357019293","cca":"357000100000000000000061200000000000010000","tipo":"Rural","sup_m2":10035.4},"geometry":{"type":"Polygon","coordinates":[[[-58.593254,-34.357931],[-58.591139,-34.358592],[-58.59123,-34.358762],[-58.591365,-34.359021],[-58.593418,-34.358318],[-58.593254,-34.357931]]]}},{"type":"Feature","properties":{"partida":"357012392","cca":"35700010000000000000006130000000000000100A","tipo":"Rural","sup_m2":37757.1},"geometry":{"type":"Polygon","coordinates":[[[-58.591088,-34.354408],[-58.589407,-34.354139],[-58.58801,-34.355183],[-58.587691,-34.355512],[-58.587571,-34.355691],[-58.590364,-34.355795],[-58.590824,-34.355015],[-58.591088,-34.354408]]]}},{"type":"Feature","properties":{"partida":"357012393","cca":"35700010000000000000006130000000000000100B","tipo":"Rural","sup_m2":45020.4},"geometry":{"type":"Polygon","coordinates":[[[-58.587571,-34.355691],[-58.587052,-34.356467],[-58.58596,-34.357238],[-58.585349,-34.35765],[-58.5851,-34.357886],[-58.590288,-34.356419],[-58.590364,-34.355795],[-58.587571,-34.355691]]]}},{"type":"Feature","properties":{"partida":"357012394","cca":"35700010000000000000006130000000000000200A","tipo":"Rural","sup_m2":32529.2},"geometry":{"type":"Polygon","coordinates":[[[-58.590288,-34.356419],[-58.5851,-34.357886],[-58.58468,-34.358403],[-58.590134,-34.357241],[-58.590237,-34.356723],[-58.590288,-34.356419]]]}},{"type":"Feature","properties":{"partida":"357012395","cca":"35700010000000000000006130000000000000200B","tipo":"Rural","sup_m2":67403.1},"geometry":{"type":"Polygon","coordinates":[[[-58.587246,-34.359278],[-58.590601,-34.357974],[-58.590374,-34.357472],[-58.590134,-34.357241],[-58.58468,-34.358403],[-58.584039,-34.359085],[-58.587246,-34.359278]]]}},{"type":"Feature","properties":{"partida":"357012396","cca":"35700010000000000000006130000000000000200C","tipo":"Urbano","sup_m2":9811.6},"geometry":{"type":"Polygon","coordinates":[[[-58.590601,-34.357974],[-58.587246,-34.359278],[-58.587759,-34.359308],[-58.59083,-34.358272],[-58.590601,-34.357974]]]}},{"type":"Feature","properties":{"partida":"357012397","cca":"35700010000000000000006130000000000000300A","tipo":"Urbano","sup_m2":16084.7},"geometry":{"type":"Polygon","coordinates":[[[-58.59083,-34.358272],[-58.587759,-34.359308],[-58.589463,-34.359405],[-58.591112,-34.358835],[-58.59083,-34.358272]]]}},{"type":"Feature","properties":{"partida":"357012399","cca":"357000100000000000000061400000000000000000","tipo":"Rural","sup_m2":87844.7},"geometry":{"type":"Polygon","coordinates":[[[-58.585144,-34.352766],[-58.584847,-34.35386],[-58.583975,-34.354701],[-58.583076,-34.35529],[-58.582111,-34.355275],[-58.581507,-34.354806],[-58.580807,-34.354313],[-58.57958,-34.354354],[-58.57929,-34.354962],[-58.579254,-34.355465],[-58.579697,-34.356277],[-58.582423,-34.356279],[-58.583101,-34.355757],[-58.584997,-34.355375],[-58.585005,-34.355297],[-58.585862,-34.354765],[-58.585144,-34.352766]]]}},{"type":"Feature","properties":{"partida":"357012400","cca":"357000100000000000000061500000000000001000","tipo":"Rural","sup_m2":66722.0},"geometry":{"type":"Polygon","coordinates":[[[-58.584997,-34.355375],[-58.583101,-34.355757],[-58.582423,-34.356279],[-58.579697,-34.356277],[-58.579977,-34.356549],[-58.580305,-34.357089],[-58.580457,-34.35756],[-58.584858,-34.357189],[-58.584638,-34.357028],[-58.58476,-34.356564],[-58.584997,-34.355375]]]}},{"type":"Feature","properties":{"partida":"357012401","cca":"357000100000000000000061500000000000002000","tipo":"Rural","sup_m2":66075.9},"geometry":{"type":"Polygon","coordinates":[[[-58.580675,-34.3586],[-58.583472,-34.359058],[-58.584039,-34.359085],[-58.58468,-34.358403],[-58.5851,-34.357886],[-58.585349,-34.35765],[-58.585077,-34.357349],[-58.584858,-34.357189],[-58.580457,-34.35756],[-58.580675,-34.3586]]]}},{"type":"Feature","properties":{"partida":"357012402","cca":"357000100000000000000061500000000000003000","tipo":"Rural","sup_m2":134157.7},"geometry":{"type":"Polygon","coordinates":[[[-58.580287,-34.362205],[-58.580429,-34.362419],[-58.580513,-34.362496],[-58.580629,-34.36261],[-58.580676,-34.362636],[-58.580721,-34.362717],[-58.580885,-34.362834],[-58.581083,-34.362951],[-58.581174,-34.362984],[-58.581441,-34.362928],[-58.581685,-34.362823],[-58.58189,-34.362807],[-58.582058,-34.362747],[-58.582248,-34.36273],[-58.582396,-34.362692],[-58.582705,-34.362594],[-58.582924,-34.362583],[-58.583151,-34.362641],[-58.583267,-34.362646],[-58.583441,-34.362617],[-58.583582,-34.362624],[-58.583657,-34.362681],[-58.583736,-34.362734],[-58.583863,-34.362766],[-58.584643,-34.362914],[-58.583104,-34.360362],[-58.583472,-34.359058],[-58.580675,-34.3586],[-58.580465,-34.359079],[-58.580295,-34.359245],[-58.580033,-34.359467],[-58.580167,-34.359427],[-58.580264,-34.359417],[-58.580336,-34.3595],[-58.580359,-34.359571],[-58.580359,-34.359685],[-58.580316,-34.359834],[-58.580279,-34.359942],[-58.580268,-34.36005],[-58.580205,-34.360256],[-58.580139,-34.360424],[-58.580125,-34.360476],[-58.580115,-34.360645],[-58.580127,-34.360889],[-58.580096,-34.361029],[-58.580107,-34.361094],[-58.580206,-34.361272],[-58.580328,-34.361424],[-58.580317,-34.36154],[-58.580255,-34.361672],[-58.580237,-34.361809],[-58.58023,-34.361976],[-58.580287,-34.362205]]]}},{"type":"Feature","properties":{"partida":"357020444","cca":"357000100000000000000061700000000000006000","tipo":"Rural","sup_m2":10871.1},"geometry":{"type":"Polygon","coordinates":[[[-58.580017,-34.359346],[-58.578559,-34.358899],[-58.578322,-34.360121],[-58.578776,-34.360129],[-58.578797,-34.360125],[-58.578884,-34.360123],[-58.578973,-34.36009],[-58.579042,-34.359975],[-58.579062,-34.359813],[-58.579499,-34.35958],[-58.580017,-34.359346]]]}},{"type":"Feature","properties":{"partida":"357012590","cca":"357000100000000000000062100000000000031000","tipo":"Rural","sup_m2":33096.8},"geometry":{"type":"Polygon","coordinates":[[[-58.599784,-34.357094],[-58.598911,-34.358082],[-58.600814,-34.35923],[-58.601925,-34.35804],[-58.599784,-34.357094]]]}},{"type":"Feature","properties":{"partida":"357012606","cca":"357000100000000000000062100000000000048000","tipo":"Rural","sup_m2":41053.9},"geometry":{"type":"Polygon","coordinates":[[[-58.598355,-34.358649],[-58.598066,-34.358946],[-58.597838,-34.359222],[-58.602844,-34.361911],[-58.603081,-34.361906],[-58.603197,-34.361859],[-58.603245,-34.361853],[-58.60334,-34.361834],[-58.603401,-34.361796],[-58.603467,-34.361768],[-58.603529,-34.361754],[-58.603656,-34.361707],[-58.603683,-34.361693],[-58.598355,-34.358649]]]}},{"type":"Feature","properties":{"partida":"357012607","cca":"357000100000000000000062100000000000049000","tipo":"Rural","sup_m2":34918.1},"geometry":{"type":"Polygon","coordinates":[[[-58.597233,-34.359957],[-58.602519,-34.362072],[-58.602844,-34.361911],[-58.597838,-34.359222],[-58.597233,-34.359957]]]}},{"type":"Feature","properties":{"partida":"357012608","cca":"357000100000000000000062100000000000050000","tipo":"Rural","sup_m2":34225.9},"geometry":{"type":"Polygon","coordinates":[[[-58.602519,-34.362072],[-58.597233,-34.359957],[-58.596854,-34.360687],[-58.601869,-34.362274],[-58.602519,-34.362072]]]}},{"type":"Feature","properties":{"partida":"357012706","cca":"357000100000000000000062200000000000000000","tipo":"Rural","sup_m2":364463.9},"geometry":{"type":"Polygon","coordinates":[[[-58.591365,-34.359021],[-58.59164,-34.359426],[-58.591612,-34.35947],[-58.591618,-34.359505],[-58.591659,-34.359553],[-58.591666,-34.359587],[-58.591688,-34.359615],[-58.591688,-34.359646],[-58.591722,-34.359653],[-58.591794,-34.359689],[-58.591825,-34.359697],[-58.591858,-34.359743],[-58.591856,-34.359761],[-58.591814,-34.359788],[-58.591825,-34.359837],[-58.591845,-34.359865],[-58.591868,-34.359886],[-58.591863,-34.359913],[-58.591909,-34.359918],[-58.591898,-34.359953],[-58.591938,-34.359998],[-58.591961,-34.360033],[-58.591984,-34.360046],[-58.591979,-34.359929],[-58.592635,-34.362082],[-58.59271,-34.362209],[-58.592771,-34.362325],[-58.592799,-34.362437],[-58.592853,-34.362614],[-58.592886,-34.362695],[-58.592997,-34.363259],[-58.592943,-34.363798],[-58.592934,-34.363986],[-58.596623,-34.365398],[-58.596673,-34.364468],[-58.59661,-34.363374],[-58.596615,-34.362234],[-58.596718,-34.360947],[-58.597233,-34.359957],[-58.598066,-34.358946],[-58.598911,-34.358082],[-58.599784,-34.357094],[-58.600492,-34.355957],[-58.600513,-34.35589],[-58.591365,-34.359021]]]}},{"type":"Feature","properties":{"partida":"357012707","cca":"357000100000000000000062300000000000001000","tipo":"Rural","sup_m2":196228.8},"geometry":{"type":"Polygon","coordinates":[[[-58.587246,-34.359278],[-58.584039,-34.359085],[-58.583472,-34.359058],[-58.583104,-34.360362],[-58.584894,-34.363331],[-58.588714,-34.361379],[-58.589234,-34.360598],[-58.590353,-34.359937],[-58.590555,-34.359659],[-58.591559,-34.35961],[-58.591112,-34.358835],[-58.589463,-34.359405],[-58.587246,-34.359278]]]}},{"type":"Feature","properties":{"partida":null,"cca":"35700010000000000000006230000000000000200C","tipo":null,"sup_m2":2936.2},"geometry":{"type":"Polygon","coordinates":[[[-58.590704,-34.36049],[-58.590776,-34.360704],[-58.591997,-34.3607],[-58.591972,-34.360453],[-58.590704,-34.36049]]]}},{"type":"Feature","properties":{"partida":"357018158","cca":"35700010000000000000006230000000000000200D","tipo":"Urbano","sup_m2":2411.8},"geometry":{"type":"Polygon","coordinates":[[[-58.591997,-34.3607],[-58.590776,-34.360704],[-58.590834,-34.360878],[-58.592108,-34.360906],[-58.592103,-34.360885],[-58.591997,-34.3607]]]}},{"type":"Feature","properties":{"partida":"357018159","cca":"35700010000000000000006230000000000000200E","tipo":"Urbano","sup_m2":2250.0},"geometry":{"type":"Polygon","coordinates":[[[-58.592108,-34.360906],[-58.590834,-34.360878],[-58.590893,-34.361051],[-58.592146,-34.361083],[-58.592108,-34.360906]]]}},{"type":"Feature","properties":{"partida":"357018160","cca":"35700010000000000000006230000000000000200F","tipo":"Urbano","sup_m2":2212.5},"geometry":{"type":"Polygon","coordinates":[[[-58.592146,-34.361083],[-58.590893,-34.361051],[-58.590951,-34.361225],[-58.592184,-34.36126],[-58.592146,-34.361083]]]}},{"type":"Feature","properties":{"partida":"357018161","cca":"35700010000000000000006230000000000000200G","tipo":"Urbano","sup_m2":2337.5},"geometry":{"type":"Polygon","coordinates":[[[-58.592184,-34.36126],[-58.590951,-34.361225],[-58.591039,-34.361486],[-58.59224,-34.361371],[-58.592184,-34.36126]]]}},{"type":"Feature","properties":{"partida":"357018162","cca":"35700010000000000000006230000000000000200H","tipo":"Urbano","sup_m2":2198.5},"geometry":{"type":"Polygon","coordinates":[[[-58.59224,-34.361371],[-58.591039,-34.361486],[-58.591097,-34.36166],[-58.59229,-34.361547],[-58.59224,-34.361371]]]}},{"type":"Feature","properties":{"partida":"357018156","cca":"35700010000000000000006230000000000000200V","tipo":"Urbano","sup_m2":4495.1},"geometry":{"type":"Polygon","coordinates":[[[-58.591855,-34.360109],[-58.590588,-34.360146],[-58.590704,-34.36049],[-58.591972,-34.360453],[-58.591855,-34.360109]]]}},{"type":"Feature","properties":{"partida":"357012803","cca":"357000100000000000000062400A00000000001000","tipo":"Urbano","sup_m2":1204.0},"geometry":{"type":"Polygon","coordinates":[[[-58.580284,-34.359925],[-58.580316,-34.359834],[-58.580359,-34.359685],[-58.580359,-34.359571],[-58.580336,-34.3595],[-58.580264,-34.359417],[-58.580167,-34.359427],[-58.580033,-34.359467],[-58.579936,-34.359517],[-58.580284,-34.359925]]]}},{"type":"Feature","properties":{"partida":"357012804","cca":"357000100000000000000062400A00000000002000","tipo":"Urbano","sup_m2":1239.7},"geometry":{"type":"Polygon","coordinates":[[[-58.580232,-34.360167],[-58.580268,-34.36005],[-58.580279,-34.359942],[-58.580284,-34.359925],[-58.579936,-34.359517],[-58.579767,-34.359604],[-58.580232,-34.360167]]]}},{"type":"Feature","properties":{"partida":"357012805","cca":"357000100000000000000062400A00000000003000","tipo":"Urbano","sup_m2":1642.0},"geometry":{"type":"Polygon","coordinates":[[[-58.579596,-34.359696],[-58.58011,-34.360346],[-58.580168,-34.360349],[-58.580205,-34.360256],[-58.580232,-34.360167],[-58.579767,-34.359604],[-58.579596,-34.359696]]]}},{"type":"Feature","properties":{"partida":"357012806","cca":"357000100000000000000062400A00000000004000","tipo":"Urbano","sup_m2":951.1},"geometry":{"type":"Polygon","coordinates":[[[-58.57994,-34.36013],[-58.579596,-34.359696],[-58.579433,-34.359795],[-58.579694,-34.360129],[-58.57994,-34.36013]]]}},{"type":"Feature","properties":{"partida":"357012807","cca":"357000100000000000000062400A00000000005000","tipo":"Urbano","sup_m2":1033.0},"geometry":{"type":"Polygon","coordinates":[[[-58.579133,-34.360125],[-58.579241,-34.360125],[-58.579694,-34.360129],[-58.579433,-34.359795],[-58.579406,-34.359809],[-58.57926,-34.359947],[-58.579138,-34.360091],[-58.579133,-34.360125]]]}},{"type":"Feature","properties":{"partida":"357012808","cca":"357000100000000000000062400A00000000006000","tipo":"Urbano","sup_m2":1669.3},"geometry":{"type":"Polygon","coordinates":[[[-58.58011,-34.360346],[-58.57994,-34.36013],[-58.579133,-34.360125],[-58.579131,-34.36014],[-58.579155,-34.360287],[-58.58011,-34.360346]]]}},{"type":"Feature","properties":{"partida":"357012809","cca":"357000100000000000000062400A00000000007000","tipo":"Urbano","sup_m2":1772.6},"geometry":{"type":"Polygon","coordinates":[[[-58.580122,-34.36053],[-58.580125,-34.360476],[-58.580139,-34.360424],[-58.580168,-34.360349],[-58.579155,-34.360287],[-58.579166,-34.360353],[-58.579168,-34.36046],[-58.580122,-34.36053]]]}},{"type":"Feature","properties":{"partida":"357012810","cca":"357000100000000000000062400A00000000008000","tipo":"Urbano","sup_m2":1688.0},"geometry":{"type":"Polygon","coordinates":[[[-58.580119,-34.360711],[-58.580115,-34.360645],[-58.580122,-34.36053],[-58.579168,-34.36046],[-58.579141,-34.36062],[-58.580119,-34.360711]]]}},{"type":"Feature","properties":{"partida":"357012811","cca":"357000100000000000000062400A00000000009000","tipo":"Urbano","sup_m2":1752.5},"geometry":{"type":"Polygon","coordinates":[[[-58.580127,-34.36088],[-58.580119,-34.360711],[-58.579141,-34.36062],[-58.579106,-34.360792],[-58.580127,-34.36088]]]}},{"type":"Feature","properties":{"partida":"357012812","cca":"357000100000000000000062400A00000000010000","tipo":"Urbano","sup_m2":1734.8},"geometry":{"type":"Polygon","coordinates":[[[-58.580098,-34.36104],[-58.580096,-34.361029],[-58.580127,-34.36088],[-58.579106,-34.360792],[-58.579083,-34.360899],[-58.579077,-34.360959],[-58.580098,-34.36104]]]}},{"type":"Feature","properties":{"partida":"357012813","cca":"357000100000000000000062400A00000000011000","tipo":"Urbano","sup_m2":2080.5},"geometry":{"type":"Polygon","coordinates":[[[-58.580177,-34.36122],[-58.580107,-34.361094],[-58.580098,-34.36104],[-58.579077,-34.360959],[-58.579054,-34.361166],[-58.580177,-34.36122]]]}},{"type":"Feature","properties":{"partida":"357012814","cca":"357000100000000000000062400A00000000012000","tipo":"Urbano","sup_m2":1967.8},"geometry":{"type":"Polygon","coordinates":[[[-58.58025,-34.361327],[-58.580206,-34.361272],[-58.580177,-34.36122],[-58.579054,-34.361166],[-58.57902,-34.361387],[-58.58025,-34.361327]]]}},{"type":"Feature","properties":{"partida":"357012815","cca":"357000100000000000000062400A00000000013000","tipo":"Urbano","sup_m2":2006.9},"geometry":{"type":"Polygon","coordinates":[[[-58.580325,-34.361454],[-58.580328,-34.361424],[-58.58025,-34.361327],[-58.57902,-34.361387],[-58.579005,-34.361521],[-58.579008,-34.361562],[-58.580325,-34.361454]]]}}]}