{"type":"FeatureCollection","features":[{"type":"Feature","properties":{"partida":"057104769","cca":"05702000000000000000000000000000000000400E","tipo":"Urbano","sup_m2":16321.9},"geometry":{"type":"Polygon","coordinates":[[[-58.600735,-34.474281],[-58.599243,-34.472559],[-58.59917,-34.473121],[-58.599094,-34.473887],[-58.59941,-34.474542],[-58.600735,-34.474281]]]}},{"type":"Feature","properties":{"partida":"057105420","cca":"0570200000000000000000000000000000000440AC","tipo":"Urbano","sup_m2":1711.2},"geometry":{"type":"Polygon","coordinates":[[[-58.600322,-34.486225],[-58.600374,-34.486095],[-58.600907,-34.48544],[-58.599986,-34.48611],[-58.600046,-34.486249],[-58.600322,-34.486225]]]}}]}