{"type":"FeatureCollection","features":[{"type":"Feature","properties":{"partida":"057084551","cca":"0570200000000000000000000000000000000440AX","tipo":"Urbano","sup_m2":18020.7},"geometry":{"type":"Polygon","coordinates":[[[-58.601825,-34.490557],[-58.600844,-34.487641],[-58.600321,-34.487713],[-58.600428,-34.488205],[-58.600518,-34.488794],[-58.600583,-34.489037],[-58.60066,-34.489358],[-58.600854,-34.489786],[-58.601137,-34.49007],[-58.60125,-34.490186],[-58.601316,-34.490341],[-58.601605,-34.490444],[-58.601782,-34.490552],[-58.601825,-34.490557]]]}}]}