{"type":"FeatureCollection","features":[{"type":"Feature","properties":{"partida":"357019276","cca":"3570001000000000000000650000000000000050FF","tipo":"Rural","sup_m2":93561.8},"geometry":{"type":"Polygon","coordinates":[[[-58.513182,-34.312174],[-58.515163,-34.309656],[-58.514015,-34.309562],[-58.513547,-34.309549],[-58.51257,-34.309686],[-58.51116,-34.309862],[-58.509906,-34.310165],[-58.509623,-34.310543],[-58.510164,-34.310968],[-58.510579,-34.311383],[-58.511531,-34.312004],[-58.512176,-34.312263],[-58.513182,-34.312174]]]}}]}