{"type":"FeatureCollection","features":[{"type":"Feature","properties":{"partida":"357017850","cca":"357000100000000000000065000A0000000001000A","tipo":"Urbano","sup_m2":3602.5},"geometry":{"type":"Polygon","coordinates":[[[-58.51064,-34.331407],[-58.511114,-34.332466],[-58.511455,-34.332543],[-58.510898,-34.331299],[-58.51064,-34.331407]]]}},{"type":"Feature","properties":{"partida":"357017851","cca":"357000100000000000000065000A0000000001000B","tipo":"Urbano","sup_m2":1462.6},"geometry":{"type":"Polygon","coordinates":[[[-58.510288,-34.331587],[-58.510693,-34.331933],[-58.510866,-34.331912],[-58.51064,-34.331407],[-58.510288,-34.331587]]]}},{"type":"Feature","properties":{"partida":"357013804","cca":"357000100000000000000065000A0000000001000C","tipo":"Urbano","sup_m2":1438.6},"geometry":{"type":"Polygon","coordinates":[[[-58.510288,-34.331587],[-58.510205,-34.331658],[-58.51002,-34.332013],[-58.510693,-34.331933],[-58.510288,-34.331587]]]}},{"type":"Feature","properties":{"partida":"357017852","cca":"357000100000000000000065000A0000000001000D","tipo":"Urbano","sup_m2":3612.9},"geometry":{"type":"Polygon","coordinates":[[[-58.510866,-34.331912],[-58.51002,-34.332013],[-58.510081,-34.332234],[-58.511114,-34.332466],[-58.510866,-34.331912]]]}},{"type":"Feature","properties":{"partida":"357018086","cca":"357000100000000000000065000A00000000046000","tipo":"Rural","sup_m2":1194476.9},"geometry":{"type":"Polygon","coordinates":[[[-58.497949,-34.33801],[-58.514801,-34.343343],[-58.515209,-34.337518],[-58.51521,-34.337326],[-58.515187,-34.336896],[-58.515291,-34.336334],[-58.515345,-34.335884],[-58.51556,-34.33546],[-58.515864,-34.33502],[-58.515604,-34.334823],[-58.515103,-34.33488],[-58.514556,-34.334908],[-58.514022,-34.334791],[-58.513721,-34.334592],[-58.513354,-34.334247],[-58.51314,-34.333832],[-58.512876,-34.332954],[-58.512713,-34.332523],[-58.512458,-34.33212],[-58.512274,-34.331696],[-58.512122,-34.331263],[-58.511901,-34.331233],[-58.511466,-34.331266],[-58.510895,-34.331293],[-58.511455,-34.332543],[-58.510017,-34.332219],[-58.509983,-34.332103],[-58.509678,-34.332143],[-58.509167,-34.332308],[-58.508705,-34.332601],[-58.508455,-34.332971],[-58.508135,-34.333336],[-58.507833,-34.33371],[-58.507512,-34.334075],[-58.507109,-34.334396],[-58.506647,-34.334499],[-58.506115,-34.334592],[-58.505692,-34.334631],[-58.505369,-34.334545],[-58.504928,-34.334279],[-58.504543,-34.333958],[-58.504133,-34.333679],[-58.502362,-34.335173],[-58.500171,-34.333386],[-58.497949,-34.33801]]]}},{"type":"Feature","properties":{"partida":"357017530","cca":"357000100000000000000065000A00000000053000","tipo":"Rural","sup_m2":51636.2},"geometry":{"type":"Polygon","coordinates":[[[-58.504034,-34.333763],[-58.50291,-34.332996],[-58.502491,-34.332646],[-58.500685,-34.333061],[-58.500171,-34.333386],[-58.502362,-34.335173],[-58.504034,-34.333763]]]}}]}