{"type":"FeatureCollection","features":[{"type":"Feature","properties":{"partida":"357019251","cca":"35700010000000000000006640000000000002200A","tipo":"Urbano","sup_m2":14000.5},"geometry":{"type":"Polygon","coordinates":[[[-58.511449,-34.361706],[-58.511552,-34.362668],[-58.512897,-34.361921],[-58.512795,-34.360958],[-58.511449,-34.361706]]]}},{"type":"Feature","properties":{"partida":"357019903","cca":"357000100000000000000066400000000000023000","tipo":"Urbano","sup_m2":11138.2},"geometry":{"type":"Polygon","coordinates":[[[-58.511694,-34.363398],[-58.513089,-34.362577],[-58.512897,-34.361921],[-58.511552,-34.362668],[-58.511584,-34.362969],[-58.511694,-34.363398]]]}},{"type":"Feature","properties":{"partida":"357019904","cca":"357000100000000000000066400000000000024000","tipo":"Urbano","sup_m2":11787.6},"geometry":{"type":"Polygon","coordinates":[[[-58.511928,-34.364114],[-58.513338,-34.363212],[-58.513089,-34.362577],[-58.511694,-34.363398],[-58.511928,-34.364114]]]}},{"type":"Feature","properties":{"partida":"357019905","cca":"357000100000000000000066400000000000025000","tipo":"Urbano","sup_m2":11402.6},"geometry":{"type":"Polygon","coordinates":[[[-58.512288,-34.364704],[-58.513602,-34.363842],[-58.513338,-34.363212],[-58.511928,-34.364114],[-58.511972,-34.364246],[-58.512288,-34.364704]]]}},{"type":"Feature","properties":{"partida":"357019906","cca":"357000100000000000000066400000000000026000","tipo":"Urbano","sup_m2":11703.6},"geometry":{"type":"Polygon","coordinates":[[[-58.512687,-34.365284],[-58.513974,-34.364553],[-58.513602,-34.363842],[-58.512288,-34.364704],[-58.512687,-34.365284]]]}},{"type":"Feature","properties":{"partida":"357019304","cca":"357000100000000000000066400A0000000005400B","tipo":"Rural","sup_m2":20105.3},"geometry":{"type":"Polygon","coordinates":[[[-58.501087,-34.363633],[-58.505128,-34.364492],[-58.505372,-34.363979],[-58.505269,-34.36395],[-58.502633,-34.363375],[-58.501087,-34.363633]]]}},{"type":"Feature","properties":{"partida":"357019284","cca":"357000100000000000000066400A0000000005400C","tipo":"Rural","sup_m2":118306.2},"geometry":{"type":"Polygon","coordinates":[[[-58.505128,-34.364492],[-58.501087,-34.363633],[-58.497884,-34.364175],[-58.497358,-34.365098],[-58.502877,-34.366124],[-58.503429,-34.365099],[-58.50387,-34.365272],[-58.503974,-34.365386],[-58.50424,-34.365514],[-58.504543,-34.365533],[-58.504885,-34.364871],[-58.505128,-34.364492]]]}},{"type":"Feature","properties":{"partida":"357019305","cca":"357000100000000000000066400A0000000005400D","tipo":"Rural","sup_m2":11550.0},"geometry":{"type":"Polygon","coordinates":[[[-58.50417,-34.366319],[-58.504525,-34.36563],[-58.504234,-34.365606],[-58.503616,-34.365223],[-58.503429,-34.365099],[-58.502877,-34.366124],[-58.50392,-34.366296],[-58.50417,-34.366319]]]}},{"type":"Feature","properties":{"partida":"357019303","cca":"357000100000000000000066400A0000000005400E","tipo":"Rural","sup_m2":5109.1},"geometry":{"type":"Polygon","coordinates":[[[-58.505463,-34.363804],[-58.505304,-34.36376],[-58.503185,-34.363293],[-58.503021,-34.363321],[-58.502633,-34.363375],[-58.505269,-34.36395],[-58.505372,-34.363979],[-58.505405,-34.363899],[-58.505463,-34.363804]]]}},{"type":"Feature","properties":{"partida":"357019865","cca":"357000100000000000000066400A0000000005400F","tipo":"Rural","sup_m2":3349.8},"geometry":{"type":"Polygon","coordinates":[[[-58.505463,-34.363804],[-58.505535,-34.3636],[-58.505385,-34.363571],[-58.503415,-34.363253],[-58.503185,-34.363293],[-58.505304,-34.36376],[-58.505463,-34.363804]]]}},{"type":"Feature","properties":{"partida":"357019866","cca":"357000100000000000000066400A0000000005400G","tipo":"Rural","sup_m2":15467.0},"geometry":{"type":"Polygon","coordinates":[[[-58.505535,-34.3636],[-58.505738,-34.363314],[-58.505805,-34.36315],[-58.505815,-34.362994],[-58.505802,-34.362926],[-58.505693,-34.362848],[-58.505341,-34.362864],[-58.504988,-34.362916],[-58.504782,-34.362922],[-58.504669,-34.362868],[-58.504575,-34.362755],[-58.504524,-34.362424],[-58.503915,-34.362524],[-58.503999,-34.362879],[-58.503402,-34.362988],[-58.503415,-34.363253],[-58.505385,-34.363571],[-58.505535,-34.3636]]]}},{"type":"Feature","properties":{"partida":"357019283","cca":"357000100000000000000066400A00000000055000","tipo":"Rural","sup_m2":161579.4},"geometry":{"type":"Polygon","coordinates":[[[-58.50417,-34.366319],[-58.50392,-34.366296],[-58.502877,-34.366124],[-58.497358,-34.365098],[-58.49449,-34.365682],[-58.502583,-34.368736],[-58.50328,-34.367696],[-58.50417,-34.366319]]]}},{"type":"Feature","properties":{"partida":"357019306","cca":"357000100000000000000066400A00000000056000","tipo":"Urbano","sup_m2":849078.3},"geometry":{"type":"Polygon","coordinates":[[[-58.495957,-34.37671],[-58.497367,-34.375394],[-58.497972,-34.374447],[-58.498479,-34.373783],[-58.498841,-34.373339],[-58.499666,-34.37227],[-58.500844,-34.370766],[-58.501694,-34.369972],[-58.502583,-34.368736],[-58.49449,-34.365682],[-58.490767,-34.370599],[-58.489626,-34.375412],[-58.495957,-34.37671]]]}},{"type":"Feature","properties":{"partida":"357019539","cca":"357000100000000000000066400A00000000057000","tipo":"Rural","sup_m2":156761.4},"geometry":{"type":"Polygon","coordinates":[[[-58.487852,-34.375116],[-58.487898,-34.375499],[-58.488244,-34.37725],[-58.488798,-34.377613],[-58.489526,-34.377668],[-58.490601,-34.378224],[-58.492364,-34.378324],[-58.493489,-34.378152],[-58.494865,-34.377518],[-58.495957,-34.37671],[-58.489626,-34.375412],[-58.488181,-34.375179],[-58.487852,-34.375116]]]}},{"type":"Feature","properties":{"partida":null,"cca":"357000100000000000000066400B0000000000100T","tipo":null,"sup_m2":1928.9},"geometry":{"type":"Polygon","coordinates":[[[-58.507653,-34.361564],[-58.50867,-34.361782],[-58.508719,-34.361607],[-58.507707,-34.36139],[-58.507653,-34.361564]]]}},{"type":"Feature","properties":{"partida":null,"cca":"357000100000000000000066400B0000000000100U","tipo":null,"sup_m2":1937.5},"geometry":{"type":"Polygon","coordinates":[[[-58.507653,-34.361564],[-58.507598,-34.361739],[-58.50862,-34.361958],[-58.50867,-34.361782],[-58.507653,-34.361564]]]}},{"type":"Feature","properties":{"partida":null,"cca":"357000100000000000000066400B0000000000100V","tipo":null,"sup_m2":1946.4},"geometry":{"type":"Polygon","coordinates":[[[-58.507544,-34.361913],[-58.50857,-34.362133],[-58.50862,-34.361958],[-58.507598,-34.361739],[-58.507544,-34.361913]]]}},{"type":"Feature","properties":{"partida":null,"cca":"357000100000000000000066400B0000000000100W","tipo":null,"sup_m2":1955.0},"geometry":{"type":"Polygon","coordinates":[[[-58.507544,-34.361913],[-58.507489,-34.362088],[-58.50852,-34.362309],[-58.50857,-34.362133],[-58.507544,-34.361913]]]}},{"type":"Feature","properties":{"partida":"357018104","cca":"357000100000000000000066400B0000000000100X","tipo":"Urbano","sup_m2":1960.1},"geometry":{"type":"Polygon","coordinates":[[[-58.507435,-34.362262],[-58.508304,-34.362461],[-58.508493,-34.362405],[-58.50852,-34.362309],[-58.507489,-34.362088],[-58.507435,-34.362262]]]}},{"type":"Feature","properties":{"partida":"357018105","cca":"357000100000000000000066400B0000000000100Y","tipo":"Urbano","sup_m2":2405.2},"geometry":{"type":"Polygon","coordinates":[[[-58.507435,-34.362262],[-58.507277,-34.362768],[-58.508304,-34.362461],[-58.507435,-34.362262]]]}},{"type":"Feature","properties":{"partida":"357000090","cca":"357000100000000000000066400B0000000000200A","tipo":"Rural","sup_m2":48918.9},"geometry":{"type":"Polygon","coordinates":[[[-58.50759,-34.363415],[-58.506339,-34.365715],[-58.507639,-34.366197],[-58.509325,-34.362409],[-58.507184,-34.363065],[-58.507095,-34.363229],[-58.50759,-34.363415]]]}},{"type":"Feature","properties":{"partida":"357000091","cca":"357000100000000000000066400B0000000000200B","tipo":"Urbano","sup_m2":1000.0},"geometry":{"type":"Polygon","coordinates":[[[-58.507005,-34.363394],[-58.507501,-34.363579],[-58.50759,-34.363415],[-58.507095,-34.363229],[-58.507005,-34.363394]]]}},{"type":"Feature","properties":{"partida":"357000092","cca":"357000100000000000000066400B0000000000200C","tipo":"Urbano","sup_m2":1000.0},"geometry":{"type":"Polygon","coordinates":[[[-58.507411,-34.363743],[-58.507501,-34.363579],[-58.507005,-34.363394],[-58.506916,-34.363558],[-58.507411,-34.363743]]]}},{"type":"Feature","properties":{"partida":"357000093","cca":"357000100000000000000066400B0000000000200D","tipo":"Urbano","sup_m2":1000.0},"geometry":{"type":"Polygon","coordinates":[[[-58.507322,-34.363907],[-58.507411,-34.363743],[-58.506916,-34.363558],[-58.506827,-34.363722],[-58.507322,-34.363907]]]}},{"type":"Feature","properties":{"partida":"357000094","cca":"357000100000000000000066400B0000000000200E","tipo":"Urbano","sup_m2":999.6},"geometry":{"type":"Polygon","coordinates":[[[-58.507233,-34.364072],[-58.507322,-34.363907],[-58.506827,-34.363722],[-58.506737,-34.363886],[-58.507233,-34.364072]]]}},{"type":"Feature","properties":{"partida":"357000095","cca":"357000100000000000000066400B0000000000200F","tipo":"Urbano","sup_m2":1000.0},"geometry":{"type":"Polygon","coordinates":[[[-58.507143,-34.364236],[-58.507233,-34.364072],[-58.506737,-34.363886],[-58.506648,-34.364051],[-58.507143,-34.364236]]]}},{"type":"Feature","properties":{"partida":"357000096","cca":"357000100000000000000066400B0000000000200G","tipo":"Urbano","sup_m2":1000.0},"geometry":{"type":"Polygon","coordinates":[[[-58.507054,-34.3644],[-58.507143,-34.364236],[-58.506648,-34.364051],[-58.506558,-34.364215],[-58.507054,-34.3644]]]}},{"type":"Feature","properties":{"partida":"357000073","cca":"357000100000000000000066400B0000000000200H","tipo":"Urbano","sup_m2":1000.0},"geometry":{"type":"Polygon","coordinates":[[[-58.506964,-34.364565],[-58.507054,-34.3644],[-58.506558,-34.364215],[-58.506469,-34.364379],[-58.506964,-34.364565]]]}},{"type":"Feature","properties":{"partida":"357000034","cca":"357000100000000000000066400B0000000000200K","tipo":"Urbano","sup_m2":1000.0},"geometry":{"type":"Polygon","coordinates":[[[-58.506875,-34.364729],[-58.506964,-34.364565],[-58.506469,-34.364379],[-58.50638,-34.364544],[-58.506875,-34.364729]]]}},{"type":"Feature","properties":{"partida":"357000036","cca":"357000100000000000000066400B0000000000200M","tipo":"Urbano","sup_m2":1000.0},"geometry":{"type":"Polygon","coordinates":[[[-58.506786,-34.364893],[-58.506875,-34.364729],[-58.50638,-34.364544],[-58.50629,-34.364708],[-58.506786,-34.364893]]]}},{"type":"Feature","properties":{"partida":"357000037","cca":"357000100000000000000066400B0000000000200N","tipo":"Urbano","sup_m2":1000.0},"geometry":{"type":"Polygon","coordinates":[[[-58.506696,-34.365058],[-58.506786,-34.364893],[-58.50629,-34.364708],[-58.506201,-34.364872],[-58.506696,-34.365058]]]}},{"type":"Feature","properties":{"partida":"357000041","cca":"357000100000000000000066400B0000000000200P","tipo":"Urbano","sup_m2":1000.0},"geometry":{"type":"Polygon","coordinates":[[[-58.506607,-34.365222],[-58.506696,-34.365058],[-58.506201,-34.364872],[-58.506111,-34.365037],[-58.506607,-34.365222]]]}},{"type":"Feature","properties":{"partida":"357000039","cca":"357000100000000000000066400B0000000000200Q","tipo":"Urbano","sup_m2":1000.0},"geometry":{"type":"Polygon","coordinates":[[[-58.506517,-34.365386],[-58.506607,-34.365222],[-58.506111,-34.365037],[-58.506022,-34.365201],[-58.506517,-34.365386]]]}},{"type":"Feature","properties":{"partida":"357000080","cca":"357000100000000000000066400B0000000000200R","tipo":"Urbano","sup_m2":1000.0},"geometry":{"type":"Polygon","coordinates":[[[-58.506428,-34.36555],[-58.506517,-34.365386],[-58.506022,-34.365201],[-58.505933,-34.365365],[-58.506428,-34.36555]]]}},{"type":"Feature","properties":{"partida":"357000081","cca":"357000100000000000000066400B0000000000200S","tipo":"Urbano","sup_m2":1000.0},"geometry":{"type":"Polygon","coordinates":[[[-58.505843,-34.365529],[-58.506339,-34.365715],[-58.506428,-34.36555],[-58.505933,-34.365365],[-58.505843,-34.365529]]]}},{"type":"Feature","properties":{"partida":"357014838","cca":"357000100000000000000066400B0000000000200T","tipo":"Rural","sup_m2":40484.8},"geometry":{"type":"Polygon","coordinates":[[[-58.507639,-34.366197],[-58.505843,-34.365529],[-58.5056,-34.365977],[-58.506095,-34.366163],[-58.505501,-34.367254],[-58.505114,-34.367821],[-58.506604,-34.368522],[-58.507639,-34.366197]]]}},{"type":"Feature","properties":{"partida":"357000082","cca":"357000100000000000000066400B0000000000200U","tipo":"Urbano","sup_m2":1000.0},"geometry":{"type":"Polygon","coordinates":[[[-58.50551,-34.366141],[-58.506006,-34.366327],[-58.506095,-34.366163],[-58.5056,-34.365977],[-58.50551,-34.366141]]]}},{"type":"Feature","properties":{"partida":"357000038","cca":"357000100000000000000066400B0000000000200V","tipo":"Urbano","sup_m2":1000.0},"geometry":{"type":"Polygon","coordinates":[[[-58.505916,-34.366491],[-58.506006,-34.366327],[-58.50551,-34.366141],[-58.505421,-34.366306],[-58.505916,-34.366491]]]}},{"type":"Feature","properties":{"partida":"357000040","cca":"357000100000000000000066400B0000000000200W","tipo":"Urbano","sup_m2":1000.0},"geometry":{"type":"Polygon","coordinates":[[[-58.505827,-34.366655],[-58.505916,-34.366491],[-58.505421,-34.366306],[-58.505332,-34.36647],[-58.505827,-34.366655]]]}},{"type":"Feature","properties":{"partida":"357000097","cca":"357000100000000000000066400B0000000000200X","tipo":"Urbano","sup_m2":1000.0},"geometry":{"type":"Polygon","coordinates":[[[-58.505737,-34.36682],[-58.505827,-34.366655],[-58.505332,-34.36647],[-58.505242,-34.366634],[-58.505737,-34.36682]]]}},{"type":"Feature","properties":{"partida":"357000032","cca":"357000100000000000000066400B0000000000200Y","tipo":"Urbano","sup_m2":999.8},"geometry":{"type":"Polygon","coordinates":[[[-58.505648,-34.366984],[-58.505737,-34.36682],[-58.505242,-34.366634],[-58.505153,-34.366799],[-58.505648,-34.366984]]]}},{"type":"Feature","properties":{"partida":"357000075","cca":"357000100000000000000066400B0000000000200Z","tipo":"Urbano","sup_m2":1000.0},"geometry":{"type":"Polygon","coordinates":[[[-58.505063,-34.366963],[-58.505559,-34.367148],[-58.505648,-34.366984],[-58.505153,-34.366799],[-58.505063,-34.366963]]]}},{"type":"Feature","properties":{"partida":"357000076","cca":"357000100000000000000066400B000000000020AA","tipo":"Urbano","sup_m2":1140.7},"geometry":{"type":"Polygon","coordinates":[[[-58.505436,-34.36735],[-58.505501,-34.367254],[-58.505559,-34.367148],[-58.505063,-34.366963],[-58.505019,-34.367045],[-58.504964,-34.367128],[-58.505436,-34.36735]]]}},{"type":"Feature","properties":{"partida":"357000030","cca":"357000100000000000000066400B000000000020BB","tipo":"Urbano","sup_m2":998.7},"geometry":{"type":"Polygon","coordinates":[[[-58.505328,-34.367507],[-58.505436,-34.36735],[-58.504964,-34.367128],[-58.504856,-34.367285],[-58.505328,-34.367507]]]}},{"type":"Feature","properties":{"partida":"357000031","cca":"357000100000000000000066400B000000000020CC","tipo":"Urbano","sup_m2":999.3},"geometry":{"type":"Polygon","coordinates":[[[-58.504856,-34.367285],[-58.504749,-34.367442],[-58.505221,-34.367664],[-58.505328,-34.367507],[-58.504856,-34.367285]]]}},{"type":"Feature","properties":{"partida":"357000070","cca":"357000100000000000000066400B000000000020DD","tipo":"Urbano","sup_m2":999.7},"geometry":{"type":"Polygon","coordinates":[[[-58.505221,-34.367664],[-58.504749,-34.367442],[-58.504642,-34.367598],[-58.505114,-34.367821],[-58.505221,-34.367664]]]}},{"type":"Feature","properties":{"partida":"357000071","cca":"357000100000000000000066400B000000000020EE","tipo":"Urbano","sup_m2":1001.7},"geometry":{"type":"Polygon","coordinates":[[[-58.505007,-34.367978],[-58.505114,-34.367821],[-58.504642,-34.367598],[-58.504534,-34.367756],[-58.505007,-34.367978]]]}},{"type":"Feature","properties":{"partida":"357000074","cca":"357000100000000000000066400B000000000020FF","tipo":"Urbano","sup_m2":999.7},"geometry":{"type":"Polygon","coordinates":[[[-58.5049,-34.368135],[-58.505007,-34.367978],[-58.504534,-34.367756],[-58.504427,-34.367913],[-58.5049,-34.368135]]]}},{"type":"Feature","properties":{"partida":"357000072","cca":"357000100000000000000066400B000000000020GG","tipo":"Urbano","sup_m2":1000.1},"geometry":{"type":"Polygon","coordinates":[[[-58.504793,-34.368291],[-58.5049,-34.368135],[-58.504427,-34.367913],[-58.50432,-34.368069],[-58.504793,-34.368291]]]}},{"type":"Feature","properties":{"partida":"357000077","cca":"357000100000000000000066400B000000000020HH","tipo":"Urbano","sup_m2":999.7},"geometry":{"type":"Polygon","coordinates":[[[-58.504686,-34.368448],[-58.504793,-34.368291],[-58.50432,-34.368069],[-58.504213,-34.368226],[-58.504686,-34.368448]]]}},{"type":"Feature","properties":{"partida":"357000078","cca":"357000100000000000000066400B000000000020KK","tipo":"Urbano","sup_m2":1000.2},"geometry":{"type":"Polygon","coordinates":[[[-58.504579,-34.368605],[-58.504686,-34.368448],[-58.504213,-34.368226],[-58.504106,-34.368383],[-58.504579,-34.368605]]]}},{"type":"Feature","properties":{"partida":"357000079","cca":"357000100000000000000066400B000000000020MM","tipo":"Urbano","sup_m2":1000.2},"geometry":{"type":"Polygon","coordinates":[[[-58.504472,-34.368762],[-58.504579,-34.368605],[-58.504106,-34.368383],[-58.503999,-34.36854],[-58.504472,-34.368762]]]}},{"type":"Feature","properties":{"partida":"357000033","cca":"357000100000000000000066400B000000000020NN","tipo":"Urbano","sup_m2":1000.0},"geometry":{"type":"Polygon","coordinates":[[[-58.504365,-34.368919],[-58.504472,-34.368762],[-58.503999,-34.36854],[-58.503892,-34.368697],[-58.504365,-34.368919]]]}},{"type":"Feature","properties":{"partida":"357000035","cca":"357000100000000000000066400B000000000020PP","tipo":"Urbano","sup_m2":1000.0},"geometry":{"type":"Polygon","coordinates":[[[-58.504258,-34.369076],[-58.504365,-34.368919],[-58.503892,-34.368697],[-58.503785,-34.368854],[-58.504258,-34.369076]]]}},{"type":"Feature","properties":{"partida":"357014840","cca":"357000100000000000000066400B000000000020QQ","tipo":"Urbano","sup_m2":999.7},"geometry":{"type":"Polygon","coordinates":[[[-58.504151,-34.369233],[-58.504258,-34.369076],[-58.503785,-34.368854],[-58.503678,-34.369011],[-58.504151,-34.369233]]]}},{"type":"Feature","properties":{"partida":"357000111","cca":"357000100000000000000066400B000000000020RR","tipo":"Urbano","sup_m2":1000.2},"geometry":{"type":"Polygon","coordinates":[[[-58.504043,-34.369389],[-58.504151,-34.369233],[-58.503678,-34.369011],[-58.503571,-34.369167],[-58.504043,-34.369389]]]}},{"type":"Feature","properties":{"partida":"357000195","cca":"357000100000000000000066400B000000000020SS","tipo":"Urbano","sup_m2":1000.0},"geometry":{"type":"Polygon","coordinates":[[[-58.503936,-34.369546],[-58.504043,-34.369389],[-58.503571,-34.369167],[-58.503463,-34.369324],[-58.503936,-34.369546]]]}},{"type":"Feature","properties":{"partida":"357000113","cca":"357000100000000000000066400B000000000020TT","tipo":"Urbano","sup_m2":1000.2},"geometry":{"type":"Polygon","coordinates":[[[-58.503463,-34.369324],[-58.503356,-34.369481],[-58.503829,-34.369703],[-58.503936,-34.369546],[-58.503463,-34.369324]]]}},{"type":"Feature","properties":{"partida":"357000110","cca":"357000100000000000000066400B000000000020UU","tipo":"Urbano","sup_m2":47401.1},"geometry":{"type":"Polygon","coordinates":[[[-58.505114,-34.367821],[-58.503829,-34.369703],[-58.503356,-34.369481],[-58.503249,-34.369638],[-58.505615,-34.370744],[-58.506604,-34.368522],[-58.505114,-34.367821]]]}},{"type":"Feature","properties":{"partida":"357014841","cca":"357000100000000000000066400B0000000000400A","tipo":"Urbano","sup_m2":30691.7},"geometry":{"type":"Polygon","coordinates":[[[-58.503249,-34.369638],[-58.502718,-34.370424],[-58.505531,-34.37179],[-58.506082,-34.37098],[-58.505615,-34.370744],[-58.503249,-34.369638]]]}},{"type":"Feature","properties":{"partida":"357019255","cca":"357000100000000000000066400B0000000000400B","tipo":"Urbano","sup_m2":29987.3},"geometry":{"type":"Polygon","coordinates":[[[-58.502718,-34.370424],[-58.502186,-34.37121],[-58.504999,-34.372576],[-58.505531,-34.37179],[-58.502718,-34.370424]]]}},{"type":"Feature","properties":{"partida":"357019256","cca":"357000100000000000000066400B0000000000400C","tipo":"Urbano","sup_m2":30264.0},"geometry":{"type":"Polygon","coordinates":[[[-58.504999,-34.372576],[-58.502186,-34.37121],[-58.501657,-34.371998],[-58.504442,-34.373375],[-58.504999,-34.372576]]]}},{"type":"Feature","properties":{"partida":"357019258","cca":"357000100000000000000066400B0000000000400E","tipo":"Rural","sup_m2":30587.8},"geometry":{"type":"Polygon","coordinates":[[[-58.500495,-34.37352],[-58.503309,-34.374963],[-58.503889,-34.374176],[-58.501098,-34.372771],[-58.500495,-34.37352]]]}},{"type":"Feature","properties":{"partida":"357019257","cca":"357000100000000000000066400B0000000000400F","tipo":"Urbano","sup_m2":15092.0},"geometry":{"type":"Polygon","coordinates":[[[-58.501385,-34.372388],[-58.504163,-34.373774],[-58.504442,-34.373375],[-58.501657,-34.371998],[-58.501385,-34.372388]]]}},{"type":"Feature","properties":{"partida":"357019295","cca":"357000100000000000000066400B0000000000400G","tipo":"Rural","sup_m2":15144.7},"geometry":{"type":"Polygon","coordinates":[[[-58.504163,-34.373774],[-58.501385,-34.372388],[-58.501098,-34.372771],[-58.503889,-34.374176],[-58.504163,-34.373774]]]}},{"type":"Feature","properties":{"partida":"357014842","cca":"357000100000000000000066400B0000000000500A","tipo":"Rural","sup_m2":139145.6},"geometry":{"type":"Polygon","coordinates":[[[-58.496758,-34.378891],[-58.497155,-34.378461],[-58.498515,-34.379326],[-58.499486,-34.378437],[-58.503309,-34.374963],[-58.501051,-34.373806],[-58.49691,-34.378283],[-58.496648,-34.37857],[-58.4965,-34.378726],[-58.496758,-34.378891]]]}},{"type":"Feature","properties":{"partida":"357018682","cca":"357000100000000000000066400B00000000069000","tipo":"Rural","sup_m2":418961.5},"geometry":{"type":"Polygon","coordinates":[[[-58.510522,-34.373258],[-58.512117,-34.367386],[-58.510977,-34.364443],[-58.511291,-34.361834],[-58.51066,-34.362],[-58.509325,-34.362409],[-58.505615,-34.370744],[-58.506082,-34.37098],[-58.510522,-34.373258]]]}},{"type":"Feature","properties":{"partida":"357018106","cca":"357000100000000000000066400B00000000070000","tipo":"Urbano","sup_m2":1514.8},"geometry":{"type":"Polygon","coordinates":[[[-58.510615,-34.361728],[-58.51066,-34.362],[-58.511291,-34.361834],[-58.511261,-34.361655],[-58.510615,-34.361728]]]}},{"type":"Feature","properties":{"partida":"357018107","cca":"357000100000000000000066400B00000000071000","tipo":"Urbano","sup_m2":1200.0},"geometry":{"type":"Polygon","coordinates":[[[-58.511261,-34.361655],[-58.511232,-34.361477],[-58.510586,-34.361549],[-58.510615,-34.361728],[-58.511261,-34.361655]]]}},{"type":"Feature","properties":{"partida":"357018401","cca":"357000100000000000000066400B00000000100000","tipo":"Urbano","sup_m2":1379.7},"geometry":{"type":"Polygon","coordinates":[[[-58.500495,-34.37352],[-58.500363,-34.373663],[-58.50088,-34.373993],[-58.501051,-34.373806],[-58.500495,-34.37352]]]}},{"type":"Feature","properties":{"partida":"357018402","cca":"357000100000000000000066400B00000000101000","tipo":"Urbano","sup_m2":1200.2},"geometry":{"type":"Polygon","coordinates":[[[-58.500363,-34.373663],[-58.500231,-34.373806],[-58.500748,-34.374136],[-58.50088,-34.373993],[-58.500363,-34.373663]]]}},{"type":"Feature","properties":{"partida":"357018403","cca":"357000100000000000000066400B00000000102000","tipo":"Urbano","sup_m2":1199.7},"geometry":{"type":"Polygon","coordinates":[[[-58.500748,-34.374136],[-58.500231,-34.373806],[-58.500098,-34.373949],[-58.500616,-34.374279],[-58.500748,-34.374136]]]}},{"type":"Feature","properties":{"partida":"357018404","cca":"357000100000000000000066400B00000000103000","tipo":"Urbano","sup_m2":1200.2},"geometry":{"type":"Polygon","coordinates":[[[-58.500616,-34.374279],[-58.500098,-34.373949],[-58.499966,-34.374092],[-58.500483,-34.374422],[-58.500616,-34.374279]]]}},{"type":"Feature","properties":{"partida":"357018405","cca":"357000100000000000000066400B00000000104000","tipo":"Urbano","sup_m2":1199.7},"geometry":{"type":"Polygon","coordinates":[[[-58.500483,-34.374422],[-58.499966,-34.374092],[-58.499834,-34.374235],[-58.500351,-34.374565],[-58.500483,-34.374422]]]}},{"type":"Feature","properties":{"partida":"357018406","cca":"357000100000000000000066400B00000000105000","tipo":"Urbano","sup_m2":1200.2},"geometry":{"type":"Polygon","coordinates":[[[-58.500351,-34.374565],[-58.499834,-34.374235],[-58.499701,-34.374378],[-58.500219,-34.374708],[-58.500351,-34.374565]]]}},{"type":"Feature","properties":{"partida":"357018407","cca":"357000100000000000000066400B00000000106000","tipo":"Urbano","sup_m2":1199.7},"geometry":{"type":"Polygon","coordinates":[[[-58.499701,-34.374378],[-58.499569,-34.374521],[-58.500086,-34.374851],[-58.500219,-34.374708],[-58.499701,-34.374378]]]}},{"type":"Feature","properties":{"partida":"357018408","cca":"357000100000000000000066400B00000000107000","tipo":"Urbano","sup_m2":1200.2},"geometry":{"type":"Polygon","coordinates":[[[-58.500086,-34.374851],[-58.499569,-34.374521],[-58.499436,-34.374664],[-58.499954,-34.374994],[-58.500086,-34.374851]]]}},{"type":"Feature","properties":{"partida":"357018409","cca":"357000100000000000000066400B00000000108000","tipo":"Urbano","sup_m2":1199.7},"geometry":{"type":"Polygon","coordinates":[[[-58.499954,-34.374994],[-58.499436,-34.374664],[-58.499304,-34.374807],[-58.499821,-34.375137],[-58.499954,-34.374994]]]}},{"type":"Feature","properties":{"partida":"357018410","cca":"357000100000000000000066400B00000000109000","tipo":"Urbano","sup_m2":1200.1},"geometry":{"type":"Polygon","coordinates":[[[-58.499304,-34.374807],[-58.499172,-34.37495],[-58.499689,-34.37528],[-58.499821,-34.375137],[-58.499304,-34.374807]]]}},{"type":"Feature","properties":{"partida":"357018411","cca":"357000100000000000000066400B00000000110000","tipo":"Urbano","sup_m2":1199.9},"geometry":{"type":"Polygon","coordinates":[[[-58.499172,-34.37495],[-58.499039,-34.375093],[-58.499557,-34.375423],[-58.499689,-34.37528],[-58.499172,-34.37495]]]}},{"type":"Feature","properties":{"partida":"357018412","cca":"357000100000000000000066400B00000000111000","tipo":"Urbano","sup_m2":1200.3},"geometry":{"type":"Polygon","coordinates":[[[-58.499039,-34.375093],[-58.498907,-34.375236],[-58.499425,-34.375566],[-58.499557,-34.375423],[-58.499039,-34.375093]]]}},{"type":"Feature","properties":{"partida":"357018413","cca":"357000100000000000000066400B00000000112000","tipo":"Urbano","sup_m2":1200.0},"geometry":{"type":"Polygon","coordinates":[[[-58.499292,-34.375709],[-58.499425,-34.375566],[-58.498907,-34.375236],[-58.498775,-34.375379],[-58.499292,-34.375709]]]}},{"type":"Feature","properties":{"partida":"357018414","cca":"357000100000000000000066400B00000000113000","tipo":"Urbano","sup_m2":1200.0},"geometry":{"type":"Polygon","coordinates":[[[-58.498642,-34.375522],[-58.49916,-34.375852],[-58.499292,-34.375709],[-58.498775,-34.375379],[-58.498642,-34.375522]]]}},{"type":"Feature","properties":{"partida":"357018415","cca":"357000100000000000000066400B00000000114000","tipo":"Urbano","sup_m2":1200.0},"geometry":{"type":"Polygon","coordinates":[[[-58.498642,-34.375522],[-58.49851,-34.375665],[-58.499027,-34.375995],[-58.49916,-34.375852],[-58.498642,-34.375522]]]}},{"type":"Feature","properties":{"partida":"357018416","cca":"357000100000000000000066400B00000000115000","tipo":"Urbano","sup_m2":1200.0},"geometry":{"type":"Polygon","coordinates":[[[-58.49851,-34.375665],[-58.498378,-34.375808],[-58.498895,-34.376138],[-58.499027,-34.375995],[-58.49851,-34.375665]]]}},{"type":"Feature","properties":{"partida":"357018417","cca":"357000100000000000000066400B00000000116000","tipo":"Urbano","sup_m2":1200.0},"geometry":{"type":"Polygon","coordinates":[[[-58.498378,-34.375808],[-58.498245,-34.375951],[-58.498763,-34.376281],[-58.498895,-34.376138],[-58.498378,-34.375808]]]}},{"type":"Feature","properties":{"partida":"357018418","cca":"357000100000000000000066400B00000000117000","tipo":"Urbano","sup_m2":1200.0},"geometry":{"type":"Polygon","coordinates":[[[-58.498113,-34.376094],[-58.49863,-34.376424],[-58.498763,-34.376281],[-58.498245,-34.375951],[-58.498113,-34.376094]]]}},{"type":"Feature","properties":{"partida":"357018419","cca":"357000100000000000000066400B00000000118000","tipo":"Urbano","sup_m2":1200.0},"geometry":{"type":"Polygon","coordinates":[[[-58.498113,-34.376094],[-58.497981,-34.376237],[-58.498498,-34.376567],[-58.49863,-34.376424],[-58.498113,-34.376094]]]}},{"type":"Feature","properties":{"partida":"357018420","cca":"357000100000000000000066400B00000000119000","tipo":"Urbano","sup_m2":1200.0},"geometry":{"type":"Polygon","coordinates":[[[-58.497981,-34.376237],[-58.497848,-34.37638],[-58.498366,-34.37671],[-58.498498,-34.376567],[-58.497981,-34.376237]]]}},{"type":"Feature","properties":{"partida":"357018421","cca":"357000100000000000000066400B00000000120000","tipo":"Urbano","sup_m2":1200.0},"geometry":{"type":"Polygon","coordinates":[[[-58.498366,-34.37671],[-58.497848,-34.37638],[-58.497716,-34.376523],[-58.498233,-34.376853],[-58.498366,-34.37671]]]}},{"type":"Feature","properties":{"partida":"357018422","cca":"357000100000000000000066400B00000000121000","tipo":"Urbano","sup_m2":1200.0},"geometry":{"type":"Polygon","coordinates":[[[-58.497716,-34.376523],[-58.497584,-34.376666],[-58.498101,-34.376996],[-58.498233,-34.376853],[-58.497716,-34.376523]]]}},{"type":"Feature","properties":{"partida":"357018423","cca":"357000100000000000000066400B00000000122000","tipo":"Urbano","sup_m2":1200.1},"geometry":{"type":"Polygon","coordinates":[[[-58.497969,-34.377139],[-58.498101,-34.376996],[-58.497584,-34.376666],[-58.497451,-34.376809],[-58.497969,-34.377139]]]}},{"type":"Feature","properties":{"partida":"357018424","cca":"357000100000000000000066400B00000000123000","tipo":"Urbano","sup_m2":1199.7},"geometry":{"type":"Polygon","coordinates":[[[-58.497319,-34.376952],[-58.497836,-34.377282],[-58.497969,-34.377139],[-58.497451,-34.376809],[-58.497319,-34.376952]]]}},{"type":"Feature","properties":{"partida":"357018425","cca":"357000100000000000000066400B00000000124000","tipo":"Urbano","sup_m2":1200.2},"geometry":{"type":"Polygon","coordinates":[[[-58.497319,-34.376952],[-58.497187,-34.377095],[-58.497704,-34.377425],[-58.497836,-34.377282],[-58.497319,-34.376952]]]}},{"type":"Feature","properties":{"partida":"357018426","cca":"357000100000000000000066400B00000000125000","tipo":"Urbano","sup_m2":1199.7},"geometry":{"type":"Polygon","coordinates":[[[-58.497187,-34.377095],[-58.497054,-34.377238],[-58.497572,-34.377568],[-58.497704,-34.377425],[-58.497187,-34.377095]]]}},{"type":"Feature","properties":{"partida":"357018427","cca":"357000100000000000000066400B00000000126000","tipo":"Urbano","sup_m2":1200.2},"geometry":{"type":"Polygon","coordinates":[[[-58.497054,-34.377238],[-58.496922,-34.377381],[-58.497439,-34.377711],[-58.497572,-34.377568],[-58.497054,-34.377238]]]}},{"type":"Feature","properties":{"partida":"357018428","cca":"357000100000000000000066400B00000000127000","tipo":"Urbano","sup_m2":1199.7},"geometry":{"type":"Polygon","coordinates":[[[-58.496922,-34.377381],[-58.49679,-34.377524],[-58.497307,-34.377854],[-58.497439,-34.377711],[-58.496922,-34.377381]]]}},{"type":"Feature","properties":{"partida":"357018429","cca":"357000100000000000000066400B00000000128000","tipo":"Urbano","sup_m2":1200.2},"geometry":{"type":"Polygon","coordinates":[[[-58.49679,-34.377524],[-58.496657,-34.377667],[-58.497175,-34.377997],[-58.497307,-34.377854],[-58.49679,-34.377524]]]}},{"type":"Feature","properties":{"partida":"357018430","cca":"357000100000000000000066400B00000000129000","tipo":"Urbano","sup_m2":1199.7},"geometry":{"type":"Polygon","coordinates":[[[-58.497042,-34.37814],[-58.497175,-34.377997],[-58.496657,-34.377667],[-58.496525,-34.37781],[-58.497042,-34.37814]]]}},{"type":"Feature","properties":{"partida":"357018431","cca":"357000100000000000000066400B00000000130000","tipo":"Urbano","sup_m2":1200.2},"geometry":{"type":"Polygon","coordinates":[[[-58.496392,-34.377953],[-58.49691,-34.378283],[-58.497042,-34.37814],[-58.496525,-34.37781],[-58.496392,-34.377953]]]}},{"type":"Feature","properties":{"partida":"357018432","cca":"357000100000000000000066400B00000000131000","tipo":"Urbano","sup_m2":1198.0},"geometry":{"type":"Polygon","coordinates":[[[-58.49626,-34.378096],[-58.496778,-34.378425],[-58.49691,-34.378283],[-58.496392,-34.377953],[-58.49626,-34.378096]]]}},{"type":"Feature","properties":{"partida":"357018433","cca":"357000100000000000000066400B00000000132000","tipo":"Urbano","sup_m2":1204.1},"geometry":{"type":"Polygon","coordinates":[[[-58.496128,-34.378239],[-58.496648,-34.37857],[-58.496778,-34.378425],[-58.49626,-34.378096],[-58.496128,-34.378239]]]}},{"type":"Feature","properties":{"partida":"357018434","cca":"357000100000000000000066400B00000000133000","tipo":"Urbano","sup_m2":1203.1},"geometry":{"type":"Polygon","coordinates":[[[-58.496128,-34.378239],[-58.495995,-34.378382],[-58.496513,-34.378712],[-58.496648,-34.37857],[-58.496128,-34.378239]]]}},{"type":"Feature","properties":{"partida":"357018435","cca":"357000100000000000000066400B00000000134000","tipo":"Urbano","sup_m2":1619.9},"geometry":{"type":"Polygon","coordinates":[[[-58.496334,-34.378905],[-58.496513,-34.378712],[-58.495995,-34.378382],[-58.495817,-34.378575],[-58.496334,-34.378905]]]}},{"type":"Feature","properties":{"partida":"357018436","cca":"357000100000000000000066400B00000000135000","tipo":"Urbano","sup_m2":1199.9},"geometry":{"type":"Polygon","coordinates":[[[-58.496758,-34.378891],[-58.496931,-34.379],[-58.497328,-34.378571],[-58.497155,-34.378461],[-58.496758,-34.378891]]]}},{"type":"Feature","properties":{"partida":"357018437","cca":"357000100000000000000066400B00000000136000","tipo":"Urbano","sup_m2":1200.1},"geometry":{"type":"Polygon","coordinates":[[[-58.496931,-34.379],[-58.497103,-34.37911],[-58.4975,-34.378681],[-58.497328,-34.378571],[-58.496931,-34.379]]]}},{"type":"Feature","properties":{"partida":"357018438","cca":"357000100000000000000066400B00000000137000","tipo":"Urbano","sup_m2":1199.7},"geometry":{"type":"Polygon","coordinates":[[[-58.4975,-34.378681],[-58.497103,-34.37911],[-58.497276,-34.37922],[-58.497673,-34.378791],[-58.4975,-34.378681]]]}},{"type":"Feature","properties":{"partida":"357018439","cca":"357000100000000000000066400B00000000138000","tipo":"Urbano","sup_m2":1200.2},"geometry":{"type":"Polygon","coordinates":[[[-58.497845,-34.3789],[-58.497673,-34.378791],[-58.497276,-34.37922],[-58.497448,-34.379329],[-58.497845,-34.3789]]]}},{"type":"Feature","properties":{"partida":"357018440","cca":"357000100000000000000066400B00000000139000","tipo":"Urbano","sup_m2":1199.7},"geometry":{"type":"Polygon","coordinates":[[[-58.497448,-34.379329],[-58.497621,-34.379439],[-58.498018,-34.37901],[-58.497845,-34.3789],[-58.497448,-34.379329]]]}},{"type":"Feature","properties":{"partida":"357018441","cca":"357000100000000000000066400B00000000140000","tipo":"Urbano","sup_m2":1723.1},"geometry":{"type":"Polygon","coordinates":[[[-58.497718,-34.379704],[-58.498233,-34.379147],[-58.498018,-34.37901],[-58.497621,-34.379439],[-58.497718,-34.379704]]]}},{"type":"Feature","properties":{"partida":"357018442","cca":"357000100000000000000066400B00000000141000","tipo":"Urbano","sup_m2":2608.9},"geometry":{"type":"Polygon","coordinates":[[[-58.497718,-34.379704],[-58.497827,-34.379981],[-58.498515,-34.379326],[-58.498233,-34.379147],[-58.497718,-34.379704]]]}},{"type":"Feature","properties":{"partida":"357018448","cca":"357000100000000000000066400B00000000147000","tipo":"Urbano","sup_m2":1200.0},"geometry":{"type":"Polygon","coordinates":[[[-58.496414,-34.379878],[-58.496801,-34.379443],[-58.496626,-34.379336],[-58.496239,-34.379771],[-58.496414,-34.379878]]]}},{"type":"Feature","properties":{"partida":"357018449","cca":"357000100000000000000066400B00000000148000","tipo":"Urbano","sup_m2":1200.1},"geometry":{"type":"Polygon","coordinates":[[[-58.496239,-34.379771],[-58.496626,-34.379336],[-58.496451,-34.379229],[-58.496064,-34.379664],[-58.496239,-34.379771]]]}},{"type":"Feature","properties":{"partida":"357018450","cca":"357000100000000000000066400B00000000149000","tipo":"Urbano","sup_m2":1799.6},"geometry":{"type":"Polygon","coordinates":[[[-58.496189,-34.379068],[-58.495802,-34.379503],[-58.496064,-34.379664],[-58.496451,-34.379229],[-58.496189,-34.379068]]]}},{"type":"Feature","properties":{"partida":"357018451","cca":"357000100000000000000066400B00000000150000","tipo":"Urbano","sup_m2":1200.0},"geometry":{"type":"Polygon","coordinates":[[[-58.496189,-34.379068],[-58.495664,-34.378747],[-58.495535,-34.378892],[-58.49606,-34.379213],[-58.496189,-34.379068]]]}},{"type":"Feature","properties":{"partida":"357018452","cca":"357000100000000000000066400B00000000151000","tipo":"Urbano","sup_m2":1200.1},"geometry":{"type":"Polygon","coordinates":[[[-58.495931,-34.379358],[-58.49606,-34.379213],[-58.495535,-34.378892],[-58.495406,-34.379037],[-58.495931,-34.379358]]]}},{"type":"Feature","properties":{"partida":"357018453","cca":"357000100000000000000066400B00000000152000","tipo":"Urbano","sup_m2":1199.6},"geometry":{"type":"Polygon","coordinates":[[[-58.495802,-34.379503],[-58.495931,-34.379358],[-58.495406,-34.379037],[-58.495277,-34.379182],[-58.495802,-34.379503]]]}},{"type":"Feature","properties":{"partida":"357018454","cca":"357000100000000000000066400B00000000153000","tipo":"Urbano","sup_m2":1200.0},"geometry":{"type":"Polygon","coordinates":[[[-58.495802,-34.379503],[-58.495277,-34.379182],[-58.495148,-34.379327],[-58.495673,-34.379648],[-58.495802,-34.379503]]]}},{"type":"Feature","properties":{"partida":"357018455","cca":"357000100000000000000066400B00000000154000","tipo":"Urbano","sup_m2":1199.9},"geometry":{"type":"Polygon","coordinates":[[[-58.495673,-34.379648],[-58.495148,-34.379327],[-58.495019,-34.379472],[-58.495544,-34.379793],[-58.495673,-34.379648]]]}},{"type":"Feature","properties":{"partida":"357014881","cca":"357000100000000000000066400C00000000030000","tipo":"Rural","sup_m2":86124.0},"geometry":{"type":"Polygon","coordinates":[[[-58.50946,-34.384328],[-58.510325,-34.380162],[-58.512394,-34.375456],[-58.511162,-34.374984],[-58.511051,-34.375259],[-58.509335,-34.380524],[-58.509364,-34.381854],[-58.509203,-34.382874],[-58.508988,-34.383856],[-58.508869,-34.384226],[-58.509113,-34.384271],[-58.50946,-34.384328]]]}},{"type":"Feature","properties":{"partida":"357017549","cca":"357000100000000000000066400C0000000003100A","tipo":"Rural","sup_m2":145908.2},"geometry":{"type":"Polygon","coordinates":[[[-58.509335,-34.380524],[-58.511051,-34.375259],[-58.511162,-34.374984],[-58.510503,-34.37473],[-58.508246,-34.37721],[-58.50754,-34.384014],[-58.507799,-34.384056],[-58.508663,-34.384175],[-58.508789,-34.383668],[-58.509151,-34.382169],[-58.509335,-34.380524]]]}},{"type":"Feature","properties":{"partida":"357019235","cca":"357000100000000000000066400C00000000077000","tipo":"Rural","sup_m2":465036.4},"geometry":{"type":"Polygon","coordinates":[[[-58.517278,-34.370821],[-58.511627,-34.374368],[-58.511186,-34.374925],[-58.511162,-34.374984],[-58.512394,-34.375456],[-58.510325,-34.380162],[-58.50946,-34.384328],[-58.515965,-34.385045],[-58.516232,-34.383319],[-58.51633,-34.381185],[-58.513031,-34.381148],[-58.514177,-34.375287],[-58.514528,-34.374868],[-58.517278,-34.370821]]]}},{"type":"Feature","properties":{"partida":"357018202","cca":"357000100000000000000066400E0000000001100B","tipo":"Urbano","sup_m2":7391.5},"geometry":{"type":"Polygon","coordinates":[[[-58.505004,-34.3613],[-58.504832,-34.361808],[-58.506131,-34.362065],[-58.506392,-34.361583],[-58.505004,-34.3613]]]}},{"type":"Feature","properties":{"partida":"357018205","cca":"357000100000000000000066400E00000000014000","tipo":"Urbano","sup_m2":2243.0},"geometry":{"type":"Polygon","coordinates":[[[-58.504832,-34.361808],[-58.504813,-34.361863],[-58.504847,-34.362002],[-58.506115,-34.36221],[-58.506131,-34.362065],[-58.504832,-34.361808]]]}},{"type":"Feature","properties":{"partida":"357018207","cca":"357000100000000000000066400E0000000001500A","tipo":"Urbano","sup_m2":6739.6},"geometry":{"type":"Polygon","coordinates":[[[-58.505041,-34.362817],[-58.505925,-34.362602],[-58.506017,-34.362508],[-58.50606,-34.362402],[-58.506115,-34.36221],[-58.504847,-34.362002],[-58.505041,-34.362817]]]}},{"type":"Feature","properties":{"partida":"357018304","cca":"357000100000000000000066400G00000000036000","tipo":"Urbano","sup_m2":1193.6},"geometry":{"type":"Polygon","coordinates":[[[-58.503584,-34.361465],[-58.502957,-34.361575],[-58.50304,-34.361751],[-58.503631,-34.36165],[-58.503584,-34.361465]]]}},{"type":"Feature","properties":{"partida":"357018305","cca":"357000100000000000000066400G00000000037000","tipo":"Urbano","sup_m2":1074.4},"geometry":{"type":"Polygon","coordinates":[[[-58.503631,-34.36165],[-58.50304,-34.361751],[-58.503089,-34.361922],[-58.503676,-34.361819],[-58.503631,-34.36165]]]}},{"type":"Feature","properties":{"partida":"357018306","cca":"357000100000000000000066400G00000000038000","tipo":"Urbano","sup_m2":1116.8},"geometry":{"type":"Polygon","coordinates":[[[-58.503676,-34.361819],[-58.503089,-34.361922],[-58.503134,-34.362102],[-58.50372,-34.361997],[-58.503676,-34.361819]]]}},{"type":"Feature","properties":{"partida":"357018307","cca":"357000100000000000000066400G00000000039000","tipo":"Urbano","sup_m2":1114.1},"geometry":{"type":"Polygon","coordinates":[[[-58.503765,-34.362178],[-58.50372,-34.361997],[-58.503134,-34.362102],[-58.503176,-34.362277],[-58.503765,-34.362178]]]}},{"type":"Feature","properties":{"partida":null,"cca":"357000100000000000000066400G00000000040000","tipo":null,"sup_m2":1086.6},"geometry":{"type":"Polygon","coordinates":[[[-58.503765,-34.362178],[-58.503176,-34.362277],[-58.503224,-34.362452],[-58.50381,-34.362349],[-58.503765,-34.362178]]]}},{"type":"Feature","properties":{"partida":null,"cca":"357000100000000000000066400G00000000041000","tipo":null,"sup_m2":1142.5},"geometry":{"type":"Polygon","coordinates":[[[-58.50381,-34.362349],[-58.503224,-34.362452],[-58.503271,-34.362635],[-58.503856,-34.362532],[-58.50381,-34.362349]]]}},{"type":"Feature","properties":{"partida":"357018310","cca":"357000100000000000000066400G00000000042000","tipo":"Urbano","sup_m2":1207.5},"geometry":{"type":"Polygon","coordinates":[[[-58.503856,-34.362532],[-58.503271,-34.362635],[-58.503315,-34.362809],[-58.503957,-34.362701],[-58.503915,-34.362524],[-58.503856,-34.362532]]]}},{"type":"Feature","properties":{"partida":"357018311","cca":"357000100000000000000066400G00000000043000","tipo":"Urbano","sup_m2":1200.1},"geometry":{"type":"Polygon","coordinates":[[[-58.503402,-34.362988],[-58.503999,-34.362879],[-58.503957,-34.362701],[-58.503315,-34.362809],[-58.503402,-34.362988]]]}},{"type":"Feature","properties":{"partida":"357018312","cca":"357000100000000000000066400G00000000044000","tipo":"Urbano","sup_m2":1380.8},"geometry":{"type":"Polygon","coordinates":[[[-58.504524,-34.362424],[-58.504537,-34.362226],[-58.50381,-34.362349],[-58.503856,-34.362532],[-58.504524,-34.362424]]]}},{"type":"Feature","properties":{"partida":"357018313","cca":"357000100000000000000066400G00000000045000","tipo":"Urbano","sup_m2":1377.9},"geometry":{"type":"Polygon","coordinates":[[[-58.50381,-34.362349],[-58.504537,-34.362226],[-58.504502,-34.362043],[-58.503765,-34.362178],[-58.50381,-34.362349]]]}},{"type":"Feature","properties":{"partida":"357018314","cca":"357000100000000000000066400G00000000046000","tipo":"Urbano","sup_m2":1468.5},"geometry":{"type":"Polygon","coordinates":[[[-58.503765,-34.362178],[-58.504502,-34.362043],[-58.504441,-34.36185],[-58.50372,-34.361997],[-58.503765,-34.362178]]]}},{"type":"Feature","properties":{"partida":"357018315","cca":"357000100000000000000066400G00000000047000","tipo":"Urbano","sup_m2":1256.3},"geometry":{"type":"Polygon","coordinates":[[[-58.50372,-34.361997],[-58.504441,-34.36185],[-58.504371,-34.361701],[-58.503676,-34.361819],[-58.50372,-34.361997]]]}},{"type":"Feature","properties":{"partida":"357018316","cca":"357000100000000000000066400G00000000048000","tipo":"Urbano","sup_m2":1295.8},"geometry":{"type":"Polygon","coordinates":[[[-58.503676,-34.361819],[-58.504371,-34.361701],[-58.504363,-34.361523],[-58.503631,-34.36165],[-58.503676,-34.361819]]]}}]}