{"type":"FeatureCollection","features":[{"type":"Feature","properties":{"partida":"357018443","cca":"357000100000000000000066400B00000000142000","tipo":"Rural","sup_m2":9922.2},"geometry":{"type":"Polygon","coordinates":[[[-58.497158,-34.380332],[-58.495802,-34.379503],[-58.495412,-34.379942],[-58.497017,-34.380752],[-58.49752,-34.380273],[-58.49743,-34.380027],[-58.497158,-34.380332]]]}},{"type":"Feature","properties":{"partida":"357018444","cca":"357000100000000000000066400B00000000143000","tipo":"Urbano","sup_m2":1276.9},"geometry":{"type":"Polygon","coordinates":[[[-58.496939,-34.380199],[-58.497158,-34.380332],[-58.49743,-34.380027],[-58.497326,-34.379764],[-58.496939,-34.380199]]]}},{"type":"Feature","properties":{"partida":"357018445","cca":"357000100000000000000066400B00000000144000","tipo":"Urbano","sup_m2":1200.1},"geometry":{"type":"Polygon","coordinates":[[[-58.496939,-34.380199],[-58.497326,-34.379764],[-58.497151,-34.379657],[-58.496764,-34.380092],[-58.496939,-34.380199]]]}},{"type":"Feature","properties":{"partida":"357018446","cca":"357000100000000000000066400B00000000145000","tipo":"Urbano","sup_m2":1200.0},"geometry":{"type":"Polygon","coordinates":[[[-58.496764,-34.380092],[-58.497151,-34.379657],[-58.496976,-34.37955],[-58.496589,-34.379985],[-58.496764,-34.380092]]]}},{"type":"Feature","properties":{"partida":"357018447","cca":"357000100000000000000066400B00000000146000","tipo":"Urbano","sup_m2":1200.0},"geometry":{"type":"Polygon","coordinates":[[[-58.496589,-34.379985],[-58.496976,-34.37955],[-58.496801,-34.379443],[-58.496414,-34.379878],[-58.496589,-34.379985]]]}},{"type":"Feature","properties":{"partida":"357018456","cca":"357000100000000000000066400B00000000155000","tipo":"Urbano","sup_m2":1390.8},"geometry":{"type":"Polygon","coordinates":[[[-58.495412,-34.379942],[-58.495544,-34.379793],[-58.495019,-34.379472],[-58.494852,-34.37966],[-58.495412,-34.379942]]]}},{"type":"Feature","properties":{"partida":"357018792","cca":"357000100000000000000066400B00000000156000","tipo":"Rural","sup_m2":128225.3},"geometry":{"type":"Polygon","coordinates":[[[-58.499486,-34.378437],[-58.498515,-34.379326],[-58.498049,-34.379771],[-58.498043,-34.384297],[-58.502178,-34.380404],[-58.499486,-34.378437]]]}},{"type":"Feature","properties":{"partida":"357019240","cca":"357000100000000000000066400B00000000157000","tipo":"Rural","sup_m2":457504.5},"geometry":{"type":"Polygon","coordinates":[[[-58.494852,-34.37966],[-58.491629,-34.383864],[-58.493064,-34.389191],[-58.498665,-34.388037],[-58.497557,-34.383727],[-58.497627,-34.380171],[-58.497017,-34.380752],[-58.494852,-34.37966]]]}},{"type":"Feature","properties":{"partida":"357019277","cca":"357000100000000000000066400B00000000158000","tipo":"Rural","sup_m2":600320.3},"geometry":{"type":"Polygon","coordinates":[[[-58.504297,-34.388403],[-58.501429,-34.393063],[-58.502104,-34.401454],[-58.503565,-34.40128],[-58.504475,-34.401823],[-58.505312,-34.402624],[-58.505153,-34.401781],[-58.50509,-34.401413],[-58.504888,-34.400689],[-58.504243,-34.399269],[-58.504035,-34.397464],[-58.504465,-34.395345],[-58.505162,-34.394217],[-58.505894,-34.393776],[-58.507781,-34.393293],[-58.509067,-34.392371],[-58.509863,-34.391854],[-58.511311,-34.391141],[-58.511752,-34.390807],[-58.510857,-34.389121],[-58.504297,-34.388403]]]}},{"type":"Feature","properties":{"partida":"357019279","cca":"357000100000000000000066400B00000000159000","tipo":"Rural","sup_m2":155204.8},"geometry":{"type":"Polygon","coordinates":[[[-58.504297,-34.388403],[-58.510857,-34.389121],[-58.510006,-34.387502],[-58.509397,-34.386933],[-58.508869,-34.38637],[-58.50869,-34.385364],[-58.508682,-34.3849],[-58.506249,-34.38549],[-58.504297,-34.388403]]]}},{"type":"Feature","properties":{"partida":"357019417","cca":"357000100000000000000066400B00000000160000","tipo":"Rural","sup_m2":556992.2},"geometry":{"type":"Polygon","coordinates":[[[-58.498665,-34.388037],[-58.493064,-34.389191],[-58.493102,-34.389564],[-58.493214,-34.390902],[-58.493166,-34.391753],[-58.493142,-34.392509],[-58.493065,-34.393266],[-58.492958,-34.393933],[-58.492901,-34.394749],[-58.492823,-34.395428],[-58.492974,-34.396127],[-58.493082,-34.396598],[-58.493485,-34.397757],[-58.493783,-34.398815],[-58.493778,-34.39995],[-58.494281,-34.400044],[-58.494662,-34.400096],[-58.495038,-34.40007],[-58.495325,-34.399857],[-58.495436,-34.399637],[-58.495494,-34.399403],[-58.495536,-34.399155],[-58.495654,-34.398785],[-58.495761,-34.398494],[-58.495966,-34.39812],[-58.496139,-34.397774],[-58.496396,-34.397432],[-58.496771,-34.397118],[-58.497117,-34.396913],[-58.497596,-34.396664],[-58.498453,-34.395941],[-58.498629,-34.395523],[-58.498773,-34.394419],[-58.498916,-34.393743],[-58.499137,-34.392987],[-58.49921,-34.392382],[-58.499177,-34.391932],[-58.498891,-34.390702],[-58.498665,-34.388037]]]}},{"type":"Feature","properties":{"partida":null,"cca":"357000100000000000000066400C0000000001700B","tipo":null,"sup_m2":53875.8},"geometry":{"type":"Polygon","coordinates":[[[-58.506339,-34.393876],[-58.508076,-34.394202],[-58.508146,-34.394218],[-58.512752,-34.391811],[-58.511727,-34.391181],[-58.510781,-34.391688],[-58.509685,-34.392231],[-58.508952,-34.392756],[-58.507981,-34.393463],[-58.506757,-34.393776],[-58.506339,-34.393876]]]}},{"type":"Feature","properties":{"partida":"357019280","cca":"357000100000000000000066400C0000000001700T","tipo":null,"sup_m2":138578.9},"geometry":{"type":"Polygon","coordinates":[[[-58.508926,-34.394398],[-58.508076,-34.394202],[-58.506339,-34.393876],[-58.505682,-34.394183],[-58.505343,-34.394511],[-58.504895,-34.395255],[-58.504575,-34.396258],[-58.504435,-34.397244],[-58.50442,-34.39784],[-58.506984,-34.398426],[-58.507736,-34.397062],[-58.507718,-34.397056],[-58.508209,-34.395965],[-58.508926,-34.394398]]]}},{"type":"Feature","properties":{"partida":"357018976","cca":"357000100000000000000066400C00000000076000","tipo":"Rural","sup_m2":163505.0},"geometry":{"type":"Polygon","coordinates":[[[-58.508869,-34.384226],[-58.508915,-34.384996],[-58.509026,-34.385648],[-58.509158,-34.386329],[-58.509447,-34.38667],[-58.510017,-34.387171],[-58.510294,-34.387519],[-58.514149,-34.387923],[-58.514693,-34.384905],[-58.50946,-34.384328],[-58.509113,-34.384271],[-58.508869,-34.384226]]]}}]}